<?xml version="1.0" encoding="UTF-8"?>
<gpx version="1.1" creator="h2c-tracker" xmlns="http://www.topografix.com/GPX/1/1">
  <metadata><name>Hood to Coast 2026 — Leg 26 (5.65 mi)</name><desc>Derived from the official Hood to Coast Strava route (simplified, 517 points, ~5.62 mi). Verify against the official leg map PDF.</desc></metadata>
  <wpt lat="45.995683105170016" lon="-123.33424602731054"><name>Exchange 25 — HWY 202 m.p. 41.3, Birkenfeld</name></wpt>
  <wpt lat="45.97569642800513" lon="-123.41672569622366"><name>Exchange 26 — HWY 202 (5.65 mi), Clatskanie</name></wpt>
  <trk><name>HTC Leg 26</name><trkseg>
    <trkpt lat="45.995683105170016" lon="-123.33424602731054"><ele>157.6</ele></trkpt>
    <trkpt lat="45.99555909556204" lon="-123.33431910440095"><ele>157.5</ele></trkpt>
    <trkpt lat="45.995475867637225" lon="-123.33436814942807"><ele>157.5</ele></trkpt>
    <trkpt lat="45.995351858029245" lon="-123.33444122651849"><ele>157.6</ele></trkpt>
    <trkpt lat="45.99532000000001" lon="-123.33446"><ele>157.6</ele></trkpt>
    <trkpt lat="45.995270000000005" lon="-123.33451000000001"><ele>157.6</ele></trkpt>
    <trkpt lat="45.995250000000006" lon="-123.33452000000001"><ele>157.6</ele></trkpt>
    <trkpt lat="45.99519744698223" lon="-123.33456866020165"><ele>157.7</ele></trkpt>
    <trkpt lat="45.99512181176419" lon="-123.33463869281096"><ele>157.7</ele></trkpt>
    <trkpt lat="45.99500911528931" lon="-123.3347430413988"><ele>157.9</ele></trkpt>
    <trkpt lat="45.994980000000005" lon="-123.33477"><ele>158.0</ele></trkpt>
    <trkpt lat="45.99493442773538" lon="-123.3348151232768"><ele>158.1</ele></trkpt>
    <trkpt lat="45.99467583813209" lon="-123.33507116519928"><ele>158.9</ele></trkpt>
    <trkpt lat="45.99449208391542" lon="-123.33525310902958"><ele>159.4</ele></trkpt>
    <trkpt lat="45.99438242414096" lon="-123.33536168841218"><ele>159.7</ele></trkpt>
    <trkpt lat="45.994236458089816" lon="-123.33550621637414"><ele>160.0</ele></trkpt>
    <trkpt lat="45.99405418576198" lon="-123.33568669291547"><ele>160.4</ele></trkpt>
    <trkpt lat="45.99390896065526" lon="-123.33583048723297"><ele>160.7</ele></trkpt>
    <trkpt lat="45.99365037105197" lon="-123.33608652915545"><ele>161.4</ele></trkpt>
    <trkpt lat="45.993354734227566" lon="-123.33637925330177"><ele>162.4</ele></trkpt>
    <trkpt lat="45.99295" lon="-123.33678"><ele>163.5</ele></trkpt>
    <trkpt lat="45.99287060305927" lon="-123.33684550247611"><ele>163.7</ele></trkpt>
    <trkpt lat="45.992714554067945" lon="-123.33697424289394"><ele>164.1</ele></trkpt>
    <trkpt lat="45.992559285321576" lon="-123.33710233960971"><ele>164.6</ele></trkpt>
    <trkpt lat="45.99255" lon="-123.33711000000001"><ele>164.6</ele></trkpt>
    <trkpt lat="45.99231259287606" lon="-123.33725609669166"><ele>165.3</ele></trkpt>
    <trkpt lat="45.992290000000004" lon="-123.33727"><ele>165.3</ele></trkpt>
    <trkpt lat="45.99222776714746" lon="-123.33729875586981"><ele>165.5</ele></trkpt>
    <trkpt lat="45.992056511119195" lon="-123.33737788796562"><ele>165.8</ele></trkpt>
    <trkpt lat="45.99175766934986" lon="-123.33751597347285"><ele>166.4</ele></trkpt>
    <trkpt lat="45.99150164158759" lon="-123.33763427595609"><ele>166.7</ele></trkpt>
    <trkpt lat="45.991289284112526" lon="-123.33773239975491"><ele>167.0</ele></trkpt>
    <trkpt lat="45.991161698371464" lon="-123.3377913531663"><ele>167.1</ele></trkpt>
    <trkpt lat="45.990863712882266" lon="-123.33792904301303"><ele>167.3</ele></trkpt>
    <trkpt lat="45.990840000000006" lon="-123.33794"><ele>167.3</ele></trkpt>
    <trkpt lat="45.9906108864179" lon="-123.33805300872632"><ele>167.5</ele></trkpt>
    <trkpt lat="45.99027228707742" lon="-123.33822002056317"><ele>167.8</ele></trkpt>
    <trkpt lat="45.9901038381593" lon="-123.33830310685387"><ele>168.0</ele></trkpt>
    <trkpt lat="45.98980777642441" lon="-123.3384491373042"><ele>168.4</ele></trkpt>
    <trkpt lat="45.98968101435976" lon="-123.33851166183608"><ele>168.6</ele></trkpt>
    <trkpt lat="45.98942834098257" lon="-123.33863629127212"><ele>168.8</ele></trkpt>
    <trkpt lat="45.989360000000005" lon="-123.33867000000001"><ele>168.8</ele></trkpt>
    <trkpt lat="45.989178912529056" lon="-123.33877700623285"><ele>169.0</ele></trkpt>
    <trkpt lat="45.989140000000006" lon="-123.3388"><ele>169.0</ele></trkpt>
    <trkpt lat="45.98885973798724" lon="-123.33900686005705"><ele>169.4</ele></trkpt>
    <trkpt lat="45.98874130385131" lon="-123.33909427572881"><ele>169.3</ele></trkpt>
    <trkpt lat="45.98872" lon="-123.33911"><ele>169.3</ele></trkpt>
    <trkpt lat="45.98866644060372" lon="-123.33916092532762"><ele>169.3</ele></trkpt>
    <trkpt lat="45.98855538669281" lon="-123.33926651757079"><ele>169.1</ele></trkpt>
    <trkpt lat="45.988408315297264" lon="-123.33940635594686"><ele>168.8</ele></trkpt>
    <trkpt lat="45.988298011750615" lon="-123.33951123472895"><ele>168.5</ele></trkpt>
    <trkpt lat="45.988110000000006" lon="-123.33969"><ele>167.7</ele></trkpt>
    <trkpt lat="45.98804293540625" lon="-123.33976500123207"><ele>167.5</ele></trkpt>
    <trkpt lat="45.98797334228059" lon="-123.3398428302306"><ele>167.2</ele></trkpt>
    <trkpt lat="45.987903749154924" lon="-123.33992065922911"><ele>167.0</ele></trkpt>
    <trkpt lat="45.9877986493325" lon="-123.34003819690037"><ele>166.8</ele></trkpt>
    <trkpt lat="45.98772905620683" lon="-123.34011602589888"><ele>166.6</ele></trkpt>
    <trkpt lat="45.987659463081165" lon="-123.3401938548974"><ele>166.5</ele></trkpt>
    <trkpt lat="45.9875898699555" lon="-123.3402716838959"><ele>166.5</ele></trkpt>
    <trkpt lat="45.9874833498652" lon="-123.34039080991406"><ele>166.4</ele></trkpt>
    <trkpt lat="45.987271019818536" lon="-123.34062826777692"><ele>166.4</ele></trkpt>
    <trkpt lat="45.987200006425" lon="-123.34070768512235"><ele>166.4</ele></trkpt>
    <trkpt lat="45.9871297031654" lon="-123.34078630829433"><ele>166.4</ele></trkpt>
    <trkpt lat="45.986987676378334" lon="-123.34094514298519"><ele>166.2</ele></trkpt>
    <trkpt lat="45.986881156288035" lon="-123.34106426900334"><ele>166.1</ele></trkpt>
    <trkpt lat="45.98681085302843" lon="-123.3411428921753"><ele>166.0</ele></trkpt>
    <trkpt lat="45.9866333195446" lon="-123.34134143553888"><ele>165.6</ele></trkpt>
    <trkpt lat="45.98642098949793" lon="-123.34157889340173"><ele>165.2</ele></trkpt>
    <trkpt lat="45.98642" lon="-123.34158000000001"><ele>165.2</ele></trkpt>
    <trkpt lat="45.98631580224602" lon="-123.34170044364035"><ele>165.0</ele></trkpt>
    <trkpt lat="45.986245685742915" lon="-123.34178149228643"><ele>164.8</ele></trkpt>
    <trkpt lat="45.986176270404826" lon="-123.34186173044604"><ele>164.5</ele></trkpt>
    <trkpt lat="45.98596592089549" lon="-123.34210487638427"><ele>163.7</ele></trkpt>
    <trkpt lat="45.98575627255118" lon="-123.34234721183603"><ele>163.0</ele></trkpt>
    <trkpt lat="45.985651097796506" lon="-123.34246878480512"><ele>162.7</ele></trkpt>
    <trkpt lat="45.98558168245842" lon="-123.34254902296473"><ele>162.5</ele></trkpt>
    <trkpt lat="45.98547650770375" lon="-123.34267059593384"><ele>162.4</ele></trkpt>
    <trkpt lat="45.985405690035606" lon="-123.34275245506637"><ele>162.3</ele></trkpt>
    <trkpt lat="45.985301917611" lon="-123.34287240706256"><ele>162.2</ele></trkpt>
    <trkpt lat="45.98526685935944" lon="-123.3429129313856"><ele>162.2</ele></trkpt>
    <trkpt lat="45.98523109994285" lon="-123.3429542661951"><ele>162.2</ele></trkpt>
    <trkpt lat="45.985161684604776" lon="-123.3430345043547"><ele>162.3</ele></trkpt>
    <trkpt lat="45.98509156810166" lon="-123.34311555300079"><ele>162.5</ele></trkpt>
    <trkpt lat="45.984987094512014" lon="-123.34323631548342"><ele>162.8</ele></trkpt>
    <trkpt lat="45.98477674500268" lon="-123.34347946142164"><ele>163.5</ele></trkpt>
    <trkpt lat="45.984706628499566" lon="-123.34356051006772"><ele>163.8</ele></trkpt>
    <trkpt lat="45.984567096658374" lon="-123.3437217968734"><ele>164.3</ele></trkpt>
    <trkpt lat="45.98456" lon="-123.34373000000001"><ele>164.4</ele></trkpt>
    <trkpt lat="45.98449187333614" lon="-123.34379260288033"><ele>164.6</ele></trkpt>
    <trkpt lat="45.984453974135825" lon="-123.3438274291725"><ele>164.6</ele></trkpt>
    <trkpt lat="45.98441607493551" lon="-123.34386225546467"><ele>164.7</ele></trkpt>
    <trkpt lat="45.9843781757352" lon="-123.34389708175684"><ele>164.7</ele></trkpt>
    <trkpt lat="45.9843410345189" lon="-123.34393121152318"><ele>164.7</ele></trkpt>
    <trkpt lat="45.98426523611828" lon="-123.34400086410756"><ele>164.6</ele></trkpt>
    <trkpt lat="45.984190000000005" lon="-123.34407000000002"><ele>164.4</ele></trkpt>
    <trkpt lat="45.98418936022225" lon="-123.3440702720894"><ele>164.4</ele></trkpt>
    <trkpt lat="45.984146237642925" lon="-123.34408861157716"><ele>164.2</ele></trkpt>
    <trkpt lat="45.98405999248426" lon="-123.34412529055268"><ele>163.9</ele></trkpt>
    <trkpt lat="45.98397460977719" lon="-123.34416160273845"><ele>163.6</ele></trkpt>
    <trkpt lat="45.98388836461852" lon="-123.34419828171397"><ele>163.2</ele></trkpt>
    <trkpt lat="45.9835873690148" lon="-123.34432629133855"><ele>161.8</ele></trkpt>
    <trkpt lat="45.98332863353882" lon="-123.34443632826512"><ele>160.8</ele></trkpt>
    <trkpt lat="45.983320000000006" lon="-123.34444"><ele>160.8</ele></trkpt>
    <trkpt lat="45.98324361685898" lon="-123.34447437241347"><ele>160.5</ele></trkpt>
    <trkpt lat="45.98312000000001" lon="-123.34453"><ele>160.1</ele></trkpt>
    <trkpt lat="45.98311535442532" lon="-123.34453390228275"><ele>160.1</ele></trkpt>
    <trkpt lat="45.98299885030164" lon="-123.34463176574664"><ele>159.8</ele></trkpt>
    <trkpt lat="45.98292118088584" lon="-123.3446970080559"><ele>159.7</ele></trkpt>
    <trkpt lat="45.9828831228721" lon="-123.34472897678745"><ele>159.7</ele></trkpt>
    <trkpt lat="45.982870000000005" lon="-123.34474000000002"><ele>159.7</ele></trkpt>
    <trkpt lat="45.98281001929856" lon="-123.34480416540156"><ele>159.6</ele></trkpt>
    <trkpt lat="45.98266566870211" lon="-123.34495858696985"><ele>159.6</ele></trkpt>
    <trkpt lat="45.982594215156865" lon="-123.34503502564615"><ele>159.6</ele></trkpt>
    <trkpt lat="45.982522039858644" lon="-123.3451122364303"><ele>159.5</ele></trkpt>
    <trkpt lat="45.98244986456042" lon="-123.34518944721444"><ele>159.4</ele></trkpt>
    <trkpt lat="45.982440000000004" lon="-123.3452"><ele>159.4</ele></trkpt>
    <trkpt lat="45.98220182170355" lon="-123.34546619927251"><ele>158.9</ele></trkpt>
    <trkpt lat="45.982095280450636" lon="-123.34558527479048"><ele>158.8</ele></trkpt>
    <trkpt lat="45.98195393572176" lon="-123.34574324831098"><ele>158.6</ele></trkpt>
    <trkpt lat="45.981882908219816" lon="-123.34582263198962"><ele>158.5</ele></trkpt>
    <trkpt lat="45.98181188071788" lon="-123.34590201566827"><ele>158.4</ele></trkpt>
    <trkpt lat="45.981669825713986" lon="-123.34606078302556"><ele>158.1</ele></trkpt>
    <trkpt lat="45.98159950848706" lon="-123.34613937286741"><ele>158.0</ele></trkpt>
    <trkpt lat="45.981590000000004" lon="-123.34615000000001"><ele>158.0</ele></trkpt>
    <trkpt lat="45.981511965505746" lon="-123.34628656036494"><ele>157.9</ele></trkpt>
    <trkpt lat="45.98147" lon="-123.34636"><ele>158.0</ele></trkpt>
    <trkpt lat="45.981451279332774" lon="-123.34638129017057"><ele>158.0</ele></trkpt>
    <trkpt lat="45.98138142632218" lon="-123.3464607308493"><ele>158.1</ele></trkpt>
    <trkpt lat="45.981310867725604" lon="-123.34654097395912"><ele>158.2</ele></trkpt>
    <trkpt lat="45.981275588427316" lon="-123.34658109551405"><ele>158.3</ele></trkpt>
    <trkpt lat="45.981241014714996" lon="-123.34662041463785"><ele>158.5</ele></trkpt>
    <trkpt lat="45.981205735416715" lon="-123.34666053619277"><ele>158.6</ele></trkpt>
    <trkpt lat="45.98113517682014" lon="-123.34674077930259"><ele>159.1</ele></trkpt>
    <trkpt lat="45.98103004451125" lon="-123.34686034153624"><ele>159.8</ele></trkpt>
    <trkpt lat="45.98085435360579" lon="-123.34706014687973"><ele>161.1</ele></trkpt>
    <trkpt lat="45.98057353039143" lon="-123.34737951445682"><ele>163.3</ele></trkpt>
    <trkpt lat="45.98053895667911" lon="-123.34741883358063"><ele>163.6</ele></trkpt>
    <trkpt lat="45.980468398082536" lon="-123.34749907669047"><ele>164.0</ele></trkpt>
    <trkpt lat="45.980398545071935" lon="-123.34757851736919"><ele>164.5</ele></trkpt>
    <trkpt lat="45.98036326577365" lon="-123.3476186389241"><ele>164.6</ele></trkpt>
    <trkpt lat="45.98032798647536" lon="-123.34765876047902"><ele>164.8</ele></trkpt>
    <trkpt lat="45.98025813346476" lon="-123.34773820115774"><ele>165.1</ele></trkpt>
    <trkpt lat="45.980082442559294" lon="-123.34793800650121"><ele>165.8</ele></trkpt>
    <trkpt lat="45.979940000000006" lon="-123.34810000000002"><ele>166.3</ele></trkpt>
    <trkpt lat="45.9797941020954" lon="-123.34824261930002"><ele>166.9</ele></trkpt>
    <trkpt lat="45.97971971054561" lon="-123.3483153391296"><ele>167.2</ele></trkpt>
    <trkpt lat="45.97953521950212" lon="-123.34849568430693"><ele>168.1</ele></trkpt>
    <trkpt lat="45.97946082795232" lon="-123.3485684041365"><ele>168.4</ele></trkpt>
    <trkpt lat="45.97905390617496" lon="-123.34896618160427"><ele>169.9</ele></trkpt>
    <trkpt lat="45.97905" lon="-123.34897000000001"><ele>169.9</ele></trkpt>
    <trkpt lat="45.9789" lon="-123.34918"><ele>170.5</ele></trkpt>
    <trkpt lat="45.97889203322741" lon="-123.34918853582778"><ele>170.6</ele></trkpt>
    <trkpt lat="45.97878455420818" lon="-123.34930369191981"><ele>171.0</ele></trkpt>
    <trkpt lat="45.978712420638225" lon="-123.34938097788762"><ele>171.3</ele></trkpt>
    <trkpt lat="45.97867707518895" lon="-123.34941884801185"><ele>171.5</ele></trkpt>
    <trkpt lat="45.978480000000005" lon="-123.34963"><ele>172.6</ele></trkpt>
    <trkpt lat="45.97842955671584" lon="-123.34969596429468"><ele>173.0</ele></trkpt>
    <trkpt lat="45.978363666763414" lon="-123.34978212807863"><ele>173.3</ele></trkpt>
    <trkpt lat="45.97829777681099" lon="-123.34986829186255"><ele>173.6</ele></trkpt>
    <trkpt lat="45.978211254651235" lon="-123.34998143622532"><ele>173.7</ele></trkpt>
    <trkpt lat="45.97814536469881" lon="-123.35006760000925"><ele>173.6</ele></trkpt>
    <trkpt lat="45.97811275250014" lon="-123.35011024673061"><ele>173.5</ele></trkpt>
    <trkpt lat="45.97807947474638" lon="-123.3501537637932"><ele>173.4</ele></trkpt>
    <trkpt lat="45.978014250349034" lon="-123.35023905723588"><ele>173.1</ele></trkpt>
    <trkpt lat="45.97796" lon="-123.35031000000001"><ele>172.9</ele></trkpt>
    <trkpt lat="45.97794912216289" lon="-123.35032634584081"><ele>172.8</ele></trkpt>
    <trkpt lat="45.977795488876204" lon="-123.35055720655502"><ele>171.9</ele></trkpt>
    <trkpt lat="45.977733911162105" lon="-123.35064973777247"><ele>171.5</ele></trkpt>
    <trkpt lat="45.977580277875425" lon="-123.35088059848667"><ele>170.8</ele></trkpt>
    <trkpt lat="45.977457122447234" lon="-123.35106566092155"><ele>170.0</ele></trkpt>
    <trkpt lat="45.97736506687465" lon="-123.35120399041833"><ele>169.5</ele></trkpt>
    <trkpt lat="45.97727301130206" lon="-123.35134231991512"><ele>168.8</ele></trkpt>
    <trkpt lat="45.976996222587175" lon="-123.3517582430642"><ele>166.7</ele></trkpt>
    <trkpt lat="45.9768736891561" lon="-123.3519423708403"><ele>165.8</ele></trkpt>
    <trkpt lat="45.97665785615821" lon="-123.35226669743074"><ele>164.0</ele></trkpt>
    <trkpt lat="45.97659627844411" lon="-123.35235922864817"><ele>163.6</ele></trkpt>
    <trkpt lat="45.97656517858851" lon="-123.35240596158627"><ele>163.4</ele></trkpt>
    <trkpt lat="45.9765029788773" lon="-123.35249942746246"><ele>163.0</ele></trkpt>
    <trkpt lat="45.976379201452" lon="-123.35268542455611"><ele>162.5</ele></trkpt>
    <trkpt lat="45.97631700174079" lon="-123.3527788904323"><ele>162.1</ele></trkpt>
    <trkpt lat="45.97625542402669" lon="-123.35287142164975"><ele>161.8</ele></trkpt>
    <trkpt lat="45.97610054674578" lon="-123.35310415168149"><ele>160.8</ele></trkpt>
    <trkpt lat="45.976090000000006" lon="-123.35312"><ele>160.8</ele></trkpt>
    <trkpt lat="45.97605000592799" lon="-123.35321075577883"><ele>160.5</ele></trkpt>
    <trkpt lat="45.975858328132865" lon="-123.35364571692926"><ele>159.3</ele></trkpt>
    <trkpt lat="45.97583" lon="-123.35371"><ele>159.1</ele></trkpt>
    <trkpt lat="45.97577977193889" lon="-123.35387638045242"><ele>158.7</ele></trkpt>
    <trkpt lat="45.97570810941241" lon="-123.35411376257143"><ele>158.1</ele></trkpt>
    <trkpt lat="45.97567" lon="-123.35424"><ele>157.8</ele></trkpt>
    <trkpt lat="45.975590000000004" lon="-123.35469"><ele>156.8</ele></trkpt>
    <trkpt lat="45.975577291751975" lon="-123.35485944330698"><ele>156.4</ele></trkpt>
    <trkpt lat="45.97557246706597" lon="-123.35492377245367"><ele>156.3</ele></trkpt>
    <trkpt lat="45.9755629141877" lon="-123.35505114416412"><ele>156.1</ele></trkpt>
    <trkpt lat="45.97556" lon="-123.35509"><ele>156.0</ele></trkpt>
    <trkpt lat="45.975557306250046" lon="-123.35518024062343"><ele>155.9</ele></trkpt>
    <trkpt lat="45.97555151732264" lon="-123.35537416969166"><ele>155.7</ele></trkpt>
    <trkpt lat="45.97554576698808" lon="-123.35556680589943"><ele>155.6</ele></trkpt>
    <trkpt lat="45.97554001665352" lon="-123.3557594421072"><ele>155.6</ele></trkpt>
    <trkpt lat="45.975532298083635" lon="-123.35601801419817"><ele>155.6</ele></trkpt>
    <trkpt lat="45.97552" lon="-123.35643"><ele>155.6</ele></trkpt>
    <trkpt lat="45.975500000000004" lon="-123.35661"><ele>155.6</ele></trkpt>
    <trkpt lat="45.975452644047834" lon="-123.35684283343147"><ele>155.6</ele></trkpt>
    <trkpt lat="45.97538" lon="-123.3572"><ele>155.7</ele></trkpt>
    <trkpt lat="45.97537594176238" lon="-123.35721356973207"><ele>155.7</ele></trkpt>
    <trkpt lat="45.97532297429408" lon="-123.3573906797042"><ele>155.8</ele></trkpt>
    <trkpt lat="45.975252232507565" lon="-123.35762722255288"><ele>155.8</ele></trkpt>
    <trkpt lat="45.975127812280014" lon="-123.35804325268873"><ele>155.9</ele></trkpt>
    <trkpt lat="45.97509261912994" lon="-123.35816092978429"><ele>156.0</ele></trkpt>
    <trkpt lat="45.975060000000006" lon="-123.35827"><ele>156.0</ele></trkpt>
    <trkpt lat="45.97505730654164" lon="-123.35828131252511"><ele>155.9</ele></trkpt>
    <trkpt lat="45.97496986455104" lon="-123.35864856888567"><ele>155.9</ele></trkpt>
    <trkpt lat="45.97494071722083" lon="-123.35877098767253"><ele>155.9</ele></trkpt>
    <trkpt lat="45.97480984570822" lon="-123.35932064802549"><ele>155.9</ele></trkpt>
    <trkpt lat="45.97478069837803" lon="-123.35944306681233"><ele>156.0</ele></trkpt>
    <trkpt lat="45.97476" lon="-123.35953"><ele>156.0</ele></trkpt>
    <trkpt lat="45.97476924349651" lon="-123.35969638293707"><ele>156.1</ele></trkpt>
    <trkpt lat="45.97478" lon="-123.35989000000001"><ele>156.1</ele></trkpt>
    <trkpt lat="45.97482" lon="-123.36006"><ele>156.2</ele></trkpt>
    <trkpt lat="45.97485810253336" lon="-123.36011715380005"><ele>156.2</ele></trkpt>
    <trkpt lat="45.974880000000006" lon="-123.36015"><ele>156.2</ele></trkpt>
    <trkpt lat="45.974992204570874" lon="-123.36028739335208"><ele>156.3</ele></trkpt>
    <trkpt lat="45.975163428901055" lon="-123.36049705579721"><ele>156.4</ele></trkpt>
    <trkpt lat="45.97526616349916" lon="-123.36062285326429"><ele>156.5</ele></trkpt>
    <trkpt lat="45.97547163269537" lon="-123.36087444819842"><ele>156.7</ele></trkpt>
    <trkpt lat="45.97577983648968" lon="-123.36125184059962"><ele>157.1</ele></trkpt>
    <trkpt lat="45.975860000000004" lon="-123.36135000000002"><ele>157.2</ele></trkpt>
    <trkpt lat="45.97592059598347" lon="-123.36140807115083"><ele>157.2</ele></trkpt>
    <trkpt lat="45.97606954955283" lon="-123.36155081832148"><ele>157.3</ele></trkpt>
    <trkpt lat="45.9761" lon="-123.36158"><ele>157.3</ele></trkpt>
    <trkpt lat="45.976335132583145" lon="-123.36178900674057"><ele>157.4</ele></trkpt>
    <trkpt lat="45.97646" lon="-123.3619"><ele>157.3</ele></trkpt>
    <trkpt lat="45.976608512087125" lon="-123.36200442256127"><ele>157.3</ele></trkpt>
    <trkpt lat="45.97668931383292" lon="-123.36206123628878"><ele>157.3</ele></trkpt>
    <trkpt lat="45.976809708434146" lon="-123.36214588874276"><ele>157.1</ele></trkpt>
    <trkpt lat="45.97710000000001" lon="-123.36235"><ele>156.8</ele></trkpt>
    <trkpt lat="45.97713154090558" lon="-123.36236802337461"><ele>156.7</ele></trkpt>
    <trkpt lat="45.977297035276706" lon="-123.36246259158668"><ele>156.5</ele></trkpt>
    <trkpt lat="45.97746420130815" lon="-123.36255811503324"><ele>156.2</ele></trkpt>
    <trkpt lat="45.97763053150945" lon="-123.36265316086255"><ele>155.8</ele></trkpt>
    <trkpt lat="45.97766000000001" lon="-123.36267000000001"><ele>155.8</ele></trkpt>
    <trkpt lat="45.977712409879736" lon="-123.36270649973767"><ele>155.6</ele></trkpt>
    <trkpt lat="45.97783383501805" lon="-123.36279106367328"><ele>155.3</ele></trkpt>
    <trkpt lat="45.977954450655446" lon="-123.36287506384932"><ele>155.0</ele></trkpt>
    <trkpt lat="45.97815682588597" lon="-123.36301600374202"><ele>154.6</ele></trkpt>
    <trkpt lat="45.97822" lon="-123.36306"><ele>154.5</ele></trkpt>
    <trkpt lat="45.978385488461775" lon="-123.36321829331126"><ele>154.1</ele></trkpt>
    <trkpt lat="45.97845" lon="-123.36328"><ele>154.0</ele></trkpt>
    <trkpt lat="45.97849215894415" lon="-123.36333420435676"><ele>153.9</ele></trkpt>
    <trkpt lat="45.978590000000004" lon="-123.36346"><ele>153.8</ele></trkpt>
    <trkpt lat="45.97862569243053" lon="-123.36350758990737"><ele>153.8</ele></trkpt>
    <trkpt lat="45.97872398418856" lon="-123.36363864558474"><ele>153.7</ele></trkpt>
    <trkpt lat="45.978860000000005" lon="-123.36382"><ele>153.8</ele></trkpt>
    <trkpt lat="45.97893593538368" lon="-123.36396905834575"><ele>153.8</ele></trkpt>
    <trkpt lat="45.97906886217906" lon="-123.36422998872186"><ele>153.8</ele></trkpt>
    <trkpt lat="45.979130000000005" lon="-123.36435000000002"><ele>153.8</ele></trkpt>
    <trkpt lat="45.97919833581629" lon="-123.36456689193867"><ele>153.8</ele></trkpt>
    <trkpt lat="45.979290803964005" lon="-123.36486037779882"><ele>153.8</ele></trkpt>
    <trkpt lat="45.97938327211173" lon="-123.36515386365899"><ele>153.8</ele></trkpt>
    <trkpt lat="45.9795314439629" lon="-123.36562414823007"><ele>153.8</ele></trkpt>
    <trkpt lat="45.979698555073234" lon="-123.36615454436287"><ele>153.7</ele></trkpt>
    <trkpt lat="45.97975388741866" lon="-123.36633016441573"><ele>153.7</ele></trkpt>
    <trkpt lat="45.979820000000004" lon="-123.36654000000001"><ele>153.8</ele></trkpt>
    <trkpt lat="45.97990106917955" lon="-123.36680250972425"><ele>153.8</ele></trkpt>
    <trkpt lat="45.980010271324645" lon="-123.36715611667029"><ele>153.8</ele></trkpt>
    <trkpt lat="45.98013773469802" lon="-123.36756885521265"><ele>153.8</ele></trkpt>
    <trkpt lat="45.98024" lon="-123.3679"><ele>153.8</ele></trkpt>
    <trkpt lat="45.98049309569532" lon="-123.36882477273289"><ele>153.7</ele></trkpt>
    <trkpt lat="45.980500000000006" lon="-123.36885000000001"><ele>153.7</ele></trkpt>
    <trkpt lat="45.98062581478307" lon="-123.36957585451769"><ele>153.5</ele></trkpt>
    <trkpt lat="45.980630000000005" lon="-123.3696"><ele>153.5</ele></trkpt>
    <trkpt lat="45.980665966128065" lon="-123.36995966128063"><ele>153.5</ele></trkpt>
    <trkpt lat="45.98067" lon="-123.37"><ele>153.5</ele></trkpt>
    <trkpt lat="45.980693996800134" lon="-123.37053792826971"><ele>153.5</ele></trkpt>
    <trkpt lat="45.98070263891021" lon="-123.37073165557052"><ele>153.5</ele></trkpt>
    <trkpt lat="45.98071416172364" lon="-123.37098995863825"><ele>153.6</ele></trkpt>
    <trkpt lat="45.9807372073505" lon="-123.37150656477371"><ele>153.8</ele></trkpt>
    <trkpt lat="45.98075731465994" lon="-123.37195730362691"><ele>153.9</ele></trkpt>
    <trkpt lat="45.980765956770014" lon="-123.37215103092771"><ele>154.0</ele></trkpt>
    <trkpt lat="45.98078278007762" lon="-123.37252815340659"><ele>154.0</ele></trkpt>
    <trkpt lat="45.980790000000006" lon="-123.37269"><ele>154.0</ele></trkpt>
    <trkpt lat="45.98082410985188" lon="-123.37347232595744"><ele>153.9</ele></trkpt>
    <trkpt lat="45.98083785100044" lon="-123.37378748584864"><ele>153.9</ele></trkpt>
    <trkpt lat="45.98084336998634" lon="-123.3739140664607"><ele>153.9</ele></trkpt>
    <trkpt lat="45.98084883265605" lon="-123.37403935543384"><ele>153.9</ele></trkpt>
    <trkpt lat="45.9808571111349" lon="-123.37422922635193"><ele>154.1</ele></trkpt>
    <trkpt lat="45.98086533329756" lon="-123.37441780563108"><ele>154.4</ele></trkpt>
    <trkpt lat="45.98087355546022" lon="-123.37460638491027"><ele>154.7</ele></trkpt>
    <trkpt lat="45.980881946571444" lon="-123.37479883910613"><ele>155.0</ele></trkpt>
    <trkpt lat="45.98088752187353" lon="-123.37492671135709"><ele>155.3</ele></trkpt>
    <trkpt lat="45.980893153491785" lon="-123.37505587524691"><ele>155.7</ele></trkpt>
    <trkpt lat="45.98091556733247" lon="-123.37556994752849"><ele>157.2</ele></trkpt>
    <trkpt lat="45.98092119895074" lon="-123.37569911141834"><ele>157.5</ele></trkpt>
    <trkpt lat="45.98092677425282" lon="-123.3758269836693"><ele>157.9</ele></trkpt>
    <trkpt lat="45.98093240587108" lon="-123.37595614755914"><ele>158.1</ele></trkpt>
    <trkpt lat="45.980937981173156" lon="-123.37608401981007"><ele>158.4</ele></trkpt>
    <trkpt lat="45.98094361279142" lon="-123.37621318369993"><ele>158.6</ele></trkpt>
    <trkpt lat="45.980949244409686" lon="-123.37634234758977"><ele>158.8</ele></trkpt>
    <trkpt lat="45.980957635520895" lon="-123.37653480178562"><ele>158.9</ele></trkpt>
    <trkpt lat="45.980971658250375" lon="-123.37685641987133"><ele>159.0</ele></trkpt>
    <trkpt lat="45.981005279011406" lon="-123.37762752829371"><ele>159.1</ele></trkpt>
    <trkpt lat="45.98102769285209" lon="-123.37814160057529"><ele>159.0</ele></trkpt>
    <trkpt lat="45.981036140279485" lon="-123.37833534641005"><ele>159.1</ele></trkpt>
    <trkpt lat="45.98104171558157" lon="-123.378463218661"><ele>159.1</ele></trkpt>
    <trkpt lat="45.981069761040516" lon="-123.37910645483242"><ele>159.6</ele></trkpt>
    <trkpt lat="45.98107815215173" lon="-123.3792989090283"><ele>159.7</ele></trkpt>
    <trkpt lat="45.98108941538826" lon="-123.37955723680798"><ele>159.7</ele></trkpt>
    <trkpt lat="45.981100000000005" lon="-123.3798"><ele>159.8</ele></trkpt>
    <trkpt lat="45.98110852680134" lon="-123.37987674121204"><ele>159.8</ele></trkpt>
    <trkpt lat="45.98112272624194" lon="-123.38000453617741"><ele>159.8</ele></trkpt>
    <trkpt lat="45.98115000000001" lon="-123.38025"><ele>160.0</ele></trkpt>
    <trkpt lat="45.98121369815843" lon="-123.38050024276524"><ele>160.2</ele></trkpt>
    <trkpt lat="45.98126009749513" lon="-123.38068252587374"><ele>160.4</ele></trkpt>
    <trkpt lat="45.98129" lon="-123.38080000000001"><ele>160.5</ele></trkpt>
    <trkpt lat="45.9813123505148" lon="-123.3808596013728"><ele>160.5</ele></trkpt>
    <trkpt lat="45.981440480105455" lon="-123.3812012802812"><ele>160.9</ele></trkpt>
    <trkpt lat="45.98147" lon="-123.38128"><ele>160.9</ele></trkpt>
    <trkpt lat="45.98151803646162" lon="-123.38135860511903"><ele>161.0</ele></trkpt>
    <trkpt lat="45.98160712185522" lon="-123.38150438121764"><ele>161.0</ele></trkpt>
    <trkpt lat="45.98163681698642" lon="-123.3815529732505"><ele>161.0</ele></trkpt>
    <trkpt lat="45.98169" lon="-123.38164"><ele>160.9</ele></trkpt>
    <trkpt lat="45.981696545397206" lon="-123.38164780412745"><ele>160.9</ele></trkpt>
    <trkpt lat="45.981800422704374" lon="-123.38177165783983"><ele>160.7</ele></trkpt>
    <trkpt lat="45.9819389257806" lon="-123.38193679612303"><ele>160.4</ele></trkpt>
    <trkpt lat="45.981950000000005" lon="-123.38195"><ele>160.4</ele></trkpt>
    <trkpt lat="45.98222588694406" lon="-123.38212098178508"><ele>159.9</ele></trkpt>
    <trkpt lat="45.98234895905068" lon="-123.38219725610303"><ele>159.6</ele></trkpt>
    <trkpt lat="45.98259675523853" lon="-123.38235082855525"><ele>158.9</ele></trkpt>
    <trkpt lat="45.982761952697096" lon="-123.38245321019005"><ele>158.6</ele></trkpt>
    <trkpt lat="45.98296762353301" lon="-123.38258067532539"><ele>158.2</ele></trkpt>
    <trkpt lat="45.98321541972086" lon="-123.38273424777762"><ele>157.6</ele></trkpt>
    <trkpt lat="45.98333931781478" lon="-123.38281103400374"><ele>157.4</ele></trkpt>
    <trkpt lat="45.98350451527335" lon="-123.38291341563854"><ele>157.0</ele></trkpt>
    <trkpt lat="45.98358628801533" lon="-123.38296409454777"><ele>156.8</ele></trkpt>
    <trkpt lat="45.98387538356782" lon="-123.38314326240871"><ele>156.4</ele></trkpt>
    <trkpt lat="45.98416447912031" lon="-123.38332243026963"><ele>155.9</ele></trkpt>
    <trkpt lat="45.98432885059158" lon="-123.38342429999626"><ele>155.7</ele></trkpt>
    <trkpt lat="45.984741844237995" lon="-123.38368025408329"><ele>155.0</ele></trkpt>
    <trkpt lat="45.98498881443855" lon="-123.38383331462735"><ele>154.7</ele></trkpt>
    <trkpt lat="45.98511271253248" lon="-123.38391010085346"><ele>154.5</ele></trkpt>
    <trkpt lat="45.98552570617888" lon="-123.3841660549405"><ele>154.2</ele></trkpt>
    <trkpt lat="45.985979173202644" lon="-123.38444709252806"><ele>153.6</ele></trkpt>
    <trkpt lat="45.986000000000004" lon="-123.38446"><ele>153.6</ele></trkpt>
    <trkpt lat="45.986230000000006" lon="-123.38468"><ele>153.3</ele></trkpt>
    <trkpt lat="45.98632747507018" lon="-123.38484393534529"><ele>153.1</ele></trkpt>
    <trkpt lat="45.986444418817904" lon="-123.38504061346649"><ele>152.8</ele></trkpt>
    <trkpt lat="45.986450000000005" lon="-123.38505"><ele>152.8</ele></trkpt>
    <trkpt lat="45.98648790015548" lon="-123.38515359375833"><ele>152.7</ele></trkpt>
    <trkpt lat="45.986529799647386" lon="-123.38526811903617"><ele>152.6</ele></trkpt>
    <trkpt lat="45.986571699139276" lon="-123.385382644314"><ele>152.6</ele></trkpt>
    <trkpt lat="45.9866" lon="-123.38546000000001"><ele>152.6</ele></trkpt>
    <trkpt lat="45.986599408469004" lon="-123.38550199870065"><ele>152.6</ele></trkpt>
    <trkpt lat="45.986597604096254" lon="-123.38563010916666"><ele>152.7</ele></trkpt>
    <trkpt lat="45.986594870198125" lon="-123.38582421593333"><ele>152.7</ele></trkpt>
    <trkpt lat="45.98659122500063" lon="-123.38608302495555"><ele>152.9</ele></trkpt>
    <trkpt lat="45.98659000000001" lon="-123.38617"><ele>153.0</ele></trkpt>
    <trkpt lat="45.98658712031966" lon="-123.3862122353117"><ele>153.0</ele></trkpt>
    <trkpt lat="45.986582728989106" lon="-123.38627664149323"><ele>153.0</ele></trkpt>
    <trkpt lat="45.986573946327994" lon="-123.38640545385623"><ele>153.0</ele></trkpt>
    <trkpt lat="45.986560000000004" lon="-123.38661"><ele>153.0</ele></trkpt>
    <trkpt lat="45.98654577979977" lon="-123.38672494661857"><ele>152.9</ele></trkpt>
    <trkpt lat="45.98651425156293" lon="-123.38697979986631"><ele>152.9</ele></trkpt>
    <trkpt lat="45.98645907714847" lon="-123.38742579304987"><ele>152.9</ele></trkpt>
    <trkpt lat="45.9864040603752" lon="-123.3878705119672"><ele>153.1</ele></trkpt>
    <trkpt lat="45.986356768019945" lon="-123.38825279183881"><ele>153.1</ele></trkpt>
    <trkpt lat="45.98632523978311" lon="-123.38850764508656"><ele>153.1</ele></trkpt>
    <trkpt lat="45.98627022300984" lon="-123.38895236400387"><ele>152.9</ele></trkpt>
    <trkpt lat="45.98624689211458" lon="-123.3891409554072"><ele>152.9</ele></trkpt>
    <trkpt lat="45.98623112799616" lon="-123.38926838203109"><ele>152.9</ele></trkpt>
    <trkpt lat="45.986200000000004" lon="-123.38952"><ele>152.8</ele></trkpt>
    <trkpt lat="45.98619997420167" lon="-123.38952069655505"><ele>152.8</ele></trkpt>
    <trkpt lat="45.986195187289006" lon="-123.38964994319686"><ele>152.8</ele></trkpt>
    <trkpt lat="45.98619044824548" lon="-123.38977789737223"><ele>152.8</ele></trkpt>
    <trkpt lat="45.986180970158415" lon="-123.390033805723"><ele>153.0</ele></trkpt>
    <trkpt lat="45.986160000000005" lon="-123.3906"><ele>153.1</ele></trkpt>
    <trkpt lat="45.986162873864515" lon="-123.39067615740957"><ele>153.1</ele></trkpt>
    <trkpt lat="45.98617740722835" lon="-123.39106129155098"><ele>153.1</ele></trkpt>
    <trkpt lat="45.986180000000004" lon="-123.39113"><ele>153.1</ele></trkpt>
    <trkpt lat="45.98620632279331" lon="-123.39144462005322"><ele>153.1</ele></trkpt>
    <trkpt lat="45.98623309322268" lon="-123.39176459042346"><ele>153.1</ele></trkpt>
    <trkpt lat="45.98624921998737" lon="-123.39195734365855"><ele>153.1</ele></trkpt>
    <trkpt lat="45.98627599041676" lon="-123.39227731402879"><ele>153.2</ele></trkpt>
    <trkpt lat="45.986308243946134" lon="-123.39266282049896"><ele>153.4</ele></trkpt>
    <trkpt lat="45.986318995122595" lon="-123.39279132265568"><ele>153.5</ele></trkpt>
    <trkpt lat="45.98639000000001" lon="-123.39364"><ele>153.6</ele></trkpt>
    <trkpt lat="45.98639138530359" lon="-123.39368987092914"><ele>153.6</ele></trkpt>
    <trkpt lat="45.9864" lon="-123.394"><ele>153.8</ele></trkpt>
    <trkpt lat="45.986399522800724" lon="-123.39400799308801"><ele>153.8</ele></trkpt>
    <trkpt lat="45.986360000000005" lon="-123.39467"><ele>154.2</ele></trkpt>
    <trkpt lat="45.98632051056347" lon="-123.39502089185032"><ele>154.3</ele></trkpt>
    <trkpt lat="45.9862638586135" lon="-123.39552428489151"><ele>154.7</ele></trkpt>
    <trkpt lat="45.98624272197227" lon="-123.39571209904648"><ele>154.9</ele></trkpt>
    <trkpt lat="45.98620720666353" lon="-123.39602767793272"><ele>155.3</ele></trkpt>
    <trkpt lat="45.986150554713554" lon="-123.39653107097391"><ele>155.8</ele></trkpt>
    <trkpt lat="45.986136463619395" lon="-123.39665628041055"><ele>155.9</ele></trkpt>
    <trkpt lat="45.98610109209733" lon="-123.39697058164947"><ele>156.1</ele></trkpt>
    <trkpt lat="45.9860868572165" lon="-123.39709706873342"><ele>156.1</ele></trkpt>
    <trkpt lat="45.98605824366817" lon="-123.39735132054867"><ele>156.3</ele></trkpt>
    <trkpt lat="45.98602244078607" lon="-123.39766945472951"><ele>156.4</ele></trkpt>
    <trkpt lat="45.985979448570234" lon="-123.398051471276"><ele>156.7</ele></trkpt>
    <trkpt lat="45.985950835021896" lon="-123.39830572309123"><ele>156.9</ele></trkpt>
    <trkpt lat="45.98592926702064" lon="-123.39849737018812"><ele>157.2</ele></trkpt>
    <trkpt lat="45.98589346413854" lon="-123.39881550436898"><ele>157.7</ele></trkpt>
    <trkpt lat="45.9858504719227" lon="-123.3991975209155"><ele>158.3</ele></trkpt>
    <trkpt lat="45.98582890392144" lon="-123.39938916801239"><ele>158.7</ele></trkpt>
    <trkpt lat="45.98580747970686" lon="-123.39957953746197"><ele>159.1</ele></trkpt>
    <trkpt lat="45.98579310103935" lon="-123.39970730219324"><ele>159.4</ele></trkpt>
    <trkpt lat="45.985735730156" lon="-123.400217083471"><ele>160.7</ele></trkpt>
    <trkpt lat="45.985707116607664" lon="-123.40047133528623"><ele>161.4</ele></trkpt>
    <trkpt lat="45.985692737940155" lon="-123.4005991000175"><ele>161.9</ele></trkpt>
    <trkpt lat="45.98566" lon="-123.40089"><ele>163.0</ele></trkpt>
    <trkpt lat="45.98565323662471" lon="-123.40098178866478"><ele>163.3</ele></trkpt>
    <trkpt lat="45.9856437529393" lon="-123.40111049582379"><ele>163.8</ele></trkpt>
    <trkpt lat="45.985615396719965" lon="-123.40149533022918"><ele>165.1</ele></trkpt>
    <trkpt lat="45.98559" lon="-123.40184"><ele>166.3</ele></trkpt>
    <trkpt lat="45.98558023226288" lon="-123.40207411060253"><ele>167.1</ele></trkpt>
    <trkpt lat="45.98557484186442" lon="-123.40220330628198"><ele>167.6</ele></trkpt>
    <trkpt lat="45.985558724572996" lon="-123.40258960136356"><ele>169.1</ele></trkpt>
    <trkpt lat="45.98555333417452" lon="-123.40271879704301"><ele>169.6</ele></trkpt>
    <trkpt lat="45.985513013993966" lon="-123.40368518072535"><ele>173.1</ele></trkpt>
    <trkpt lat="45.98550498230025" lon="-123.40387768228774"><ele>173.8</ele></trkpt>
    <trkpt lat="45.98548616980959" lon="-123.40432857520906"><ele>175.2</ele></trkpt>
    <trkpt lat="45.985472747717395" lon="-123.40465027245088"><ele>176.2</ele></trkpt>
    <trkpt lat="45.98545927172122" lon="-123.40497326164953"><ele>177.0</ele></trkpt>
    <trkpt lat="45.985453881322755" lon="-123.40510245732898"><ele>177.3</ele></trkpt>
    <trkpt lat="45.98544584962903" lon="-123.40529495889137"><ele>177.8</ele></trkpt>
    <trkpt lat="45.98544045923056" lon="-123.40542415457082"><ele>178.0</ele></trkpt>
    <trkpt lat="45.98543506883209" lon="-123.4055533502503"><ele>178.2</ele></trkpt>
    <trkpt lat="45.98542170064388" lon="-123.40587375553534"><ele>178.8</ele></trkpt>
    <trkpt lat="45.98540283424924" lon="-123.40632594041344"><ele>179.6</ele></trkpt>
    <trkpt lat="45.985378631360106" lon="-123.4069060290142"><ele>180.6</ele></trkpt>
    <trkpt lat="45.98535178717573" lon="-123.4075494234979"><ele>181.8</ele></trkpt>
    <trkpt lat="45.98532510470331" lon="-123.4081889421112"><ele>182.8</ele></trkpt>
    <trkpt lat="45.985290767865045" lon="-123.40901191858934"><ele>184.3</ele></trkpt>
    <trkpt lat="45.98528" lon="-123.40927"><ele>184.7</ele></trkpt>
    <trkpt lat="45.98526164981146" lon="-123.40945350188548"><ele>185.0</ele></trkpt>
    <trkpt lat="45.98524281792451" lon="-123.40964182075493"><ele>185.3</ele></trkpt>
    <trkpt lat="45.985240000000005" lon="-123.40967"><ele>185.3</ele></trkpt>
    <trkpt lat="45.985211049526555" lon="-123.40982633255663"><ele>185.5</ele></trkpt>
    <trkpt lat="45.98519" lon="-123.40994"><ele>185.6</ele></trkpt>
    <trkpt lat="45.985155730755366" lon="-123.41005137504509"><ele>185.7</ele></trkpt>
    <trkpt lat="45.985110000000006" lon="-123.4102"><ele>185.8</ele></trkpt>
    <trkpt lat="45.98510408903797" lon="-123.41021513206283"><ele>185.8</ele></trkpt>
    <trkpt lat="45.9850428308507" lon="-123.41037195302223"><ele>185.9</ele></trkpt>
    <trkpt lat="45.98498157266344" lon="-123.41052877398161"><ele>185.9</ele></trkpt>
    <trkpt lat="45.98491590741235" lon="-123.41069687702442"><ele>185.5</ele></trkpt>
    <trkpt lat="45.984871836774026" lon="-123.41080969785851"><ele>185.3</ele></trkpt>
    <trkpt lat="45.98482776613571" lon="-123.41092251869262"><ele>184.9</ele></trkpt>
    <trkpt lat="45.98476166017822" lon="-123.41109174994374"><ele>184.4</ele></trkpt>
    <trkpt lat="45.98471758953991" lon="-123.41120457077783"><ele>184.0</ele></trkpt>
    <trkpt lat="45.984629888969664" lon="-123.41142908423768"><ele>183.1</ele></trkpt>
    <trkpt lat="45.98451971237387" lon="-123.41171113632291"><ele>182.1</ele></trkpt>
    <trkpt lat="45.98440997648445" lon="-123.41199206019982"><ele>180.9</ele></trkpt>
    <trkpt lat="45.9842777645695" lon="-123.4123305227021"><ele>179.7</ele></trkpt>
    <trkpt lat="45.98423369393118" lon="-123.4124433435362"><ele>179.2</ele></trkpt>
    <trkpt lat="45.984123958041764" lon="-123.4127242674131"><ele>177.9</ele></trkpt>
    <trkpt lat="45.98411" lon="-123.41276"><ele>177.8</ele></trkpt>
    <trkpt lat="45.984074640733795" lon="-123.41283232577179"><ele>177.5</ele></trkpt>
    <trkpt lat="45.983997016801766" lon="-123.4129911019964"><ele>176.8</ele></trkpt>
    <trkpt lat="45.98389351822571" lon="-123.41320280362923"><ele>175.9</ele></trkpt>
    <trkpt lat="45.98389" lon="-123.41321"><ele>175.9</ele></trkpt>
    <trkpt lat="45.98383392327938" lon="-123.41329790404858"><ele>175.5</ele></trkpt>
    <trkpt lat="45.98371228365349" lon="-123.41348858238104"><ele>174.8</ele></trkpt>
    <trkpt lat="45.98362105393407" lon="-123.41363159113038"><ele>174.2</ele></trkpt>
    <trkpt lat="45.983520000000006" lon="-123.41379"><ele>173.5</ele></trkpt>
    <trkpt lat="45.983290000000004" lon="-123.41405"><ele>172.2</ele></trkpt>
    <trkpt lat="45.98313715716052" lon="-123.41420437126789"><ele>171.4</ele></trkpt>
    <trkpt lat="45.98295386323714" lon="-123.41438949813049"><ele>170.5</ele></trkpt>
    <trkpt lat="45.9827698331936" lon="-123.41457536847447"><ele>169.5</ele></trkpt>
    <trkpt lat="45.98262260915877" lon="-123.41472406474965"><ele>168.7</ele></trkpt>
    <trkpt lat="45.98251292725281" lon="-123.41483484347467"><ele>168.0</ele></trkpt>
    <trkpt lat="45.98218167317442" lon="-123.41516941009384"><ele>165.9</ele></trkpt>
    <trkpt lat="45.981924767233636" lon="-123.41542888509403"><ele>164.3</ele></trkpt>
    <trkpt lat="45.981814349207504" lon="-123.41554040730043"><ele>163.5</ele></trkpt>
    <trkpt lat="45.98166712517266" lon="-123.4156891035756"><ele>162.5</ele></trkpt>
    <trkpt lat="45.98159424927542" lon="-123.41576270823182"><ele>162.0</ele></trkpt>
    <trkpt lat="45.98148383124929" lon="-123.41587423043822"><ele>161.4</ele></trkpt>
    <trkpt lat="45.98133660721446" lon="-123.41602292671341"><ele>160.6</ele></trkpt>
    <trkpt lat="45.98129" lon="-123.41607"><ele>160.4</ele></trkpt>
    <trkpt lat="45.981009007512014" lon="-123.41622882184105"><ele>159.3</ele></trkpt>
    <trkpt lat="45.980830000000005" lon="-123.41633000000002"><ele>158.5</ele></trkpt>
    <trkpt lat="45.98071045760771" lon="-123.41636812433053"><ele>158.0</ele></trkpt>
    <trkpt lat="45.9804479300375" lon="-123.41645184933941"><ele>157.1</ele></trkpt>
    <trkpt lat="45.980272326311606" lon="-123.41650785268985"><ele>156.4</ele></trkpt>
    <trkpt lat="45.979965897809926" lon="-123.41660557853629"><ele>155.3</ele></trkpt>
    <trkpt lat="45.97974727117119" lon="-123.41667530270757"><ele>154.4</ele></trkpt>
    <trkpt lat="45.979484743600985" lon="-123.41675902771647"><ele>153.5</ele></trkpt>
    <trkpt lat="45.979221338012145" lon="-123.41684303274208"><ele>152.8</ele></trkpt>
    <trkpt lat="45.9791335361492" lon="-123.41687103441728"><ele>152.5</ele></trkpt>
    <trkpt lat="45.97898000000001" lon="-123.41692"><ele>152.3</ele></trkpt>
    <trkpt lat="45.978913964934044" lon="-123.4169332070132"><ele>152.1</ele></trkpt>
    <trkpt lat="45.97878" lon="-123.41696"><ele>152.0</ele></trkpt>
    <trkpt lat="45.97869159603654" lon="-123.41693919906743"><ele>151.8</ele></trkpt>
    <trkpt lat="45.97861" lon="-123.41692"><ele>151.8</ele></trkpt>
    <trkpt lat="45.97851444209639" lon="-123.41689451789236"><ele>151.7</ele></trkpt>
    <trkpt lat="45.978460000000005" lon="-123.41688"><ele>151.6</ele></trkpt>
    <trkpt lat="45.97838929221153" lon="-123.41683050454806"><ele>151.5</ele></trkpt>
    <trkpt lat="45.978269602730826" lon="-123.41674672191158"><ele>151.4</ele></trkpt>
    <trkpt lat="45.97802941505673" lon="-123.41657859053973"><ele>151.1</ele></trkpt>
    <trkpt lat="45.97782966301801" lon="-123.4164387641126"><ele>150.9</ele></trkpt>
    <trkpt lat="45.97776" lon="-123.41639"><ele>150.8</ele></trkpt>
    <trkpt lat="45.977748881527255" lon="-123.41638542180534"><ele>150.8</ele></trkpt>
    <trkpt lat="45.97753532038985" lon="-123.41629748486642"><ele>150.8</ele></trkpt>
    <trkpt lat="45.97742" lon="-123.41625"><ele>150.8</ele></trkpt>
    <trkpt lat="45.97727502189952" lon="-123.41621375547487"><ele>150.8</ele></trkpt>
    <trkpt lat="45.97722" lon="-123.4162"><ele>150.8</ele></trkpt>
    <trkpt lat="45.977186975554304" lon="-123.41619528222203"><ele>150.8</ele></trkpt>
    <trkpt lat="45.97701000000001" lon="-123.41617000000001"><ele>151.1</ele></trkpt>
    <trkpt lat="45.97692111125474" lon="-123.41618159418417"><ele>151.2</ele></trkpt>
    <trkpt lat="45.976780000000005" lon="-123.4162"><ele>151.3</ele></trkpt>
    <trkpt lat="45.976656637074086" lon="-123.41623246392788"><ele>151.4</ele></trkpt>
    <trkpt lat="45.97659" lon="-123.41625"><ele>151.5</ele></trkpt>
    <trkpt lat="45.976483592044026" lon="-123.41629191828568"><ele>151.6</ele></trkpt>
    <trkpt lat="45.97626934333899" lon="-123.4163763192907"><ele>151.9</ele></trkpt>
    <trkpt lat="45.97626" lon="-123.41638"><ele>151.9</ele></trkpt>
    <trkpt lat="45.976023206723006" lon="-123.41652524948435"><ele>152.2</ele></trkpt>
    <trkpt lat="45.97590076811479" lon="-123.41660035357908"><ele>152.4</ele></trkpt>
    <trkpt lat="45.97569642800513" lon="-123.41672569622366"><ele>152.8</ele></trkpt>
  </trkseg></trk>
</gpx>
