<?xml version="1.0" encoding="UTF-8"?>
<gpx version="1.1" creator="h2c-tracker" xmlns="http://www.topografix.com/GPX/1/1">
  <metadata><name>Hood to Coast 2026 — Leg 5 (6.05 mi)</name><desc>Derived from the official Hood to Coast Strava route (simplified, 387 points, ~5.86 mi). Verify against the official leg map PDF.</desc></metadata>
  <wpt lat="45.37758843323309" lon="-122.03935650417638"><name>Exchange 4 — Brightwood Weigh Station</name></wpt>
  <wpt lat="45.36652186784047" lon="-122.15507722250248"><name>Exchange 5 — Cherryville Dr/HWY 26</name></wpt>
  <trk><name>HTC Leg 5</name><trkseg>
    <trkpt lat="45.37758843323309" lon="-122.03935650417638"><ele>318.2</ele></trkpt>
    <trkpt lat="45.37763578654602" lon="-122.03953085046487"><ele>318.2</ele></trkpt>
    <trkpt lat="45.377731141847384" lon="-122.03988193134715"><ele>318.2</ele></trkpt>
    <trkpt lat="45.37779471204829" lon="-122.04011598526867"><ele>318.1</ele></trkpt>
    <trkpt lat="45.37801136967178" lon="-122.0409136792461"><ele>317.5</ele></trkpt>
    <trkpt lat="45.37805774997143" lon="-122.04108444307661"><ele>317.4</ele></trkpt>
    <trkpt lat="45.37813786139809" lon="-122.04137939878385"><ele>317.3</ele></trkpt>
    <trkpt lat="45.37820208027451" lon="-122.04161584101068"><ele>317.3</ele></trkpt>
    <trkpt lat="45.37823386537496" lon="-122.04173286797145"><ele>317.2</ele></trkpt>
    <trkpt lat="45.3783133281261" lon="-122.04202543537335"><ele>316.9</ele></trkpt>
    <trkpt lat="45.378392790877236" lon="-122.04231800277526"><ele>316.7</ele></trkpt>
    <trkpt lat="45.378456361078136" lon="-122.04255205669679"><ele>316.4</ele></trkpt>
    <trkpt lat="45.37850436306658" lon="-122.04272879129059"><ele>316.2</ele></trkpt>
    <trkpt lat="45.3786315034684" lon="-122.04319689913362"><ele>315.5</ele></trkpt>
    <trkpt lat="45.37874275131998" lon="-122.0436064934963"><ele>314.9</ele></trkpt>
    <trkpt lat="45.378822538408876" lon="-122.04390025505086"><ele>314.5</ele></trkpt>
    <trkpt lat="45.378885135596505" lon="-122.0441307265144"><ele>314.5</ele></trkpt>
    <trkpt lat="45.378947732784134" lon="-122.04436119797793"><ele>314.5</ele></trkpt>
    <trkpt lat="45.378979193546826" lon="-122.04447703078604"><ele>314.6</ele></trkpt>
    <trkpt lat="45.37902622252199" lon="-122.04465018292187"><ele>314.7</ele></trkpt>
    <trkpt lat="45.37910892865072" lon="-122.04495469185038"><ele>314.7</ele></trkpt>
    <trkpt lat="45.37914071375118" lon="-122.04507171881113"><ele>314.8</ele></trkpt>
    <trkpt lat="45.3791880670641" lon="-122.04524606509962"><ele>314.9</ele></trkpt>
    <trkpt lat="45.379200000000004" lon="-122.04529000000001"><ele>314.9</ele></trkpt>
    <trkpt lat="45.37924800988312" lon="-122.04548203953246"><ele>315.1</ele></trkpt>
    <trkpt lat="45.37933787294121" lon="-122.04584149176483"><ele>315.8</ele></trkpt>
    <trkpt lat="45.37951" lon="-122.04653"><ele>317.3</ele></trkpt>
    <trkpt lat="45.37952677559546" lon="-122.04662327231071"><ele>317.5</ele></trkpt>
    <trkpt lat="45.37960440768458" lon="-122.0470549067262"><ele>318.3</ele></trkpt>
    <trkpt lat="45.37964880074703" lon="-122.04730173215344"><ele>318.8</ele></trkpt>
    <trkpt lat="45.37970412476456" lon="-122.04760933369091"><ele>319.3</ele></trkpt>
    <trkpt lat="45.379760000000005" lon="-122.04792"><ele>319.6</ele></trkpt>
    <trkpt lat="45.37976602462501" lon="-122.04798024625002"><ele>319.7</ele></trkpt>
    <trkpt lat="45.37981343161151" lon="-122.04845431611508"><ele>320.3</ele></trkpt>
    <trkpt lat="45.37982" lon="-122.04852000000001"><ele>320.4</ele></trkpt>
    <trkpt lat="45.379831412522165" lon="-122.04870260035466"><ele>320.5</ele></trkpt>
    <trkpt lat="45.379850000000005" lon="-122.049"><ele>320.7</ele></trkpt>
    <trkpt lat="45.3798560638475" lon="-122.04920313889104"><ele>320.8</ele></trkpt>
    <trkpt lat="45.379870000000004" lon="-122.04967"><ele>320.9</ele></trkpt>
    <trkpt lat="45.37986712509402" lon="-122.04983003643287"><ele>321.0</ele></trkpt>
    <trkpt lat="45.379861882742176" lon="-122.05012186068572"><ele>321.0</ele></trkpt>
    <trkpt lat="45.379858732732515" lon="-122.05029721122361"><ele>321.0</ele></trkpt>
    <trkpt lat="45.37984985752281" lon="-122.05079126456394"><ele>320.7</ele></trkpt>
    <trkpt lat="45.37984537393241" lon="-122.05104085109599"><ele>320.6</ele></trkpt>
    <trkpt lat="45.37984" lon="-122.05134000000001"><ele>320.5</ele></trkpt>
    <trkpt lat="45.37983766954845" lon="-122.05141582290572"><ele>320.4</ele></trkpt>
    <trkpt lat="45.37982807683579" lon="-122.05172792866394"><ele>320.2</ele></trkpt>
    <trkpt lat="45.37980885209609" lon="-122.05235341930234"><ele>319.9</ele></trkpt>
    <trkpt lat="45.37980110716005" lon="-122.05260540632845"><ele>319.9</ele></trkpt>
    <trkpt lat="45.37978553865918" lon="-122.05311193862457"><ele>319.8</ele></trkpt>
    <trkpt lat="45.37976415162768" lon="-122.05380778097074"><ele>319.6</ele></trkpt>
    <trkpt lat="45.37975444097184" lon="-122.05412372409486"><ele>319.4</ele></trkpt>
    <trkpt lat="45.37974276459619" lon="-122.05450362331695"><ele>319.3</ele></trkpt>
    <trkpt lat="45.37973533417532" lon="-122.05474537736737"><ele>319.2</ele></trkpt>
    <trkpt lat="45.37972416888682" lon="-122.055108648004"><ele>318.9</ele></trkpt>
    <trkpt lat="45.37972043401919" lon="-122.05523016459018"><ele>318.8</ele></trkpt>
    <trkpt lat="45.37970722438209" lon="-122.0556599495687"><ele>318.3</ele></trkpt>
    <trkpt lat="45.37969751372624" lon="-122.0559758926928"><ele>317.8</ele></trkpt>
    <trkpt lat="45.3796897687902" lon="-122.0562278797189"><ele>317.5</ele></trkpt>
    <trkpt lat="45.37967235251271" lon="-122.05679453074714"><ele>316.8</ele></trkpt>
    <trkpt lat="45.379653009829816" lon="-122.05742385875142"><ele>315.9</ele></trkpt>
    <trkpt lat="45.37964333848837" lon="-122.05773852275357"><ele>315.4</ele></trkpt>
    <trkpt lat="45.37963948567755" lon="-122.05786387670564"><ele>315.3</ele></trkpt>
    <trkpt lat="45.379631701427115" lon="-122.05811714285369"><ele>315.0</ele></trkpt>
    <trkpt lat="45.37961416720644" lon="-122.0586876312478"><ele>314.4</ele></trkpt>
    <trkpt lat="45.37960249083079" lon="-122.0590675304699"><ele>314.0</ele></trkpt>
    <trkpt lat="45.379592740860545" lon="-122.05938475271597"><ele>313.7</ele></trkpt>
    <trkpt lat="45.379581064484896" lon="-122.05976465193805"><ele>313.5</ele></trkpt>
    <trkpt lat="45.37957717235968" lon="-122.05989128501209"><ele>313.4</ele></trkpt>
    <trkpt lat="45.37956349094982" lon="-122.06033641945413"><ele>313.2</ele></trkpt>
    <trkpt lat="45.379560000000005" lon="-122.06045"><ele>313.1</ele></trkpt>
    <trkpt lat="45.37954440603523" lon="-122.06071821619402"><ele>312.9</ele></trkpt>
    <trkpt lat="45.37951488048153" lon="-122.06122605571774"><ele>312.6</ele></trkpt>
    <trkpt lat="45.37951" lon="-122.06131"><ele>312.5</ele></trkpt>
    <trkpt lat="45.379497072878216" lon="-122.06141493781212"><ele>312.4</ele></trkpt>
    <trkpt lat="45.37947377008733" lon="-122.06160410164404"><ele>312.2</ele></trkpt>
    <trkpt lat="45.379411940015515" lon="-122.0621060163447"><ele>311.5</ele></trkpt>
    <trkpt lat="45.37936548978568" lon="-122.0624830829163"><ele>310.9</ele></trkpt>
    <trkpt lat="45.37934995459176" lon="-122.06260919213757"><ele>310.7</ele></trkpt>
    <trkpt lat="45.379340000000006" lon="-122.06269"><ele>310.5</ele></trkpt>
    <trkpt lat="45.37933059978978" lon="-122.06273266249255"><ele>310.4</ele></trkpt>
    <trkpt lat="45.379290492737994" lon="-122.06291468680453"><ele>310.0</ele></trkpt>
    <trkpt lat="45.37926357525357" lon="-122.06303685077229"><ele>309.7</ele></trkpt>
    <trkpt lat="45.37922346820177" lon="-122.06321887508429"><ele>309.2</ele></trkpt>
    <trkpt lat="45.37916963323293" lon="-122.06346320301984"><ele>308.5</ele></trkpt>
    <trkpt lat="45.37908" lon="-122.06387000000001"><ele>307.2</ele></trkpt>
    <trkpt lat="45.37904256473814" lon="-122.06400726262684"><ele>306.7</ele></trkpt>
    <trkpt lat="45.37888046420006" lon="-122.06460163126646"><ele>304.6</ele></trkpt>
    <trkpt lat="45.378767189125256" lon="-122.06501697320739"><ele>303.2</ele></trkpt>
    <trkpt lat="45.37870339051991" lon="-122.06525090142702"><ele>302.4</ele></trkpt>
    <trkpt lat="45.378655867068986" lon="-122.06542515408039"><ele>301.7</ele></trkpt>
    <trkpt lat="45.37860866912115" lon="-122.06559821322244"><ele>300.9</ele></trkpt>
    <trkpt lat="45.37852989737374" lon="-122.06588704296297"><ele>299.7</ele></trkpt>
    <trkpt lat="45.3784826994259" lon="-122.06606010210504"><ele>299.0</ele></trkpt>
    <trkpt lat="45.37840164915687" lon="-122.06635728642486"><ele>297.7</ele></trkpt>
    <trkpt lat="45.37832027338474" lon="-122.06665566425599"><ele>296.4</ele></trkpt>
    <trkpt lat="45.37823889761261" lon="-122.0669540420871"><ele>295.2</ele></trkpt>
    <trkpt lat="45.37817379699491" lon="-122.06719274435203"><ele>294.3</ele></trkpt>
    <trkpt lat="45.378108696377204" lon="-122.06743144661692"><ele>293.5</ele></trkpt>
    <trkpt lat="45.378011045450656" lon="-122.0677895000143"><ele>292.3</ele></trkpt>
    <trkpt lat="45.37796221998738" lon="-122.06796852671297"><ele>291.6</ele></trkpt>
    <trkpt lat="45.37792966967853" lon="-122.06808787784543"><ele>291.2</ele></trkpt>
    <trkpt lat="45.377832018751974" lon="-122.06844593124279"><ele>289.8</ele></trkpt>
    <trkpt lat="45.37779946844312" lon="-122.06856528237523"><ele>289.3</ele></trkpt>
    <trkpt lat="45.377700000000004" lon="-122.06893000000001"><ele>288.1</ele></trkpt>
    <trkpt lat="45.37768884051234" lon="-122.06898460177896"><ele>288.0</ele></trkpt>
    <trkpt lat="45.377663715746195" lon="-122.06910753367046"><ele>287.6</ele></trkpt>
    <trkpt lat="45.377575779064685" lon="-122.06953779529067"><ele>286.5</ele></trkpt>
    <trkpt lat="45.377550654298545" lon="-122.06966072718214"><ele>286.2</ele></trkpt>
    <trkpt lat="45.37751296714933" lon="-122.06984512501938"><ele>285.9</ele></trkpt>
    <trkpt lat="45.377475280000105" lon="-122.07002952285663"><ele>285.6</ele></trkpt>
    <trkpt lat="45.37742" lon="-122.0703"><ele>285.2</ele></trkpt>
    <trkpt lat="45.37740523425051" lon="-122.07040021344736"><ele>285.1</ele></trkpt>
    <trkpt lat="45.37736830974617" lon="-122.0706508158211"><ele>284.8</ele></trkpt>
    <trkpt lat="45.37734080099043" lon="-122.07083751458953"><ele>284.6</ele></trkpt>
    <trkpt lat="45.37725772085566" lon="-122.07140136993043"><ele>284.2</ele></trkpt>
    <trkpt lat="45.37718387184698" lon="-122.0719025746779"><ele>284.0</ele></trkpt>
    <trkpt lat="45.37711002283829" lon="-122.07240377942537"><ele>283.9</ele></trkpt>
    <trkpt lat="45.37703635845213" lon="-122.07290373116096"><ele>283.6</ele></trkpt>
    <trkpt lat="45.37697155594701" lon="-122.07334353832687"><ele>283.4</ele></trkpt>
    <trkpt lat="45.376870013560065" lon="-122.07403269485465"><ele>283.2</ele></trkpt>
    <trkpt lat="45.37684232018181" lon="-122.07422064663493"><ele>283.2</ele></trkpt>
    <trkpt lat="45.37679616455138" lon="-122.07453389960212"><ele>283.0</ele></trkpt>
    <trkpt lat="45.37675000892095" lon="-122.07484715256928"><ele>282.7</ele></trkpt>
    <trkpt lat="45.376713084416615" lon="-122.07509775494302"><ele>282.6</ele></trkpt>
    <trkpt lat="45.37660249552611" lon="-122.07584830905236"><ele>282.1</ele></trkpt>
    <trkpt lat="45.376565571021764" lon="-122.0760989114261"><ele>282.0</ele></trkpt>
    <trkpt lat="45.37650095313917" lon="-122.07653746558012"><ele>281.7</ele></trkpt>
    <trkpt lat="45.37642710413048" lon="-122.0770386703276"><ele>281.5</ele></trkpt>
    <trkpt lat="45.376344023995706" lon="-122.0776025256685"><ele>281.3</ele></trkpt>
    <trkpt lat="45.376297868365285" lon="-122.07791577863567"><ele>281.1</ele></trkpt>
    <trkpt lat="45.37627940611311" lon="-122.07804107982253"><ele>281.1</ele></trkpt>
    <trkpt lat="45.37623417359529" lon="-122.07834806773036"><ele>280.9</ele></trkpt>
    <trkpt lat="45.376200000000004" lon="-122.07858000000002"><ele>280.9</ele></trkpt>
    <trkpt lat="45.37618943322981" lon="-122.07865650341621"><ele>280.8</ele></trkpt>
    <trkpt lat="45.3761467498517" lon="-122.07896553107372"><ele>280.7</ele></trkpt>
    <trkpt lat="45.37595051041819" lon="-122.08038630457227"><ele>280.4</ele></trkpt>
    <trkpt lat="45.37595" lon="-122.08039000000001"><ele>280.3</ele></trkpt>
    <trkpt lat="45.375909239145685" lon="-122.08088728242271"><ele>280.3</ele></trkpt>
    <trkpt lat="45.3759" lon="-122.081"><ele>280.3</ele></trkpt>
    <trkpt lat="45.375899205241225" lon="-122.08107470732513"><ele>280.3</ele></trkpt>
    <trkpt lat="45.37589585515826" lon="-122.08138961512391"><ele>280.1</ele></trkpt>
    <trkpt lat="45.375890000000005" lon="-122.08194"><ele>280.1</ele></trkpt>
    <trkpt lat="45.37589211869719" lon="-122.0820014422184"><ele>280.1</ele></trkpt>
    <trkpt lat="45.375918619072216" lon="-122.08276995309424"><ele>279.8</ele></trkpt>
    <trkpt lat="45.37592" lon="-122.08281000000001"><ele>279.8</ele></trkpt>
    <trkpt lat="45.37593560577832" lon="-122.08320072244967"><ele>279.8</ele></trkpt>
    <trkpt lat="45.375989312821794" lon="-122.08454538768629"><ele>279.2</ele></trkpt>
    <trkpt lat="45.376001820640845" lon="-122.08485854641533"><ele>279.0</ele></trkpt>
    <trkpt lat="45.37601688107604" lon="-122.0852356150891"><ele>278.7</ele></trkpt>
    <trkpt lat="45.37602923573813" lon="-122.08554493922148"><ele>278.5</ele></trkpt>
    <trkpt lat="45.37603913988874" lon="-122.08579290980694"><ele>278.3</ele></trkpt>
    <trkpt lat="45.376049248248634" lon="-122.08604599318798"><ele>278.2</ele></trkpt>
    <trkpt lat="45.37606441078847" lon="-122.08642561825953"><ele>278.0</ele></trkpt>
    <trkpt lat="45.376089732740525" lon="-122.08705960491102"><ele>277.6</ele></trkpt>
    <trkpt lat="45.37610239371656" lon="-122.08737659823674"><ele>277.5</ele></trkpt>
    <trkpt lat="45.376117556256396" lon="-122.08775622330832"><ele>277.5</ele></trkpt>
    <trkpt lat="45.37612516305248" lon="-122.08794667494354"><ele>277.5</ele></trkpt>
    <trkpt lat="45.37613767087154" lon="-122.0882598336726"><ele>277.4</ele></trkpt>
    <trkpt lat="45.37615268025441" lon="-122.08863562414746"><ele>277.5</ele></trkpt>
    <trkpt lat="45.376167689637285" lon="-122.08901141462233"><ele>277.5</ele></trkpt>
    <trkpt lat="45.376175194328724" lon="-122.08919930985977"><ele>277.6</ele></trkpt>
    <trkpt lat="45.37619" lon="-122.08957000000001"><ele>277.9</ele></trkpt>
    <trkpt lat="45.376205394058914" lon="-122.08982510154765"><ele>278.1</ele></trkpt>
    <trkpt lat="45.376239416587495" lon="-122.09038890344995"><ele>278.6</ele></trkpt>
    <trkpt lat="45.37625458047467" lon="-122.09064019072318"><ele>278.9</ele></trkpt>
    <trkpt lat="45.37628506219712" lon="-122.09114531640941"><ele>279.6</ele></trkpt>
    <trkpt lat="45.37633" lon="-122.09189"><ele>280.6</ele></trkpt>
    <trkpt lat="45.376367845734066" lon="-122.09221484255067"><ele>281.1</ele></trkpt>
    <trkpt lat="45.37644789413209" lon="-122.09290192463375"><ele>282.1</ele></trkpt>
    <trkpt lat="45.37646967200508" lon="-122.09308885137693"><ele>282.4</ele></trkpt>
    <trkpt lat="45.37650616465712" lon="-122.09340207997363"><ele>282.8</ele></trkpt>
    <trkpt lat="45.37657" lon="-122.09395"><ele>283.4</ele></trkpt>
    <trkpt lat="45.37658030168876" lon="-122.09402694569069"><ele>283.5</ele></trkpt>
    <trkpt lat="45.37659713943348" lon="-122.09415271069159"><ele>283.6</ele></trkpt>
    <trkpt lat="45.37663047816801" lon="-122.09440172539337"><ele>283.8</ele></trkpt>
    <trkpt lat="45.3766722357749" lon="-122.0947136225956"><ele>284.0</ele></trkpt>
    <trkpt lat="45.37669732401452" lon="-122.09490101244693"><ele>284.1</ele></trkpt>
    <trkpt lat="45.3767808392283" lon="-122.0955248068514"><ele>284.2</ele></trkpt>
    <trkpt lat="45.37679750859557" lon="-122.09564931420229"><ele>284.2</ele></trkpt>
    <trkpt lat="45.3768225968352" lon="-122.09583670405362"><ele>284.2</ele></trkpt>
    <trkpt lat="45.37688102380935" lon="-122.09627310860674"><ele>284.0</ele></trkpt>
    <trkpt lat="45.3769394507835" lon="-122.09670951315985"><ele>283.8</ele></trkpt>
    <trkpt lat="45.37696453902313" lon="-122.09689690301121"><ele>283.7</ele></trkpt>
    <trkpt lat="45.377014715502376" lon="-122.09727168271388"><ele>283.4</ele></trkpt>
    <trkpt lat="45.3770898118438" lon="-122.0978325946179"><ele>282.7</ele></trkpt>
    <trkpt lat="45.37712298220088" lon="-122.09808035166967"><ele>282.3</ele></trkpt>
    <trkpt lat="45.37724758151176" lon="-122.09901101267631"><ele>280.7</ele></trkpt>
    <trkpt lat="45.37728075186885" lon="-122.09925876972808"><ele>280.3</ele></trkpt>
    <trkpt lat="45.37731156494168" lon="-122.09948891967973"><ele>280.1</ele></trkpt>
    <trkpt lat="45.37734288314684" lon="-122.0997228425814"><ele>280.0</ele></trkpt>
    <trkpt lat="45.377389186944804" lon="-122.10006869633386"><ele>280.0</ele></trkpt>
    <trkpt lat="45.37740450929249" lon="-122.1001831424847"><ele>280.0</ele></trkpt>
    <trkpt lat="45.377427745380196" lon="-122.10035669818592"><ele>280.1</ele></trkpt>
    <trkpt lat="45.37745182335514" lon="-122.1005365421372"><ele>280.1</ele></trkpt>
    <trkpt lat="45.37748415182499" lon="-122.10077801093894"><ele>280.3</ele></trkpt>
    <trkpt lat="45.377507387912694" lon="-122.10095156664019"><ele>280.4</ele></trkpt>
    <trkpt lat="45.37753870611786" lon="-122.10118548954186"><ele>280.5</ele></trkpt>
    <trkpt lat="45.377563794357485" lon="-122.10137287939321"><ele>280.9</ele></trkpt>
    <trkpt lat="45.377580463724755" lon="-122.1014973867441"><ele>281.1</ele></trkpt>
    <trkpt lat="45.377647477948706" lon="-122.10199793144767"><ele>282.5</ele></trkpt>
    <trkpt lat="45.37768940393305" lon="-122.10231108629989"><ele>283.2</ele></trkpt>
    <trkpt lat="45.377713818662876" lon="-122.1024934455512"><ele>283.6</ele></trkpt>
    <trkpt lat="45.37773840177016" lon="-122.10267706245251"><ele>283.8</ele></trkpt>
    <trkpt lat="45.377754734382535" lon="-122.1027990545034"><ele>284.0</ele></trkpt>
    <trkpt lat="45.377795481724746" lon="-122.10310340580557"><ele>284.2</ele></trkpt>
    <trkpt lat="45.37784515307165" lon="-122.10347441255823"><ele>284.6</ele></trkpt>
    <trkpt lat="45.37786165406147" lon="-122.1035976622591"><ele>284.7</ele></trkpt>
    <trkpt lat="45.37787" lon="-122.10366"><ele>284.7</ele></trkpt>
    <trkpt lat="45.377876156054405" lon="-122.1037226798266"><ele>284.7</ele></trkpt>
    <trkpt lat="45.37788836027867" lon="-122.10384694101919"><ele>284.8</ele></trkpt>
    <trkpt lat="45.37790068903584" lon="-122.10397247018312"><ele>284.8</ele></trkpt>
    <trkpt lat="45.37791289326012" lon="-122.1040967313757"><ele>284.8</ele></trkpt>
    <trkpt lat="45.37793132412942" lon="-122.10428439113593"><ele>284.7</ele></trkpt>
    <trkpt lat="45.37795585711087" lon="-122.10453418149245"><ele>284.5</ele></trkpt>
    <trkpt lat="45.37797416344727" lon="-122.10472057328134"><ele>284.4</ele></trkpt>
    <trkpt lat="45.37798" lon="-122.10478"><ele>284.3</ele></trkpt>
    <trkpt lat="45.37798826960472" lon="-122.10497185482937"><ele>284.1</ele></trkpt>
    <trkpt lat="45.37800727291642" lon="-122.10541273166093"><ele>283.4</ele></trkpt>
    <trkpt lat="45.37803" lon="-122.10594"><ele>282.8</ele></trkpt>
    <trkpt lat="45.37802641683009" lon="-122.10604152314767"><ele>282.7</ele></trkpt>
    <trkpt lat="45.37801978266123" lon="-122.10622949126538"><ele>282.6</ele></trkpt>
    <trkpt lat="45.37800854519153" lon="-122.10654788624026"><ele>282.2</ele></trkpt>
    <trkpt lat="45.37800000000001" lon="-122.10679"><ele>281.9</ele></trkpt>
    <trkpt lat="45.377994930953385" lon="-122.10686603569937"><ele>281.8</ele></trkpt>
    <trkpt lat="45.37795728838336" lon="-122.10743067424968"><ele>281.1</ele></trkpt>
    <trkpt lat="45.37794" lon="-122.10769"><ele>280.9</ele></trkpt>
    <trkpt lat="45.37791795839303" lon="-122.1079280493554"><ele>280.6</ele></trkpt>
    <trkpt lat="45.37790068146739" lon="-122.10811464015224"><ele>280.5</ele></trkpt>
    <trkpt lat="45.37789" lon="-122.10823"><ele>280.4</ele></trkpt>
    <trkpt lat="45.37784389084777" lon="-122.10848030682641"><ele>280.3</ele></trkpt>
    <trkpt lat="45.37782153403032" lon="-122.10860167240685"><ele>280.3</ele></trkpt>
    <trkpt lat="45.37770997807387" lon="-122.10920726188478"><ele>280.2</ele></trkpt>
    <trkpt lat="45.37763104482042" lon="-122.10963575668919"><ele>280.2</ele></trkpt>
    <trkpt lat="45.377610000000004" lon="-122.10975"><ele>280.3</ele></trkpt>
    <trkpt lat="45.37760841327767" lon="-122.10975700802362"><ele>280.3</ele></trkpt>
    <trkpt lat="45.37758109915983" lon="-122.10987764537742"><ele>280.3</ele></trkpt>
    <trkpt lat="45.37753999003297" lon="-122.1100592106877"><ele>280.5</ele></trkpt>
    <trkpt lat="45.37749" lon="-122.11028"><ele>280.7</ele></trkpt>
    <trkpt lat="45.377320000000005" lon="-122.11088000000001"><ele>281.2</ele></trkpt>
    <trkpt lat="45.3773178867354" lon="-122.11088633979382"><ele>281.2</ele></trkpt>
    <trkpt lat="45.377260824672994" lon="-122.11105752598104"><ele>281.4</ele></trkpt>
    <trkpt lat="45.37720337705611" lon="-122.11122986883169"><ele>281.6</ele></trkpt>
    <trkpt lat="45.377106988437184" lon="-122.11151903468847"><ele>282.0</ele></trkpt>
    <trkpt lat="45.37709" lon="-122.11157000000001"><ele>282.0</ele></trkpt>
    <trkpt lat="45.37700167193461" lon="-122.11180028388478"><ele>282.3</ele></trkpt>
    <trkpt lat="45.376959864963354" lon="-122.11190928063128"><ele>282.5</ele></trkpt>
    <trkpt lat="45.376918057992086" lon="-122.11201827737779"><ele>282.7</ele></trkpt>
    <trkpt lat="45.376810000000006" lon="-122.1123"><ele>283.3</ele></trkpt>
    <trkpt lat="45.37672638021199" lon="-122.11250666033325"><ele>283.7</ele></trkpt>
    <trkpt lat="45.376661292554004" lon="-122.11266751983085"><ele>284.0</ele></trkpt>
    <trkpt lat="45.37657331199562" lon="-122.11288495749656"><ele>284.7</ele></trkpt>
    <trkpt lat="45.376507326576835" lon="-122.11304803574583"><ele>285.2</ele></trkpt>
    <trkpt lat="45.37641934601846" lon="-122.11326547341156"><ele>285.9</ele></trkpt>
    <trkpt lat="45.37635336059967" lon="-122.11342855166083"><ele>286.5</ele></trkpt>
    <trkpt lat="45.37630937032048" lon="-122.11353727049368"><ele>287.0</ele></trkpt>
    <trkpt lat="45.3761993946225" lon="-122.11380906757583"><ele>288.1</ele></trkpt>
    <trkpt lat="45.37604542864534" lon="-122.11418958349083"><ele>289.6</ele></trkpt>
    <trkpt lat="45.375825477249386" lon="-122.1147331776551"><ele>292.0</ele></trkpt>
    <trkpt lat="45.37575904295021" lon="-122.11489736528023"><ele>292.7</ele></trkpt>
    <trkpt lat="45.37562707211263" lon="-122.11522352177879"><ele>294.0</ele></trkpt>
    <trkpt lat="45.37558308183344" lon="-122.11533224061165"><ele>294.4</ele></trkpt>
    <trkpt lat="45.37553909155425" lon="-122.1154409594445"><ele>294.7</ele></trkpt>
    <trkpt lat="45.37547400389627" lon="-122.11560181894208"><ele>295.6</ele></trkpt>
    <trkpt lat="45.37514811672594" lon="-122.1164072258059"><ele>300.0</ele></trkpt>
    <trkpt lat="45.37508302906795" lon="-122.1165680853035"><ele>300.9</ele></trkpt>
    <trkpt lat="45.374909312353196" lon="-122.1169974137557"><ele>303.4</ele></trkpt>
    <trkpt lat="45.374842429173604" lon="-122.11716271075666"><ele>304.0</ele></trkpt>
    <trkpt lat="45.37471" lon="-122.11749"><ele>305.3</ele></trkpt>
    <trkpt lat="45.37469145825277" lon="-122.11755386601826"><ele>305.5</ele></trkpt>
    <trkpt lat="45.37453000000001" lon="-122.11811000000002"><ele>307.5</ele></trkpt>
    <trkpt lat="45.374454506240355" lon="-122.118310890174"><ele>308.3</ele></trkpt>
    <trkpt lat="45.37430645512897" lon="-122.11870485669073"><ele>309.8</ele></trkpt>
    <trkpt lat="45.37413719325666" lon="-122.11915526540182"><ele>311.4</ele></trkpt>
    <trkpt lat="45.373967931384335" lon="-122.11960567411289"><ele>312.9</ele></trkpt>
    <trkpt lat="45.373940000000005" lon="-122.11968000000002"><ele>313.2</ele></trkpt>
    <trkpt lat="45.37390714862617" lon="-122.11977706087728"><ele>313.6</ele></trkpt>
    <trkpt lat="45.373809950032296" lon="-122.12006423854095"><ele>314.6</ele></trkpt>
    <trkpt lat="45.37371275143843" lon="-122.12035141620464"><ele>315.8</ele></trkpt>
    <trkpt lat="45.37353748168484" lon="-122.12086925865844"><ele>317.7</ele></trkpt>
    <trkpt lat="45.37350000000001" lon="-122.12098"><ele>318.2</ele></trkpt>
    <trkpt lat="45.37342652281716" lon="-122.12121786462355"><ele>319.1</ele></trkpt>
    <trkpt lat="45.37337222417383" lon="-122.12139364335997"><ele>319.8</ele></trkpt>
    <trkpt lat="45.37328208842589" lon="-122.12168543606244"><ele>320.8</ele></trkpt>
    <trkpt lat="45.37320969023478" lon="-122.121919807711"><ele>321.6</ele></trkpt>
    <trkpt lat="45.3730652558435" lon="-122.1223873791499"><ele>323.2</ele></trkpt>
    <trkpt lat="45.37286688479984" lon="-122.12302955746696"><ele>325.6</ele></trkpt>
    <trkpt lat="45.37275864950412" lon="-122.12337994308157"><ele>326.8</ele></trkpt>
    <trkpt lat="45.37256027846047" lon="-122.12402212139864"><ele>329.1</ele></trkpt>
    <trkpt lat="45.37239738253046" lon="-122.12454945760791"><ele>330.9</ele></trkpt>
    <trkpt lat="45.372271047686965" lon="-122.12495843613465"><ele>332.4</ele></trkpt>
    <trkpt lat="45.37212661329569" lon="-122.12542600757355"><ele>334.1</ele></trkpt>
    <trkpt lat="45.37191014270425" lon="-122.12612677880277"><ele>336.7</ele></trkpt>
    <trkpt lat="45.37167557256504" lon="-122.12688614294412"><ele>339.4</ele></trkpt>
    <trkpt lat="45.371621273921704" lon="-122.12706192168055"><ele>340.0</ele></trkpt>
    <trkpt lat="45.371567337269326" lon="-122.12723652855874"><ele>340.5</ele></trkpt>
    <trkpt lat="45.37151303862599" lon="-122.12741230729516"><ele>341.0</ele></trkpt>
    <trkpt lat="45.37138670378249" lon="-122.12782128582192"><ele>342.2</ele></trkpt>
    <trkpt lat="45.371350866677886" lon="-122.12793729978796"><ele>342.5</ele></trkpt>
    <trkpt lat="45.37124226939122" lon="-122.1282888572608"><ele>343.3</ele></trkpt>
    <trkpt lat="45.37113367210454" lon="-122.12864041473364"><ele>344.2</ele></trkpt>
    <trkpt lat="45.37104317436565" lon="-122.12893337929435"><ele>344.9</ele></trkpt>
    <trkpt lat="45.370916477531196" lon="-122.12934352967935"><ele>345.9</ele></trkpt>
    <trkpt lat="45.3707901426877" lon="-122.12975250820611"><ele>346.7</ele></trkpt>
    <trkpt lat="45.37075394359215" lon="-122.12986969403039"><ele>347.0</ele></trkpt>
    <trkpt lat="45.37059104766213" lon="-122.13039703023966"><ele>348.4</ele></trkpt>
    <trkpt lat="45.370355753541006" lon="-122.1311587380975"><ele>350.4</ele></trkpt>
    <trkpt lat="45.37022941869751" lon="-122.13156771662425"><ele>351.4</ele></trkpt>
    <trkpt lat="45.3701570205064" lon="-122.13180208827282"><ele>352.1</ele></trkpt>
    <trkpt lat="45.37008462231528" lon="-122.13203645992138"><ele>352.7</ele></trkpt>
    <trkpt lat="45.37001222412417" lon="-122.13227083156994"><ele>353.4</ele></trkpt>
    <trkpt lat="45.3699590114537" lon="-122.13244309473164"><ele>353.8</ele></trkpt>
    <trkpt lat="45.36972769923308" lon="-122.13319191214882"><ele>355.5</ele></trkpt>
    <trkpt lat="45.36956733723976" lon="-122.1337110453504"><ele>356.7</ele></trkpt>
    <trkpt lat="45.369442812351046" lon="-122.13411416458592"><ele>357.6</ele></trkpt>
    <trkpt lat="45.36938959968058" lon="-122.13428642774761"><ele>358.1</ele></trkpt>
    <trkpt lat="45.36935376257597" lon="-122.13440244171366"><ele>358.5</ele></trkpt>
    <trkpt lat="45.36931792547137" lon="-122.13451845567971"><ele>358.8</ele></trkpt>
    <trkpt lat="45.36922778972343" lon="-122.13481024838217"><ele>359.4</ele></trkpt>
    <trkpt lat="45.3691734910801" lon="-122.13498602711859"><ele>359.8</ele></trkpt>
    <trkpt lat="45.36910145487994" lon="-122.13521922690892"><ele>360.4</ele></trkpt>
    <trkpt lat="45.36899321958422" lon="-122.13556961252351"><ele>361.4</ele></trkpt>
    <trkpt lat="45.36890308383628" lon="-122.13586140522598"><ele>362.1</ele></trkpt>
    <trkpt lat="45.3686869752358" lon="-122.13656100459696"><ele>364.0</ele></trkpt>
    <trkpt lat="45.36854254084452" lon="-122.13702857603585"><ele>365.0</ele></trkpt>
    <trkpt lat="45.36845240509659" lon="-122.13732036873832"><ele>365.8</ele></trkpt>
    <trkpt lat="45.368290233148485" lon="-122.13784536123111"><ele>366.9</ele></trkpt>
    <trkpt lat="45.368146160748175" lon="-122.13831176081175"><ele>368.1</ele></trkpt>
    <trkpt lat="45.368019825904675" lon="-122.1387207393385"><ele>369.1</ele></trkpt>
    <trkpt lat="45.367839554408796" lon="-122.13930432474342"><ele>370.3</ele></trkpt>
    <trkpt lat="45.367810000000006" lon="-122.13940000000001"><ele>370.5</ele></trkpt>
    <trkpt lat="45.367770775770076" lon="-122.13953946392866"><ele>370.9</ele></trkpt>
    <trkpt lat="45.36768755175366" lon="-122.13983537154259"><ele>371.5</ele></trkpt>
    <trkpt lat="45.36763775103701" lon="-122.14001244075733"><ele>371.9</ele></trkpt>
    <trkpt lat="45.36758761608736" lon="-122.14019069835608"><ele>372.3</ele></trkpt>
    <trkpt lat="45.36753781537071" lon="-122.14036776757084"><ele>372.8</ele></trkpt>
    <trkpt lat="45.36748768042106" lon="-122.14054602516958"><ele>373.3</ele></trkpt>
    <trkpt lat="45.36742150228753" lon="-122.14078132519992"><ele>373.9</ele></trkpt>
    <trkpt lat="45.367388078987766" lon="-122.1409001635991"><ele>374.3</ele></trkpt>
    <trkpt lat="45.367360000000005" lon="-122.141"><ele>374.5</ele></trkpt>
    <trkpt lat="45.36727997564752" lon="-122.14138678437033"><ele>375.4</ele></trkpt>
    <trkpt lat="45.36724" lon="-122.14158"><ele>375.8</ele></trkpt>
    <trkpt lat="45.36722169801601" lon="-122.14169438739995"><ele>376.1</ele></trkpt>
    <trkpt lat="45.36715220355534" lon="-122.14212872777912"><ele>377.2</ele></trkpt>
    <trkpt lat="45.36705275458576" lon="-122.142750283839"><ele>378.6</ele></trkpt>
    <trkpt lat="45.36704" lon="-122.14283"><ele>378.8</ele></trkpt>
    <trkpt lat="45.366979012220554" lon="-122.14337889001507"><ele>380.0</ele></trkpt>
    <trkpt lat="45.36694000000001" lon="-122.14373"><ele>380.7</ele></trkpt>
    <trkpt lat="45.36693815574444" lon="-122.14375713690325"><ele>380.8</ele></trkpt>
    <trkpt lat="45.366925167253605" lon="-122.1439482532686"><ele>381.2</ele></trkpt>
    <trkpt lat="45.366907935855735" lon="-122.14420180097996"><ele>381.6</ele></trkpt>
    <trkpt lat="45.36689503395483" lon="-122.14439164323622"><ele>381.9</ele></trkpt>
    <trkpt lat="45.36687347306002" lon="-122.14470889640269"><ele>382.3</ele></trkpt>
    <trkpt lat="45.366870000000006" lon="-122.14476"><ele>382.3</ele></trkpt>
    <trkpt lat="45.36686773203674" lon="-122.14483659530478"><ele>382.4</ele></trkpt>
    <trkpt lat="45.36685640939772" lon="-122.14521899170447"><ele>382.6</ele></trkpt>
    <trkpt lat="45.36684323120916" lon="-122.14566405507267"><ele>382.9</ele></trkpt>
    <trkpt lat="45.36683569540593" lon="-122.14591855969988"><ele>383.0</ele></trkpt>
    <trkpt lat="45.36682444850362" lon="-122.14629839826412"><ele>383.5</ele></trkpt>
    <trkpt lat="45.366813163732964" lon="-122.14667951574609"><ele>383.9</ele></trkpt>
    <trkpt lat="45.36680566579809" lon="-122.14693274145557"><ele>384.1</ele></trkpt>
    <trkpt lat="45.36679812999486" lon="-122.14718724608281"><ele>384.3</ele></trkpt>
    <trkpt lat="45.366794381027425" lon="-122.14731385893752"><ele>384.4</ele></trkpt>
    <trkpt lat="45.36678688309256" lon="-122.14756708464702"><ele>384.7</ele></trkpt>
    <trkpt lat="45.366775598321894" lon="-122.14794820212899"><ele>385.1</ele></trkpt>
    <trkpt lat="45.366756815616355" lon="-122.14858254532044"><ele>385.6</ele></trkpt>
    <trkpt lat="45.366743675296156" lon="-122.14902632977092"><ele>386.2</ele></trkpt>
    <trkpt lat="45.36673428394339" lon="-122.14934350136664"><ele>386.5</ele></trkpt>
    <trkpt lat="45.366728641558055" lon="-122.14953406010761"><ele>386.7</ele></trkpt>
    <trkpt lat="45.3667173567874" lon="-122.14991517758958"><ele>387.1</ele></trkpt>
    <trkpt lat="45.36670610988509" lon="-122.15029501615382"><ele>387.5</ele></trkpt>
    <trkpt lat="45.36669482511443" lon="-122.15067613363578"><ele>387.8</ele></trkpt>
    <trkpt lat="45.366672331309815" lon="-122.15143581076426"><ele>388.5</ele></trkpt>
    <trkpt lat="45.36666100867079" lon="-122.15181820716394"><ele>388.8</ele></trkpt>
    <trkpt lat="45.36665161731803" lon="-122.15213537875967"><ele>389.1</ele></trkpt>
    <trkpt lat="45.36665000000001" lon="-122.15219"><ele>389.2</ele></trkpt>
    <trkpt lat="45.3666366567072" lon="-122.15232343292809"><ele>389.3</ele></trkpt>
    <trkpt lat="45.36661156462087" lon="-122.15257435379141"><ele>389.3</ele></trkpt>
    <trkpt lat="45.36659268219226" lon="-122.15276317807744"><ele>389.4</ele></trkpt>
    <trkpt lat="45.366580000000006" lon="-122.15289000000001"><ele>389.5</ele></trkpt>
    <trkpt lat="45.366568239602486" lon="-122.1533324849567"><ele>389.7</ele></trkpt>
    <trkpt lat="45.36655814252527" lon="-122.15371238748685"><ele>389.9</ele></trkpt>
    <trkpt lat="45.366548011451165" lon="-122.15409356915006"><ele>390.1</ele></trkpt>
    <trkpt lat="45.36654474774944" lon="-122.15421636592747"><ele>390.3</ele></trkpt>
    <trkpt lat="45.366541484047715" lon="-122.15433916270489"><ele>390.5</ele></trkpt>
    <trkpt lat="45.36653495664426" lon="-122.15458475625972"><ele>390.7</ele></trkpt>
    <trkpt lat="45.36652186784047" lon="-122.15507722250248"><ele>391.1</ele></trkpt>
  </trkseg></trk>
</gpx>
