<?xml version="1.0" encoding="UTF-8"?>
<gpx version="1.1" creator="h2c-tracker" xmlns="http://www.topografix.com/GPX/1/1">
  <metadata><name>Hood to Coast 2026 — Leg 22 (6.82 mi)</name><desc>Derived from the official Hood to Coast Strava route (simplified, 546 points, ~6.76 mi). Verify against the official leg map PDF.</desc></metadata>
  <wpt lat="45.94556913106773" lon="-123.04353795323235"><name>Exchange 21 — Pittsburgh Rd gravel section (GPS pin)</name></wpt>
  <wpt lat="45.94932871939734" lon="-123.14952863999618"><name>Exchange 22 — Apiary Rd</name></wpt>
  <trk><name>HTC Leg 22</name><trkseg>
    <trkpt lat="45.94556913106773" lon="-123.04353795323235"><ele>288.5</ele></trkpt>
    <trkpt lat="45.945792393868025" lon="-123.04349983519327"><ele>289.5</ele></trkpt>
    <trkpt lat="45.94585000000001" lon="-123.04349"><ele>289.7</ele></trkpt>
    <trkpt lat="45.9459242773102" lon="-123.04346143180376"><ele>290.1</ele></trkpt>
    <trkpt lat="45.945980000000006" lon="-123.04344"><ele>290.4</ele></trkpt>
    <trkpt lat="45.946160000000006" lon="-123.04367"><ele>291.6</ele></trkpt>
    <trkpt lat="45.94615" lon="-123.04367"><ele>291.7</ele></trkpt>
    <trkpt lat="45.946130633858445" lon="-123.04380556299091"><ele>292.2</ele></trkpt>
    <trkpt lat="45.94610348591996" lon="-123.04399559856026"><ele>292.9</ele></trkpt>
    <trkpt lat="45.94608" lon="-123.04416"><ele>293.6</ele></trkpt>
    <trkpt lat="45.94605587614437" lon="-123.04424395101762"><ele>294.0</ele></trkpt>
    <trkpt lat="45.94595283218604" lon="-123.04460254399261"><ele>295.7</ele></trkpt>
    <trkpt lat="45.94590131020688" lon="-123.0447818404801"><ele>296.5</ele></trkpt>
    <trkpt lat="45.94586696222076" lon="-123.04490137147175"><ele>297.0</ele></trkpt>
    <trkpt lat="45.945798266248545" lon="-123.04514043345509"><ele>297.9</ele></trkpt>
    <trkpt lat="45.945763918262436" lon="-123.04525996444676"><ele>298.4</ele></trkpt>
    <trkpt lat="45.94569522229021" lon="-123.04549902643006"><ele>299.4</ele></trkpt>
    <trkpt lat="45.945609352324944" lon="-123.04579785390924"><ele>300.6</ele></trkpt>
    <trkpt lat="45.94558000000001" lon="-123.0459"><ele>301.1</ele></trkpt>
    <trkpt lat="45.945571393447516" lon="-123.04591416495097"><ele>301.2</ele></trkpt>
    <trkpt lat="45.945423456200125" lon="-123.04615764500399"><ele>302.6</ele></trkpt>
    <trkpt lat="45.94536428130117" lon="-123.04625503702519"><ele>303.2</ele></trkpt>
    <trkpt lat="45.94518675660429" lon="-123.04654721308879"><ele>305.0</ele></trkpt>
    <trkpt lat="45.945100000000004" lon="-123.04669000000001"><ele>305.9</ele></trkpt>
    <trkpt lat="45.94509745552697" lon="-123.04669241398726"><ele>305.9</ele></trkpt>
    <trkpt lat="45.94487299962336" lon="-123.0469053593317"><ele>307.5</ele></trkpt>
    <trkpt lat="45.94461025859907" lon="-123.04715462645731"><ele>309.3</ele></trkpt>
    <trkpt lat="45.9444601208709" lon="-123.0472970648148"><ele>310.3</ele></trkpt>
    <trkpt lat="45.944320000000005" lon="-123.04743"><ele>311.3</ele></trkpt>
    <trkpt lat="45.94431046847609" lon="-123.0474404846763"><ele>311.3</ele></trkpt>
    <trkpt lat="45.94413188934338" lon="-123.0476369217223"><ele>312.5</ele></trkpt>
    <trkpt lat="45.94402474186375" lon="-123.0477547839499"><ele>313.3</ele></trkpt>
    <trkpt lat="45.94395331021067" lon="-123.04783335876829"><ele>313.9</ele></trkpt>
    <trkpt lat="45.94377473107795" lon="-123.04802979581426"><ele>315.3</ele></trkpt>
    <trkpt lat="45.94370329942487" lon="-123.04810837063266"><ele>315.8</ele></trkpt>
    <trkpt lat="45.94359615194524" lon="-123.04822623286023"><ele>316.5</ele></trkpt>
    <trkpt lat="45.94345328863908" lon="-123.04838338249704"><ele>317.5</ele></trkpt>
    <trkpt lat="45.94327470950636" lon="-123.04857981954301"><ele>318.7</ele></trkpt>
    <trkpt lat="45.943220000000004" lon="-123.04864"><ele>319.0</ele></trkpt>
    <trkpt lat="45.943165739825744" lon="-123.04885025817528"><ele>319.8</ele></trkpt>
    <trkpt lat="45.94306" lon="-123.04926"><ele>321.3</ele></trkpt>
    <trkpt lat="45.94304950975921" lon="-123.04946905551287"><ele>322.1</ele></trkpt>
    <trkpt lat="45.943039800545506" lon="-123.04966254627175"><ele>322.8</ele></trkpt>
    <trkpt lat="45.94302361852266" lon="-123.04998503086985"><ele>324.0</ele></trkpt>
    <trkpt lat="45.94300432955143" lon="-123.05036943251082"><ele>325.5</ele></trkpt>
    <trkpt lat="45.94298827698477" lon="-123.05068933723214"><ele>326.6</ele></trkpt>
    <trkpt lat="45.94296905274163" lon="-123.05107244893472"><ele>328.0</ele></trkpt>
    <trkpt lat="45.94295947298411" lon="-123.0512633598168"><ele>328.7</ele></trkpt>
    <trkpt lat="45.94295306490306" lon="-123.05139106371766"><ele>329.2</ele></trkpt>
    <trkpt lat="45.94294342041744" lon="-123.05158326453814"><ele>330.0</ele></trkpt>
    <trkpt lat="45.9429241961743" lon="-123.05196637624071"><ele>331.7</ele></trkpt>
    <trkpt lat="45.94292" lon="-123.05205000000001"><ele>332.0</ele></trkpt>
    <trkpt lat="45.942900220739965" lon="-123.05215507731894"><ele>332.5</ele></trkpt>
    <trkpt lat="45.94287695718287" lon="-123.05227866496605"><ele>333.0</ele></trkpt>
    <trkpt lat="45.94278390295447" lon="-123.05277301555441"><ele>334.9</ele></trkpt>
    <trkpt lat="45.94276000000001" lon="-123.05290000000001"><ele>335.3</ele></trkpt>
    <trkpt lat="45.94268484284067" lon="-123.0531282550765"><ele>336.2</ele></trkpt>
    <trkpt lat="45.9425893949106" lon="-123.05341813397524"><ele>337.4</ele></trkpt>
    <trkpt lat="45.942513190514816" lon="-123.05364956954762"><ele>338.4</ele></trkpt>
    <trkpt lat="45.942436986119034" lon="-123.05388100512002"><ele>339.4</ele></trkpt>
    <trkpt lat="45.942341923059644" lon="-123.05416971515223"><ele>340.5</ele></trkpt>
    <trkpt lat="45.94228457732746" lon="-123.05434387626477"><ele>341.3</ele></trkpt>
    <trkpt lat="45.942220000000006" lon="-123.05454000000002"><ele>342.1</ele></trkpt>
    <trkpt lat="45.94221122782787" lon="-123.05470792443803"><ele>342.7</ele></trkpt>
    <trkpt lat="45.94220118980936" lon="-123.05490008079241"><ele>343.4</ele></trkpt>
    <trkpt lat="45.94219445288418" lon="-123.05502904478863"><ele>343.9</ele></trkpt>
    <trkpt lat="45.94217774530975" lon="-123.05534887549923"><ele>345.2</ele></trkpt>
    <trkpt lat="45.94216097036606" lon="-123.05566999584983"><ele>346.4</ele></trkpt>
    <trkpt lat="45.942150000000005" lon="-123.05588000000002"><ele>347.2</ele></trkpt>
    <trkpt lat="45.94220403943956" lon="-123.05603657581206"><ele>347.9</ele></trkpt>
    <trkpt lat="45.942303193907364" lon="-123.05632386952647"><ele>349.1</ele></trkpt>
    <trkpt lat="45.94244233001541" lon="-123.05672700748055"><ele>350.8</ele></trkpt>
    <trkpt lat="45.94248231165565" lon="-123.05684285172023"><ele>351.3</ele></trkpt>
    <trkpt lat="45.94254" lon="-123.05701"><ele>352.1</ele></trkpt>
    <trkpt lat="45.942593893789066" lon="-123.05726044760802"><ele>353.3</ele></trkpt>
    <trkpt lat="45.94267338671703" lon="-123.05762985592033"><ele>354.8</ele></trkpt>
    <trkpt lat="45.942710000000005" lon="-123.05780000000001"><ele>355.5</ele></trkpt>
    <trkpt lat="45.94271299410522" lon="-123.05787784673562"><ele>355.8</ele></trkpt>
    <trkpt lat="45.94272039432019" lon="-123.05807025232482"><ele>356.6</ele></trkpt>
    <trkpt lat="45.94273767804374" lon="-123.05851962913721"><ele>358.1</ele></trkpt>
    <trkpt lat="45.94274" lon="-123.05858"><ele>358.4</ele></trkpt>
    <trkpt lat="45.94272147756892" lon="-123.058643505478"><ele>358.7</ele></trkpt>
    <trkpt lat="45.94265260343252" lon="-123.05887964537425"><ele>359.8</ele></trkpt>
    <trkpt lat="45.942617818515146" lon="-123.05899890794811"><ele>360.3</ele></trkpt>
    <trkpt lat="45.942600000000006" lon="-123.05906000000002"><ele>360.6</ele></trkpt>
    <trkpt lat="45.94250672618766" lon="-123.05919431428981"><ele>361.3</ele></trkpt>
    <trkpt lat="45.94238026413834" lon="-123.05937641964081"><ele>362.2</ele></trkpt>
    <trkpt lat="45.94231671536984" lon="-123.05946792986745"><ele>362.7</ele></trkpt>
    <trkpt lat="45.94222202770478" lon="-123.05960428010512"><ele>363.4</ele></trkpt>
    <trkpt lat="45.9421" lon="-123.05978"><ele>364.2</ele></trkpt>
    <trkpt lat="45.94194325599702" lon="-123.05991951938728"><ele>365.1</ele></trkpt>
    <trkpt lat="45.94186678724939" lon="-123.05998758497584"><ele>365.6</ele></trkpt>
    <trkpt lat="45.94175284881541" lon="-123.06008900270277"><ele>366.3</ele></trkpt>
    <trkpt lat="45.94163891038144" lon="-123.0601904204297"><ele>367.1</ele></trkpt>
    <trkpt lat="45.94144926788732" lon="-123.06035922308934"><ele>368.4</ele></trkpt>
    <trkpt lat="45.941335329453345" lon="-123.06046064081626"><ele>369.2</ele></trkpt>
    <trkpt lat="45.941258860705716" lon="-123.06052870640481"><ele>369.7</ele></trkpt>
    <trkpt lat="45.941190000000006" lon="-123.06059"><ele>370.1</ele></trkpt>
    <trkpt lat="45.94108376403595" lon="-123.06081132492511"><ele>371.0</ele></trkpt>
    <trkpt lat="45.94107" lon="-123.06084000000001"><ele>371.2</ele></trkpt>
    <trkpt lat="45.94101644266879" lon="-123.06089246432447"><ele>371.5</ele></trkpt>
    <trkpt lat="45.94049913776345" lon="-123.06139921198684"><ele>375.2</ele></trkpt>
    <trkpt lat="45.94035197343693" lon="-123.06154337295975"><ele>376.3</ele></trkpt>
    <trkpt lat="45.940090000000005" lon="-123.0618"><ele>378.4</ele></trkpt>
    <trkpt lat="45.940055922133716" lon="-123.06182198572019"><ele>378.6</ele></trkpt>
    <trkpt lat="45.939854893747324" lon="-123.06195168145337"><ele>379.9</ele></trkpt>
    <trkpt lat="45.93977366186873" lon="-123.06200408911695"><ele>380.4</ele></trkpt>
    <trkpt lat="45.93969325051417" lon="-123.06205596741022"><ele>380.9</ele></trkpt>
    <trkpt lat="45.9395718129583" lon="-123.06213431422046"><ele>381.5</ele></trkpt>
    <trkpt lat="45.93949140160374" lon="-123.06218619251372"><ele>381.9</ele></trkpt>
    <trkpt lat="45.93947000000001" lon="-123.0622"><ele>381.9</ele></trkpt>
    <trkpt lat="45.939317729719676" lon="-123.06218154299631"><ele>382.6</ele></trkpt>
    <trkpt lat="45.93918778880182" lon="-123.06216579258205"><ele>382.8</ele></trkpt>
    <trkpt lat="45.93905784788396" lon="-123.06215004216776"><ele>383.0</ele></trkpt>
    <trkpt lat="45.93901483295943" lon="-123.0621448282375"><ele>383.1</ele></trkpt>
    <trkpt lat="45.93892790696609" lon="-123.06213429175347"><ele>383.1</ele></trkpt>
    <trkpt lat="45.938810000000004" lon="-123.06212000000001"><ele>383.1</ele></trkpt>
    <trkpt lat="45.93879860430714" lon="-123.06211425127995"><ele>383.1</ele></trkpt>
    <trkpt lat="45.938675555219085" lon="-123.06205217740964"><ele>383.1</ele></trkpt>
    <trkpt lat="45.938552506131025" lon="-123.06199010353932"><ele>383.0</ele></trkpt>
    <trkpt lat="45.93847019053418" lon="-123.06194857826054"><ele>382.9</ele></trkpt>
    <trkpt lat="45.938388723551746" lon="-123.06190748107744"><ele>382.8</ele></trkpt>
    <trkpt lat="45.938265674463686" lon="-123.06184540720713"><ele>382.5</ele></trkpt>
    <trkpt lat="45.938138382303634" lon="-123.06178119285853"><ele>382.0</ele></trkpt>
    <trkpt lat="45.93788464659791" lon="-123.06165319225698"><ele>380.8</ele></trkpt>
    <trkpt lat="45.93780063377227" lon="-123.06161081078692"><ele>380.4</ele></trkpt>
    <trkpt lat="45.937504467346535" lon="-123.0614614054025"><ele>379.2</ele></trkpt>
    <trkpt lat="45.93724988302642" lon="-123.06133297670529"><ele>378.3</ele></trkpt>
    <trkpt lat="45.93716587020078" lon="-123.06129059523522"><ele>377.9</ele></trkpt>
    <trkpt lat="45.93703857804071" lon="-123.06122638088662"><ele>377.4</ele></trkpt>
    <trkpt lat="45.93691213449506" lon="-123.06116259463366"><ele>376.8</ele></trkpt>
    <trkpt lat="45.93665839878934" lon="-123.06103459403212"><ele>375.6</ele></trkpt>
    <trkpt lat="45.93657" lon="-123.06099"><ele>375.1</ele></trkpt>
    <trkpt lat="45.93630624754271" lon="-123.0609509255619"><ele>373.9</ele></trkpt>
    <trkpt lat="45.9363" lon="-123.06095"><ele>373.9</ele></trkpt>
    <trkpt lat="45.93616" lon="-123.06081"><ele>373.1</ele></trkpt>
    <trkpt lat="45.936071433322276" lon="-123.06077372983674"><ele>372.7</ele></trkpt>
    <trkpt lat="45.93594169438174" lon="-123.06072059865159"><ele>372.0</ele></trkpt>
    <trkpt lat="45.93585520175471" lon="-123.06068517786146"><ele>371.7</ele></trkpt>
    <trkpt lat="45.93559658879991" lon="-123.06057926969902"><ele>370.6</ele></trkpt>
    <trkpt lat="45.935510961099155" lon="-123.06054420311679"><ele>370.2</ele></trkpt>
    <trkpt lat="45.93512260920381" lon="-123.0603851637692"><ele>368.4</ele></trkpt>
    <trkpt lat="45.93511" lon="-123.06038000000001"><ele>368.3</ele></trkpt>
    <trkpt lat="45.93504" lon="-123.06029000000001"><ele>367.9</ele></trkpt>
    <trkpt lat="45.934970112080364" lon="-123.06026043203401"><ele>367.6</ele></trkpt>
    <trkpt lat="45.93488469982794" lon="-123.06022429608106"><ele>367.2</ele></trkpt>
    <trkpt lat="45.93479842482549" lon="-123.06018779511848"><ele>366.9</ele></trkpt>
    <trkpt lat="45.93471214982304" lon="-123.06015129415592"><ele>366.6</ele></trkpt>
    <trkpt lat="45.93449732506695" lon="-123.06006040675909"><ele>365.9</ele></trkpt>
    <trkpt lat="45.934411050064504" lon="-123.06002390579653"><ele>365.6</ele></trkpt>
    <trkpt lat="45.93426" lon="-123.05996"><ele>364.9</ele></trkpt>
    <trkpt lat="45.93417669669043" lon="-123.05985355688222"><ele>364.4</ele></trkpt>
    <trkpt lat="45.93408" lon="-123.05973000000002"><ele>363.9</ele></trkpt>
    <trkpt lat="45.93398594765679" lon="-123.05971580341989"><ele>363.5</ele></trkpt>
    <trkpt lat="45.93385178655093" lon="-123.05969555268695"><ele>363.0</ele></trkpt>
    <trkpt lat="45.93367379948383" lon="-123.05966868671455"><ele>362.1</ele></trkpt>
    <trkpt lat="45.933550000000004" lon="-123.05965"><ele>361.4</ele></trkpt>
    <trkpt lat="45.93324561459518" lon="-123.05948919261633"><ele>359.6</ele></trkpt>
    <trkpt lat="45.933162044387764" lon="-123.05944504231807"><ele>359.1</ele></trkpt>
    <trkpt lat="45.933020000000006" lon="-123.05937000000002"><ele>358.2</ele></trkpt>
    <trkpt lat="45.932860453914614" lon="-123.05932539571808"><ele>357.2</ele></trkpt>
    <trkpt lat="45.93264063944625" lon="-123.05926394221079"><ele>355.9</ele></trkpt>
    <trkpt lat="45.932245149961005" lon="-123.05915337525792"><ele>353.7</ele></trkpt>
    <trkpt lat="45.93209" lon="-123.05911"><ele>352.9</ele></trkpt>
    <trkpt lat="45.931800301079605" lon="-123.05914476387045"><ele>351.4</ele></trkpt>
    <trkpt lat="45.93159000000001" lon="-123.05917000000001"><ele>350.2</ele></trkpt>
    <trkpt lat="45.931468664785065" lon="-123.05929133521495"><ele>349.4</ele></trkpt>
    <trkpt lat="45.931380000000004" lon="-123.05938"><ele>348.8</ele></trkpt>
    <trkpt lat="45.9312845557064" lon="-123.05956623276802"><ele>347.9</ele></trkpt>
    <trkpt lat="45.931151718250305" lon="-123.0598254278043"><ele>346.7</ele></trkpt>
    <trkpt lat="45.93109836987436" lon="-123.05992952219638"><ele>346.2</ele></trkpt>
    <trkpt lat="45.93097" lon="-123.06018000000002"><ele>345.1</ele></trkpt>
    <trkpt lat="45.93096693521218" lon="-123.06018989090616"><ele>345.1</ele></trkpt>
    <trkpt lat="45.930930703879895" lon="-123.06030681929673"><ele>344.6</ele></trkpt>
    <trkpt lat="45.93082091196388" lon="-123.060661147753"><ele>343.1</ele></trkpt>
    <trkpt lat="45.930711486020904" lon="-123.0610142951144"><ele>341.5</ele></trkpt>
    <trkpt lat="45.9305292314403" lon="-123.06160248035178"><ele>339.0</ele></trkpt>
    <trkpt lat="45.93045603682961" lon="-123.06183869932262"><ele>338.0</ele></trkpt>
    <trkpt lat="45.930346610886644" lon="-123.06219184668402"><ele>336.6</ele></trkpt>
    <trkpt lat="45.93025548359635" lon="-123.06248593930272"><ele>335.4</ele></trkpt>
    <trkpt lat="45.93007322901575" lon="-123.06307412454011"><ele>332.9</ele></trkpt>
    <trkpt lat="45.92996380307278" lon="-123.0634272719015"><ele>331.4</ele></trkpt>
    <trkpt lat="45.92987" lon="-123.06373"><ele>330.1</ele></trkpt>
    <trkpt lat="45.929811512296176" lon="-123.06389421547613"><ele>329.4</ele></trkpt>
    <trkpt lat="45.929688952919896" lon="-123.06423832449414"><ele>327.8</ele></trkpt>
    <trkpt lat="45.929504908906694" lon="-123.06475506345431"><ele>325.5</ele></trkpt>
    <trkpt lat="45.92932086489348" lon="-123.06527180241447"><ele>323.2</ele></trkpt>
    <trkpt lat="45.92928028503311" lon="-123.06538573817629"><ele>322.7</ele></trkpt>
    <trkpt lat="45.92917781063822" lon="-123.06567345474653"><ele>321.5</ele></trkpt>
    <trkpt lat="45.92909624101989" lon="-123.06590247713646"><ele>320.6</ele></trkpt>
    <trkpt lat="45.92909" lon="-123.06592"><ele>320.5</ele></trkpt>
    <trkpt lat="45.929035876753645" lon="-123.06614451124415"><ele>319.6</ele></trkpt>
    <trkpt lat="45.92891836746411" lon="-123.06663195718593"><ele>317.7</ele></trkpt>
    <trkpt lat="45.928874191039476" lon="-123.06681520753999"><ele>316.9</ele></trkpt>
    <trkpt lat="45.92882" lon="-123.06704"><ele>316.2</ele></trkpt>
    <trkpt lat="45.928809360803434" lon="-123.0672527839313"><ele>315.5</ele></trkpt>
    <trkpt lat="45.92879975303111" lon="-123.06744493937785"><ele>314.9</ele></trkpt>
    <trkpt lat="45.92879330486176" lon="-123.06757390276482"><ele>314.5</ele></trkpt>
    <trkpt lat="45.92878685669241" lon="-123.06770286615176"><ele>314.2</ele></trkpt>
    <trkpt lat="45.92878" lon="-123.06784"><ele>313.9</ele></trkpt>
    <trkpt lat="45.928785496116646" lon="-123.06789459475867"><ele>313.7</ele></trkpt>
    <trkpt lat="45.9287983782909" lon="-123.06802255768956"><ele>313.5</ele></trkpt>
    <trkpt lat="45.92881757273054" lon="-123.0682132224566"><ele>313.1</ele></trkpt>
    <trkpt lat="45.92883676717017" lon="-123.06840388722365"><ele>312.8</ele></trkpt>
    <trkpt lat="45.928849649344414" lon="-123.06853185015456"><ele>312.6</ele></trkpt>
    <trkpt lat="45.928862531518675" lon="-123.06865981308546"><ele>312.5</ele></trkpt>
    <trkpt lat="45.92893" lon="-123.06933000000001"><ele>312.2</ele></trkpt>
    <trkpt lat="45.92894457663873" lon="-123.06942370696326"><ele>312.2</ele></trkpt>
    <trkpt lat="45.9289640082843" lon="-123.06954862468474"><ele>312.1</ele></trkpt>
    <trkpt lat="45.92898363620911" lon="-123.06967480420141"><ele>312.0</ele></trkpt>
    <trkpt lat="45.929" lon="-123.06978000000001"><ele>311.9</ele></trkpt>
    <trkpt lat="45.92910214006787" lon="-123.07015937739493"><ele>311.7</ele></trkpt>
    <trkpt lat="45.929140000000004" lon="-123.0703"><ele>311.6</ele></trkpt>
    <trkpt lat="45.92937866283477" lon="-123.07073972809968"><ele>311.3</ele></trkpt>
    <trkpt lat="45.92962652243028" lon="-123.07119640091608"><ele>311.0</ele></trkpt>
    <trkpt lat="45.92976428367869" lon="-123.07145022129839"><ele>310.7</ele></trkpt>
    <trkpt lat="45.929847272382545" lon="-123.07160312514318"><ele>310.6</ele></trkpt>
    <trkpt lat="45.930095131978064" lon="-123.07205979795958"><ele>310.3</ele></trkpt>
    <trkpt lat="45.9303153286723" lon="-123.07246550282773"><ele>310.3</ele></trkpt>
    <trkpt lat="45.93039831737615" lon="-123.07261840667249"><ele>310.2</ele></trkpt>
    <trkpt lat="45.930600000000005" lon="-123.07299"><ele>309.9</ele></trkpt>
    <trkpt lat="45.93062394705726" lon="-123.07301620621361"><ele>309.9</ele></trkpt>
    <trkpt lat="45.93080213458893" lon="-123.07321120388977"><ele>309.7</ele></trkpt>
    <trkpt lat="45.930980322120604" lon="-123.07340620156594"><ele>309.6</ele></trkpt>
    <trkpt lat="45.93113" lon="-123.07357"><ele>309.5</ele></trkpt>
    <trkpt lat="45.93129175831157" lon="-123.0736443716375"><ele>309.4</ele></trkpt>
    <trkpt lat="45.93154787916215" lon="-123.07376212835042"><ele>309.3</ele></trkpt>
    <trkpt lat="45.932" lon="-123.07397000000002"><ele>308.8</ele></trkpt>
    <trkpt lat="45.932062750528665" lon="-123.07397980477012"><ele>308.8</ele></trkpt>
    <trkpt lat="45.932151262318406" lon="-123.07399363473726"><ele>308.6</ele></trkpt>
    <trkpt lat="45.932240668166635" lon="-123.07400760440103"><ele>308.5</ele></trkpt>
    <trkpt lat="45.932320000000004" lon="-123.07402"><ele>308.3</ele></trkpt>
    <trkpt lat="45.93259255586638" lon="-123.07409967017634"><ele>307.8</ele></trkpt>
    <trkpt lat="45.93268068528782" lon="-123.07412543108413"><ele>307.6</ele></trkpt>
    <trkpt lat="45.93281199812578" lon="-123.07416381483677"><ele>307.3</ele></trkpt>
    <trkpt lat="45.932970000000005" lon="-123.07421000000001"><ele>306.7</ele></trkpt>
    <trkpt lat="45.933381272242414" lon="-123.07434287257064"><ele>305.4</ele></trkpt>
    <trkpt lat="45.93346813922442" lon="-123.0743709372879"><ele>305.1</ele></trkpt>
    <trkpt lat="45.933620000000005" lon="-123.07442"><ele>304.6</ele></trkpt>
    <trkpt lat="45.93368214746972" lon="-123.07446067834381"><ele>304.3</ele></trkpt>
    <trkpt lat="45.933926879604414" lon="-123.07462086665015"><ele>303.5</ele></trkpt>
    <trkpt lat="45.934130686632976" lon="-123.07475426761431"><ele>302.7</ele></trkpt>
    <trkpt lat="45.93417" lon="-123.07478"><ele>302.5</ele></trkpt>
    <trkpt lat="45.93420533642823" lon="-123.07482398257555"><ele>302.4</ele></trkpt>
    <trkpt lat="45.934271971559546" lon="-123.07490692204752"><ele>302.1</ele></trkpt>
    <trkpt lat="45.93447595665538" lon="-123.07516081839022"><ele>301.4</ele></trkpt>
    <trkpt lat="45.93454395168733" lon="-123.07524545050444"><ele>301.1</ele></trkpt>
    <trkpt lat="45.93467926180091" lon="-123.07541386841177"><ele>300.5</ele></trkpt>
    <trkpt lat="45.9349165644624" lon="-123.07570923449045"><ele>299.6</ele></trkpt>
    <trkpt lat="45.935017877060005" lon="-123.07583533634065"><ele>299.2</ele></trkpt>
    <trkpt lat="45.93511" lon="-123.07595"><ele>298.9</ele></trkpt>
    <trkpt lat="45.93516466371373" lon="-123.07614629242657"><ele>298.6</ele></trkpt>
    <trkpt lat="45.9351977597684" lon="-123.07626513735015"><ele>298.4</ele></trkpt>
    <trkpt lat="45.93526428618131" lon="-123.07650402765105"><ele>298.1</ele></trkpt>
    <trkpt lat="45.93533081259422" lon="-123.07674291795198"><ele>297.9</ele></trkpt>
    <trkpt lat="45.935480914902755" lon="-123.07728192169625"><ele>297.4</ele></trkpt>
    <trkpt lat="45.93554744131567" lon="-123.07752081199716"><ele>297.2</ele></trkpt>
    <trkpt lat="45.93564739808683" lon="-123.07787974767542"><ele>296.9</ele></trkpt>
    <trkpt lat="45.93574735485799" lon="-123.07823868335367"><ele>296.6</ele></trkpt>
    <trkpt lat="45.935770000000005" lon="-123.07832"><ele>296.5</ele></trkpt>
    <trkpt lat="45.935916895376636" lon="-123.07853170216043"><ele>296.3</ele></trkpt>
    <trkpt lat="45.936110000000006" lon="-123.07881"><ele>295.8</ele></trkpt>
    <trkpt lat="45.936290144205145" lon="-123.07899014420514"><ele>295.5</ele></trkpt>
    <trkpt lat="45.93640089328174" lon="-123.07910089328173"><ele>295.3</ele></trkpt>
    <trkpt lat="45.93651090403117" lon="-123.07921090403119"><ele>295.1</ele></trkpt>
    <trkpt lat="45.93665856946664" lon="-123.07935856946665"><ele>294.9</ele></trkpt>
    <trkpt lat="45.93691550732434" lon="-123.07961550732435"><ele>294.6</ele></trkpt>
    <trkpt lat="45.93724" lon="-123.07994000000001"><ele>294.0</ele></trkpt>
    <trkpt lat="45.93728778237452" lon="-123.07997464222153"><ele>294.0</ele></trkpt>
    <trkpt lat="45.93748773594502" lon="-123.08011960856015"><ele>293.7</ele></trkpt>
    <trkpt lat="45.93760738687676" lon="-123.08020635548566"><ele>293.6</ele></trkpt>
    <trkpt lat="45.937727840834896" lon="-123.0802936846053"><ele>293.4</ele></trkpt>
    <trkpt lat="45.93796794572478" lon="-123.08046776065048"><ele>293.2</ele></trkpt>
    <trkpt lat="45.93804" lon="-123.08052"><ele>293.2</ele></trkpt>
    <trkpt lat="45.93804797116655" lon="-123.08052671256131"><ele>293.2</ele></trkpt>
    <trkpt lat="45.9381636010731" lon="-123.0806240851142"><ele>293.1</ele></trkpt>
    <trkpt lat="45.93839563692587" lon="-123.08081948372704"><ele>293.1</ele></trkpt>
    <trkpt lat="45.938610000000004" lon="-123.081"><ele>293.0</ele></trkpt>
    <trkpt lat="45.93866277569665" lon="-123.08105565437103"><ele>293.0</ele></trkpt>
    <trkpt lat="45.93877155712093" lon="-123.08117036932754"><ele>292.9</ele></trkpt>
    <trkpt lat="45.93884335286096" lon="-123.08124608119883"><ele>292.8</ele></trkpt>
    <trkpt lat="45.939023930025265" lon="-123.08143650802666"><ele>292.6</ele></trkpt>
    <trkpt lat="45.93916" lon="-123.08158000000002"><ele>292.4</ele></trkpt>
    <trkpt lat="45.93925" lon="-123.08169000000001"><ele>292.2</ele></trkpt>
    <trkpt lat="45.93951469336792" lon="-123.08209368760222"><ele>291.8</ele></trkpt>
    <trkpt lat="45.939730011031415" lon="-123.08242207161871"><ele>291.3</ele></trkpt>
    <trkpt lat="45.939945328694904" lon="-123.08275045563516"><ele>291.0</ele></trkpt>
    <trkpt lat="45.94003725514723" lon="-123.08289065396883"><ele>290.8</ele></trkpt>
    <trkpt lat="45.94016064635839" lon="-123.08307883965162"><ele>290.5</ele></trkpt>
    <trkpt lat="45.94025257281072" lon="-123.08321903798532"><ele>290.2</ele></trkpt>
    <trkpt lat="45.94046789047421" lon="-123.08354742200177"><ele>289.4</ele></trkpt>
    <trkpt lat="45.940560433882595" lon="-123.08368856126386"><ele>289.0</ele></trkpt>
    <trkpt lat="45.94065236033491" lon="-123.08382875959754"><ele>288.5</ele></trkpt>
    <trkpt lat="45.9407140559405" lon="-123.08392285243893"><ele>288.2</ele></trkpt>
    <trkpt lat="45.94077513459003" lon="-123.0840160043519"><ele>287.8</ele></trkpt>
    <trkpt lat="45.940898525801195" lon="-123.0842041900347"><ele>286.9</ele></trkpt>
    <trkpt lat="45.94092937360399" lon="-123.0842512364554"><ele>286.7</ele></trkpt>
    <trkpt lat="45.94099045225352" lon="-123.08434438836838"><ele>286.4</ele></trkpt>
    <trkpt lat="45.94105214785911" lon="-123.08443848120977"><ele>286.1</ele></trkpt>
    <trkpt lat="45.94111384346469" lon="-123.08453257405117"><ele>285.8</ele></trkpt>
    <trkpt lat="45.94135939197492" lon="-123.08490706355991"><ele>284.8</ele></trkpt>
    <trkpt lat="45.9414210875805" lon="-123.0850011564013"><ele>284.5</ele></trkpt>
    <trkpt lat="45.94144000000001" lon="-123.08503"><ele>284.4</ele></trkpt>
    <trkpt lat="45.94148940948281" lon="-123.08516555935026"><ele>284.1</ele></trkpt>
    <trkpt lat="45.94165432263702" lon="-123.08561801338875"><ele>282.8</ele></trkpt>
    <trkpt lat="45.94169607280265" lon="-123.08573255871495"><ele>282.5</ele></trkpt>
    <trkpt lat="45.94173698796496" lon="-123.08584481313463"><ele>282.2</ele></trkpt>
    <trkpt lat="45.94183" lon="-123.08610000000002"><ele>281.7</ele></trkpt>
    <trkpt lat="45.941836958984794" lon="-123.0861296780234"><ele>281.6</ele></trkpt>
    <trkpt lat="45.941907935119275" lon="-123.0864323703616"><ele>280.9</ele></trkpt>
    <trkpt lat="45.94193609569085" lon="-123.08655246691686"><ele>280.6</ele></trkpt>
    <trkpt lat="45.94196454361519" lon="-123.08667378894714"><ele>280.4</ele></trkpt>
    <trkpt lat="45.941992991539536" lon="-123.08679511097745"><ele>280.2</ele></trkpt>
    <trkpt lat="45.942149311447054" lon="-123.08746176940653"><ele>279.2</ele></trkpt>
    <trkpt lat="45.942170000000004" lon="-123.08755000000001"><ele>279.1</ele></trkpt>
    <trkpt lat="45.9422092363692" lon="-123.0876304848599"><ele>279.0</ele></trkpt>
    <trkpt lat="45.942285641073745" lon="-123.08778721245898"><ele>278.8</ele></trkpt>
    <trkpt lat="45.942489559035195" lon="-123.08820550571323"><ele>278.4</ele></trkpt>
    <trkpt lat="45.94256" lon="-123.08835"><ele>278.3</ele></trkpt>
    <trkpt lat="45.942567038157485" lon="-123.0883609894038"><ele>278.3</ele></trkpt>
    <trkpt lat="45.94265781706497" lon="-123.08850273190846"><ele>278.3</ele></trkpt>
    <trkpt lat="45.94286800983733" lon="-123.08883092764074"><ele>278.3</ele></trkpt>
    <trkpt lat="45.94292832602419" lon="-123.08892510554654"><ele>278.2</ele></trkpt>
    <trkpt lat="45.943050176906716" lon="-123.08911536394206"><ele>278.0</ele></trkpt>
    <trkpt lat="45.943130000000004" lon="-123.08924"><ele>277.9</ele></trkpt>
    <trkpt lat="45.94318466899564" lon="-123.08927936167687"><ele>277.8</ele></trkpt>
    <trkpt lat="45.943465322502846" lon="-123.08948143220204"><ele>277.3</ele></trkpt>
    <trkpt lat="45.943544934815776" lon="-123.08953875306736"><ele>277.2</ele></trkpt>
    <trkpt lat="45.943986421278396" lon="-123.08985662332046"><ele>276.8</ele></trkpt>
    <trkpt lat="45.94410624183018" lon="-123.08994289411774"><ele>276.7</ele></trkpt>
    <trkpt lat="45.94413" lon="-123.08996"><ele>276.6</ele></trkpt>
    <trkpt lat="45.94420430548921" lon="-123.09007336350277"><ele>276.4</ele></trkpt>
    <trkpt lat="45.94432706218876" lon="-123.09026064615979"><ele>276.1</ele></trkpt>
    <trkpt lat="45.944480662280164" lon="-123.09049498476078"><ele>275.7</ele></trkpt>
    <trkpt lat="45.94457319245571" lon="-123.09063615259268"><ele>275.4</ele></trkpt>
    <trkpt lat="45.94466510576341" lon="-123.09077637930572"><ele>275.1</ele></trkpt>
    <trkpt lat="45.94491000000001" lon="-123.09115000000001"><ele>274.3</ele></trkpt>
    <trkpt lat="45.94491000000001" lon="-123.09128063188388"><ele>274.1</ele></trkpt>
    <trkpt lat="45.94491000000001" lon="-123.09134000000002"><ele>274.0</ele></trkpt>
    <trkpt lat="45.945052782138504" lon="-123.09167392596908"><ele>273.3</ele></trkpt>
    <trkpt lat="45.94519363429152" lon="-123.09200333826243"><ele>272.7</ele></trkpt>
    <trkpt lat="45.94528737870105" lon="-123.0922225792202"><ele>272.2</ele></trkpt>
    <trkpt lat="45.94533448644454" lon="-123.09233275055577"><ele>272.1</ele></trkpt>
    <trkpt lat="45.94542823085408" lon="-123.09255199151356"><ele>271.7</ele></trkpt>
    <trkpt lat="45.945498892469296" lon="-123.09271724851692"><ele>271.4</ele></trkpt>
    <trkpt lat="45.945530000000005" lon="-123.09279000000001"><ele>271.3</ele></trkpt>
    <trkpt lat="45.94556244049755" lon="-123.0928866312693"><ele>271.1</ele></trkpt>
    <trkpt lat="45.94560154185517" lon="-123.09300310339836"><ele>270.8</ele></trkpt>
    <trkpt lat="45.94567935355682" lon="-123.0932348829352"><ele>270.3</ele></trkpt>
    <trkpt lat="45.945718454914434" lon="-123.09335135506427"><ele>270.0</ele></trkpt>
    <trkpt lat="45.94599138239059" lon="-123.09416433052516"><ele>268.4</ele></trkpt>
    <trkpt lat="45.94612784612867" lon="-123.0945708182556"><ele>267.6</ele></trkpt>
    <trkpt lat="45.946380831912435" lon="-123.09532439293066"><ele>266.2</ele></trkpt>
    <trkpt lat="45.94647858530648" lon="-123.09561557325333"><ele>265.6</ele></trkpt>
    <trkpt lat="45.94661465803098" lon="-123.09602089626249"><ele>264.9</ele></trkpt>
    <trkpt lat="45.94679022312667" lon="-123.096543856122"><ele>264.0</ele></trkpt>
    <trkpt lat="45.94690713618594" lon="-123.0968921077879"><ele>263.2</ele></trkpt>
    <trkpt lat="45.946940000000005" lon="-123.09699"><ele>263.0</ele></trkpt>
    <trkpt lat="45.946954327765646" lon="-123.09707144203625"><ele>262.9</ele></trkpt>
    <trkpt lat="45.94700947507461" lon="-123.09738491095041"><ele>262.4</ele></trkpt>
    <trkpt lat="45.94703131340896" lon="-123.09750904464039"><ele>262.2</ele></trkpt>
    <trkpt lat="45.94707543125614" lon="-123.09775981977172"><ele>261.9</ele></trkpt>
    <trkpt lat="45.94713" lon="-123.09807"><ele>261.5</ele></trkpt>
    <trkpt lat="45.947177385538275" lon="-123.0985823561326"><ele>260.8</ele></trkpt>
    <trkpt lat="45.947212839659905" lon="-123.09896570382267"><ele>260.3</ele></trkpt>
    <trkpt lat="45.94724236499865" lon="-123.09928494654785"><ele>259.9</ele></trkpt>
    <trkpt lat="45.94729" lon="-123.09980000000002"><ele>259.5</ele></trkpt>
    <trkpt lat="45.94730168454903" lon="-123.09986013267914"><ele>259.4</ele></trkpt>
    <trkpt lat="45.94732588951577" lon="-123.0999846997031"><ele>259.3</ele></trkpt>
    <trkpt lat="45.947350094482516" lon="-123.10010926672706"><ele>259.2</ele></trkpt>
    <trkpt lat="45.947458774783186" lon="-123.10066857266466"><ele>258.2</ele></trkpt>
    <trkpt lat="45.94748297974993" lon="-123.10079313968863"><ele>258.0</ele></trkpt>
    <trkpt lat="45.94754349216678" lon="-123.10110455724853"><ele>257.3</ele></trkpt>
    <trkpt lat="45.94756769713352" lon="-123.1012291242725"><ele>257.1</ele></trkpt>
    <trkpt lat="45.94760400458364" lon="-123.10141597480845"><ele>256.8</ele></trkpt>
    <trkpt lat="45.94767661948386" lon="-123.10178967588034"><ele>256.3</ele></trkpt>
    <trkpt lat="45.947700000000005" lon="-123.10191"><ele>256.1</ele></trkpt>
    <trkpt lat="45.947835932562946" lon="-123.10239376000342"><ele>255.3</ele></trkpt>
    <trkpt lat="45.94791983611909" lon="-123.10269235795323"><ele>254.8</ele></trkpt>
    <trkpt lat="45.94797038043003" lon="-123.10287223623627"><ele>254.5</ele></trkpt>
    <trkpt lat="45.9480714690519" lon="-123.1032319928023"><ele>253.6</ele></trkpt>
    <trkpt lat="45.948138861466475" lon="-123.10347183051303"><ele>253.1</ele></trkpt>
    <trkpt lat="45.94825679819198" lon="-123.10389154650674"><ele>252.3</ele></trkpt>
    <trkpt lat="45.94838" lon="-123.10433"><ele>251.5</ele></trkpt>
    <trkpt lat="45.94841355872216" lon="-123.10442787960632"><ele>251.3</ele></trkpt>
    <trkpt lat="45.94849310546309" lon="-123.10465989093402"><ele>250.8</ele></trkpt>
    <trkpt lat="45.948592141155544" lon="-123.104948745037"><ele>250.3</ele></trkpt>
    <trkpt lat="45.94871146126694" lon="-123.10529676202856"><ele>249.6</ele></trkpt>
    <trkpt lat="45.948890441434024" lon="-123.10581878751589"><ele>248.7</ele></trkpt>
    <trkpt lat="45.948950101489714" lon="-123.10599279601166"><ele>248.4</ele></trkpt>
    <trkpt lat="45.948980000000006" lon="-123.10608"><ele>248.2</ele></trkpt>
    <trkpt lat="45.9491100692469" lon="-123.10659666395293"><ele>247.4</ele></trkpt>
    <trkpt lat="45.94921692234173" lon="-123.10702110819076"><ele>246.6</ele></trkpt>
    <trkpt lat="45.94934000000001" lon="-123.10751"><ele>245.8</ele></trkpt>
    <trkpt lat="45.94934000000001" lon="-123.10763676737531"><ele>245.6</ele></trkpt>
    <trkpt lat="45.94934000000001" lon="-123.10776611144715"><ele>245.3</ele></trkpt>
    <trkpt lat="45.94934000000001" lon="-123.1085421758783"><ele>243.7</ele></trkpt>
    <trkpt lat="45.94934000000001" lon="-123.10926"><ele>242.2</ele></trkpt>
    <trkpt lat="45.9493336512299" lon="-123.10931620984263"><ele>242.1</ele></trkpt>
    <trkpt lat="45.94931923119602" lon="-123.10944387989868"><ele>241.8</ele></trkpt>
    <trkpt lat="45.94927597109438" lon="-123.10982689006683"><ele>241.2</ele></trkpt>
    <trkpt lat="45.94923992100969" lon="-123.11014606520698"><ele>240.6</ele></trkpt>
    <trkpt lat="45.94921829095887" lon="-123.11033757029107"><ele>240.2</ele></trkpt>
    <trkpt lat="45.949160610823355" lon="-123.11084825051529"><ele>238.8</ele></trkpt>
    <trkpt lat="45.94911763912239" lon="-123.11122870728232"><ele>237.9</ele></trkpt>
    <trkpt lat="45.94910336328884" lon="-123.11135510063781"><ele>237.6</ele></trkpt>
    <trkpt lat="45.94904597155401" lon="-123.11186322746092"><ele>236.1</ele></trkpt>
    <trkpt lat="45.94901020986998" lon="-123.11217984919992"><ele>235.2</ele></trkpt>
    <trkpt lat="45.948938542301605" lon="-123.11281436937851"><ele>233.4</ele></trkpt>
    <trkpt lat="45.948930000000004" lon="-123.11289000000001"><ele>233.2</ele></trkpt>
    <trkpt lat="45.94890965387841" lon="-123.11313369104722"><ele>232.6</ele></trkpt>
    <trkpt lat="45.948893678129544" lon="-123.11332503694847"><ele>232.1</ele></trkpt>
    <trkpt lat="45.948840389893384" lon="-123.11396328468612"><ele>230.7</ele></trkpt>
    <trkpt lat="45.94882966791428" lon="-123.11409170475406"><ele>230.5</ele></trkpt>
    <trkpt lat="45.94881369216541" lon="-123.1142830506553"><ele>230.2</ele></trkpt>
    <trkpt lat="45.948765764918804" lon="-123.114857088359"><ele>229.2</ele></trkpt>
    <trkpt lat="45.94872845243151" lon="-123.11530399019544"><ele>228.3</ele></trkpt>
    <trkpt lat="45.94870711569308" lon="-123.11555954613064"><ele>227.8</ele></trkpt>
    <trkpt lat="45.94866444221624" lon="-123.11607065800104"><ele>226.7</ele></trkpt>
    <trkpt lat="45.94860590021032" lon="-123.116771831572"><ele>225.2</ele></trkpt>
    <trkpt lat="45.948557865743915" lon="-123.11734715347637"><ele>224.1</ele></trkpt>
    <trkpt lat="45.948536529005494" lon="-123.11760270941157"><ele>223.7</ele></trkpt>
    <trkpt lat="45.94849000000001" lon="-123.11816"><ele>222.9</ele></trkpt>
    <trkpt lat="45.94849000000001" lon="-123.11817686735492"><ele>222.9</ele></trkpt>
    <trkpt lat="45.94849000000001" lon="-123.11862697782249"><ele>222.2</ele></trkpt>
    <trkpt lat="45.94849000000001" lon="-123.11926980800177"><ele>221.3</ele></trkpt>
    <trkpt lat="45.94849000000001" lon="-123.11939785666927"><ele>221.2</ele></trkpt>
    <trkpt lat="45.94849000000001" lon="-123.11959057638097"><ele>221.0</ele></trkpt>
    <trkpt lat="45.94849000000001" lon="-123.11983000000001"><ele>220.9</ele></trkpt>
    <trkpt lat="45.948504481515045" lon="-123.1199378068342"><ele>220.8</ele></trkpt>
    <trkpt lat="45.94852136984268" lon="-123.120063531051"><ele>220.7</ele></trkpt>
    <trkpt lat="45.94853825817031" lon="-123.12018925526779"><ele>220.5</ele></trkpt>
    <trkpt lat="45.94857203482556" lon="-123.12044070370135"><ele>220.0</ele></trkpt>
    <trkpt lat="45.94860581148082" lon="-123.12069215213492"><ele>219.5</ele></trkpt>
    <trkpt lat="45.9486479470053" lon="-123.12100582770609"><ele>218.7</ele></trkpt>
    <trkpt lat="45.948673364791325" lon="-123.12119504900207"><ele>218.2</ele></trkpt>
    <trkpt lat="45.94870714144658" lon="-123.12144649743564"><ele>217.7</ele></trkpt>
    <trkpt lat="45.94876000000001" lon="-123.12184"><ele>216.9</ele></trkpt>
    <trkpt lat="45.94877872642599" lon="-123.12194811389939"><ele>216.7</ele></trkpt>
    <trkpt lat="45.94886481373332" lon="-123.12244512462037"><ele>215.7</ele></trkpt>
    <trkpt lat="45.94894003143115" lon="-123.12287938146244"><ele>215.0</ele></trkpt>
    <trkpt lat="45.94896155325797" lon="-123.12300363414269"><ele>214.8</ele></trkpt>
    <trkpt lat="45.94902611873847" lon="-123.12337639218343"><ele>214.2</ele></trkpt>
    <trkpt lat="45.94904764056531" lon="-123.12350064486367"><ele>214.1</ele></trkpt>
    <trkpt lat="45.949080032001646" lon="-123.12368765142283"><ele>213.9</ele></trkpt>
    <trkpt lat="45.949133727872635" lon="-123.12399765558465"><ele>213.8</ele></trkpt>
    <trkpt lat="45.94918220633106" lon="-123.1242775378846"><ele>213.7</ele></trkpt>
    <trkpt lat="45.94921416298301" lon="-123.1244620342886"><ele>213.5</ele></trkpt>
    <trkpt lat="45.94924611963498" lon="-123.12464653069259"><ele>213.3</ele></trkpt>
    <trkpt lat="45.94926742406962" lon="-123.12476952829527"><ele>213.2</ele></trkpt>
    <trkpt lat="45.949288728504264" lon="-123.12489252589793"><ele>213.0</ele></trkpt>
    <trkpt lat="45.94931003293891" lon="-123.1250155235006"><ele>212.7</ele></trkpt>
    <trkpt lat="45.94939525067747" lon="-123.12550751391126"><ele>211.8</ele></trkpt>
    <trkpt lat="45.949448511764075" lon="-123.12581500791792"><ele>211.2</ele></trkpt>
    <trkpt lat="45.949510000000004" lon="-123.12617000000002"><ele>210.5</ele></trkpt>
    <trkpt lat="45.949533426242944" lon="-123.1263164140184"><ele>210.2</ele></trkpt>
    <trkpt lat="45.9496239807509" lon="-123.12688237969316"><ele>209.2</ele></trkpt>
    <trkpt lat="45.94964414879277" lon="-123.12700842995478"><ele>209.0</ele></trkpt>
    <trkpt lat="45.94971" lon="-123.12742000000001"><ele>208.5</ele></trkpt>
    <trkpt lat="45.949716810901926" lon="-123.12744875714148"><ele>208.5</ele></trkpt>
    <trkpt lat="45.949760018170394" lon="-123.12763118783056"><ele>208.3</ele></trkpt>
    <trkpt lat="45.94984701267066" lon="-123.1279984979428"><ele>208.0</ele></trkpt>
    <trkpt lat="45.949904719022506" lon="-123.12824214698392"><ele>207.8</ele></trkpt>
    <trkpt lat="45.949948216272645" lon="-123.12842580204004"><ele>207.8</ele></trkpt>
    <trkpt lat="45.949980000000004" lon="-123.12856000000001"><ele>207.7</ele></trkpt>
    <trkpt lat="45.95000727768014" lon="-123.12873730492093"><ele>207.7</ele></trkpt>
    <trkpt lat="45.95004" lon="-123.12895"><ele>207.6</ele></trkpt>
    <trkpt lat="45.95011020755747" lon="-123.12916062267243"><ele>207.5</ele></trkpt>
    <trkpt lat="45.950160000000004" lon="-123.12931"><ele>207.4</ele></trkpt>
    <trkpt lat="45.95016490542912" lon="-123.12933747040303"><ele>207.4</ele></trkpt>
    <trkpt lat="45.95023179617058" lon="-123.12971205855524"><ele>207.5</ele></trkpt>
    <trkpt lat="45.95026535339874" lon="-123.12989997903294"><ele>207.4</ele></trkpt>
    <trkpt lat="45.950332244140206" lon="-123.13027456718515"><ele>207.2</ele></trkpt>
    <trkpt lat="45.950354615625656" lon="-123.13039984750361"><ele>207.1</ele></trkpt>
    <trkpt lat="45.950376987111085" lon="-123.13052512782208"><ele>206.9</ele></trkpt>
    <trkpt lat="45.950399582311384" lon="-123.13065166094373"><ele>206.7</ele></trkpt>
    <trkpt lat="45.950410000000005" lon="-123.13071000000001"><ele>206.6</ele></trkpt>
    <trkpt lat="45.950416853416286" lon="-123.13077579279626"><ele>206.5</ele></trkpt>
    <trkpt lat="45.95045016564703" lon="-123.13109559021136"><ele>205.9</ele></trkpt>
    <trkpt lat="45.95046000000001" lon="-123.13119"><ele>205.7</ele></trkpt>
    <trkpt lat="45.95039527867469" lon="-123.13173204109954"><ele>204.7</ele></trkpt>
    <trkpt lat="45.95038" lon="-123.13186"><ele>204.5</ele></trkpt>
    <trkpt lat="45.950373713076985" lon="-123.13237552768773"><ele>203.5</ele></trkpt>
    <trkpt lat="45.95037213592338" lon="-123.13250485428303"><ele>203.2</ele></trkpt>
    <trkpt lat="45.95037000000001" lon="-123.13268000000001"><ele>202.9</ele></trkpt>
    <trkpt lat="45.95036388014649" lon="-123.13276305515484"><ele>202.8</ele></trkpt>
    <trkpt lat="45.9503450194988" lon="-123.13301902108776"><ele>202.3</ele></trkpt>
    <trkpt lat="45.95031658636158" lon="-123.13340489937863"><ele>201.6</ele></trkpt>
    <trkpt lat="45.950300000000006" lon="-123.13363000000001"><ele>201.2</ele></trkpt>
    <trkpt lat="45.95028147720069" lon="-123.13378815620956"><ele>201.0</ele></trkpt>
    <trkpt lat="45.95025906989296" lon="-123.13397948014483"><ele>200.7</ele></trkpt>
    <trkpt lat="45.95020678617491" lon="-123.13442590266044"><ele>200.2</ele></trkpt>
    <trkpt lat="45.95017000000001" lon="-123.13474000000001"><ele>199.7</ele></trkpt>
    <trkpt lat="45.95016568996237" lon="-123.13487145614798"><ele>199.5</ele></trkpt>
    <trkpt lat="45.950161453817714" lon="-123.1350006585597"><ele>199.3</ele></trkpt>
    <trkpt lat="45.95015" lon="-123.13535000000002"><ele>198.9</ele></trkpt>
    <trkpt lat="45.95012517601421" lon="-123.1355124842706"><ele>198.7</ele></trkpt>
    <trkpt lat="45.95004" lon="-123.13607"><ele>198.1</ele></trkpt>
    <trkpt lat="45.950039262218404" lon="-123.13608118968754"><ele>198.1</ele></trkpt>
    <trkpt lat="45.950001141247355" lon="-123.13665935774851"><ele>197.4</ele></trkpt>
    <trkpt lat="45.949980000000004" lon="-123.13698000000001"><ele>196.9</ele></trkpt>
    <trkpt lat="45.94995818866453" lon="-123.13717145505576"><ele>196.7</ele></trkpt>
    <trkpt lat="45.94989289666129" lon="-123.1377445737509"><ele>196.0</ele></trkpt>
    <trkpt lat="45.94989" lon="-123.13777"><ele>196.0</ele></trkpt>
    <trkpt lat="45.94985954034629" lon="-123.13819338918664"><ele>195.4</ele></trkpt>
    <trkpt lat="45.949822701482574" lon="-123.13870544939235"><ele>194.6</ele></trkpt>
    <trkpt lat="45.94980437461067" lon="-123.13896019291175"><ele>194.3</ele></trkpt>
    <trkpt lat="45.949790490616806" lon="-123.13915318042646"><ele>194.1</ele></trkpt>
    <trkpt lat="45.94979000000001" lon="-123.13916"><ele>194.0</ele></trkpt>
    <trkpt lat="45.949763069758205" lon="-123.13940621935367"><ele>193.8</ele></trkpt>
    <trkpt lat="45.94974909450349" lon="-123.13953399311097"><ele>193.7</ele></trkpt>
    <trkpt lat="45.949720000000006" lon="-123.13980000000001"><ele>193.3</ele></trkpt>
    <trkpt lat="45.949670000000005" lon="-123.1401"><ele>192.8</ele></trkpt>
    <trkpt lat="45.949654021112224" lon="-123.1402917466533"><ele>192.5</ele></trkpt>
    <trkpt lat="45.949580000000005" lon="-123.14118"><ele>191.3</ele></trkpt>
    <trkpt lat="45.94957992965004" lon="-123.14118562799699"><ele>191.3</ele></trkpt>
    <trkpt lat="45.94957305932728" lon="-123.1417352538177"><ele>190.5</ele></trkpt>
    <trkpt lat="45.94957297849995" lon="-123.14174172000382"><ele>189.2</ele></trkpt>
    <trkpt lat="45.94957179842098" lon="-123.14183612632127"><ele>190.4</ele></trkpt>
    <trkpt lat="45.94957" lon="-123.14198"><ele>190.2</ele></trkpt>
    <trkpt lat="45.94956686337464" lon="-123.14202861769314"><ele>190.1</ele></trkpt>
    <trkpt lat="45.94955032822995" lon="-123.1422849124358"><ele>189.9</ele></trkpt>
    <trkpt lat="45.94955" lon="-123.14229000000002"><ele>189.9</ele></trkpt>
    <trkpt lat="45.94955592554692" lon="-123.14254084815292"><ele>189.6</ele></trkpt>
    <trkpt lat="45.9495696057751" lon="-123.14311997781252"><ele>188.8</ele></trkpt>
    <trkpt lat="45.949580000000005" lon="-123.14356000000001"><ele>188.2</ele></trkpt>
    <trkpt lat="45.9496091954828" lon="-123.14402063983971"><ele>187.5</ele></trkpt>
    <trkpt lat="45.94964585209607" lon="-123.14459899973795"><ele>186.8</ele></trkpt>
    <trkpt lat="45.949670000000005" lon="-123.14498"><ele>186.4</ele></trkpt>
    <trkpt lat="45.94966992297514" lon="-123.1449841593427"><ele>186.4</ele></trkpt>
    <trkpt lat="45.949666331336886" lon="-123.14517810780856"><ele>186.2</ele></trkpt>
    <trkpt lat="45.94966156643012" lon="-123.14543541277328"><ele>186.0</ele></trkpt>
    <trkpt lat="45.94966" lon="-123.14552"><ele>185.9</ele></trkpt>
    <trkpt lat="45.94968" lon="-123.14575"><ele>185.7</ele></trkpt>
    <trkpt lat="45.94967935930915" lon="-123.14575689175562"><ele>185.7</ele></trkpt>
    <trkpt lat="45.94964968244375" lon="-123.14607611857816"><ele>185.4</ele></trkpt>
    <trkpt lat="45.949620005578325" lon="-123.1463953454007"><ele>185.2</ele></trkpt>
    <trkpt lat="45.94959616873864" lon="-123.14665175248706"><ele>185.0</ele></trkpt>
    <trkpt lat="45.94957245108316" lon="-123.14690687753802"><ele>184.8</ele></trkpt>
    <trkpt lat="45.94954265503355" lon="-123.14722738639597"><ele>184.7</ele></trkpt>
    <trkpt lat="45.94951881819385" lon="-123.14748379348237"><ele>184.6</ele></trkpt>
    <trkpt lat="45.949507018958215" lon="-123.14761071499012"><ele>184.5</ele></trkpt>
    <trkpt lat="45.94947138288288" lon="-123.14799404358423"><ele>184.2</ele></trkpt>
    <trkpt lat="45.94944766522738" lon="-123.14824916863518"><ele>184.1</ele></trkpt>
    <trkpt lat="45.94941190996785" lon="-123.14863377926473"><ele>183.8</ele></trkpt>
    <trkpt lat="45.94932871939734" lon="-123.14952863999618"><ele>183.2</ele></trkpt>
  </trkseg></trk>
</gpx>
