<?xml version="1.0" encoding="UTF-8"?>
<gpx version="1.1" creator="h2c-tracker" xmlns="http://www.topografix.com/GPX/1/1">
  <metadata><name>Hood to Coast 2026 — Leg 13 (5.21 mi)</name><desc>Derived from the official Hood to Coast Strava route (simplified, 480 points, ~4.91 mi). Verify against the official leg map PDF.</desc></metadata>
  <wpt lat="45.506640912140774" lon="-122.66430175718469"><name>Exchange 12 — OMSI gravel lot (end of SE 2nd Place)</name></wpt>
  <wpt lat="45.551550000000006" lon="-122.71402"><name>Exchange 13 — NW Front Ave (3838)</name></wpt>
  <trk><name>HTC Leg 13</name><trkseg>
    <trkpt lat="45.506640912140774" lon="-122.66430175718469"><ele>24.6</ele></trkpt>
    <trkpt lat="45.506640000000004" lon="-122.66432"><ele>24.7</ele></trkpt>
    <trkpt lat="45.506620860774724" lon="-122.66442526573906"><ele>25.0</ele></trkpt>
    <trkpt lat="45.50660956886901" lon="-122.66448737122049"><ele>25.1</ele></trkpt>
    <trkpt lat="45.506600000000006" lon="-122.66454000000002"><ele>25.2</ele></trkpt>
    <trkpt lat="45.506570421752876" lon="-122.66459915649428"><ele>25.4</ele></trkpt>
    <trkpt lat="45.50657" lon="-122.66460000000001"><ele>25.4</ele></trkpt>
    <trkpt lat="45.50655138436796" lon="-122.66465584689612"><ele>25.4</ele></trkpt>
    <trkpt lat="45.50654" lon="-122.66469000000001"><ele>25.5</ele></trkpt>
    <trkpt lat="45.506528752366556" lon="-122.66471088846212"><ele>25.5</ele></trkpt>
    <trkpt lat="45.5064745083971" lon="-122.66481162726254"><ele>25.6</ele></trkpt>
    <trkpt lat="45.50647" lon="-122.66482"><ele>25.6</ele></trkpt>
    <trkpt lat="45.50638398628576" lon="-122.6649525457236"><ele>25.7</ele></trkpt>
    <trkpt lat="45.506353435519756" lon="-122.66499962395318"><ele>25.7</ele></trkpt>
    <trkpt lat="45.50629294500306" lon="-122.66509283884776"><ele>25.6</ele></trkpt>
    <trkpt lat="45.506232454486366" lon="-122.66518605374233"><ele>25.5</ele></trkpt>
    <trkpt lat="45.50620190372036" lon="-122.66523313197192"><ele>25.4</ele></trkpt>
    <trkpt lat="45.506141413203665" lon="-122.6653263468665"><ele>25.1</ele></trkpt>
    <trkpt lat="45.50608092268698" lon="-122.66541956176107"><ele>24.8</ele></trkpt>
    <trkpt lat="45.50605037192096" lon="-122.66546663999065"><ele>24.6</ele></trkpt>
    <trkpt lat="45.505989881404275" lon="-122.66555985488523"><ele>24.2</ele></trkpt>
    <trkpt lat="45.505860000000006" lon="-122.66576"><ele>23.2</ele></trkpt>
    <trkpt lat="45.50571517755551" lon="-122.66605929971863"><ele>21.9</ele></trkpt>
    <trkpt lat="45.50571" lon="-122.66607"><ele>21.9</ele></trkpt>
    <trkpt lat="45.50554" lon="-122.66625"><ele>20.7</ele></trkpt>
    <trkpt lat="45.50553847767813" lon="-122.66625231657677"><ele>20.7</ele></trkpt>
    <trkpt lat="45.505141717321465" lon="-122.66685608233692"><ele>17.5</ele></trkpt>
    <trkpt lat="45.50495902301769" lon="-122.66713409540786"><ele>16.1</ele></trkpt>
    <trkpt lat="45.50486736829964" lon="-122.66727356997882"><ele>15.5</ele></trkpt>
    <trkpt lat="45.50480647019839" lon="-122.66736624100247"><ele>15.0</ele></trkpt>
    <trkpt lat="45.504692670716246" lon="-122.66753941412748"><ele>14.7</ele></trkpt>
    <trkpt lat="45.50463546340901" lon="-122.66762646872543"><ele>14.5</ele></trkpt>
    <trkpt lat="45.50452104879453" lon="-122.66780057792138"><ele>14.2</ele></trkpt>
    <trkpt lat="45.5044349302675" lon="-122.6679316278538"><ele>14.1</ele></trkpt>
    <trkpt lat="45.50439" lon="-122.668"><ele>14.0</ele></trkpt>
    <trkpt lat="45.50437062534178" lon="-122.66804620110808"><ele>14.0</ele></trkpt>
    <trkpt lat="45.50430274675997" lon="-122.66820806541854"><ele>13.7</ele></trkpt>
    <trkpt lat="45.50426" lon="-122.66831"><ele>13.6</ele></trkpt>
    <trkpt lat="45.504185947440035" lon="-122.66838816659109"><ele>13.4</ele></trkpt>
    <trkpt lat="45.50411509500055" lon="-122.66846295527719"><ele>13.3</ele></trkpt>
    <trkpt lat="45.50408" lon="-122.66850000000001"><ele>13.2</ele></trkpt>
    <trkpt lat="45.50404976727905" lon="-122.66854654879259"><ele>13.1</ele></trkpt>
    <trkpt lat="45.503929956571376" lon="-122.66873101924726"><ele>13.0</ele></trkpt>
    <trkpt lat="45.50384009854061" lon="-122.66886937208827"><ele>12.8</ele></trkpt>
    <trkpt lat="45.50347394234725" lon="-122.66943313638599"><ele>12.4</ele></trkpt>
    <trkpt lat="45.50345" lon="-122.66947"><ele>12.4</ele></trkpt>
    <trkpt lat="45.503350000000005" lon="-122.66964000000002"><ele>12.3</ele></trkpt>
    <trkpt lat="45.50331983884175" lon="-122.66972445124314"><ele>12.3</ele></trkpt>
    <trkpt lat="45.50325" lon="-122.66992"><ele>12.2</ele></trkpt>
    <trkpt lat="45.50322772412171" lon="-122.66999982189724"><ele>12.2</ele></trkpt>
    <trkpt lat="45.50314854488123" lon="-122.67028354750896"><ele>12.0</ele></trkpt>
    <trkpt lat="45.503130000000006" lon="-122.67035000000001"><ele>12.0</ele></trkpt>
    <trkpt lat="45.50312" lon="-122.67049000000002"><ele>11.9</ele></trkpt>
    <trkpt lat="45.503190000000004" lon="-122.67055"><ele>11.9</ele></trkpt>
    <trkpt lat="45.50321222107545" lon="-122.67054753099163"><ele>11.9</ele></trkpt>
    <trkpt lat="45.503280000000004" lon="-122.67054000000002"><ele>11.8</ele></trkpt>
    <trkpt lat="45.50367224294235" lon="-122.67035896479585"><ele>11.4</ele></trkpt>
    <trkpt lat="45.503930000000004" lon="-122.67024"><ele>11.3</ele></trkpt>
    <trkpt lat="45.504090000000005" lon="-122.67021000000001"><ele>11.2</ele></trkpt>
    <trkpt lat="45.50409478476099" lon="-122.67021025182954"><ele>11.2</ele></trkpt>
    <trkpt lat="45.50424127467832" lon="-122.67021796182519"><ele>11.0</ele></trkpt>
    <trkpt lat="45.50428" lon="-122.67022000000001"><ele>10.9</ele></trkpt>
    <trkpt lat="45.50432575464178" lon="-122.6702428773209"><ele>10.9</ele></trkpt>
    <trkpt lat="45.50453114493893" lon="-122.67034557246947"><ele>10.2</ele></trkpt>
    <trkpt lat="45.504571883510266" lon="-122.67036594175515"><ele>10.1</ele></trkpt>
    <trkpt lat="45.50465420937317" lon="-122.6704071046866"><ele>9.9</ele></trkpt>
    <trkpt lat="45.504778122527654" lon="-122.67046906126384"><ele>9.9</ele></trkpt>
    <trkpt lat="45.504985210265275" lon="-122.67057260513263"><ele>10.1</ele></trkpt>
    <trkpt lat="45.50510912341974" lon="-122.67063456170987"><ele>10.1</ele></trkpt>
    <trkpt lat="45.505120000000005" lon="-122.67064"><ele>10.1</ele></trkpt>
    <trkpt lat="45.50518919757759" lon="-122.67068056409721"><ele>10.2</ele></trkpt>
    <trkpt lat="45.505393001891406" lon="-122.67080003559151"><ele>10.1</ele></trkpt>
    <trkpt lat="45.505410000000005" lon="-122.67081"><ele>10.1</ele></trkpt>
    <trkpt lat="45.50557501866766" lon="-122.67087600746706"><ele>10.3</ele></trkpt>
    <trkpt lat="45.50580622456706" lon="-122.67096848982683"><ele>10.4</ele></trkpt>
    <trkpt lat="45.505917930788115" lon="-122.67101317231526"><ele>10.4</ele></trkpt>
    <trkpt lat="45.50600279287853" lon="-122.67104711715142"><ele>10.4</ele></trkpt>
    <trkpt lat="45.50608852090865" lon="-122.67108140836348"><ele>10.4</ele></trkpt>
    <trkpt lat="45.50616" lon="-122.67111000000001"><ele>10.5</ele></trkpt>
    <trkpt lat="45.506260000000005" lon="-122.67118"><ele>10.6</ele></trkpt>
    <trkpt lat="45.50629308000677" lon="-122.67115794666216"><ele>10.6</ele></trkpt>
    <trkpt lat="45.50632" lon="-122.67114000000001"><ele>10.6</ele></trkpt>
    <trkpt lat="45.5063332767007" lon="-122.67114778289353"><ele>10.6</ele></trkpt>
    <trkpt lat="45.506415630534086" lon="-122.6711960592786"><ele>10.6</ele></trkpt>
    <trkpt lat="45.50652876307287" lon="-122.67126237835308"><ele>10.5</ele></trkpt>
    <trkpt lat="45.50661" lon="-122.67131"><ele>10.3</ele></trkpt>
    <trkpt lat="45.50669491372777" lon="-122.67132698274557"><ele>10.2</ele></trkpt>
    <trkpt lat="45.506710000000005" lon="-122.67133000000001"><ele>10.2</ele></trkpt>
    <trkpt lat="45.506752367153695" lon="-122.67141147529557"><ele>10.2</ele></trkpt>
    <trkpt lat="45.506840000000004" lon="-122.67158"><ele>10.1</ele></trkpt>
    <trkpt lat="45.50691697744733" lon="-122.67166339223462"><ele>10.0</ele></trkpt>
    <trkpt lat="45.50695422367024" lon="-122.67170374230943"><ele>10.0</ele></trkpt>
    <trkpt lat="45.50696000000001" lon="-122.67171"><ele>10.0</ele></trkpt>
    <trkpt lat="45.50716445352695" lon="-122.67180844058704"><ele>10.1</ele></trkpt>
    <trkpt lat="45.50722665817122" lon="-122.67183839097133"><ele>10.0</ele></trkpt>
    <trkpt lat="45.50723000000001" lon="-122.67184"><ele>10.0</ele></trkpt>
    <trkpt lat="45.507309111645874" lon="-122.67183434916817"><ele>10.0</ele></trkpt>
    <trkpt lat="45.50737" lon="-122.67183000000001"><ele>10.0</ele></trkpt>
    <trkpt lat="45.50739192778211" lon="-122.6718382229183"><ele>10.0</ele></trkpt>
    <trkpt lat="45.50750934902205" lon="-122.67188225588328"><ele>9.9</ele></trkpt>
    <trkpt lat="45.50753" lon="-122.67189"><ele>9.9</ele></trkpt>
    <trkpt lat="45.50766" lon="-122.67198"><ele>9.8</ele></trkpt>
    <trkpt lat="45.50768666393546" lon="-122.67200526057044"><ele>9.8</ele></trkpt>
    <trkpt lat="45.507761586636725" lon="-122.67207623997163"><ele>9.8</ele></trkpt>
    <trkpt lat="45.507850000000005" lon="-122.67216"><ele>9.9</ele></trkpt>
    <trkpt lat="45.50809" lon="-122.67229"><ele>10.0</ele></trkpt>
    <trkpt lat="45.50813118494379" lon="-122.67230067757802"><ele>10.0</ele></trkpt>
    <trkpt lat="45.50835150911938" lon="-122.67235779866058"><ele>10.1</ele></trkpt>
    <trkpt lat="45.50836" lon="-122.67236000000001"><ele>10.1</ele></trkpt>
    <trkpt lat="45.508610334537266" lon="-122.67235358116572"><ele>10.3</ele></trkpt>
    <trkpt lat="45.508750000000006" lon="-122.67235000000001"><ele>10.4</ele></trkpt>
    <trkpt lat="45.50894499100004" lon="-122.67244325656524"><ele>10.6</ele></trkpt>
    <trkpt lat="45.50898" lon="-122.67246000000002"><ele>10.6</ele></trkpt>
    <trkpt lat="45.50902000000001" lon="-122.67249000000001"><ele>10.6</ele></trkpt>
    <trkpt lat="45.50907" lon="-122.67256"><ele>10.7</ele></trkpt>
    <trkpt lat="45.509108384503875" lon="-122.67263250406288"><ele>10.7</ele></trkpt>
    <trkpt lat="45.50916" lon="-122.67273000000002"><ele>10.8</ele></trkpt>
    <trkpt lat="45.50916" lon="-122.67274"><ele>10.8</ele></trkpt>
    <trkpt lat="45.509188310749266" lon="-122.67283436916424"><ele>10.9</ele></trkpt>
    <trkpt lat="45.50923927533911" lon="-122.67300425113038"><ele>11.1</ele></trkpt>
    <trkpt lat="45.50925" lon="-122.67304000000001"><ele>11.1</ele></trkpt>
    <trkpt lat="45.50928839172471" lon="-122.67310238655267"><ele>11.2</ele></trkpt>
    <trkpt lat="45.509330000000006" lon="-122.67317000000001"><ele>11.2</ele></trkpt>
    <trkpt lat="45.50934980760143" lon="-122.67318485570108"><ele>11.3</ele></trkpt>
    <trkpt lat="45.50946364476603" lon="-122.67327023357453"><ele>11.3</ele></trkpt>
    <trkpt lat="45.50957987012288" lon="-122.67335740259217"><ele>11.5</ele></trkpt>
    <trkpt lat="45.50961887726319" lon="-122.67338665794739"><ele>11.4</ele></trkpt>
    <trkpt lat="45.50965868046761" lon="-122.6734165103507"><ele>11.2</ele></trkpt>
    <trkpt lat="45.50969848367201" lon="-122.67344636275402"><ele>10.9</ele></trkpt>
    <trkpt lat="45.50973828687641" lon="-122.67347621515731"><ele>10.6</ele></trkpt>
    <trkpt lat="45.50985769648962" lon="-122.67356577236723"><ele>9.6</ele></trkpt>
    <trkpt lat="45.50989749969403" lon="-122.67359562477053"><ele>9.3</ele></trkpt>
    <trkpt lat="45.50993730289843" lon="-122.67362547717383"><ele>9.0</ele></trkpt>
    <trkpt lat="45.50997710610284" lon="-122.67365532957713"><ele>8.8</ele></trkpt>
    <trkpt lat="45.51001" lon="-122.67368"><ele>8.7</ele></trkpt>
    <trkpt lat="45.51001747159027" lon="-122.67368322303894"><ele>8.7</ele></trkpt>
    <trkpt lat="45.51006051400024" lon="-122.67370179035304"><ele>8.6</ele></trkpt>
    <trkpt lat="45.510102695562" lon="-122.67371998632086"><ele>8.5</ele></trkpt>
    <trkpt lat="45.51044703484173" lon="-122.6738685248337"><ele>8.1</ele></trkpt>
    <trkpt lat="45.51052000000001" lon="-122.6739"><ele>8.0</ele></trkpt>
    <trkpt lat="45.51053354969172" lon="-122.67390294558516"><ele>8.0</ele></trkpt>
    <trkpt lat="45.51075" lon="-122.67395"><ele>8.0</ele></trkpt>
    <trkpt lat="45.51075588296143" lon="-122.67395000000002"><ele>8.0</ele></trkpt>
    <trkpt lat="45.51080084907971" lon="-122.67394999999999"><ele>8.0</ele></trkpt>
    <trkpt lat="45.51084581519798" lon="-122.67395"><ele>8.1</ele></trkpt>
    <trkpt lat="45.51089078131626" lon="-122.67394999999999"><ele>8.2</ele></trkpt>
    <trkpt lat="45.51093484811218" lon="-122.67395000000002"><ele>8.3</ele></trkpt>
    <trkpt lat="45.51097981423045" lon="-122.67395"><ele>8.5</ele></trkpt>
    <trkpt lat="45.51102478034873" lon="-122.67395"><ele>8.7</ele></trkpt>
    <trkpt lat="45.511159678703564" lon="-122.67395000000002"><ele>9.4</ele></trkpt>
    <trkpt lat="45.51124961094011" lon="-122.67395"><ele>9.8</ele></trkpt>
    <trkpt lat="45.511280000000006" lon="-122.67395"><ele>9.9</ele></trkpt>
    <trkpt lat="45.5113684919324" lon="-122.6739256647186"><ele>10.0</ele></trkpt>
    <trkpt lat="45.51152656222613" lon="-122.67388219538782"><ele>10.2</ele></trkpt>
    <trkpt lat="45.511680000000005" lon="-122.67384000000001"><ele>10.3</ele></trkpt>
    <trkpt lat="45.511660000000006" lon="-122.67377"><ele>10.3</ele></trkpt>
    <trkpt lat="45.51173000000001" lon="-122.67372"><ele>10.4</ele></trkpt>
    <trkpt lat="45.51173836261511" lon="-122.67372000000002"><ele>10.4</ele></trkpt>
    <trkpt lat="45.51178" lon="-122.67372"><ele>10.4</ele></trkpt>
    <trkpt lat="45.511866594501036" lon="-122.6737658441476"><ele>10.4</ele></trkpt>
    <trkpt lat="45.51195006811787" lon="-122.6738100360624"><ele>10.4</ele></trkpt>
    <trkpt lat="45.51203860074178" lon="-122.67385690627506"><ele>10.3</ele></trkpt>
    <trkpt lat="45.51212" lon="-122.6739"><ele>10.2</ele></trkpt>
    <trkpt lat="45.512420000000006" lon="-122.67394000000002"><ele>9.9</ele></trkpt>
    <trkpt lat="45.5124745810505" lon="-122.67392787087768"><ele>9.9</ele></trkpt>
    <trkpt lat="45.512600000000006" lon="-122.6739"><ele>9.8</ele></trkpt>
    <trkpt lat="45.51272" lon="-122.67385000000002"><ele>9.6</ele></trkpt>
    <trkpt lat="45.51280627600648" lon="-122.67378960679548"><ele>9.6</ele></trkpt>
    <trkpt lat="45.512888632367726" lon="-122.6737319573426"><ele>9.3</ele></trkpt>
    <trkpt lat="45.513020000000004" lon="-122.67364"><ele>9.0</ele></trkpt>
    <trkpt lat="45.513145299818554" lon="-122.67359180776211"><ele>8.7</ele></trkpt>
    <trkpt lat="45.513173954948485" lon="-122.67358078655829"><ele>8.7</ele></trkpt>
    <trkpt lat="45.51320261007842" lon="-122.67356976535447"><ele>8.7</ele></trkpt>
    <trkpt lat="45.513231265208354" lon="-122.67355874415064"><ele>8.7</ele></trkpt>
    <trkpt lat="45.513261657012826" lon="-122.67354705499508"><ele>8.8</ele></trkpt>
    <trkpt lat="45.51328" lon="-122.67354000000002"><ele>8.8</ele></trkpt>
    <trkpt lat="45.513250000000006" lon="-122.67346"><ele>8.9</ele></trkpt>
    <trkpt lat="45.51325185756361" lon="-122.67345690406066"><ele>8.9</ele></trkpt>
    <trkpt lat="45.51328" lon="-122.67341"><ele>9.0</ele></trkpt>
    <trkpt lat="45.51333" lon="-122.67337"><ele>9.1</ele></trkpt>
    <trkpt lat="45.51335714500724" lon="-122.67336012908828"><ele>9.2</ele></trkpt>
    <trkpt lat="45.51344" lon="-122.67333"><ele>9.5</ele></trkpt>
    <trkpt lat="45.513440831356604" lon="-122.67332994266508"><ele>9.5</ele></trkpt>
    <trkpt lat="45.51352077774447" lon="-122.67332442912108"><ele>9.7</ele></trkpt>
    <trkpt lat="45.51373" lon="-122.67331000000001"><ele>9.7</ele></trkpt>
    <trkpt lat="45.51395" lon="-122.67327000000002"><ele>9.7</ele></trkpt>
    <trkpt lat="45.5140371178634" lon="-122.6732409607122"><ele>9.7</ele></trkpt>
    <trkpt lat="45.51404" lon="-122.67324"><ele>9.7</ele></trkpt>
    <trkpt lat="45.51441452309498" lon="-122.67309894584736"><ele>9.7</ele></trkpt>
    <trkpt lat="45.514810000000004" lon="-122.67295000000001"><ele>9.5</ele></trkpt>
    <trkpt lat="45.51488804935435" lon="-122.6729140562184"><ele>9.5</ele></trkpt>
    <trkpt lat="45.51510030335905" lon="-122.67281630766362"><ele>9.4</ele></trkpt>
    <trkpt lat="45.515269764217635" lon="-122.67273826647875"><ele>9.4</ele></trkpt>
    <trkpt lat="45.515570000000004" lon="-122.67260000000002"><ele>9.5</ele></trkpt>
    <trkpt lat="45.51565" lon="-122.67258000000001"><ele>9.5</ele></trkpt>
    <trkpt lat="45.515697537587165" lon="-122.6725566972612"><ele>9.5</ele></trkpt>
    <trkpt lat="45.515951000561415" lon="-122.67243245070522"><ele>9.6</ele></trkpt>
    <trkpt lat="45.51616193619098" lon="-122.67232905088679"><ele>9.5</ele></trkpt>
    <trkpt lat="45.51624699088033" lon="-122.67228735741162"><ele>9.5</ele></trkpt>
    <trkpt lat="45.51675391682882" lon="-122.67203886429961"><ele>9.6</ele></trkpt>
    <trkpt lat="45.51718" lon="-122.67183000000001"><ele>9.5</ele></trkpt>
    <trkpt lat="45.517259480954536" lon="-122.67178510797942"><ele>9.4</ele></trkpt>
    <trkpt lat="45.517757867571206" lon="-122.6715036118348"><ele>9.5</ele></trkpt>
    <trkpt lat="45.51813165753372" lon="-122.67129248972634"><ele>9.4</ele></trkpt>
    <trkpt lat="45.51825625418789" lon="-122.6712221156902"><ele>9.4</ele></trkpt>
    <trkpt lat="45.51845443812774" lon="-122.67111017846491"><ele>9.4</ele></trkpt>
    <trkpt lat="45.518819029679534" lon="-122.67090425175509"><ele>9.5</ele></trkpt>
    <trkpt lat="45.51922459596995" lon="-122.67067518190588"><ele>9.6</ele></trkpt>
    <trkpt lat="45.51978151792751" lon="-122.67036062413355"><ele>9.5</ele></trkpt>
    <trkpt lat="45.520024021482605" lon="-122.67022365453299"><ele>9.6</ele></trkpt>
    <trkpt lat="45.52028826673574" lon="-122.67007440489927"><ele>9.8</ele></trkpt>
    <trkpt lat="45.52042" lon="-122.67000000000002"><ele>9.9</ele></trkpt>
    <trkpt lat="45.52052681976457" lon="-122.66994426794895"><ele>10.0</ele></trkpt>
    <trkpt lat="45.52064760536664" lon="-122.66988124937393"><ele>10.1</ele></trkpt>
    <trkpt lat="45.52065" lon="-122.66988"><ele>10.1</ele></trkpt>
    <trkpt lat="45.52086093476539" lon="-122.66980265725272"><ele>10.4</ele></trkpt>
    <trkpt lat="45.520947167481175" lon="-122.66977103859024"><ele>10.4</ele></trkpt>
    <trkpt lat="45.52103252915944" lon="-122.66973973930823"><ele>10.4</ele></trkpt>
    <trkpt lat="45.52133216607089" lon="-122.6696298724407"><ele>10.2</ele></trkpt>
    <trkpt lat="45.521550000000005" lon="-122.66955000000002"><ele>10.1</ele></trkpt>
    <trkpt lat="45.52179795824297" lon="-122.66948801043927"><ele>10.0</ele></trkpt>
    <trkpt lat="45.52203" lon="-122.66943"><ele>9.9</ele></trkpt>
    <trkpt lat="45.52214" lon="-122.66945000000001"><ele>9.9</ele></trkpt>
    <trkpt lat="45.52225164047307" lon="-122.66942423681392"><ele>9.9</ele></trkpt>
    <trkpt lat="45.522270000000006" lon="-122.66942000000002"><ele>9.9</ele></trkpt>
    <trkpt lat="45.52246" lon="-122.66947"><ele>10.0</ele></trkpt>
    <trkpt lat="45.52255241497598" lon="-122.66945426979133"><ele>10.0</ele></trkpt>
    <trkpt lat="45.52285514019095" lon="-122.66940274209517"><ele>10.1</ele></trkpt>
    <trkpt lat="45.52293" lon="-122.66939"><ele>10.1</ele></trkpt>
    <trkpt lat="45.522980000000004" lon="-122.66942000000002"><ele>10.1</ele></trkpt>
    <trkpt lat="45.523070000000004" lon="-122.66938"><ele>10.2</ele></trkpt>
    <trkpt lat="45.52319594552708" lon="-122.66938"><ele>10.2</ele></trkpt>
    <trkpt lat="45.523300000000006" lon="-122.66938"><ele>10.2</ele></trkpt>
    <trkpt lat="45.523390000000006" lon="-122.66929"><ele>10.3</ele></trkpt>
    <trkpt lat="45.523439888950065" lon="-122.66930076036179"><ele>10.3</ele></trkpt>
    <trkpt lat="45.5238747209233" lon="-122.66939454765011"><ele>10.5</ele></trkpt>
    <trkpt lat="45.524265980776526" lon="-122.66947893703025"><ele>10.6</ele></trkpt>
    <trkpt lat="45.52441" lon="-122.66951000000002"><ele>10.8</ele></trkpt>
    <trkpt lat="45.52453253272772" lon="-122.66954557401775"><ele>10.9</ele></trkpt>
    <trkpt lat="45.524682349819905" lon="-122.66958906930257"><ele>11.1</ele></trkpt>
    <trkpt lat="45.52472" lon="-122.66960000000002"><ele>11.1</ele></trkpt>
    <trkpt lat="45.524750000000004" lon="-122.66957000000001"><ele>11.1</ele></trkpt>
    <trkpt lat="45.52479278833762" lon="-122.66958238609774"><ele>11.0</ele></trkpt>
    <trkpt lat="45.52491618146573" lon="-122.66961810516115"><ele>10.8</ele></trkpt>
    <trkpt lat="45.52500343803489" lon="-122.6696433636417"><ele>10.6</ele></trkpt>
    <trkpt lat="45.52504750700922" lon="-122.66965612045004"><ele>10.5</ele></trkpt>
    <trkpt lat="45.525091575983545" lon="-122.6696688772584"><ele>10.5</ele></trkpt>
    <trkpt lat="45.525130000000004" lon="-122.66968000000001"><ele>10.4</ele></trkpt>
    <trkpt lat="45.52513560484996" lon="-122.66968189459718"><ele>10.4</ele></trkpt>
    <trkpt lat="45.525265997314136" lon="-122.6697259709231"><ele>10.4</ele></trkpt>
    <trkpt lat="45.525309753174604" lon="-122.66974076163649"><ele>10.4</ele></trkpt>
    <trkpt lat="45.525396389778315" lon="-122.66977004724902"><ele>10.3</ele></trkpt>
    <trkpt lat="45.525483026382034" lon="-122.66979933286154"><ele>10.0</ele></trkpt>
    <trkpt lat="45.52584" lon="-122.66992"><ele>10.4</ele></trkpt>
    <trkpt lat="45.525870160799144" lon="-122.66993322842067"><ele>10.5</ele></trkpt>
    <trkpt lat="45.52599395104448" lon="-122.66998752238794"><ele>10.4</ele></trkpt>
    <trkpt lat="45.52624239118963" lon="-122.67009648736388"><ele>10.3</ele></trkpt>
    <trkpt lat="45.52640830450456" lon="-122.67016925636166"><ele>10.3</ele></trkpt>
    <trkpt lat="45.526410000000006" lon="-122.67017000000001"><ele>10.3</ele></trkpt>
    <trkpt lat="45.52637000000001" lon="-122.67028"><ele>10.3</ele></trkpt>
    <trkpt lat="45.52637000000001" lon="-122.67037"><ele>10.3</ele></trkpt>
    <trkpt lat="45.526379416314576" lon="-122.67039824894371"><ele>10.3</ele></trkpt>
    <trkpt lat="45.5264" lon="-122.67046"><ele>10.3</ele></trkpt>
    <trkpt lat="45.52646000000001" lon="-122.67046"><ele>10.3</ele></trkpt>
    <trkpt lat="45.52649750837593" lon="-122.67066361689793"><ele>10.4</ele></trkpt>
    <trkpt lat="45.52653" lon="-122.67084000000001"><ele>10.4</ele></trkpt>
    <trkpt lat="45.52652930613459" lon="-122.6708462447887"><ele>10.4</ele></trkpt>
    <trkpt lat="45.52651" lon="-122.67102000000001"><ele>10.4</ele></trkpt>
    <trkpt lat="45.526516574834126" lon="-122.67102866682681"><ele>10.5</ele></trkpt>
    <trkpt lat="45.52664673062206" lon="-122.67120023582001"><ele>10.4</ele></trkpt>
    <trkpt lat="45.52673" lon="-122.67131"><ele>10.4</ele></trkpt>
    <trkpt lat="45.52678" lon="-122.67132000000001"><ele>10.4</ele></trkpt>
    <trkpt lat="45.52687797210109" lon="-122.67128231842267"><ele>10.3</ele></trkpt>
    <trkpt lat="45.52691" lon="-122.67127"><ele>10.3</ele></trkpt>
    <trkpt lat="45.52696290814576" lon="-122.67128587244373"><ele>10.3</ele></trkpt>
    <trkpt lat="45.527010000000004" lon="-122.67130000000002"><ele>10.3</ele></trkpt>
    <trkpt lat="45.52705495654602" lon="-122.6716686436773"><ele>10.4</ele></trkpt>
    <trkpt lat="45.527060000000006" lon="-122.67171"><ele>10.4</ele></trkpt>
    <trkpt lat="45.52705" lon="-122.67172000000001"><ele>10.4</ele></trkpt>
    <trkpt lat="45.527060000000006" lon="-122.67183000000001"><ele>10.4</ele></trkpt>
    <trkpt lat="45.527070369048595" lon="-122.67184293752852"><ele>10.5</ele></trkpt>
    <trkpt lat="45.52716990432544" lon="-122.67196712833267"><ele>10.4</ele></trkpt>
    <trkpt lat="45.52733647356425" lon="-122.67217495784163"><ele>10.3</ele></trkpt>
    <trkpt lat="45.527501011470875" lon="-122.6723802528444"><ele>10.3</ele></trkpt>
    <trkpt lat="45.5275673683221" lon="-122.67246304671383"><ele>10.3</ele></trkpt>
    <trkpt lat="45.52773258333945" lon="-122.67266918655199"><ele>10.5</ele></trkpt>
    <trkpt lat="45.527798940190685" lon="-122.67275198042141"><ele>10.5</ele></trkpt>
    <trkpt lat="45.52786461993119" lon="-122.67283392945544"><ele>10.5</ele></trkpt>
    <trkpt lat="45.52799665652292" lon="-122.67299867235889"><ele>10.4</ele></trkpt>
    <trkpt lat="45.52809754602122" lon="-122.67312455283383"><ele>10.4</ele></trkpt>
    <trkpt lat="45.528150000000004" lon="-122.67319"><ele>10.4</ele></trkpt>
    <trkpt lat="45.52823451726344" lon="-122.67328892361517"><ele>10.4</ele></trkpt>
    <trkpt lat="45.52857040922972" lon="-122.67368206989389"><ele>10.5</ele></trkpt>
    <trkpt lat="45.52874078921262" lon="-122.67388149191932"><ele>10.6</ele></trkpt>
    <trkpt lat="45.52891395090952" lon="-122.67408416981456"><ele>10.6</ele></trkpt>
    <trkpt lat="45.52901617889926" lon="-122.67420382302981"><ele>10.6</ele></trkpt>
    <trkpt lat="45.529030000000006" lon="-122.67422"><ele>10.6</ele></trkpt>
    <trkpt lat="45.529447641458866" lon="-122.67473194759474"><ele>10.5</ele></trkpt>
    <trkpt lat="45.529650000000004" lon="-122.67498"><ele>10.5</ele></trkpt>
    <trkpt lat="45.52967" lon="-122.67506000000002"><ele>10.5</ele></trkpt>
    <trkpt lat="45.529670166174554" lon="-122.67506020079426"><ele>10.5</ele></trkpt>
    <trkpt lat="45.52991" lon="-122.67535000000001"><ele>10.3</ele></trkpt>
    <trkpt lat="45.53012298781729" lon="-122.67558346741511"><ele>10.2</ele></trkpt>
    <trkpt lat="45.53026564488349" lon="-122.67573984150691"><ele>10.2</ele></trkpt>
    <trkpt lat="45.53043" lon="-122.67592"><ele>10.2</ele></trkpt>
    <trkpt lat="45.53047625148497" lon="-122.67597824261071"><ele>10.2</ele></trkpt>
    <trkpt lat="45.530592925329636" lon="-122.67612516522992"><ele>10.2</ele></trkpt>
    <trkpt lat="45.53097" lon="-122.67660000000001"><ele>10.2</ele></trkpt>
    <trkpt lat="45.531110000000005" lon="-122.67682"><ele>10.2</ele></trkpt>
    <trkpt lat="45.531115956502475" lon="-122.6768302398301"><ele>10.2</ele></trkpt>
    <trkpt lat="45.53122856447909" lon="-122.67702382432923"><ele>10.2</ele></trkpt>
    <trkpt lat="45.53134174698621" lon="-122.67721839650437"><ele>10.1</ele></trkpt>
    <trkpt lat="45.531464121981216" lon="-122.67742877149578"><ele>10.2</ele></trkpt>
    <trkpt lat="45.531529618457405" lon="-122.67754136656161"><ele>10.1</ele></trkpt>
    <trkpt lat="45.53158649697621" lon="-122.6776391464872"><ele>10.2</ele></trkpt>
    <trkpt lat="45.531643950025504" lon="-122.6777379140888"><ele>10.2</ele></trkpt>
    <trkpt lat="45.53175770706311" lon="-122.67793347393996"><ele>10.2</ele></trkpt>
    <trkpt lat="45.532013947662975" lon="-122.6783739774431"><ele>10.3</ele></trkpt>
    <trkpt lat="45.532212735213534" lon="-122.67871571334463"><ele>10.1</ele></trkpt>
    <trkpt lat="45.53238337076995" lon="-122.67900905312138"><ele>10.1</ele></trkpt>
    <trkpt lat="45.532468975813394" lon="-122.67915621684776"><ele>10.1</ele></trkpt>
    <trkpt lat="45.532610884845155" lon="-122.67940017282372"><ele>10.0</ele></trkpt>
    <trkpt lat="45.53281024692622" lon="-122.67974289640127"><ele>10.1</ele></trkpt>
    <trkpt lat="45.53286712544502" lon="-122.67984067632685"><ele>10.0</ele></trkpt>
    <trkpt lat="45.53289" lon="-122.67988000000001"><ele>10.0</ele></trkpt>
    <trkpt lat="45.532970000000006" lon="-122.67978000000001"><ele>9.9</ele></trkpt>
    <trkpt lat="45.53302103581069" lon="-122.67986793332247"><ele>9.9</ele></trkpt>
    <trkpt lat="45.53311456123841" lon="-122.68002907510672"><ele>9.8</ele></trkpt>
    <trkpt lat="45.533350956798046" lon="-122.6804363782669"><ele>9.8</ele></trkpt>
    <trkpt lat="45.53348120386609" lon="-122.68066079044495"><ele>9.8</ele></trkpt>
    <trkpt lat="45.53358505725515" lon="-122.68083972702746"><ele>9.8</ele></trkpt>
    <trkpt lat="45.53366882849716" lon="-122.68098406261336"><ele>9.9</ele></trkpt>
    <trkpt lat="45.53372448473329" lon="-122.68107995680398"><ele>9.9</ele></trkpt>
    <trkpt lat="45.533947683453434" lon="-122.68146452216638"><ele>9.8</ele></trkpt>
    <trkpt lat="45.53406129102821" lon="-122.68166026494725"><ele>9.6</ele></trkpt>
    <trkpt lat="45.53414678359711" lon="-122.68180756633285"><ele>9.5</ele></trkpt>
    <trkpt lat="45.53420358738449" lon="-122.68190543772329"><ele>9.5</ele></trkpt>
    <trkpt lat="45.53437399874666" lon="-122.68219905189457"><ele>9.4</ele></trkpt>
    <trkpt lat="45.53443080253405" lon="-122.68229692328501"><ele>9.5</ele></trkpt>
    <trkpt lat="45.53445000000001" lon="-122.68233000000001"><ele>9.5</ele></trkpt>
    <trkpt lat="45.53448811277491" lon="-122.68239418993669"><ele>9.5</ele></trkpt>
    <trkpt lat="45.53466081910838" lon="-122.68268506376148"><ele>9.8</ele></trkpt>
    <trkpt lat="45.534804450301536" lon="-122.68292696892891"><ele>10.0</ele></trkpt>
    <trkpt lat="45.534913772829114" lon="-122.68311109108063"><ele>10.2</ele></trkpt>
    <trkpt lat="45.53499111270235" lon="-122.68324134770923"><ele>10.2</ele></trkpt>
    <trkpt lat="45.53501320980899" lon="-122.68327856388882"><ele>10.2</ele></trkpt>
    <trkpt lat="45.53502" lon="-122.68329000000001"><ele>10.2</ele></trkpt>
    <trkpt lat="45.53511792142343" lon="-122.68346313642985"><ele>10.3</ele></trkpt>
    <trkpt lat="45.53527441669323" lon="-122.68373983821124"><ele>10.4</ele></trkpt>
    <trkpt lat="45.53535859645929" lon="-122.6838886777976"><ele>10.5</ele></trkpt>
    <trkpt lat="45.53544334119023" lon="-122.68403851630737"><ele>10.5</ele></trkpt>
    <trkpt lat="45.53555576919994" lon="-122.68423730206366"><ele>10.4</ele></trkpt>
    <trkpt lat="45.535668197209645" lon="-122.68443608781996"><ele>10.3</ele></trkpt>
    <trkpt lat="45.53569814034791" lon="-122.68448903076009"><ele>10.4</ele></trkpt>
    <trkpt lat="45.53574898718647" lon="-122.68457893386594"><ele>10.4</ele></trkpt>
    <trkpt lat="45.53582921219842" lon="-122.68472078098853"><ele>10.4</ele></trkpt>
    <trkpt lat="45.535989662222335" lon="-122.6850044752337"><ele>10.5</ele></trkpt>
    <trkpt lat="45.53612299393234" lon="-122.68524022115574"><ele>10.5</ele></trkpt>
    <trkpt lat="45.53616649622755" lon="-122.68531713825743"><ele>10.6</ele></trkpt>
    <trkpt lat="45.53635632442485" lon="-122.6856527765193"><ele>10.7</ele></trkpt>
    <trkpt lat="45.5364" lon="-122.68573"><ele>10.7</ele></trkpt>
    <trkpt lat="45.536553633576965" lon="-122.68598958776798"><ele>10.8</ele></trkpt>
    <trkpt lat="45.53669000000001" lon="-122.68622"><ele>10.8</ele></trkpt>
    <trkpt lat="45.53688690055017" lon="-122.686595048667"><ele>10.7</ele></trkpt>
    <trkpt lat="45.5369" lon="-122.68662"><ele>10.7</ele></trkpt>
    <trkpt lat="45.537130000000005" lon="-122.68695000000001"><ele>10.7</ele></trkpt>
    <trkpt lat="45.53714242627387" lon="-122.68697218977476"><ele>10.7</ele></trkpt>
    <trkpt lat="45.537298546800585" lon="-122.68725097642962"><ele>10.7</ele></trkpt>
    <trkpt lat="45.537452982573406" lon="-122.68752675459538"><ele>10.7</ele></trkpt>
    <trkpt lat="45.53755" lon="-122.6877"><ele>10.7</ele></trkpt>
    <trkpt lat="45.53754356307028" lon="-122.68770750975135"><ele>10.7</ele></trkpt>
    <trkpt lat="45.537490000000005" lon="-122.68777000000001"><ele>10.7</ele></trkpt>
    <trkpt lat="45.53775661875499" lon="-122.6882300943117"><ele>10.7</ele></trkpt>
    <trkpt lat="45.53785751443986" lon="-122.68840420633427"><ele>10.7</ele></trkpt>
    <trkpt lat="45.53804956020369" lon="-122.68873561274087"><ele>10.7</ele></trkpt>
    <trkpt lat="45.53824504559312" lon="-122.68907295478459"><ele>10.6</ele></trkpt>
    <trkpt lat="45.538351100716426" lon="-122.68925597026288"><ele>10.5</ele></trkpt>
    <trkpt lat="45.538551745544304" lon="-122.68960221576229"><ele>10.4</ele></trkpt>
    <trkpt lat="45.53862" lon="-122.68972000000001"><ele>10.3</ele></trkpt>
    <trkpt lat="45.538685205950465" lon="-122.68982610786485"><ele>10.3</ele></trkpt>
    <trkpt lat="45.53888567800158" lon="-122.69015233056622"><ele>10.3</ele></trkpt>
    <trkpt lat="45.53905768064898" lon="-122.69043222578335"><ele>10.4</ele></trkpt>
    <trkpt lat="45.53914368197269" lon="-122.69057217339193"><ele>10.4</ele></trkpt>
    <trkpt lat="45.539382706341314" lon="-122.69096113122814"><ele>10.5</ele></trkpt>
    <trkpt lat="45.539681041967675" lon="-122.69144660465648"><ele>10.6</ele></trkpt>
    <trkpt lat="45.53972" lon="-122.69151000000001"><ele>10.6</ele></trkpt>
    <trkpt lat="45.539790079567894" lon="-122.69162260357753"><ele>10.6</ele></trkpt>
    <trkpt lat="45.53998840226189" lon="-122.69194126771208"><ele>10.5</ele></trkpt>
    <trkpt lat="45.54007561645865" lon="-122.69208140314474"><ele>10.5</ele></trkpt>
    <trkpt lat="45.54013356013731" lon="-122.69217450682258"><ele>10.5</ele></trkpt>
    <trkpt lat="45.540279315370256" lon="-122.69240870576482"><ele>10.5</ele></trkpt>
    <trkpt lat="45.54042268117314" lon="-122.69263906538015"><ele>10.6</ele></trkpt>
    <trkpt lat="45.54066580568054" lon="-122.69302971689447"><ele>10.8</ele></trkpt>
    <trkpt lat="45.540784679825435" lon="-122.69322072340884"><ele>10.9</ele></trkpt>
    <trkpt lat="45.54087428345224" lon="-122.69336469816841"><ele>10.9</ele></trkpt>
    <trkpt lat="45.540993754954656" lon="-122.69355666451452"><ele>10.9</ele></trkpt>
    <trkpt lat="45.541172962208265" lon="-122.69384461403368"><ele>10.7</ele></trkpt>
    <trkpt lat="45.54128227863297" lon="-122.69402026324035"><ele>10.7</ele></trkpt>
    <trkpt lat="45.54142325500581" lon="-122.69424678352875"><ele>10.8</ele></trkpt>
    <trkpt lat="45.54154631065329" lon="-122.69444450886525"><ele>10.8</ele></trkpt>
    <trkpt lat="45.54178" lon="-122.69482"><ele>10.8</ele></trkpt>
    <trkpt lat="45.54183064750995" lon="-122.69491144689297"><ele>10.8</ele></trkpt>
    <trkpt lat="45.54199241638814" lon="-122.69520352958969"><ele>10.6</ele></trkpt>
    <trkpt lat="45.54212685190415" lon="-122.69544626038251"><ele>10.5</ele></trkpt>
    <trkpt lat="45.54214" lon="-122.69547000000001"><ele>10.5</ele></trkpt>
    <trkpt lat="45.54222883138682" lon="-122.6956156834744"><ele>10.6</ele></trkpt>
    <trkpt lat="45.54230677973306" lon="-122.69574351876224"><ele>10.6</ele></trkpt>
    <trkpt lat="45.5424030341303" lon="-122.6959013759737"><ele>10.7</ele></trkpt>
    <trkpt lat="45.542535310111795" lon="-122.69611830858335"><ele>10.8</ele></trkpt>
    <trkpt lat="45.54261443949358" lon="-122.69624808076948"><ele>10.8</ele></trkpt>
    <trkpt lat="45.542640000000006" lon="-122.69629"><ele>10.8</ele></trkpt>
    <trkpt lat="45.542701047243156" lon="-122.69638898895603"><ele>10.9</ele></trkpt>
    <trkpt lat="45.54287518759161" lon="-122.69667135995928"><ele>11.0</ele></trkpt>
    <trkpt lat="45.54296136626235" lon="-122.6968110998756"><ele>11.0</ele></trkpt>
    <trkpt lat="45.54301901682139" lon="-122.69690458106098"><ele>11.0</ele></trkpt>
    <trkpt lat="45.54313372360382" lon="-122.69709057970819"><ele>11.0</ele></trkpt>
    <trkpt lat="45.54347427793714" lon="-122.69764279330843"><ele>10.8</ele></trkpt>
    <trkpt lat="45.54364722961428" lon="-122.6979232368646"><ele>10.6</ele></trkpt>
    <trkpt lat="45.5438772375148" lon="-122.69829619788257"><ele>10.4</ele></trkpt>
    <trkpt lat="45.543963416185534" lon="-122.69843593779885"><ele>10.3</ele></trkpt>
    <trkpt lat="45.544267716043585" lon="-122.69892936426191"><ele>10.3</ele></trkpt>
    <trkpt lat="45.54437707380508" lon="-122.69910668939708"><ele>10.3</ele></trkpt>
    <trkpt lat="45.54446562981845" lon="-122.69925028420761"><ele>10.3</ele></trkpt>
    <trkpt lat="45.544583902614846" lon="-122.69944206519618"><ele>10.3</ele></trkpt>
    <trkpt lat="45.54464333618087" lon="-122.69953843755223"><ele>10.3</ele></trkpt>
    <trkpt lat="45.54482104254329" lon="-122.69982659089689"><ele>10.4</ele></trkpt>
    <trkpt lat="45.545057588136075" lon="-122.70021015287404"><ele>10.5</ele></trkpt>
    <trkpt lat="45.54523529449848" lon="-122.70049830621866"><ele>10.6</ele></trkpt>
    <trkpt lat="45.54529472806451" lon="-122.70059467857473"><ele>10.7</ele></trkpt>
    <trkpt lat="45.545383284077886" lon="-122.70073827338527"><ele>10.7</ele></trkpt>
    <trkpt lat="45.545627556034255" lon="-122.7011343637687"><ele>10.6</ele></trkpt>
    <trkpt lat="45.54594314826985" lon="-122.70164610097942"><ele>10.4</ele></trkpt>
    <trkpt lat="45.546069741765486" lon="-122.70185137409783"><ele>10.4</ele></trkpt>
    <trkpt lat="45.54615829777886" lon="-122.70199496890837"><ele>10.3</ele></trkpt>
    <trkpt lat="45.546163052464145" lon="-122.70200267869684"><ele>10.1</ele></trkpt>
    <trkpt lat="45.54635858889637" lon="-122.70231974374832"><ele>10.3</ele></trkpt>
    <trkpt lat="45.546558880013876" lon="-122.70264451858824"><ele>10.3</ele></trkpt>
    <trkpt lat="45.54667596413894" lon="-122.7028343721297"><ele>10.4</ele></trkpt>
    <trkpt lat="45.54675917113138" lon="-122.7029692934282"><ele>10.5</ele></trkpt>
    <trkpt lat="45.54707179168867" lon="-122.7034762120211"><ele>10.7</ele></trkpt>
    <trkpt lat="45.54713063091904" lon="-122.7035716206536"><ele>10.7</ele></trkpt>
    <trkpt lat="45.54721918693242" lon="-122.70371521546413"><ele>10.7</ele></trkpt>
    <trkpt lat="45.54748842098652" lon="-122.70415178223712"><ele>10.5</ele></trkpt>
    <trkpt lat="45.54766" lon="-122.70443000000002"><ele>10.4</ele></trkpt>
    <trkpt lat="45.547650000000004" lon="-122.70443000000002"><ele>10.4</ele></trkpt>
    <trkpt lat="45.54766" lon="-122.70443000000002"><ele>10.4</ele></trkpt>
    <trkpt lat="45.54771788294818" lon="-122.70452840101191"><ele>10.4</ele></trkpt>
    <trkpt lat="45.54789083084485" lon="-122.70482241243626"><ele>10.2</ele></trkpt>
    <trkpt lat="45.54803485768856" lon="-122.70506725807056"><ele>10.2</ele></trkpt>
    <trkpt lat="45.548092699794466" lon="-122.70516558965062"><ele>10.1</ele></trkpt>
    <trkpt lat="45.54816" lon="-122.70528000000002"><ele>10.0</ele></trkpt>
    <trkpt lat="45.54820259954219" lon="-122.70536697406533"><ele>10.0</ele></trkpt>
    <trkpt lat="45.54825414262487" lon="-122.70547220785912"><ele>10.0</ele></trkpt>
    <trkpt lat="45.54830568570753" lon="-122.70557744165289"><ele>10.0</ele></trkpt>
    <trkpt lat="45.5484" lon="-122.70577000000002"><ele>10.1</ele></trkpt>
    <trkpt lat="45.54858369047743" lon="-122.70615849480284"><ele>10.3</ele></trkpt>
    <trkpt lat="45.54870949948739" lon="-122.70642457362851"><ele>10.4</ele></trkpt>
    <trkpt lat="45.5488348052613" lon="-122.70668958813886"><ele>10.6</ele></trkpt>
    <trkpt lat="45.54896011103522" lon="-122.7069546026492"><ele>10.7</ele></trkpt>
    <trkpt lat="45.54911007537509" lon="-122.70727176860939"><ele>10.5</ele></trkpt>
    <trkpt lat="45.54927000000001" lon="-122.70761000000002"><ele>10.3</ele></trkpt>
    <trkpt lat="45.549284026877395" lon="-122.70764322155173"><ele>10.3</ele></trkpt>
    <trkpt lat="45.549422403291814" lon="-122.70797095516482"><ele>10.1</ele></trkpt>
    <trkpt lat="45.54946" lon="-122.70806"><ele>10.1</ele></trkpt>
    <trkpt lat="45.54948870877775" lon="-122.7081371548402"><ele>10.1</ele></trkpt>
    <trkpt lat="45.54955158356764" lon="-122.70830613083803"><ele>10.1</ele></trkpt>
    <trkpt lat="45.54959378141321" lon="-122.708419537548"><ele>10.1</ele></trkpt>
    <trkpt lat="45.54963555728032" lon="-122.70853181019086"><ele>10.1</ele></trkpt>
    <trkpt lat="45.54974020793732" lon="-122.70881305883154"><ele>10.3</ele></trkpt>
    <trkpt lat="45.54992925428546" lon="-122.70932112089217"><ele>10.5</ele></trkpt>
    <trkpt lat="45.550013227998136" lon="-122.70954680024498"><ele>10.7</ele></trkpt>
    <trkpt lat="45.550076102788026" lon="-122.70971577624282"><ele>10.8</ele></trkpt>
    <trkpt lat="45.5501" lon="-122.70978000000001"><ele>10.8</ele></trkpt>
    <trkpt lat="45.55020086344788" lon="-122.71005737448166"><ele>10.9</ele></trkpt>
    <trkpt lat="45.55030406079519" lon="-122.71034116718678"><ele>11.0</ele></trkpt>
    <trkpt lat="45.55038695023079" lon="-122.71056911313468"><ele>10.9</ele></trkpt>
    <trkpt lat="45.55057137922499" lon="-122.71107629286871"><ele>10.7</ele></trkpt>
    <trkpt lat="45.55078" lon="-122.71165"><ele>10.7</ele></trkpt>
    <trkpt lat="45.551" lon="-122.71248000000001"><ele>10.8</ele></trkpt>
    <trkpt lat="45.551550000000006" lon="-122.71402"><ele>10.9</ele></trkpt>
  </trkseg></trk>
</gpx>
