<?xml version="1.0" encoding="UTF-8"?>
<gpx version="1.1" creator="h2c-tracker" xmlns="http://www.topografix.com/GPX/1/1">
  <metadata><name>Hood to Coast 2026 — Leg 29 (5.97 mi)</name><desc>Derived from the official Hood to Coast Strava route (simplified, 706 points, ~5.98 mi). Verify against the official leg map PDF.</desc></metadata>
  <wpt lat="45.95422073205782" lon="-123.57391749074351"><name>Exchange 28 — HWY 202 m.p. 25.3</name></wpt>
  <wpt lat="46.020680077529434" lon="-123.62504739991985"><name>Exchange 29 — HWY 202 m.p. 19.4</name></wpt>
  <trk><name>HTC Leg 29</name><trkseg>
    <trkpt lat="45.95422073205782" lon="-123.57391749074351"><ele>229.2</ele></trkpt>
    <trkpt lat="45.954296444318125" lon="-123.57407651181197"><ele>230.0</ele></trkpt>
    <trkpt lat="45.95436" lon="-123.57421000000001"><ele>230.7</ele></trkpt>
    <trkpt lat="45.954473389741565" lon="-123.57444937834332"><ele>231.9</ele></trkpt>
    <trkpt lat="45.95452402737219" lon="-123.57455628000797"><ele>232.4</ele></trkpt>
    <trkpt lat="45.95472" lon="-123.57497000000001"><ele>234.2</ele></trkpt>
    <trkpt lat="45.954753231092724" lon="-123.57503438524215"><ele>234.5</ele></trkpt>
    <trkpt lat="45.95483364169695" lon="-123.57519018078784"><ele>235.3</ele></trkpt>
    <trkpt lat="45.95488671269574" lon="-123.57529300584801"><ele>235.9</ele></trkpt>
    <trkpt lat="45.95494031976522" lon="-123.57539686954513"><ele>236.5</ele></trkpt>
    <trkpt lat="45.95499392683471" lon="-123.57550073324225"><ele>237.2</ele></trkpt>
    <trkpt lat="45.955040000000004" lon="-123.57559"><ele>237.8</ele></trkpt>
    <trkpt lat="45.95504842900363" lon="-123.57560354661297"><ele>237.9</ele></trkpt>
    <trkpt lat="45.955137793391074" lon="-123.57574716794994"><ele>239.0</ele></trkpt>
    <trkpt lat="45.95519776949003" lon="-123.57584355810897"><ele>239.7</ele></trkpt>
    <trkpt lat="45.95525774558898" lon="-123.575939948268"><ele>240.3</ele></trkpt>
    <trkpt lat="45.95531712192694" lon="-123.57603537452545"><ele>240.8</ele></trkpt>
    <trkpt lat="45.95532" lon="-123.57604"><ele>240.9</ele></trkpt>
    <trkpt lat="45.955388168513394" lon="-123.57611450977045"><ele>241.3</ele></trkpt>
    <trkpt lat="45.95542397081513" lon="-123.57615364251888"><ele>241.5</ele></trkpt>
    <trkpt lat="45.955459773116885" lon="-123.5761927752673"><ele>241.6</ele></trkpt>
    <trkpt lat="45.955531377720376" lon="-123.57627104076414"><ele>241.9</ele></trkpt>
    <trkpt lat="45.95560226627784" lon="-123.57634852360601"><ele>242.1</ele></trkpt>
    <trkpt lat="45.95578127778658" lon="-123.57654418734813"><ele>242.5</ele></trkpt>
    <trkpt lat="45.955995375551026" lon="-123.57677820118369"><ele>243.2</ele></trkpt>
    <trkpt lat="45.95618" lon="-123.57698"><ele>243.6</ele></trkpt>
    <trkpt lat="45.95620572615868" lon="-123.57701459724788"><ele>243.7</ele></trkpt>
    <trkpt lat="45.956270105274285" lon="-123.57710117605853"><ele>243.9</ele></trkpt>
    <trkpt lat="45.95633514131965" lon="-123.57718863832643"><ele>244.2</ele></trkpt>
    <trkpt lat="45.95647" lon="-123.57737000000002"><ele>244.9</ele></trkpt>
    <trkpt lat="45.95649242849872" lon="-123.57741325496183"><ele>245.1</ele></trkpt>
    <trkpt lat="45.956545658530246" lon="-123.57751591287976"><ele>245.4</ele></trkpt>
    <trkpt lat="45.956610000000005" lon="-123.57764000000002"><ele>245.7</ele></trkpt>
    <trkpt lat="45.95669593857682" lon="-123.57783170913291"><ele>246.1</ele></trkpt>
    <trkpt lat="45.95676855543696" lon="-123.57799370059014"><ele>246.5</ele></trkpt>
    <trkpt lat="45.95681631686174" lon="-123.57810024530698"><ele>246.6</ele></trkpt>
    <trkpt lat="45.95687" lon="-123.57822000000002"><ele>246.8</ele></trkpt>
    <trkpt lat="45.956931734332464" lon="-123.57837314863247"><ele>247.0</ele></trkpt>
    <trkpt lat="45.95704315882787" lon="-123.57864956709224"><ele>247.4</ele></trkpt>
    <trkpt lat="45.957132027757396" lon="-123.57887003039816"><ele>247.7</ele></trkpt>
    <trkpt lat="45.957177138889136" lon="-123.57898194070576"><ele>247.9</ele></trkpt>
    <trkpt lat="45.957221798909565" lon="-123.57909273191027"><ele>248.0</ele></trkpt>
    <trkpt lat="45.95726600781867" lon="-123.57920240401171"><ele>248.1</ele></trkpt>
    <trkpt lat="45.95737743231407" lon="-123.57947882247144"><ele>248.2</ele></trkpt>
    <trkpt lat="45.957390000000004" lon="-123.57951000000001"><ele>248.2</ele></trkpt>
    <trkpt lat="45.9574290518081" lon="-123.57958289670846"><ele>248.3</ele></trkpt>
    <trkpt lat="45.95751029468137" lon="-123.57973455007192"><ele>248.5</ele></trkpt>
    <trkpt lat="45.95754" lon="-123.57979000000002"><ele>248.6</ele></trkpt>
    <trkpt lat="45.95757194622089" lon="-123.579825495801"><ele>248.7</ele></trkpt>
    <trkpt lat="45.95763" lon="-123.57989"><ele>248.8</ele></trkpt>
    <trkpt lat="45.95764321116211" lon="-123.57989952432618"><ele>248.9</ele></trkpt>
    <trkpt lat="45.957763006847955" lon="-123.57998588865783"><ele>249.2</ele></trkpt>
    <trkpt lat="45.95804119011843" lon="-123.58018643938772"><ele>250.2</ele></trkpt>
    <trkpt lat="45.95806" lon="-123.5802"><ele>250.3</ele></trkpt>
    <trkpt lat="45.95817313145426" lon="-123.58035664355205"><ele>250.8</ele></trkpt>
    <trkpt lat="45.95819" lon="-123.58038"><ele>250.9</ele></trkpt>
    <trkpt lat="45.958238677258365" lon="-123.58051994711778"><ele>251.4</ele></trkpt>
    <trkpt lat="45.958270000000006" lon="-123.58061000000001"><ele>251.7</ele></trkpt>
    <trkpt lat="45.95828270093364" lon="-123.58069890653543"><ele>252.0</ele></trkpt>
    <trkpt lat="45.95837248910237" lon="-123.5813274237166"><ele>254.1</ele></trkpt>
    <trkpt lat="45.95839" lon="-123.58145"><ele>254.5</ele></trkpt>
    <trkpt lat="45.95843000000001" lon="-123.58160000000001"><ele>255.0</ele></trkpt>
    <trkpt lat="45.95844268590412" lon="-123.58162990248827"><ele>255.1</ele></trkpt>
    <trkpt lat="45.95848906522047" lon="-123.58173922516252"><ele>255.5</ele></trkpt>
    <trkpt lat="45.95853544453682" lon="-123.58184854783678"><ele>255.9</ele></trkpt>
    <trkpt lat="45.95860477927238" lon="-123.58201197971346"><ele>256.3</ele></trkpt>
    <trkpt lat="45.95865115858873" lon="-123.58212130238773"><ele>256.5</ele></trkpt>
    <trkpt lat="45.958697069427146" lon="-123.58222952079255"><ele>256.6</ele></trkpt>
    <trkpt lat="45.95871" lon="-123.58226"><ele>256.6</ele></trkpt>
    <trkpt lat="45.95871815290888" lon="-123.58228649695386"><ele>256.6</ele></trkpt>
    <trkpt lat="45.95875" lon="-123.58239"><ele>256.6</ele></trkpt>
    <trkpt lat="45.9587733791816" lon="-123.58253027508957"><ele>256.7</ele></trkpt>
    <trkpt lat="45.958780000000004" lon="-123.58257"><ele>256.7</ele></trkpt>
    <trkpt lat="45.95877129992285" lon="-123.5828484024687"><ele>256.8</ele></trkpt>
    <trkpt lat="45.95877" lon="-123.58289"><ele>256.8</ele></trkpt>
    <trkpt lat="45.95872831864199" lon="-123.58309595494546"><ele>256.8</ele></trkpt>
    <trkpt lat="45.958703432393236" lon="-123.58321892229226"><ele>256.9</ele></trkpt>
    <trkpt lat="45.95867854614448" lon="-123.58334188963904"><ele>256.9</ele></trkpt>
    <trkpt lat="45.95864109108323" lon="-123.58352696170641"><ele>257.1</ele></trkpt>
    <trkpt lat="45.958616204834485" lon="-123.58364992905321"><ele>257.3</ele></trkpt>
    <trkpt lat="45.958600000000004" lon="-123.58373000000002"><ele>257.4</ele></trkpt>
    <trkpt lat="45.95859819559333" lon="-123.58377330575999"><ele>257.5</ele></trkpt>
    <trkpt lat="45.95859" lon="-123.58397000000001"><ele>257.8</ele></trkpt>
    <trkpt lat="45.958611304937605" lon="-123.58415464279258"><ele>258.2</ele></trkpt>
    <trkpt lat="45.95862" lon="-123.58423"><ele>258.3</ele></trkpt>
    <trkpt lat="45.95871" lon="-123.58446"><ele>258.7</ele></trkpt>
    <trkpt lat="45.95876438165381" lon="-123.5845352976745"><ele>258.9</ele></trkpt>
    <trkpt lat="45.95884" lon="-123.58464000000001"><ele>259.2</ele></trkpt>
    <trkpt lat="45.958865286921906" lon="-123.58466054562405"><ele>259.3</ele></trkpt>
    <trkpt lat="45.959" lon="-123.58477"><ele>259.7</ele></trkpt>
    <trkpt lat="45.95919000000001" lon="-123.58486"><ele>260.2</ele></trkpt>
    <trkpt lat="45.95936595346393" lon="-123.58489519069279"><ele>260.7</ele></trkpt>
    <trkpt lat="45.959390000000006" lon="-123.5849"><ele>260.8</ele></trkpt>
    <trkpt lat="45.95949" lon="-123.5849"><ele>261.0</ele></trkpt>
    <trkpt lat="45.959585442578735" lon="-123.58487545762262"><ele>261.3</ele></trkpt>
    <trkpt lat="45.959847488246666" lon="-123.58480807445086"><ele>262.0</ele></trkpt>
    <trkpt lat="45.96006526944367" lon="-123.58475207357164"><ele>262.6</ele></trkpt>
    <trkpt lat="45.960190000000004" lon="-123.58472"><ele>263.0</ele></trkpt>
    <trkpt lat="45.96049000000001" lon="-123.58481"><ele>263.8</ele></trkpt>
    <trkpt lat="45.96053954820288" lon="-123.58484185241615"><ele>263.9</ele></trkpt>
    <trkpt lat="45.96063" lon="-123.5849"><ele>264.2</ele></trkpt>
    <trkpt lat="45.96114448401438" lon="-123.5853727690943"><ele>265.6</ele></trkpt>
    <trkpt lat="45.961256651931095" lon="-123.58547584231506"><ele>265.9</ele></trkpt>
    <trkpt lat="45.961330925281345" lon="-123.58554409350178"><ele>266.0</ele></trkpt>
    <trkpt lat="45.96137" lon="-123.58558000000001"><ele>266.1</ele></trkpt>
    <trkpt lat="45.96148" lon="-123.5858"><ele>266.4</ele></trkpt>
    <trkpt lat="45.96156256445812" lon="-123.58600475985615"><ele>266.7</ele></trkpt>
    <trkpt lat="45.96160723754382" lon="-123.58611554910867"><ele>266.8</ele></trkpt>
    <trkpt lat="45.961674472794016" lon="-123.58628229252915"><ele>267.2</ele></trkpt>
    <trkpt lat="45.96173" lon="-123.58642"><ele>267.5</ele></trkpt>
    <trkpt lat="45.96180354184802" lon="-123.5866171547415"><ele>267.9</ele></trkpt>
    <trkpt lat="45.96188773731887" lon="-123.58684287025909"><ele>268.4</ele></trkpt>
    <trkpt lat="45.96195067130718" lon="-123.58701158690859"><ele>268.7</ele></trkpt>
    <trkpt lat="45.961992769042595" lon="-123.58712444466738"><ele>268.8</ele></trkpt>
    <trkpt lat="45.9621411741907" lon="-123.58752229676654"><ele>269.4</ele></trkpt>
    <trkpt lat="45.9622" lon="-123.58768"><ele>269.7</ele></trkpt>
    <trkpt lat="45.96226741388312" lon="-123.58778706910849"><ele>269.9</ele></trkpt>
    <trkpt lat="45.96235797437371" lon="-123.5879309004759"><ele>270.2</ele></trkpt>
    <trkpt lat="45.96237000000001" lon="-123.58795"><ele>270.2</ele></trkpt>
    <trkpt lat="45.96242192969335" lon="-123.58801990535642"><ele>270.3</ele></trkpt>
    <trkpt lat="45.96252042896449" lon="-123.58815250052912"><ele>270.5</ele></trkpt>
    <trkpt lat="45.962630000000004" lon="-123.5883"><ele>270.6</ele></trkpt>
    <trkpt lat="45.962740000000004" lon="-123.58852000000002"><ele>270.8</ele></trkpt>
    <trkpt lat="45.96274817717804" lon="-123.5885468678707"><ele>270.8</ele></trkpt>
    <trkpt lat="45.962810000000005" lon="-123.58875"><ele>271.0</ele></trkpt>
    <trkpt lat="45.9628597776169" lon="-123.58903695332094"><ele>271.2</ele></trkpt>
    <trkpt lat="45.962892222274775" lon="-123.58922398723105"><ele>271.3</ele></trkpt>
    <trkpt lat="45.962913997212944" lon="-123.58934951334521"><ele>271.4</ele></trkpt>
    <trkpt lat="45.96295754708929" lon="-123.58960056557353"><ele>271.3</ele></trkpt>
    <trkpt lat="45.96297910427808" lon="-123.58972483642656"><ele>271.3</ele></trkpt>
    <trkpt lat="45.96298" lon="-123.58973000000002"><ele>271.3</ele></trkpt>
    <trkpt lat="45.963080000000005" lon="-123.58997000000001"><ele>271.4</ele></trkpt>
    <trkpt lat="45.96322733836282" lon="-123.59017627370794"><ele>271.4</ele></trkpt>
    <trkpt lat="45.96323" lon="-123.59018"><ele>271.4</ele></trkpt>
    <trkpt lat="45.96331042926505" lon="-123.59022468292503"><ele>271.5</ele></trkpt>
    <trkpt lat="45.96332" lon="-123.59023"><ele>271.5</ele></trkpt>
    <trkpt lat="45.96335343802677" lon="-123.59024337521072"><ele>271.5</ele></trkpt>
    <trkpt lat="45.9634400833249" lon="-123.59027803332997"><ele>271.7</ele></trkpt>
    <trkpt lat="45.96352" lon="-123.59031000000002"><ele>271.8</ele></trkpt>
    <trkpt lat="45.96374778969453" lon="-123.59025552855132"><ele>272.3</ele></trkpt>
    <trkpt lat="45.964101762535904" lon="-123.59017088287186"><ele>272.8</ele></trkpt>
    <trkpt lat="45.96423483503267" lon="-123.59013906118784"><ele>273.1</ele></trkpt>
    <trkpt lat="45.96436613322947" lon="-123.59010766379296"><ele>273.1</ele></trkpt>
    <trkpt lat="45.96444" lon="-123.59009"><ele>273.2</ele></trkpt>
    <trkpt lat="45.9645436687281" lon="-123.59007662338992"><ele>273.2</ele></trkpt>
    <trkpt lat="45.96463234567903" lon="-123.5900651812027"><ele>273.3</ele></trkpt>
    <trkpt lat="45.96475" lon="-123.59005"><ele>273.5</ele></trkpt>
    <trkpt lat="45.964764965287145" lon="-123.59004930394015"><ele>273.5</ele></trkpt>
    <trkpt lat="45.96494383698186" lon="-123.59004098432644"><ele>273.9</ele></trkpt>
    <trkpt lat="45.965032823402844" lon="-123.59003684542313"><ele>274.1</ele></trkpt>
    <trkpt lat="45.96512180982383" lon="-123.59003270651982"><ele>274.3</ele></trkpt>
    <trkpt lat="45.96525573888168" lon="-123.59002647726132"><ele>274.7</ele></trkpt>
    <trkpt lat="45.96552269814464" lon="-123.59001406055143"><ele>275.7</ele></trkpt>
    <trkpt lat="45.96561168456563" lon="-123.59000992164812"><ele>276.0</ele></trkpt>
    <trkpt lat="45.96587954268133" lon="-123.58999746313111"><ele>276.8</ele></trkpt>
    <trkpt lat="45.96596852910232" lon="-123.58999332422782"><ele>277.1</ele></trkpt>
    <trkpt lat="45.96604000000001" lon="-123.58999000000001"><ele>277.3</ele></trkpt>
    <trkpt lat="45.96619115899125" lon="-123.59000511589913"><ele>277.9</ele></trkpt>
    <trkpt lat="45.966240000000006" lon="-123.59001"><ele>278.1</ele></trkpt>
    <trkpt lat="45.96643" lon="-123.59006000000001"><ele>278.7</ele></trkpt>
    <trkpt lat="45.96645311383263" lon="-123.59007365817384"><ele>278.8</ele></trkpt>
    <trkpt lat="45.96661865941783" lon="-123.59017148056509"><ele>279.5</ele></trkpt>
    <trkpt lat="45.96682496748382" lon="-123.5902933898768"><ele>280.5</ele></trkpt>
    <trkpt lat="45.9670312755498" lon="-123.59041529918852"><ele>281.6</ele></trkpt>
    <trkpt lat="45.967090000000006" lon="-123.59045"><ele>282.0</ele></trkpt>
    <trkpt lat="45.96711513115248" lon="-123.59045661346119"><ele>282.1</ele></trkpt>
    <trkpt lat="45.96720271102757" lon="-123.59047966079672"><ele>282.5</ele></trkpt>
    <trkpt lat="45.96728" lon="-123.5905"><ele>282.8</ele></trkpt>
    <trkpt lat="45.96729043374994" lon="-123.59050109828947"><ele>282.8</ele></trkpt>
    <trkpt lat="45.96742407556005" lon="-123.59051516584842"><ele>283.2</ele></trkpt>
    <trkpt lat="45.967557717370156" lon="-123.5905292334074"><ele>283.6</ele></trkpt>
    <trkpt lat="45.96766" lon="-123.59054"><ele>283.8</ele></trkpt>
    <trkpt lat="45.967734496557014" lon="-123.59055773727549"><ele>284.0</ele></trkpt>
    <trkpt lat="45.967870000000005" lon="-123.59059"><ele>284.2</ele></trkpt>
    <trkpt lat="45.96790988665984" lon="-123.59060709428279"><ele>284.3</ele></trkpt>
    <trkpt lat="45.96799521430282" lon="-123.59064366327266"><ele>284.4</ele></trkpt>
    <trkpt lat="45.96812363671499" lon="-123.5906987014493"><ele>284.6</ele></trkpt>
    <trkpt lat="45.968337386770145" lon="-123.5907903086158"><ele>284.7</ele></trkpt>
    <trkpt lat="45.968500000000006" lon="-123.59086"><ele>284.9</ele></trkpt>
    <trkpt lat="45.96850831135494" lon="-123.590861662271"><ele>284.9</ele></trkpt>
    <trkpt lat="45.96872921911161" lon="-123.59090584382233"><ele>285.1</ele></trkpt>
    <trkpt lat="45.96875000000001" lon="-123.59091000000001"><ele>285.1</ele></trkpt>
    <trkpt lat="45.96886259416982" lon="-123.59092407427124"><ele>285.2</ele></trkpt>
    <trkpt lat="45.96895129294898" lon="-123.59093516161862"><ele>285.2</ele></trkpt>
    <trkpt lat="45.968990000000005" lon="-123.59094"><ele>285.1</ele></trkpt>
    <trkpt lat="45.96917256917119" lon="-123.59090503994594"><ele>285.0</ele></trkpt>
    <trkpt lat="45.96930539691617" lon="-123.59087960484584"><ele>284.9</ele></trkpt>
    <trkpt lat="45.969460000000005" lon="-123.59085"><ele>284.9</ele></trkpt>
    <trkpt lat="45.969572031676634" lon="-123.59085000000002"><ele>284.8</ele></trkpt>
    <trkpt lat="45.96963" lon="-123.59085"><ele>284.8</ele></trkpt>
    <trkpt lat="45.96966006032208" lon="-123.5908612726208"><ele>284.8</ele></trkpt>
    <trkpt lat="45.96970357275736" lon="-123.59087758978401"><ele>284.9</ele></trkpt>
    <trkpt lat="45.96979" lon="-123.59091000000001"><ele>284.9</ele></trkpt>
    <trkpt lat="45.96991341577092" lon="-123.59098404946256"><ele>285.1</ele></trkpt>
    <trkpt lat="45.96994" lon="-123.59100000000001"><ele>285.2</ele></trkpt>
    <trkpt lat="45.97001579454745" lon="-123.59110308058453"><ele>285.4</ele></trkpt>
    <trkpt lat="45.970178530311244" lon="-123.5913244012233"><ele>285.9</ele></trkpt>
    <trkpt lat="45.97019" lon="-123.59134000000002"><ele>285.9</ele></trkpt>
    <trkpt lat="45.97026028067262" lon="-123.59147353327796"><ele>286.1</ele></trkpt>
    <trkpt lat="45.970290000000006" lon="-123.59153"><ele>286.1</ele></trkpt>
    <trkpt lat="45.970306520585865" lon="-123.59158210338617"><ele>286.2</ele></trkpt>
    <trkpt lat="45.970420000000004" lon="-123.59194000000001"><ele>286.7</ele></trkpt>
    <trkpt lat="45.970471024570024" lon="-123.5921041660079"><ele>287.0</ele></trkpt>
    <trkpt lat="45.9705253604214" lon="-123.59227898570363"><ele>287.3</ele></trkpt>
    <trkpt lat="45.97063403212415" lon="-123.59262862509509"><ele>288.1</ele></trkpt>
    <trkpt lat="45.97067001126898" lon="-123.5927443840828"><ele>288.3</ele></trkpt>
    <trkpt lat="45.970688367975534" lon="-123.59280344479082"><ele>288.4</ele></trkpt>
    <trkpt lat="45.97072434712035" lon="-123.59291920377854"><ele>288.5</ele></trkpt>
    <trkpt lat="45.97076069339932" lon="-123.59303614398041"><ele>288.6</ele></trkpt>
    <trkpt lat="45.9708150292507" lon="-123.59321096367616"><ele>288.7</ele></trkpt>
    <trkpt lat="45.97088735467449" lon="-123.59344366286574"><ele>288.9</ele></trkpt>
    <trkpt lat="45.97094169052587" lon="-123.59361848256148"><ele>289.0</ele></trkpt>
    <trkpt lat="45.970995659243115" lon="-123.59379212104304"><ele>289.2</ele></trkpt>
    <trkpt lat="45.971122320518276" lon="-123.59419963992836"><ele>289.9</ele></trkpt>
    <trkpt lat="45.97115756539485" lon="-123.59431303648776"><ele>290.0</ele></trkpt>
    <trkpt lat="45.971210432709704" lon="-123.59448313132685"><ele>290.2</ele></trkpt>
    <trkpt lat="45.97133415691182" lon="-123.59488120049889"><ele>290.5</ele></trkpt>
    <trkpt lat="45.97140244386017" lon="-123.59510090633273"><ele>290.7</ele></trkpt>
    <trkpt lat="45.97153938489101" lon="-123.59554149921453"><ele>291.1</ele></trkpt>
    <trkpt lat="45.97157000000001" lon="-123.59564"><ele>291.2</ele></trkpt>
    <trkpt lat="45.97160344885931" lon="-123.595709938524"><ele>291.3</ele></trkpt>
    <trkpt lat="45.971679410410545" lon="-123.59586876722204"><ele>291.5</ele></trkpt>
    <trkpt lat="45.971680000000006" lon="-123.59587"><ele>291.5</ele></trkpt>
    <trkpt lat="45.9718" lon="-123.59605"><ele>291.7</ele></trkpt>
    <trkpt lat="45.97190521278755" lon="-123.5961777583849"><ele>291.8</ele></trkpt>
    <trkpt lat="45.971940000000004" lon="-123.59622000000002"><ele>291.9</ele></trkpt>
    <trkpt lat="45.97205441664582" lon="-123.59631881437595"><ele>292.0</ele></trkpt>
    <trkpt lat="45.97216930816451" lon="-123.59641803886936"><ele>292.2</ele></trkpt>
    <trkpt lat="45.9722456454823" lon="-123.59648396655291"><ele>292.4</ele></trkpt>
    <trkpt lat="45.97266742844018" lon="-123.59684823365289"><ele>293.3</ele></trkpt>
    <trkpt lat="45.972782319958874" lon="-123.5969474581463"><ele>293.6</ele></trkpt>
    <trkpt lat="45.972897211477566" lon="-123.59704668263973"><ele>293.9</ele></trkpt>
    <trkpt lat="45.973040000000005" lon="-123.59717"><ele>294.5</ele></trkpt>
    <trkpt lat="45.97314" lon="-123.59725000000002"><ele>294.8</ele></trkpt>
    <trkpt lat="45.97330131241952" lon="-123.59728666191353"><ele>295.4</ele></trkpt>
    <trkpt lat="45.97336000000001" lon="-123.5973"><ele>295.6</ele></trkpt>
    <trkpt lat="45.97360995171792" lon="-123.59730000000002"><ele>296.4</ele></trkpt>
    <trkpt lat="45.973743051428016" lon="-123.5973"><ele>296.9</ele></trkpt>
    <trkpt lat="45.973760000000006" lon="-123.5973"><ele>296.9</ele></trkpt>
    <trkpt lat="45.973890000000004" lon="-123.59734000000002"><ele>297.3</ele></trkpt>
    <trkpt lat="45.97395766630813" lon="-123.59736819429506"><ele>297.5</ele></trkpt>
    <trkpt lat="45.97404318578084" lon="-123.5974038274087"><ele>297.8</ele></trkpt>
    <trkpt lat="45.97412784142049" lon="-123.59743910059187"><ele>298.1</ele></trkpt>
    <trkpt lat="45.97413" lon="-123.59744"><ele>298.1</ele></trkpt>
    <trkpt lat="45.97419636939425" lon="-123.59751843655684"><ele>298.4</ele></trkpt>
    <trkpt lat="45.97424" lon="-123.59757"><ele>298.7</ele></trkpt>
    <trkpt lat="45.97429621452386" lon="-123.59764495269849"><ele>299.0</ele></trkpt>
    <trkpt lat="45.97442" lon="-123.59781000000001"><ele>299.9</ele></trkpt>
    <trkpt lat="45.97442507798102" lon="-123.59781795550359"><ele>299.9</ele></trkpt>
    <trkpt lat="45.97448530334141" lon="-123.59791230856821"><ele>300.4</ele></trkpt>
    <trkpt lat="45.97460453738824" lon="-123.59809910857493"><ele>301.5</ele></trkpt>
    <trkpt lat="45.974838138786126" lon="-123.59846508409825"><ele>304.1</ele></trkpt>
    <trkpt lat="45.974896539135585" lon="-123.5985565779791"><ele>304.7</ele></trkpt>
    <trkpt lat="45.97498474799677" lon="-123.59869477186162"><ele>305.6</ele></trkpt>
    <trkpt lat="45.975190974230834" lon="-123.59901785962832"><ele>307.4</ele></trkpt>
    <trkpt lat="45.9752493745803" lon="-123.59910935350916"><ele>307.9</ele></trkpt>
    <trkpt lat="45.97527918309201" lon="-123.59915605351082"><ele>308.2</ele></trkpt>
    <trkpt lat="45.97533819177846" lon="-123.59924850045292"><ele>308.6</ele></trkpt>
    <trkpt lat="45.975485409326076" lon="-123.59947914127753"><ele>309.6</ele></trkpt>
    <trkpt lat="45.975544418012525" lon="-123.59957158821962"><ele>310.0</ele></trkpt>
    <trkpt lat="45.975787144465" lon="-123.59995185966186"><ele>312.3</ele></trkpt>
    <trkpt lat="45.97587839501106" lon="-123.60009481885066"><ele>313.1</ele></trkpt>
    <trkpt lat="45.97592" lon="-123.60016000000002"><ele>313.4</ele></trkpt>
    <trkpt lat="45.97600056798458" lon="-123.60028476304409"><ele>314.0</ele></trkpt>
    <trkpt lat="45.97609178258188" lon="-123.60042601283313"><ele>314.8</ele></trkpt>
    <trkpt lat="45.97615300043242" lon="-123.60052081134924"><ele>315.2</ele></trkpt>
    <trkpt lat="45.9762754361335" lon="-123.6007104083815"><ele>316.1</ele></trkpt>
    <trkpt lat="45.976459089685115" lon="-123.60099480392986"><ele>317.4</ele></trkpt>
    <trkpt lat="45.976519695357155" lon="-123.60108865446085"><ele>317.8</ele></trkpt>
    <trkpt lat="45.97661152213296" lon="-123.60123085223503"><ele>318.6</ele></trkpt>
    <trkpt lat="45.9766727399835" lon="-123.60132565075116"><ele>319.2</ele></trkpt>
    <trkpt lat="45.97679517568458" lon="-123.60151524778341"><ele>320.4</ele></trkpt>
    <trkpt lat="45.976825784609844" lon="-123.60156264704148"><ele>320.7</ele></trkpt>
    <trkpt lat="45.976978829236195" lon="-123.60179964333179"><ele>322.1</ele></trkpt>
    <trkpt lat="45.97713064950554" lon="-123.60203474365179"><ele>323.5</ele></trkpt>
    <trkpt lat="45.97722308845985" lon="-123.60217788941114"><ele>324.3</ele></trkpt>
    <trkpt lat="45.97728430631039" lon="-123.60227268792727"><ele>324.9</ele></trkpt>
    <trkpt lat="45.97740674201147" lon="-123.6024622849595"><ele>326.1</ele></trkpt>
    <trkpt lat="45.97752856553404" lon="-123.6026509340066"><ele>327.4</ele></trkpt>
    <trkpt lat="45.977559174459316" lon="-123.60269833326467"><ele>327.7</ele></trkpt>
    <trkpt lat="45.977620392309845" lon="-123.60279313178079"><ele>328.2</ele></trkpt>
    <trkpt lat="45.97771221908566" lon="-123.60293532955498"><ele>329.0</ele></trkpt>
    <trkpt lat="45.9777734369362" lon="-123.60303012807111"><ele>329.5</ele></trkpt>
    <trkpt lat="45.977865263712005" lon="-123.60317232584529"><ele>330.4</ele></trkpt>
    <trkpt lat="45.97798" lon="-123.60335"><ele>331.6</ele></trkpt>
    <trkpt lat="45.97798759308654" lon="-123.60336025066682"><ele>331.7</ele></trkpt>
    <trkpt lat="45.97815156128577" lon="-123.60358160773579"><ele>333.2</ele></trkpt>
    <trkpt lat="45.97818" lon="-123.60362"><ele>333.5</ele></trkpt>
    <trkpt lat="45.97821779738943" lon="-123.60366913660627"><ele>333.8</ele></trkpt>
    <trkpt lat="45.97831789659602" lon="-123.60379926557482"><ele>334.8</ele></trkpt>
    <trkpt lat="45.97838" lon="-123.60388"><ele>335.5</ele></trkpt>
    <trkpt lat="45.97853114328921" lon="-123.60403402220902"><ele>336.9</ele></trkpt>
    <trkpt lat="45.97860453618553" lon="-123.60410881306527"><ele>337.5</ele></trkpt>
    <trkpt lat="45.97915424897898" lon="-123.6046689965786"><ele>342.1</ele></trkpt>
    <trkpt lat="45.979337731219786" lon="-123.60485597371922"><ele>343.6</ele></trkpt>
    <trkpt lat="45.97943" lon="-123.60495000000002"><ele>344.3</ele></trkpt>
    <trkpt lat="45.97945027635729" lon="-123.60495750976196"><ele>344.5</ele></trkpt>
    <trkpt lat="45.9795382411302" lon="-123.60499008930749"><ele>345.1</ele></trkpt>
    <trkpt lat="45.9797" lon="-123.60505"><ele>346.1</ele></trkpt>
    <trkpt lat="45.97975685095346" lon="-123.60505342158517"><ele>346.5</ele></trkpt>
    <trkpt lat="45.97989163148494" lon="-123.60506153337641"><ele>347.3</ele></trkpt>
    <trkpt lat="45.98011626570407" lon="-123.60507505302849"><ele>348.7</ele></trkpt>
    <trkpt lat="45.98020611939174" lon="-123.60508046088933"><ele>349.3</ele></trkpt>
    <trkpt lat="45.98042985507399" lon="-123.60509392646279"><ele>351.0</ele></trkpt>
    <trkpt lat="45.98069941613696" lon="-123.60511015004528"><ele>352.8</ele></trkpt>
    <trkpt lat="45.980924050356094" lon="-123.60512366969738"><ele>354.2</ele></trkpt>
    <trkpt lat="45.981192712882184" lon="-123.60513983920126"><ele>355.8</ele></trkpt>
    <trkpt lat="45.98128256656984" lon="-123.60514524706208"><ele>356.3</ele></trkpt>
    <trkpt lat="45.98137242025749" lon="-123.60515065492291"><ele>357.0</ele></trkpt>
    <trkpt lat="45.981507200788975" lon="-123.60515876671415"><ele>358.0</ele></trkpt>
    <trkpt lat="45.98159705447663" lon="-123.60516417457498"><ele>358.6</ele></trkpt>
    <trkpt lat="45.981686908164285" lon="-123.60516958243582"><ele>359.2</ele></trkpt>
    <trkpt lat="45.981860000000005" lon="-123.60518"><ele>360.2</ele></trkpt>
    <trkpt lat="45.981910688118724" lon="-123.60518"><ele>360.6</ele></trkpt>
    <trkpt lat="45.98200062035528" lon="-123.60518"><ele>361.1</ele></trkpt>
    <trkpt lat="45.98201" lon="-123.60518"><ele>361.2</ele></trkpt>
    <trkpt lat="45.982150000000004" lon="-123.60509"><ele>362.2</ele></trkpt>
    <trkpt lat="45.98227000000001" lon="-123.60496"><ele>363.2</ele></trkpt>
    <trkpt lat="45.9822977385369" lon="-123.60490572894956"><ele>363.5</ele></trkpt>
    <trkpt lat="45.982457065165846" lon="-123.6045940029364"><ele>365.3</ele></trkpt>
    <trkpt lat="45.9825" lon="-123.60451"><ele>365.8</ele></trkpt>
    <trkpt lat="45.982600000000005" lon="-123.60438"><ele>366.7</ele></trkpt>
    <trkpt lat="45.982615238511826" lon="-123.60436730124016"><ele>366.9</ele></trkpt>
    <trkpt lat="45.98272" lon="-123.60428000000002"><ele>367.6</ele></trkpt>
    <trkpt lat="45.98277172705427" lon="-123.60424551529717"><ele>368.0</ele></trkpt>
    <trkpt lat="45.98284" lon="-123.6042"><ele>368.4</ele></trkpt>
    <trkpt lat="45.98285379003896" lon="-123.6042"><ele>368.5</ele></trkpt>
    <trkpt lat="45.9830327551897" lon="-123.6042"><ele>369.5</ele></trkpt>
    <trkpt lat="45.98311" lon="-123.6042"><ele>369.9</ele></trkpt>
    <trkpt lat="45.983120838737335" lon="-123.60420666999221"><ele>370.0</ele></trkpt>
    <trkpt lat="45.983202701298126" lon="-123.60425704695271"><ele>370.3</ele></trkpt>
    <trkpt lat="45.98324" lon="-123.60428000000002"><ele>370.5</ele></trkpt>
    <trkpt lat="45.98328292288539" lon="-123.6043123946305"><ele>370.6</ele></trkpt>
    <trkpt lat="45.98336177102376" lon="-123.60437190265947"><ele>370.9</ele></trkpt>
    <trkpt lat="45.98348044145425" lon="-123.6044614652485"><ele>371.2</ele></trkpt>
    <trkpt lat="45.98352026374636" lon="-123.60449151980858"><ele>371.4</ele></trkpt>
    <trkpt lat="45.98359911188473" lon="-123.60455102783754"><ele>371.7</ele></trkpt>
    <trkpt lat="45.98371778231521" lon="-123.60464059042658"><ele>372.2</ele></trkpt>
    <trkpt lat="45.98377000000001" lon="-123.60468000000002"><ele>372.4</ele></trkpt>
    <trkpt lat="45.98387" lon="-123.60473"><ele>372.9</ele></trkpt>
    <trkpt lat="45.98388321336324" lon="-123.60473120121485"><ele>372.9</ele></trkpt>
    <trkpt lat="45.98397296670484" lon="-123.60473936060954"><ele>373.4</ele></trkpt>
    <trkpt lat="45.98398" lon="-123.60474"><ele>373.4</ele></trkpt>
    <trkpt lat="45.984017019482096" lon="-123.60473999999999"><ele>373.6</ele></trkpt>
    <trkpt lat="45.98406198560038" lon="-123.60474"><ele>373.9</ele></trkpt>
    <trkpt lat="45.984100000000005" lon="-123.60474"><ele>374.1</ele></trkpt>
    <trkpt lat="45.984210000000004" lon="-123.60473"><ele>374.8</ele></trkpt>
    <trkpt lat="45.9842366254903" lon="-123.60471063600707"><ele>375.0</ele></trkpt>
    <trkpt lat="45.98431608817017" lon="-123.60465284496716"><ele>375.5</ele></trkpt>
    <trkpt lat="45.984320000000004" lon="-123.60465"><ele>375.5</ele></trkpt>
    <trkpt lat="45.98454483574503" lon="-123.60445193041511"><ele>376.8</ele></trkpt>
    <trkpt lat="45.98465912271696" lon="-123.60435124903508"><ele>377.4</ele></trkpt>
    <trkpt lat="45.98474" lon="-123.60428000000002"><ele>377.9</ele></trkpt>
    <trkpt lat="45.984860000000005" lon="-123.6042"><ele>378.6</ele></trkpt>
    <trkpt lat="45.98499" lon="-123.60415"><ele>379.3</ele></trkpt>
    <trkpt lat="45.985070835660196" lon="-123.60413267807282"><ele>379.7</ele></trkpt>
    <trkpt lat="45.985130000000005" lon="-123.60412000000001"><ele>379.9</ele></trkpt>
    <trkpt lat="45.985260000000004" lon="-123.60415"><ele>380.5</ele></trkpt>
    <trkpt lat="45.98537307310501" lon="-123.60421030565601"><ele>381.1</ele></trkpt>
    <trkpt lat="45.9856648480962" lon="-123.60436591898466"><ele>382.6</ele></trkpt>
    <trkpt lat="45.985710000000005" lon="-123.60439000000001"><ele>382.8</ele></trkpt>
    <trkpt lat="45.985870000000006" lon="-123.60442"><ele>383.6</ele></trkpt>
    <trkpt lat="45.98592523259266" lon="-123.60440158913579"><ele>383.8</ele></trkpt>
    <trkpt lat="45.986011969440995" lon="-123.60437267685303"><ele>384.3</ele></trkpt>
    <trkpt lat="45.98602" lon="-123.60437000000002"><ele>384.3</ele></trkpt>
    <trkpt lat="45.98609023358938" lon="-123.60431253615417"><ele>384.7</ele></trkpt>
    <trkpt lat="45.98613" lon="-123.60428000000002"><ele>385.0</ele></trkpt>
    <trkpt lat="45.98616137202656" lon="-123.60423706985841"><ele>385.2</ele></trkpt>
    <trkpt lat="45.98625782961895" lon="-123.60410507525829"><ele>386.1</ele></trkpt>
    <trkpt lat="45.986320000000006" lon="-123.60402"><ele>386.6</ele></trkpt>
    <trkpt lat="45.98638071869411" lon="-123.60391999273912"><ele>387.2</ele></trkpt>
    <trkpt lat="45.98640971444584" lon="-123.6038722350304"><ele>387.4</ele></trkpt>
    <trkpt lat="45.986439301947605" lon="-123.60382350267453"><ele>387.7</ele></trkpt>
    <trkpt lat="45.98646829769933" lon="-123.60377574496582"><ele>387.9</ele></trkpt>
    <trkpt lat="45.9864978852011" lon="-123.60372701260995"><ele>388.1</ele></trkpt>
    <trkpt lat="45.9865564684546" lon="-123.60363052254537"><ele>388.4</ele></trkpt>
    <trkpt lat="45.98661445995806" lon="-123.6035350071279"><ele>388.6</ele></trkpt>
    <trkpt lat="45.986702630713324" lon="-123.60338978470749"><ele>388.9</ele></trkpt>
    <trkpt lat="45.98676121396683" lon="-123.6032932946429"><ele>389.1</ele></trkpt>
    <trkpt lat="45.98681920547028" lon="-123.60319777922544"><ele>389.2</ele></trkpt>
    <trkpt lat="45.986848792972054" lon="-123.60314904686959"><ele>389.2</ele></trkpt>
    <trkpt lat="45.98687778872378" lon="-123.60310128916085"><ele>389.2</ele></trkpt>
    <trkpt lat="45.98690737622555" lon="-123.603052556805"><ele>389.2</ele></trkpt>
    <trkpt lat="45.98696536772901" lon="-123.60295704138753"><ele>389.0</ele></trkpt>
    <trkpt lat="45.987053538484275" lon="-123.6028118189671"><ele>388.7</ele></trkpt>
    <trkpt lat="45.98711212173777" lon="-123.60271532890252"><ele>388.4</ele></trkpt>
    <trkpt lat="45.98714111748951" lon="-123.60266757119378"><ele>388.2</ele></trkpt>
    <trkpt lat="45.987170000000006" lon="-123.60262000000002"><ele>388.0</ele></trkpt>
    <trkpt lat="45.98720076204607" lon="-123.6025724586561"><ele>387.8</ele></trkpt>
    <trkpt lat="45.987261438667616" lon="-123.60247868569553"><ele>387.3</ele></trkpt>
    <trkpt lat="45.987280000000005" lon="-123.60245"><ele>387.1</ele></trkpt>
    <trkpt lat="45.987407217765" lon="-123.60233338371543"><ele>386.3</ele></trkpt>
    <trkpt lat="45.98752" lon="-123.60223"><ele>385.6</ele></trkpt>
    <trkpt lat="45.98756154892354" lon="-123.60221169868845"><ele>385.3</ele></trkpt>
    <trkpt lat="45.98768624168427" lon="-123.60215677449622"><ele>384.5</ele></trkpt>
    <trkpt lat="45.98789520955226" lon="-123.6020647291258"><ele>383.0</ele></trkpt>
    <trkpt lat="45.988146314973896" lon="-123.60195412316628"><ele>381.3</ele></trkpt>
    <trkpt lat="45.98836000000001" lon="-123.60186000000002"><ele>379.7</ele></trkpt>
    <trkpt lat="45.98844321066633" lon="-123.60183503680011"><ele>379.2</ele></trkpt>
    <trkpt lat="45.98846" lon="-123.60183"><ele>379.0</ele></trkpt>
    <trkpt lat="45.988575838806454" lon="-123.60185206453457"><ele>378.3</ele></trkpt>
    <trkpt lat="45.988670000000006" lon="-123.60187"><ele>377.7</ele></trkpt>
    <trkpt lat="45.98877" lon="-123.60191"><ele>377.1</ele></trkpt>
    <trkpt lat="45.98882485191269" lon="-123.6019707818492"><ele>376.7</ele></trkpt>
    <trkpt lat="45.98889539834695" lon="-123.60204895492498"><ele>376.1</ele></trkpt>
    <trkpt lat="45.98903649121547" lon="-123.6022053010766"><ele>374.8</ele></trkpt>
    <trkpt lat="45.98910775023997" lon="-123.60228426377944"><ele>374.1</ele></trkpt>
    <trkpt lat="45.989140000000006" lon="-123.60232"><ele>373.8</ele></trkpt>
    <trkpt lat="45.989270000000005" lon="-123.60245"><ele>372.6</ele></trkpt>
    <trkpt lat="45.98941000000001" lon="-123.60249"><ele>371.4</ele></trkpt>
    <trkpt lat="45.98942618438028" lon="-123.60249101152378"><ele>371.3</ele></trkpt>
    <trkpt lat="45.989515133469176" lon="-123.60249657084182"><ele>370.6</ele></trkpt>
    <trkpt lat="45.98957" lon="-123.6025"><ele>370.3</ele></trkpt>
    <trkpt lat="45.98960411114131" lon="-123.60248862961956"><ele>370.0</ele></trkpt>
    <trkpt lat="45.989720000000005" lon="-123.60245"><ele>369.2</ele></trkpt>
    <trkpt lat="45.98973355611425" lon="-123.60244061499783"><ele>369.1</ele></trkpt>
    <trkpt lat="45.989850000000004" lon="-123.60236"><ele>368.3</ele></trkpt>
    <trkpt lat="45.98989019224218" lon="-123.6023177981457"><ele>368.0</ele></trkpt>
    <trkpt lat="45.990050000000004" lon="-123.60215000000001"><ele>366.9</ele></trkpt>
    <trkpt lat="45.990201159053406" lon="-123.60207801949838"><ele>365.9</ele></trkpt>
    <trkpt lat="45.990260000000006" lon="-123.60205"><ele>365.6</ele></trkpt>
    <trkpt lat="45.990370645687236" lon="-123.60200389763033"><ele>364.9</ele></trkpt>
    <trkpt lat="45.99038" lon="-123.602"><ele>364.8</ele></trkpt>
    <trkpt lat="45.99067775064634" lon="-123.60195179275252"><ele>362.8</ele></trkpt>
    <trkpt lat="45.99081090987261" lon="-123.60193023363968"><ele>362.1</ele></trkpt>
    <trkpt lat="45.99103165033494" lon="-123.6018944947077"><ele>360.9</ele></trkpt>
    <trkpt lat="45.99112012525708" lon="-123.60188017019648"><ele>360.4</ele></trkpt>
    <trkpt lat="45.99120770649316" lon="-123.6018659903773"><ele>360.0</ele></trkpt>
    <trkpt lat="45.99129618141531" lon="-123.60185166586609"><ele>359.6</ele></trkpt>
    <trkpt lat="45.99143" lon="-123.60183"><ele>359.1</ele></trkpt>
    <trkpt lat="45.9915174481157" lon="-123.60182717909305"><ele>358.8</ele></trkpt>
    <trkpt lat="45.991605559581686" lon="-123.6018243367877"><ele>358.4</ele></trkpt>
    <trkpt lat="45.99169457014426" lon="-123.60182146547922"><ele>358.0</ele></trkpt>
    <trkpt lat="45.99174000000001" lon="-123.60182"><ele>357.8</ele></trkpt>
    <trkpt lat="45.991783320510486" lon="-123.60182698717912"><ele>357.5</ele></trkpt>
    <trkpt lat="45.99200317774165" lon="-123.60186244802284"><ele>356.2</ele></trkpt>
    <trkpt lat="45.992050000000006" lon="-123.60187"><ele>355.9</ele></trkpt>
    <trkpt lat="45.99209171717345" lon="-123.60187589313232"><ele>355.7</ele></trkpt>
    <trkpt lat="45.9922671415515" lon="-123.60190067427122"><ele>354.9</ele></trkpt>
    <trkpt lat="45.99248821206874" lon="-123.60193190356361"><ele>353.9</ele></trkpt>
    <trkpt lat="45.99257592425777" lon="-123.60194429413308"><ele>353.5</ele></trkpt>
    <trkpt lat="45.99275224365816" lon="-123.60196920170637"><ele>352.6</ele></trkpt>
    <trkpt lat="45.99292856305856" lon="-123.60199410927964"><ele>351.8</ele></trkpt>
    <trkpt lat="45.993148738553465" lon="-123.60202521213768"><ele>350.7</ele></trkpt>
    <trkpt lat="45.99345752125974" lon="-123.60206883199953"><ele>349.1</ele></trkpt>
    <trkpt lat="45.9935461284711" lon="-123.60208134900336"><ele>348.6</ele></trkpt>
    <trkpt lat="45.99385759624439" lon="-123.60212534816836"><ele>346.9</ele></trkpt>
    <trkpt lat="45.99416816899533" lon="-123.60216922089897"><ele>345.3</ele></trkpt>
    <trkpt lat="45.994257671229036" lon="-123.6021818643372"><ele>344.8</ele></trkpt>
    <trkpt lat="45.99452438788546" lon="-123.60221954178309"><ele>343.3</ele></trkpt>
    <trkpt lat="45.99461299509684" lon="-123.60223205878692"><ele>342.8</ele></trkpt>
    <trkpt lat="45.99474000000001" lon="-123.60225000000001"><ele>342.1</ele></trkpt>
    <trkpt lat="45.99474628978809" lon="-123.60225157244703"><ele>342.1</ele></trkpt>
    <trkpt lat="45.99486" lon="-123.60228000000001"><ele>341.5</ele></trkpt>
    <trkpt lat="45.99499927261796" lon="-123.60237284841197"><ele>340.7</ele></trkpt>
    <trkpt lat="45.995070000000005" lon="-123.60242000000001"><ele>340.3</ele></trkpt>
    <trkpt lat="45.995110463048974" lon="-123.60247395073196"><ele>340.0</ele></trkpt>
    <trkpt lat="45.995160000000006" lon="-123.60254"><ele>339.6</ele></trkpt>
    <trkpt lat="45.99520072363525" lon="-123.60261562960832"><ele>339.2</ele></trkpt>
    <trkpt lat="45.99523000000001" lon="-123.60267"><ele>338.9</ele></trkpt>
    <trkpt lat="45.99525024066292" lon="-123.60272172613855"><ele>338.7</ele></trkpt>
    <trkpt lat="45.99532000000001" lon="-123.6029"><ele>337.7</ele></trkpt>
    <trkpt lat="45.99532894149854" lon="-123.60295141361655"><ele>337.5</ele></trkpt>
    <trkpt lat="45.99535056249602" lon="-123.60307573435209"><ele>336.9</ele></trkpt>
    <trkpt lat="45.995360000000005" lon="-123.60313000000001"><ele>336.6</ele></trkpt>
    <trkpt lat="45.995360000000005" lon="-123.6033303739539"><ele>335.5</ele></trkpt>
    <trkpt lat="45.995360000000005" lon="-123.60339"><ele>335.2</ele></trkpt>
    <trkpt lat="45.99534393055736" lon="-123.6035212337816"><ele>334.6</ele></trkpt>
    <trkpt lat="45.99532067080899" lon="-123.60371118839328"><ele>333.7</ele></trkpt>
    <trkpt lat="45.99528195659694" lon="-123.6040273544584"><ele>332.3</ele></trkpt>
    <trkpt lat="45.995258696848566" lon="-123.60421730907008"><ele>331.4</ele></trkpt>
    <trkpt lat="45.99524324238488" lon="-123.60434352052349"><ele>330.8</ele></trkpt>
    <trkpt lat="45.99524" lon="-123.60437000000002"><ele>330.7</ele></trkpt>
    <trkpt lat="45.99522369837189" lon="-123.6045982227937"><ele>329.5</ele></trkpt>
    <trkpt lat="45.99521000000001" lon="-123.60479000000001"><ele>328.6</ele></trkpt>
    <trkpt lat="45.995250000000006" lon="-123.60509"><ele>327.1</ele></trkpt>
    <trkpt lat="45.99527091265478" lon="-123.60516453484652"><ele>326.7</ele></trkpt>
    <trkpt lat="45.995337595229714" lon="-123.60540219838283"><ele>325.5</ele></trkpt>
    <trkpt lat="45.99540326746261" lon="-123.60563626095649"><ele>324.5</ele></trkpt>
    <trkpt lat="45.99541976971601" lon="-123.60569507668012"><ele>324.3</ele></trkpt>
    <trkpt lat="45.9954527742228" lon="-123.60581270812739"><ele>323.8</ele></trkpt>
    <trkpt lat="45.995502280982976" lon="-123.60598915529829"><ele>323.3</ele></trkpt>
    <trkpt lat="45.99564" lon="-123.60648"><ele>321.7</ele></trkpt>
    <trkpt lat="45.99567339462821" lon="-123.60657183522756"><ele>321.4</ele></trkpt>
    <trkpt lat="45.995720000000006" lon="-123.6067"><ele>321.0</ele></trkpt>
    <trkpt lat="45.99582" lon="-123.60688"><ele>320.4</ele></trkpt>
    <trkpt lat="45.99589216191373" lon="-123.60695771283017"><ele>320.0</ele></trkpt>
    <trkpt lat="45.99595" lon="-123.60702"><ele>319.7</ele></trkpt>
    <trkpt lat="45.99608505046178" lon="-123.60710429901437"><ele>319.2</ele></trkpt>
    <trkpt lat="45.996205513262126" lon="-123.6071794923547"><ele>318.7</ele></trkpt>
    <trkpt lat="45.996366405358486" lon="-123.60727992181613"><ele>317.9</ele></trkpt>
    <trkpt lat="45.996528122542514" lon="-123.60738086630043"><ele>317.0</ele></trkpt>
    <trkpt lat="45.996729443934875" lon="-123.60750653188292"><ele>315.8</ele></trkpt>
    <trkpt lat="45.996809477439214" lon="-123.6075564891022"><ele>315.4</ele></trkpt>
    <trkpt lat="45.996930765327235" lon="-123.60763219746542"><ele>314.8</ele></trkpt>
    <trkpt lat="45.99705122812759" lon="-123.60770739080576"><ele>314.3</ele></trkpt>
    <trkpt lat="45.99728885337758" lon="-123.60785571739493"><ele>313.2</ele></trkpt>
    <trkpt lat="45.99752" lon="-123.608"><ele>312.0</ele></trkpt>
    <trkpt lat="45.997690000000006" lon="-123.60805"><ele>311.2</ele></trkpt>
    <trkpt lat="45.997870000000006" lon="-123.608"><ele>310.4</ele></trkpt>
    <trkpt lat="45.998069344123266" lon="-123.60788754946893"><ele>309.4</ele></trkpt>
    <trkpt lat="45.9982242494164" lon="-123.60780016699589"><ele>308.7</ele></trkpt>
    <trkpt lat="45.99826" lon="-123.60778"><ele>308.5</ele></trkpt>
    <trkpt lat="45.99839" lon="-123.60774"><ele>307.8</ele></trkpt>
    <trkpt lat="45.99853" lon="-123.60773"><ele>307.1</ele></trkpt>
    <trkpt lat="45.99859032606115" lon="-123.60775413042447"><ele>306.8</ele></trkpt>
    <trkpt lat="45.99868" lon="-123.60779000000001"><ele>306.4</ele></trkpt>
    <trkpt lat="45.99883221527602" lon="-123.60789744607719"><ele>305.8</ele></trkpt>
    <trkpt lat="45.998850000000004" lon="-123.60791"><ele>305.7</ele></trkpt>
    <trkpt lat="45.99912880574356" lon="-123.60816662801395"><ele>304.5</ele></trkpt>
    <trkpt lat="45.99920230035137" lon="-123.60823427645977"><ele>304.2</ele></trkpt>
    <trkpt lat="45.99931292110128" lon="-123.60833609783185"><ele>303.8</ele></trkpt>
    <trkpt lat="45.99964932940919" lon="-123.60864574638799"><ele>302.4</ele></trkpt>
    <trkpt lat="45.99972433936974" lon="-123.60871478964714"><ele>302.1</ele></trkpt>
    <trkpt lat="45.99973000000001" lon="-123.60872"><ele>302.1</ele></trkpt>
    <trkpt lat="45.999831747794886" lon="-123.6088279143279"><ele>301.7</ele></trkpt>
    <trkpt lat="46.00001058428019" lon="-123.60901758938809"><ele>301.2</ele></trkpt>
    <trkpt lat="46.00011774136449" lon="-123.60913124084112"><ele>300.9</ele></trkpt>
    <trkpt lat="46.00026110016647" lon="-123.60928328805534"><ele>300.3</ele></trkpt>
    <trkpt lat="46.000403734934096" lon="-123.60943456735436"><ele>299.6</ele></trkpt>
    <trkpt lat="46.00072" lon="-123.60977000000001"><ele>297.9</ele></trkpt>
    <trkpt lat="46.0007524997698" lon="-123.6098187496547"><ele>297.7</ele></trkpt>
    <trkpt lat="46.0008135257405" lon="-123.60991028861076"><ele>297.3</ele></trkpt>
    <trkpt lat="46.00088" lon="-123.61001000000002"><ele>296.9</ele></trkpt>
    <trkpt lat="46.00101" lon="-123.61025000000001"><ele>296.1</ele></trkpt>
    <trkpt lat="46.00101045687968" lon="-123.61025137063905"><ele>296.1</ele></trkpt>
    <trkpt lat="46.00104858604847" lon="-123.61036575814543"><ele>295.8</ele></trkpt>
    <trkpt lat="46.001110000000004" lon="-123.61055"><ele>295.4</ele></trkpt>
    <trkpt lat="46.001121619239605" lon="-123.61059647695838"><ele>295.3</ele></trkpt>
    <trkpt lat="46.00121115449132" lon="-123.61095461796529"><ele>294.5</ele></trkpt>
    <trkpt lat="46.001255922117195" lon="-123.61113368846875"><ele>294.1</ele></trkpt>
    <trkpt lat="46.0012857672011" lon="-123.61125306880436"><ele>293.9</ele></trkpt>
    <trkpt lat="46.001315307743326" lon="-123.61137123097332"><ele>293.7</ele></trkpt>
    <trkpt lat="46.00136007536919" lon="-123.61155030147677"><ele>293.5</ele></trkpt>
    <trkpt lat="46.00142007007868" lon="-123.61179028031472"><ele>293.3</ele></trkpt>
    <trkpt lat="46.00145021970427" lon="-123.61191087881704"><ele>293.2</ele></trkpt>
    <trkpt lat="46.00154097312268" lon="-123.61227389249072"><ele>293.0</ele></trkpt>
    <trkpt lat="46.00157142728993" lon="-123.61239570915973"><ele>293.0</ele></trkpt>
    <trkpt lat="46.00160157691551" lon="-123.61251630766205"><ele>292.8</ele></trkpt>
    <trkpt lat="46.0016317265411" lon="-123.61263690616438"><ele>292.5</ele></trkpt>
    <trkpt lat="46.00166218070835" lon="-123.61275872283339"><ele>292.2</ele></trkpt>
    <trkpt lat="46.0016771032503" lon="-123.61281841300121"><ele>292.0</ele></trkpt>
    <trkpt lat="46.00170755741756" lon="-123.61294022967022"><ele>291.5</ele></trkpt>
    <trkpt lat="46.00173" lon="-123.61303000000001"><ele>291.1</ele></trkpt>
    <trkpt lat="46.00174007322271" lon="-123.61305938023293"><ele>290.9</ele></trkpt>
    <trkpt lat="46.001799381272505" lon="-123.61323236204481"><ele>290.0</ele></trkpt>
    <trkpt lat="46.00183918533276" lon="-123.61334845722057"><ele>289.5</ele></trkpt>
    <trkpt lat="46.001850000000005" lon="-123.61338"><ele>289.3</ele></trkpt>
    <trkpt lat="46.001911286918556" lon="-123.61351074542625"><ele>288.7</ele></trkpt>
    <trkpt lat="46.002" lon="-123.61370000000001"><ele>287.9</ele></trkpt>
    <trkpt lat="46.002013118236206" lon="-123.61372071300454"><ele>287.8</ele></trkpt>
    <trkpt lat="46.002073710003614" lon="-123.61381638421622"><ele>287.4</ele></trkpt>
    <trkpt lat="46.00213369585334" lon="-123.61391109871579"><ele>287.0</ele></trkpt>
    <trkpt lat="46.002190000000006" lon="-123.614"><ele>286.6</ele></trkpt>
    <trkpt lat="46.00234147190706" lon="-123.61415147190706"><ele>285.9</ele></trkpt>
    <trkpt lat="46.00256157847636" lon="-123.61437157847635"><ele>284.6</ele></trkpt>
    <trkpt lat="46.00263" lon="-123.61444000000002"><ele>284.3</ele></trkpt>
    <trkpt lat="46.00267778457569" lon="-123.61446435175493"><ele>284.1</ele></trkpt>
    <trkpt lat="46.002804102785234" lon="-123.61452872545787"><ele>283.6</ele></trkpt>
    <trkpt lat="46.0029728096557" lon="-123.61461470107454"><ele>283.1</ele></trkpt>
    <trkpt lat="46.00314151652617" lon="-123.61470067669123"><ele>282.7</ele></trkpt>
    <trkpt lat="46.003226293848" lon="-123.6147438805187"><ele>282.5</ele></trkpt>
    <trkpt lat="46.00331022339663" lon="-123.61478665230791"><ele>282.4</ele></trkpt>
    <trkpt lat="46.00356370758894" lon="-123.61491583175207"><ele>282.0</ele></trkpt>
    <trkpt lat="46.00367000000001" lon="-123.61497000000001"><ele>281.9</ele></trkpt>
    <trkpt lat="46.00368937633337" lon="-123.61498253762748"><ele>281.9</ele></trkpt>
    <trkpt lat="46.003840000000004" lon="-123.61508"><ele>281.7</ele></trkpt>
    <trkpt lat="46.004000000000005" lon="-123.61521"><ele>281.6</ele></trkpt>
    <trkpt lat="46.00400818767283" lon="-123.61521818767284"><ele>281.6</ele></trkpt>
    <trkpt lat="46.00414000000001" lon="-123.61535"><ele>281.6</ele></trkpt>
    <trkpt lat="46.00420561757868" lon="-123.6154726012654"><ele>281.5</ele></trkpt>
    <trkpt lat="46.004287953525825" lon="-123.61562643948245"><ele>281.4</ele></trkpt>
    <trkpt lat="46.004342295250936" lon="-123.6157279727057"><ele>281.3</ele></trkpt>
    <trkpt lat="46.00439718588237" lon="-123.61583053151706"><ele>281.1</ele></trkpt>
    <trkpt lat="46.004451527607486" lon="-123.61593206474029"><ele>280.9</ele></trkpt>
    <trkpt lat="46.004506418238925" lon="-123.61603462355167"><ele>280.7</ele></trkpt>
    <trkpt lat="46.00452000000001" lon="-123.61606"><ele>280.6</ele></trkpt>
    <trkpt lat="46.004575586253324" lon="-123.61611558625331"><ele>280.4</ele></trkpt>
    <trkpt lat="46.004648709843316" lon="-123.61618870984333"><ele>280.0</ele></trkpt>
    <trkpt lat="46.00466" lon="-123.6162"><ele>279.9</ele></trkpt>
    <trkpt lat="46.0047181552763" lon="-123.61627085585388"><ele>279.6</ele></trkpt>
    <trkpt lat="46.0048547657788" lon="-123.61643730083395"><ele>278.6</ele></trkpt>
    <trkpt lat="46.005093662536936" lon="-123.6167283704473"><ele>277.1</ele></trkpt>
    <trkpt lat="46.00516231103065" lon="-123.61681201114081"><ele>276.7</ele></trkpt>
    <trkpt lat="46.00523095952437" lon="-123.6168956518343"><ele>276.4</ele></trkpt>
    <trkpt lat="46.00540189427372" lon="-123.61710391716109"><ele>275.5</ele></trkpt>
    <trkpt lat="46.00550418052936" lon="-123.6172285417944"><ele>275.0</ele></trkpt>
    <trkpt lat="46.00553" lon="-123.61726000000002"><ele>274.8</ele></trkpt>
    <trkpt lat="46.00559984977868" lon="-123.61736337767246"><ele>274.4</ele></trkpt>
    <trkpt lat="46.00566255781713" lon="-123.61745618556938"><ele>274.0</ele></trkpt>
    <trkpt lat="46.00575599279442" lon="-123.61759446933576"><ele>273.3</ele></trkpt>
    <trkpt lat="46.00578" lon="-123.61763"><ele>273.1</ele></trkpt>
    <trkpt lat="46.00581562485385" lon="-123.61769127474864"><ele>272.8</ele></trkpt>
    <trkpt lat="46.00598764220665" lon="-123.61798714459545"><ele>271.3</ele></trkpt>
    <trkpt lat="46.00603" lon="-123.61806000000001"><ele>270.9</ele></trkpt>
    <trkpt lat="46.006072462221" lon="-123.61813813048664"><ele>270.5</ele></trkpt>
    <trkpt lat="46.00620713086032" lon="-123.61838592078297"><ele>269.7</ele></trkpt>
    <trkpt lat="46.006280000000004" lon="-123.61852"><ele>269.2</ele></trkpt>
    <trkpt lat="46.006354800642114" lon="-123.61861617225415"><ele>268.8</ele></trkpt>
    <trkpt lat="46.006420000000006" lon="-123.6187"><ele>268.5</ele></trkpt>
    <trkpt lat="46.00642065758883" lon="-123.61870042273569"><ele>268.5</ele></trkpt>
    <trkpt lat="46.006540549751605" lon="-123.6187774962689"><ele>268.2</ele></trkpt>
    <trkpt lat="46.00656" lon="-123.61879"><ele>268.1</ele></trkpt>
    <trkpt lat="46.0066258299494" lon="-123.6187953088669"><ele>268.0</ele></trkpt>
    <trkpt lat="46.00675692551579" lon="-123.61880588109"><ele>267.8</ele></trkpt>
    <trkpt lat="46.00684492116994" lon="-123.61881297751371"><ele>267.7</ele></trkpt>
    <trkpt lat="46.00701911664856" lon="-123.61882702553618"><ele>267.5</ele></trkpt>
    <trkpt lat="46.007150212214945" lon="-123.61883759775927"><ele>267.4</ele></trkpt>
    <trkpt lat="46.007180000000005" lon="-123.61884"><ele>267.3</ele></trkpt>
    <trkpt lat="46.00723650283068" lon="-123.6188654262738"><ele>267.2</ele></trkpt>
    <trkpt lat="46.007321481625354" lon="-123.61890366673143"><ele>267.0</ele></trkpt>
    <trkpt lat="46.007380000000005" lon="-123.61893"><ele>267.0</ele></trkpt>
    <trkpt lat="46.007403846245055" lon="-123.61895035655066"><ele>266.9</ele></trkpt>
    <trkpt lat="46.00748120307087" lon="-123.61901639286538"><ele>266.9</ele></trkpt>
    <trkpt lat="46.00755778632842" lon="-123.61908176881695"><ele>266.8</ele></trkpt>
    <trkpt lat="46.00767304799888" lon="-123.61918016292587"><ele>266.8</ele></trkpt>
    <trkpt lat="46.00774963125644" lon="-123.61924553887744"><ele>266.9</ele></trkpt>
    <trkpt lat="46.00779000000001" lon="-123.61928"><ele>266.9</ele></trkpt>
    <trkpt lat="46.00787224918335" lon="-123.61932112459169"><ele>267.0</ele></trkpt>
    <trkpt lat="46.00797" lon="-123.61937"><ele>267.0</ele></trkpt>
    <trkpt lat="46.00800012183613" lon="-123.61937708749085"><ele>267.0</ele></trkpt>
    <trkpt lat="46.008140000000004" lon="-123.61941000000002"><ele>266.9</ele></trkpt>
    <trkpt lat="46.008621437199" lon="-123.6194537670181"><ele>266.8</ele></trkpt>
    <trkpt lat="46.00869" lon="-123.61946"><ele>266.7</ele></trkpt>
    <trkpt lat="46.00871101404806" lon="-123.61946437792669"><ele>266.7</ele></trkpt>
    <trkpt lat="46.00884363193683" lon="-123.6194920066535"><ele>266.6</ele></trkpt>
    <trkpt lat="46.00893000000001" lon="-123.61951"><ele>266.5</ele></trkpt>
    <trkpt lat="46.00897299854334" lon="-123.61953284297616"><ele>266.4</ele></trkpt>
    <trkpt lat="46.00901518457943" lon="-123.61955525430784"><ele>266.4</ele></trkpt>
    <trkpt lat="46.00909871293089" lon="-123.61959962874455"><ele>266.2</ele></trkpt>
    <trkpt lat="46.00918308500309" lon="-123.6196444514079"><ele>266.0</ele></trkpt>
    <trkpt lat="46.00925" lon="-123.61968000000002"><ele>265.8</ele></trkpt>
    <trkpt lat="46.0093889573717" lon="-123.61976765003448"><ele>265.3</ele></trkpt>
    <trkpt lat="46.009551234372694" lon="-123.61987000937354"><ele>264.7</ele></trkpt>
    <trkpt lat="46.0099" lon="-123.62009"><ele>263.3</ele></trkpt>
    <trkpt lat="46.010000842029896" lon="-123.62014389832632"><ele>262.9</ele></trkpt>
    <trkpt lat="46.01008346644986" lon="-123.62018805965424"><ele>262.6</ele></trkpt>
    <trkpt lat="46.01029171371243" lon="-123.62029936422562"><ele>261.7</ele></trkpt>
    <trkpt lat="46.0104164934487" lon="-123.62036605684328"><ele>261.2</ele></trkpt>
    <trkpt lat="46.01048" lon="-123.6204"><ele>260.9</ele></trkpt>
    <trkpt lat="46.01050076817144" lon="-123.62040675789706"><ele>260.9</ele></trkpt>
    <trkpt lat="46.01084638515823" lon="-123.62051922056736"><ele>259.9</ele></trkpt>
    <trkpt lat="46.01097621082839" lon="-123.6205614654283"><ele>259.5</ele></trkpt>
    <trkpt lat="46.01110603649855" lon="-123.6206037102892"><ele>259.0</ele></trkpt>
    <trkpt lat="46.01127972219243" lon="-123.62066022706261"><ele>258.3</ele></trkpt>
    <trkpt lat="46.01149639070952" lon="-123.62073073031024"><ele>257.4</ele></trkpt>
    <trkpt lat="46.01162709358015" lon="-123.62077326060941"><ele>256.9</ele></trkpt>
    <trkpt lat="46.011713936427086" lon="-123.62080151899613"><ele>256.6</ele></trkpt>
    <trkpt lat="46.01174" lon="-123.62081"><ele>256.5</ele></trkpt>
    <trkpt lat="46.01184386385493" lon="-123.62084866043489"><ele>256.1</ele></trkpt>
    <trkpt lat="46.012405465270206" lon="-123.62105770096169"><ele>254.3</ele></trkpt>
    <trkpt lat="46.01270759812463" lon="-123.62117016152418"><ele>253.3</ele></trkpt>
    <trkpt lat="46.012879996698615" lon="-123.62123433210448"><ele>252.6</ele></trkpt>
    <trkpt lat="46.01296445458588" lon="-123.62126576920696"><ele>252.3</ele></trkpt>
    <trkpt lat="46.01304891247314" lon="-123.62129720630945"><ele>251.9</ele></trkpt>
    <trkpt lat="46.01313424106027" lon="-123.62132896750578"><ele>251.5</ele></trkpt>
    <trkpt lat="46.01338848542191" lon="-123.62142360290704"><ele>250.0</ele></trkpt>
    <trkpt lat="46.013540000000006" lon="-123.62148"><ele>249.1</ele></trkpt>
    <trkpt lat="46.01363794388705" lon="-123.62153876633224"><ele>248.5</ele></trkpt>
    <trkpt lat="46.01399000000001" lon="-123.62175"><ele>246.3</ele></trkpt>
    <trkpt lat="46.01400467536158" lon="-123.62175572090368"><ele>246.3</ele></trkpt>
    <trkpt lat="46.01426509709617" lon="-123.62185724124089"><ele>244.6</ele></trkpt>
    <trkpt lat="46.014482115208324" lon="-123.6219418415219"><ele>243.2</ele></trkpt>
    <trkpt lat="46.01458" lon="-123.62198000000001"><ele>242.7</ele></trkpt>
    <trkpt lat="46.014678597487844" lon="-123.62203001321848"><ele>242.3</ele></trkpt>
    <trkpt lat="46.01483467205078" lon="-123.62210918147504"><ele>241.6</ele></trkpt>
    <trkpt lat="46.015078114439724" lon="-123.6222326667448"><ele>241.1</ele></trkpt>
    <trkpt lat="46.01520365267513" lon="-123.62229634555985"><ele>240.8</ele></trkpt>
    <trkpt lat="46.01527" lon="-123.62233"><ele>240.6</ele></trkpt>
    <trkpt lat="46.01537581144426" lon="-123.62237069670934"><ele>240.5</ele></trkpt>
    <trkpt lat="46.015634732487996" lon="-123.62247028172617"><ele>240.1</ele></trkpt>
    <trkpt lat="46.01579" lon="-123.62253000000001"><ele>239.8</ele></trkpt>
    <trkpt lat="46.015806155182304" lon="-123.62253450842297"><ele>239.8</ele></trkpt>
    <trkpt lat="46.01604453689758" lon="-123.62260103355283"><ele>239.6</ele></trkpt>
    <trkpt lat="46.01616372775522" lon="-123.62263429611775"><ele>239.5</ele></trkpt>
    <trkpt lat="46.01633765811784" lon="-123.62268283482358"><ele>239.5</ele></trkpt>
    <trkpt lat="46.01642506474678" lon="-123.62270722737121"><ele>239.4</ele></trkpt>
    <trkpt lat="46.01668728463359" lon="-123.62278040501403"><ele>239.3</ele></trkpt>
    <trkpt lat="46.0172117244072" lon="-123.62292676029969"><ele>239.3</ele></trkpt>
    <trkpt lat="46.017473944294004" lon="-123.62299993794252"><ele>239.1</ele></trkpt>
    <trkpt lat="46.01756135092293" lon="-123.62302433049013"><ele>239.1</ele></trkpt>
    <trkpt lat="46.01777942604765" lon="-123.62308518866446"><ele>239.2</ele></trkpt>
    <trkpt lat="46.01786683267659" lon="-123.62310958121208"><ele>239.3</ele></trkpt>
    <trkpt lat="46.01794" lon="-123.62313"><ele>239.2</ele></trkpt>
    <trkpt lat="46.017953532111044" lon="-123.62313751783947"><ele>239.2</ele></trkpt>
    <trkpt lat="46.01812" lon="-123.62323"><ele>239.1</ele></trkpt>
    <trkpt lat="46.01815589270163" lon="-123.62326813599549"><ele>239.0</ele></trkpt>
    <trkpt lat="46.01822753527884" lon="-123.62334425623378"><ele>239.0</ele></trkpt>
    <trkpt lat="46.018280000000004" lon="-123.6234"><ele>239.0</ele></trkpt>
    <trkpt lat="46.01841714748685" lon="-123.6236115989797"><ele>239.0</ele></trkpt>
    <trkpt lat="46.018508578691055" lon="-123.6237526642662"><ele>239.0</ele></trkpt>
    <trkpt lat="46.01863" lon="-123.62394"><ele>238.9</ele></trkpt>
    <trkpt lat="46.01866185713784" lon="-123.62397185713785"><ele>238.8</ele></trkpt>
    <trkpt lat="46.018820000000005" lon="-123.62413000000001"><ele>238.8</ele></trkpt>
    <trkpt lat="46.01900400968037" lon="-123.62423786774367"><ele>238.7</ele></trkpt>
    <trkpt lat="46.019110000000005" lon="-123.6243"><ele>238.6</ele></trkpt>
    <trkpt lat="46.01912515935625" lon="-123.6243072162689"><ele>238.6</ele></trkpt>
    <trkpt lat="46.01924982605218" lon="-123.62436656103169"><ele>238.4</ele></trkpt>
    <trkpt lat="46.019375346629595" lon="-123.62442631226546"><ele>238.2</ele></trkpt>
    <trkpt lat="46.01945988089601" lon="-123.62446655289227"><ele>238.2</ele></trkpt>
    <trkpt lat="46.01988084446513" lon="-123.62466694308443"><ele>238.2</ele></trkpt>
    <trkpt lat="46.02009089930896" lon="-123.62476693494503"><ele>238.1</ele></trkpt>
    <trkpt lat="46.02025911396031" lon="-123.62484700972769"><ele>238.0</ele></trkpt>
    <trkpt lat="46.02051186287808" lon="-123.62496732513718"><ele>237.7</ele></trkpt>
    <trkpt lat="46.0205963971445" lon="-123.625007565764"><ele>237.6</ele></trkpt>
    <trkpt lat="46.020680077529434" lon="-123.62504739991985"><ele>237.6</ele></trkpt>
  </trkseg></trk>
</gpx>
