<?xml version="1.0" encoding="UTF-8"?>
<gpx version="1.1" creator="h2c-tracker" xmlns="http://www.topografix.com/GPX/1/1">
  <metadata><name>Hood to Coast 2026 — Leg 14 (7.91 mi)</name><desc>Derived from the official Hood to Coast Strava route (simplified, 577 points, ~8.15 mi). Verify against the official leg map PDF.</desc></metadata>
  <wpt lat="45.551550000000006" lon="-122.71402"><name>Exchange 13 — NW Front Ave (3838)</name></wpt>
  <wpt lat="45.62984" lon="-122.81587"><name>Exchange 14 — Gillihan Layover Terrace</name></wpt>
  <trk><name>HTC Leg 14</name><trkseg>
    <trkpt lat="45.551550000000006" lon="-122.71402"><ele>10.9</ele></trkpt>
    <trkpt lat="45.55415888745159" lon="-122.7211320540528"><ele>11.5</ele></trkpt>
    <trkpt lat="45.55421689527219" lon="-122.72129018841592"><ele>11.7</ele></trkpt>
    <trkpt lat="45.554354194358346" lon="-122.72166447766384"><ele>12.0</ele></trkpt>
    <trkpt lat="45.554413036823846" lon="-122.72182488734153"><ele>12.0</ele></trkpt>
    <trkpt lat="45.55455367448961" lon="-122.72220827784776"><ele>12.0</ele></trkpt>
    <trkpt lat="45.55469765073498" lon="-122.7226007696123"><ele>12.1</ele></trkpt>
    <trkpt lat="45.55488168993558" lon="-122.72310247647654"><ele>12.0</ele></trkpt>
    <trkpt lat="45.555024831536045" lon="-122.72349269292651"><ele>12.1</ele></trkpt>
    <trkpt lat="45.55508868187094" lon="-122.72366675449166"><ele>12.1</ele></trkpt>
    <trkpt lat="45.555230571504055" lon="-122.72405355796975"><ele>12.2</ele></trkpt>
    <trkpt lat="45.55535242965955" lon="-122.724385753898"><ele>12.3</ele></trkpt>
    <trkpt lat="45.55541419338221" lon="-122.72455412717672"><ele>12.2</ele></trkpt>
    <trkpt lat="45.555470114590555" lon="-122.72470657325337"><ele>12.2</ele></trkpt>
    <trkpt lat="45.55615" lon="-122.72656"><ele>11.8</ele></trkpt>
    <trkpt lat="45.556470000000004" lon="-122.72723"><ele>11.7</ele></trkpt>
    <trkpt lat="45.55659000000001" lon="-122.72754"><ele>11.6</ele></trkpt>
    <trkpt lat="45.55680173945376" lon="-122.7281248042056"><ele>11.5</ele></trkpt>
    <trkpt lat="45.55683602489026" lon="-122.72821949731593"><ele>11.8</ele></trkpt>
    <trkpt lat="45.556876093412434" lon="-122.72833016275816"><ele>11.9</ele></trkpt>
    <trkpt lat="45.5568963342123" lon="-122.72838606591966"><ele>11.9</ele></trkpt>
    <trkpt lat="45.556936402734465" lon="-122.72849673136187"><ele>12.2</ele></trkpt>
    <trkpt lat="45.55697647125665" lon="-122.72860739680408"><ele>12.5</ele></trkpt>
    <trkpt lat="45.55701612670128" lon="-122.72871692136542"><ele>12.9</ele></trkpt>
    <trkpt lat="45.55705619522345" lon="-122.72882758680763"><ele>13.4</ele></trkpt>
    <trkpt lat="45.557116917623034" lon="-122.7289952962922"><ele>14.6</ele></trkpt>
    <trkpt lat="45.55719829390003" lon="-122.72922004981913"><ele>16.2</ele></trkpt>
    <trkpt lat="45.55725942937717" lon="-122.72938890018456"><ele>17.4</ele></trkpt>
    <trkpt lat="45.55736104645402" lon="-122.72966955687303"><ele>19.3</ele></trkpt>
    <trkpt lat="45.557401941131296" lon="-122.72978250407692"><ele>20.0</ele></trkpt>
    <trkpt lat="45.55742218193116" lon="-122.72983840723845"><ele>20.3</ele></trkpt>
    <trkpt lat="45.55744242273102" lon="-122.72989431039997"><ele>20.6</ele></trkpt>
    <trkpt lat="45.55746307660843" lon="-122.72995135444233"><ele>20.8</ele></trkpt>
    <trkpt lat="45.5574833174083" lon="-122.73000725760386"><ele>21.0</ele></trkpt>
    <trkpt lat="45.557503558208154" lon="-122.73006316076538"><ele>21.1</ele></trkpt>
    <trkpt lat="45.557523799008024" lon="-122.7301190639269"><ele>21.2</ele></trkpt>
    <trkpt lat="45.55754445288542" lon="-122.73017610796927"><ele>21.3</ele></trkpt>
    <trkpt lat="45.55756469368529" lon="-122.73023201113081"><ele>21.2</ele></trkpt>
    <trkpt lat="45.55758493448515" lon="-122.73028791429232"><ele>21.2</ele></trkpt>
    <trkpt lat="45.55760517528502" lon="-122.73034381745386"><ele>21.0</ele></trkpt>
    <trkpt lat="45.55762582916242" lon="-122.73040086149622"><ele>20.8</ele></trkpt>
    <trkpt lat="45.55764606996229" lon="-122.73045676465776"><ele>20.6</ele></trkpt>
    <trkpt lat="45.557666310762144" lon="-122.73051266781927"><ele>20.4</ele></trkpt>
    <trkpt lat="45.557686551562014" lon="-122.7305685709808"><ele>20.1</ele></trkpt>
    <trkpt lat="45.557727446239284" lon="-122.7306815181847"><ele>19.4</ele></trkpt>
    <trkpt lat="45.55776834091655" lon="-122.73079446538858"><ele>18.7</ele></trkpt>
    <trkpt lat="45.55785" lon="-122.73102000000002"><ele>17.1</ele></trkpt>
    <trkpt lat="45.557811996958904" lon="-122.73105008574089"><ele>16.8</ele></trkpt>
    <trkpt lat="45.55773491386411" lon="-122.73111110985761"><ele>16.0</ele></trkpt>
    <trkpt lat="45.55765704420712" lon="-122.73117275666937"><ele>15.3</ele></trkpt>
    <trkpt lat="45.557610000000004" lon="-122.73121"><ele>14.9</ele></trkpt>
    <trkpt lat="45.55754317732715" lon="-122.73127101200566"><ele>14.3</ele></trkpt>
    <trkpt lat="45.55747422555905" lon="-122.73133396796783"><ele>13.9</ele></trkpt>
    <trkpt lat="45.55740300065573" lon="-122.7313989994013"><ele>13.5</ele></trkpt>
    <trkpt lat="45.55738" lon="-122.73142000000001"><ele>13.4</ele></trkpt>
    <trkpt lat="45.55733113392431" lon="-122.73146004004442"><ele>13.1</ele></trkpt>
    <trkpt lat="45.557258589023846" lon="-122.73151948212146"><ele>12.8</ele></trkpt>
    <trkpt lat="45.557183703965315" lon="-122.73158084168483"><ele>12.8</ele></trkpt>
    <trkpt lat="45.55710881890678" lon="-122.7316422012482"><ele>12.8</ele></trkpt>
    <trkpt lat="45.55695826873702" lon="-122.73176555953708"><ele>13.0</ele></trkpt>
    <trkpt lat="45.556810838778034" lon="-122.73188636117749"><ele>12.7</ele></trkpt>
    <trkpt lat="45.55666262876635" lon="-122.73200780198002"><ele>12.6</ele></trkpt>
    <trkpt lat="45.556476976225404" lon="-122.73215992256422"><ele>12.5</ele></trkpt>
    <trkpt lat="45.55640287121956" lon="-122.73222064296547"><ele>12.5</ele></trkpt>
    <trkpt lat="45.556328766213724" lon="-122.73228136336675"><ele>12.6</ele></trkpt>
    <trkpt lat="45.55612361235545" lon="-122.73244946300393"><ele>12.5</ele></trkpt>
    <trkpt lat="45.55594342018335" lon="-122.73259710945331"><ele>12.4</ele></trkpt>
    <trkpt lat="45.55572656553468" lon="-122.73277479652226"><ele>12.4</ele></trkpt>
    <trkpt lat="45.55541922477361" lon="-122.73302662639696"><ele>12.4</ele></trkpt>
    <trkpt lat="45.555110000000006" lon="-122.73328000000001"><ele>12.2</ele></trkpt>
    <trkpt lat="45.55499826347382" lon="-122.73331724550874"><ele>12.2</ele></trkpt>
    <trkpt lat="45.55496" lon="-122.73333000000001"><ele>12.2</ele></trkpt>
    <trkpt lat="45.555046456122085" lon="-122.73348502477063"><ele>12.2</ele></trkpt>
    <trkpt lat="45.55524143277996" lon="-122.73383463808821"><ele>12.2</ele></trkpt>
    <trkpt lat="45.55525" lon="-122.73385"><ele>12.1</ele></trkpt>
    <trkpt lat="45.555305859618315" lon="-122.73392397625128"><ele>12.1</ele></trkpt>
    <trkpt lat="45.55546939819287" lon="-122.73414055436353"><ele>11.9</ele></trkpt>
    <trkpt lat="45.555600624710365" lon="-122.73431434083264"><ele>11.8</ele></trkpt>
    <trkpt lat="45.555620000000005" lon="-122.73434"><ele>11.8</ele></trkpt>
    <trkpt lat="45.55570410598186" lon="-122.73443578736823"><ele>11.8</ele></trkpt>
    <trkpt lat="45.55584402701805" lon="-122.73459514188167"><ele>11.9</ele></trkpt>
    <trkpt lat="45.555980000000005" lon="-122.73475"><ele>11.9</ele></trkpt>
    <trkpt lat="45.55608564306816" lon="-122.73487911930553"><ele>12.0</ele></trkpt>
    <trkpt lat="45.55622092956383" lon="-122.7350444694669"><ele>12.1</ele></trkpt>
    <trkpt lat="45.556250000000006" lon="-122.73508000000001"><ele>12.2</ele></trkpt>
    <trkpt lat="45.556340000000006" lon="-122.73512000000001"><ele>12.3</ele></trkpt>
    <trkpt lat="45.55639947932878" lon="-122.73521913221464"><ele>12.4</ele></trkpt>
    <trkpt lat="45.556580000000004" lon="-122.73552000000001"><ele>12.8</ele></trkpt>
    <trkpt lat="45.55682873747105" lon="-122.73603405744015"><ele>13.3</ele></trkpt>
    <trkpt lat="45.55688000000001" lon="-122.73614"><ele>13.4</ele></trkpt>
    <trkpt lat="45.55705177582341" lon="-122.73658661714084"><ele>13.7</ele></trkpt>
    <trkpt lat="45.557095073184335" lon="-122.73669919027927"><ele>13.8</ele></trkpt>
    <trkpt lat="45.55715958625211" lon="-122.73686692425551"><ele>13.8</ele></trkpt>
    <trkpt lat="45.55720245063944" lon="-122.73697837166253"><ele>13.8</ele></trkpt>
    <trkpt lat="45.557310261068146" lon="-122.73725867877718"><ele>13.9</ele></trkpt>
    <trkpt lat="45.55738" lon="-122.73744"><ele>14.0</ele></trkpt>
    <trkpt lat="45.55745058587007" lon="-122.73758411281807"><ele>14.1</ele></trkpt>
    <trkpt lat="45.55755316790441" lon="-122.73779355113817"><ele>14.1</ele></trkpt>
    <trkpt lat="45.55762000000001" lon="-122.73793"><ele>14.1</ele></trkpt>
    <trkpt lat="45.55769113099412" lon="-122.73804308004193"><ele>14.1</ele></trkpt>
    <trkpt lat="45.55781073272862" lon="-122.73823321613267"><ele>14.1</ele></trkpt>
    <trkpt lat="45.55801" lon="-122.73855"><ele>14.2</ele></trkpt>
    <trkpt lat="45.558053591723855" lon="-122.73860648505064"><ele>14.2</ele></trkpt>
    <trkpt lat="45.558384618900135" lon="-122.73903542167342"><ele>14.3</ele></trkpt>
    <trkpt lat="45.55874894860925" lon="-122.73950751087396"><ele>14.5</ele></trkpt>
    <trkpt lat="45.559046673252716" lon="-122.73989329491901"><ele>14.6</ele></trkpt>
    <trkpt lat="45.559510244509646" lon="-122.74049397880123"><ele>14.9</ele></trkpt>
    <trkpt lat="45.55960948605747" lon="-122.74062257348291"><ele>14.9</ele></trkpt>
    <trkpt lat="45.55980397284917" lon="-122.74087458453695"><ele>14.8</ele></trkpt>
    <trkpt lat="45.55990188229568" lon="-122.74100145311553"><ele>14.8</ele></trkpt>
    <trkpt lat="45.55996648920936" lon="-122.74108516911636"><ele>14.9</ele></trkpt>
    <trkpt lat="45.560194278533885" lon="-122.74138033274812"><ele>15.0</ele></trkpt>
    <trkpt lat="45.56037611036311" lon="-122.74161594582263"><ele>15.1</ele></trkpt>
    <trkpt lat="45.560608562042226" lon="-122.74191715081528"><ele>15.2</ele></trkpt>
    <trkpt lat="45.56084101372135" lon="-122.74221835580795"><ele>15.2</ele></trkpt>
    <trkpt lat="45.56085" lon="-122.74223"><ele>15.2</ele></trkpt>
    <trkpt lat="45.56101345650129" lon="-122.74242438070424"><ele>15.3</ele></trkpt>
    <trkpt lat="45.561150299109045" lon="-122.742587112454"><ele>15.3</ele></trkpt>
    <trkpt lat="45.561220000000006" lon="-122.74267"><ele>15.3</ele></trkpt>
    <trkpt lat="45.56129000000001" lon="-122.74284000000002"><ele>15.4</ele></trkpt>
    <trkpt lat="45.561353221330776" lon="-122.74291939422936"><ele>15.4</ele></trkpt>
    <trkpt lat="45.5616213507814" lon="-122.7432561149348"><ele>15.7</ele></trkpt>
    <trkpt lat="45.561814512048095" lon="-122.74349868954877"><ele>15.9</ele></trkpt>
    <trkpt lat="45.56200091942435" lon="-122.7437327825329"><ele>16.2</ele></trkpt>
    <trkpt lat="45.56209344772343" lon="-122.74384898086197"><ele>16.3</ele></trkpt>
    <trkpt lat="45.562316326108075" lon="-122.74412887464734"><ele>16.9</ele></trkpt>
    <trkpt lat="45.56238048806729" lon="-122.74420945013102"><ele>17.1</ele></trkpt>
    <trkpt lat="45.56244397463746" lon="-122.74428917745169"><ele>17.2</ele></trkpt>
    <trkpt lat="45.562476393311584" lon="-122.74432988927502"><ele>17.2</ele></trkpt>
    <trkpt lat="45.56257229855589" lon="-122.74445032841902"><ele>17.2</ele></trkpt>
    <trkpt lat="45.56277221371303" lon="-122.74470138466287"><ele>17.4</ele></trkpt>
    <trkpt lat="45.56293903480699" lon="-122.7449108809204"><ele>17.4</ele></trkpt>
    <trkpt lat="45.56300589832239" lon="-122.74499484905601"><ele>17.4</ele></trkpt>
    <trkpt lat="45.563172044027304" lon="-122.74520349715057"><ele>17.3</ele></trkpt>
    <trkpt lat="45.56330509566905" lon="-122.7453705852588"><ele>17.3</ele></trkpt>
    <trkpt lat="45.563401000913345" lon="-122.74549102440281"><ele>17.3</ele></trkpt>
    <trkpt lat="45.56344000000001" lon="-122.74554"><ele>17.2</ele></trkpt>
    <trkpt lat="45.563464355742745" lon="-122.74557286558057"><ele>17.2</ele></trkpt>
    <trkpt lat="45.56358790978985" lon="-122.74573958911402"><ele>17.1</ele></trkpt>
    <trkpt lat="45.56377356772309" lon="-122.74599011548175"><ele>17.0</ele></trkpt>
    <trkpt lat="45.56427" lon="-122.74666"><ele>16.6</ele></trkpt>
    <trkpt lat="45.56541000000001" lon="-122.74829000000001"><ele>16.6</ele></trkpt>
    <trkpt lat="45.56795656606015" lon="-122.75205448895848"><ele>16.6</ele></trkpt>
    <trkpt lat="45.56809154949474" lon="-122.75225402968786"><ele>17.6</ele></trkpt>
    <trkpt lat="45.56815404182556" lon="-122.75234640965517"><ele>17.6</ele></trkpt>
    <trkpt lat="45.56827840156391" lon="-122.75253024579013"><ele>17.6</ele></trkpt>
    <trkpt lat="45.568465253633086" lon="-122.75280646189238"><ele>17.7</ele></trkpt>
    <trkpt lat="45.56877646544061" lon="-122.75326651412958"><ele>17.7</ele></trkpt>
    <trkpt lat="45.56883895777143" lon="-122.7533588940969"><ele>17.7</ele></trkpt>
    <trkpt lat="45.56893207134437" lon="-122.7534965402482"><ele>17.8</ele></trkpt>
    <trkpt lat="45.5689945636752" lon="-122.75358892021549"><ele>17.9</ele></trkpt>
    <trkpt lat="45.56921266190979" lon="-122.7539113263014"><ele>18.2</ele></trkpt>
    <trkpt lat="45.56955000000001" lon="-122.75441000000001"><ele>18.6</ele></trkpt>
    <trkpt lat="45.56962129669964" lon="-122.75450268570953"><ele>18.7</ele></trkpt>
    <trkpt lat="45.56985" lon="-122.7548"><ele>18.8</ele></trkpt>
    <trkpt lat="45.56996107995562" lon="-122.754918485286"><ele>18.9</ele></trkpt>
    <trkpt lat="45.570150000000005" lon="-122.75512"><ele>18.8</ele></trkpt>
    <trkpt lat="45.57017827840876" lon="-122.75514462958184"><ele>18.8</ele></trkpt>
    <trkpt lat="45.5702550638824" lon="-122.7552115072524"><ele>18.8</ele></trkpt>
    <trkpt lat="45.570460000000004" lon="-122.75539"><ele>18.6</ele></trkpt>
    <trkpt lat="45.570484898988" lon="-122.7554108830222"><ele>18.6</ele></trkpt>
    <trkpt lat="45.57077" lon="-122.75565000000002"><ele>18.4</ele></trkpt>
    <trkpt lat="45.57116531228564" lon="-122.75589573466405"><ele>18.2</ele></trkpt>
    <trkpt lat="45.57151" lon="-122.75611"><ele>17.9</ele></trkpt>
    <trkpt lat="45.57153417012569" lon="-122.75612715299242"><ele>17.9</ele></trkpt>
    <trkpt lat="45.57177498802947" lon="-122.75629805602091"><ele>17.6</ele></trkpt>
    <trkpt lat="45.57182" lon="-122.75633"><ele>17.5</ele></trkpt>
    <trkpt lat="45.57204819584524" lon="-122.75651850961128"><ele>17.2</ele></trkpt>
    <trkpt lat="45.572050000000004" lon="-122.75652000000001"><ele>17.2</ele></trkpt>
    <trkpt lat="45.57215985821337" lon="-122.756624322722"><ele>17.0</ele></trkpt>
    <trkpt lat="45.57242124243171" lon="-122.75687253641772"><ele>16.5</ele></trkpt>
    <trkpt lat="45.57249613762321" lon="-122.7569436578205"><ele>16.4</ele></trkpt>
    <trkpt lat="45.57257028386279" lon="-122.75701406800924"><ele>16.3</ele></trkpt>
    <trkpt lat="45.572719325293875" lon="-122.75715559960076"><ele>16.2</ele></trkpt>
    <trkpt lat="45.573044370424995" lon="-122.75746426648885"><ele>16.1</ele></trkpt>
    <trkpt lat="45.57315221950075" lon="-122.75756668130884"><ele>16.1</ele></trkpt>
    <trkpt lat="45.57333271691227" lon="-122.75773808388956"><ele>16.1</ele></trkpt>
    <trkpt lat="45.57358960741911" lon="-122.7579820303011"><ele>16.0</ele></trkpt>
    <trkpt lat="45.57373640199446" lon="-122.75812142825055"><ele>16.0</ele></trkpt>
    <trkpt lat="45.573846497925956" lon="-122.75822597671264"><ele>16.0</ele></trkpt>
    <trkpt lat="45.57402999114514" lon="-122.75840022414945"><ele>16.1</ele></trkpt>
    <trkpt lat="45.574214233316226" lon="-122.75857518280029"><ele>16.3</ele></trkpt>
    <trkpt lat="45.57436027893966" lon="-122.75871386953573"><ele>16.4</ele></trkpt>
    <trkpt lat="45.57458047080267" lon="-122.7589229664599"><ele>16.6</ele></trkpt>
    <trkpt lat="45.574630000000006" lon="-122.75897"><ele>16.6</ele></trkpt>
    <trkpt lat="45.574762459088916" lon="-122.75909811616796"><ele>16.7</ele></trkpt>
    <trkpt lat="45.57486895143121" lon="-122.75920111695805"><ele>16.8</ele></trkpt>
    <trkpt lat="45.57515417218017" lon="-122.75947698620706"><ele>17.1</ele></trkpt>
    <trkpt lat="45.57524" lon="-122.75956000000001"><ele>17.2</ele></trkpt>
    <trkpt lat="45.57536393858792" lon="-122.75969168474967"><ele>17.3</ele></trkpt>
    <trkpt lat="45.5754" lon="-122.75973"><ele>17.3</ele></trkpt>
    <trkpt lat="45.57554129452684" lon="-122.75986504255663"><ele>17.5</ele></trkpt>
    <trkpt lat="45.57575432652779" lon="-122.76006864836286"><ele>17.8</ele></trkpt>
    <trkpt lat="45.576127319399646" lon="-122.76042513712534"><ele>17.8</ele></trkpt>
    <trkpt lat="45.57638819016572" lon="-122.76067446493715"><ele>17.6</ele></trkpt>
    <trkpt lat="45.57646293823623" lon="-122.76074590557091"><ele>17.6</ele></trkpt>
    <trkpt lat="45.576649060931814" lon="-122.760923792749"><ele>17.6</ele></trkpt>
    <trkpt lat="45.57694730573315" lon="-122.7612088408777"><ele>17.6</ele></trkpt>
    <trkpt lat="45.5773942991948" lon="-122.7616360558676"><ele>17.7</ele></trkpt>
    <trkpt lat="45.57746904726531" lon="-122.76170749650136"><ele>17.7</ele></trkpt>
    <trkpt lat="45.577617795925626" lon="-122.76184966336255"><ele>17.8</ele></trkpt>
    <trkpt lat="45.57766" lon="-122.76189000000001"><ele>17.9</ele></trkpt>
    <trkpt lat="45.57780299510986" lon="-122.76202950742427"><ele>17.9</ele></trkpt>
    <trkpt lat="45.57802505768461" lon="-122.76224615383865"><ele>18.1</ele></trkpt>
    <trkpt lat="45.578282769100795" lon="-122.76249757961054"><ele>18.4</ele></trkpt>
    <trkpt lat="45.5793" lon="-122.76349"><ele>18.2</ele></trkpt>
    <trkpt lat="45.58016000000001" lon="-122.76439"><ele>18.3</ele></trkpt>
    <trkpt lat="45.58222423019602" lon="-122.76665057085734"><ele>18.7</ele></trkpt>
    <trkpt lat="45.58238982719121" lon="-122.76683191872354"><ele>19.3</ele></trkpt>
    <trkpt lat="45.5826039612367" lon="-122.76706642027463"><ele>19.4</ele></trkpt>
    <trkpt lat="45.582675339251864" lon="-122.76714458745835"><ele>19.4</ele></trkpt>
    <trkpt lat="45.58281809528219" lon="-122.76730092182575"><ele>19.5</ele></trkpt>
    <trkpt lat="45.5831028935627" lon="-122.76761280888873"><ele>19.5</ele></trkpt>
    <trkpt lat="45.58317427157787" lon="-122.76769097607243"><ele>19.6</ele></trkpt>
    <trkpt lat="45.58328062482046" lon="-122.76780744517615"><ele>19.7</ele></trkpt>
    <trkpt lat="45.58345621473777" lon="-122.76799973644805"><ele>19.9</ele></trkpt>
    <trkpt lat="45.583561140420066" lon="-122.76811464220809"><ele>20.0</ele></trkpt>
    <trkpt lat="45.58366677988251" lon="-122.76823032963996"><ele>20.3</ele></trkpt>
    <trkpt lat="45.583806680792236" lon="-122.76838353732003"><ele>20.6</ele></trkpt>
    <trkpt lat="45.583876631247094" lon="-122.76846014116006"><ele>20.8</ele></trkpt>
    <trkpt lat="45.58391232025468" lon="-122.76849922475192"><ele>20.9</ele></trkpt>
    <trkpt lat="45.58401795971712" lon="-122.76861491218379"><ele>21.2</ele></trkpt>
    <trkpt lat="45.584050000000005" lon="-122.76865000000001"><ele>21.4</ele></trkpt>
    <trkpt lat="45.5840843675983" lon="-122.76869922926242"><ele>21.5</ele></trkpt>
    <trkpt lat="45.58414724464502" lon="-122.7687892963834"><ele>21.8</ele></trkpt>
    <trkpt lat="45.584366361625996" lon="-122.76910316665345"><ele>22.9</ele></trkpt>
    <trkpt lat="45.58442" lon="-122.76918"><ele>23.1</ele></trkpt>
    <trkpt lat="45.58442843947445" lon="-122.76919428218754"><ele>23.2</ele></trkpt>
    <trkpt lat="45.584485877295435" lon="-122.76929148465382"><ele>23.4</ele></trkpt>
    <trkpt lat="45.5845717439369" lon="-122.76943679743168"><ele>23.7</ele></trkpt>
    <trkpt lat="45.584629181757876" lon="-122.76953399989796"><ele>23.9</ele></trkpt>
    <trkpt lat="45.58468661957886" lon="-122.76963120236422"><ele>24.1</ele></trkpt>
    <trkpt lat="45.58485835286179" lon="-122.76992182791996"><ele>24.5</ele></trkpt>
    <trkpt lat="45.58494" lon="-122.77006000000002"><ele>24.7</ele></trkpt>
    <trkpt lat="45.58505232476135" lon="-122.7702693325098"><ele>25.1</ele></trkpt>
    <trkpt lat="45.58510649732668" lon="-122.77037029047244"><ele>25.3</ele></trkpt>
    <trkpt lat="45.58516" lon="-122.77047"><ele>25.5</ele></trkpt>
    <trkpt lat="45.585252711047886" lon="-122.77060685916594"><ele>25.8</ele></trkpt>
    <trkpt lat="45.58534152897872" lon="-122.77073797134955"><ele>26.1</ele></trkpt>
    <trkpt lat="45.585370000000005" lon="-122.77078000000002"><ele>26.2</ele></trkpt>
    <trkpt lat="45.58553047037327" lon="-122.77098525280303"><ele>26.8</ele></trkpt>
    <trkpt lat="45.5856256210254" lon="-122.77110695712551"><ele>27.2</ele></trkpt>
    <trkpt lat="45.585720771677536" lon="-122.77122866144802"><ele>27.5</ele></trkpt>
    <trkpt lat="45.585800000000006" lon="-122.77133"><ele>27.7</ele></trkpt>
    <trkpt lat="45.58581688231785" lon="-122.77134872098613"><ele>27.7</ele></trkpt>
    <trkpt lat="45.58588011460525" lon="-122.77141883995829"><ele>27.8</ele></trkpt>
    <trkpt lat="45.58611172950068" lon="-122.77167568023839"><ele>28.1</ele></trkpt>
    <trkpt lat="45.586180645589195" lon="-122.77175210203951"><ele>28.2</ele></trkpt>
    <trkpt lat="45.586386683379615" lon="-122.77198057958927"><ele>28.9</ele></trkpt>
    <trkpt lat="45.58648970227482" lon="-122.77209481836415"><ele>29.2</ele></trkpt>
    <trkpt lat="45.58662540302643" lon="-122.77224529840555"><ele>29.3</ele></trkpt>
    <trkpt lat="45.58679520658473" lon="-122.7724335954207"><ele>29.5</ele></trkpt>
    <trkpt lat="45.58681000000001" lon="-122.77245"><ele>29.5</ele></trkpt>
    <trkpt lat="45.58698335068412" lon="-122.77268402342355"><ele>29.8</ele></trkpt>
    <trkpt lat="45.58701000000001" lon="-122.77272"><ele>29.8</ele></trkpt>
    <trkpt lat="45.587250000000004" lon="-122.77307"><ele>30.1</ele></trkpt>
    <trkpt lat="45.58737035605746" lon="-122.77326772780869"><ele>30.3</ele></trkpt>
    <trkpt lat="45.58753" lon="-122.77353000000001"><ele>30.5</ele></trkpt>
    <trkpt lat="45.58754100787362" lon="-122.7735495233985"><ele>30.5</ele></trkpt>
    <trkpt lat="45.58764990340828" lon="-122.77374265887507"><ele>30.6</ele></trkpt>
    <trkpt lat="45.5877858817702" lon="-122.77398382804526"><ele>30.5</ele></trkpt>
    <trkpt lat="45.588060000000006" lon="-122.77447000000001"><ele>30.3</ele></trkpt>
    <trkpt lat="45.58808835228283" lon="-122.77452179439378"><ele>30.3</ele></trkpt>
    <trkpt lat="45.58822410438152" lon="-122.77476978845117"><ele>30.3</ele></trkpt>
    <trkpt lat="45.58838645280976" lon="-122.77506636909938"><ele>30.3</ele></trkpt>
    <trkpt lat="45.58857595165773" lon="-122.77541254855909"><ele>30.4</ele></trkpt>
    <trkpt lat="45.58865684882675" lon="-122.7755603327729"><ele>30.5</ele></trkpt>
    <trkpt lat="45.588763234144906" lon="-122.77575467913624"><ele>30.4</ele></trkpt>
    <trkpt lat="45.588843023133535" lon="-122.77590043890874"><ele>30.3</ele></trkpt>
    <trkpt lat="45.58908183600919" lon="-122.77633670600562"><ele>29.7</ele></trkpt>
    <trkpt lat="45.58926579395518" lon="-122.77667276325892"><ele>29.4</ele></trkpt>
    <trkpt lat="45.58931843252406" lon="-122.77676892421994"><ele>29.2</ele></trkpt>
    <trkpt lat="45.58939711333228" lon="-122.77691265955114"><ele>29.0</ele></trkpt>
    <trkpt lat="45.589478010501296" lon="-122.77706044376495"><ele>28.8</ele></trkpt>
    <trkpt lat="45.589531757250576" lon="-122.77715862916726"><ele>28.7</ele></trkpt>
    <trkpt lat="45.5896126544196" lon="-122.77730641338105"><ele>28.5</ele></trkpt>
    <trkpt lat="45.58974785242809" lon="-122.77755339521781"><ele>28.1</ele></trkpt>
    <trkpt lat="45.58980159917737" lon="-122.77765158062013"><ele>28.0</ele></trkpt>
    <trkpt lat="45.589850000000006" lon="-122.77774000000001"><ele>27.9</ele></trkpt>
    <trkpt lat="45.58988533827386" lon="-122.77779595226694"><ele>27.9</ele></trkpt>
    <trkpt lat="45.59003235985564" lon="-122.7780287364381"><ele>27.7</ele></trkpt>
    <trkpt lat="45.590090204412405" lon="-122.77812032365298"><ele>27.7</ele></trkpt>
    <trkpt lat="45.59017938143742" lon="-122.77826152060925"><ele>27.8</ele></trkpt>
    <trkpt lat="45.5902926603611" lon="-122.77844087890507"><ele>27.7</ele></trkpt>
    <trkpt lat="45.59033" lon="-122.77850000000001"><ele>27.7</ele></trkpt>
    <trkpt lat="45.5904807338451" lon="-122.77868319959634"><ele>27.7</ele></trkpt>
    <trkpt lat="45.59057732719906" lon="-122.77880059767273"><ele>27.7</ele></trkpt>
    <trkpt lat="45.59067392055303" lon="-122.77891799574907"><ele>27.7</ele></trkpt>
    <trkpt lat="45.59074242647783" lon="-122.77900125679614"><ele>27.7</ele></trkpt>
    <trkpt lat="45.590844500305785" lon="-122.77912531575626"><ele>27.8</ele></trkpt>
    <trkpt lat="45.59098" lon="-122.77929"><ele>27.7</ele></trkpt>
    <trkpt lat="45.59107" lon="-122.7793"><ele>27.7</ele></trkpt>
    <trkpt lat="45.59110716004722" lon="-122.77933804481026"><ele>27.7</ele></trkpt>
    <trkpt lat="45.59121681996919" lon="-122.77945031568275"><ele>27.7</ele></trkpt>
    <trkpt lat="45.591399586505794" lon="-122.77963743380356"><ele>27.8</ele></trkpt>
    <trkpt lat="45.59147269312044" lon="-122.77971228105187"><ele>27.9</ele></trkpt>
    <trkpt lat="45.5915823530424" lon="-122.77982455192436"><ele>27.9</ele></trkpt>
    <trkpt lat="45.59172856627169" lon="-122.77997424642102"><ele>27.8</ele></trkpt>
    <trkpt lat="45.59190621534527" lon="-122.78015612523446"><ele>27.7</ele></trkpt>
    <trkpt lat="45.591910000000006" lon="-122.78016000000001"><ele>27.7</ele></trkpt>
    <trkpt lat="45.591950000000004" lon="-122.78029000000001"><ele>27.5</ele></trkpt>
    <trkpt lat="45.592007749488936" lon="-122.78034984947035"><ele>27.5</ele></trkpt>
    <trkpt lat="45.592114041765306" lon="-122.7804600069204"><ele>27.3</ele></trkpt>
    <trkpt lat="45.592326626318034" lon="-122.78068032182051"><ele>26.8</ele></trkpt>
    <trkpt lat="45.5925" lon="-122.78086"><ele>26.5</ele></trkpt>
    <trkpt lat="45.59268" lon="-122.78104"><ele>26.2</ele></trkpt>
    <trkpt lat="45.592726690497464" lon="-122.78105697836273"><ele>26.2</ele></trkpt>
    <trkpt lat="45.59279" lon="-122.78108000000002"><ele>26.0</ele></trkpt>
    <trkpt lat="45.59292006861405" lon="-122.78120284257996"><ele>25.8</ele></trkpt>
    <trkpt lat="45.593104637789224" lon="-122.78137715791205"><ele>25.5</ele></trkpt>
    <trkpt lat="45.59328920696439" lon="-122.78155147324415"><ele>25.1</ele></trkpt>
    <trkpt lat="45.59351" lon="-122.78176"><ele>24.7</ele></trkpt>
    <trkpt lat="45.59357000000001" lon="-122.78189"><ele>24.5</ele></trkpt>
    <trkpt lat="45.593629267895174" lon="-122.78194004844482"><ele>24.4</ele></trkpt>
    <trkpt lat="45.593895612265385" lon="-122.78216496146855"><ele>23.8</ele></trkpt>
    <trkpt lat="45.59447" lon="-122.78265"><ele>22.5</ele></trkpt>
    <trkpt lat="45.594570000000004" lon="-122.78265"><ele>22.3</ele></trkpt>
    <trkpt lat="45.59583000000001" lon="-122.78363000000002"><ele>19.8</ele></trkpt>
    <trkpt lat="45.5959" lon="-122.78373"><ele>19.7</ele></trkpt>
    <trkpt lat="45.597314622383124" lon="-122.78479199187603"><ele>16.9</ele></trkpt>
    <trkpt lat="45.597470671177646" lon="-122.78490914155076"><ele>17.0</ele></trkpt>
    <trkpt lat="45.59766652833813" lon="-122.7850561763466"><ele>16.7</ele></trkpt>
    <trkpt lat="45.59774455273539" lon="-122.78511475118395"><ele>16.7</ele></trkpt>
    <trkpt lat="45.59794040989587" lon="-122.7852617859798"><ele>16.5</ele></trkpt>
    <trkpt lat="45.59809168168648" lon="-122.78537534944"><ele>16.3</ele></trkpt>
    <trkpt lat="45.598205533613104" lon="-122.78546082088636"><ele>16.3</ele></trkpt>
    <trkpt lat="45.59835760157104" lon="-122.78557498204898"><ele>16.2</ele></trkpt>
    <trkpt lat="45.598941192215875" lon="-122.78601309792438"><ele>16.1</ele></trkpt>
    <trkpt lat="45.59935" lon="-122.78632"><ele>16.2</ele></trkpt>
    <trkpt lat="45.59968330854984" lon="-122.78654394168193"><ele>16.2</ele></trkpt>
    <trkpt lat="45.599834690238346" lon="-122.78664565125389"><ele>16.3</ele></trkpt>
    <trkpt lat="45.599955144485115" lon="-122.78672658145094"><ele>16.2</ele></trkpt>
    <trkpt lat="45.599990000000005" lon="-122.78675000000001"><ele>16.2</ele></trkpt>
    <trkpt lat="45.60015844511795" lon="-122.78685446208866"><ele>16.2</ele></trkpt>
    <trkpt lat="45.60040264781437" lon="-122.78700590562133"><ele>16.1</ele></trkpt>
    <trkpt lat="45.60060642506443" lon="-122.78713227910973"><ele>15.9</ele></trkpt>
    <trkpt lat="45.60068810096628" lon="-122.7871829308318"><ele>15.9</ele></trkpt>
    <trkpt lat="45.60080937730538" lon="-122.78725814096458"><ele>15.9</ele></trkpt>
    <trkpt lat="45.60089187821633" lon="-122.78730930432022"><ele>15.9</ele></trkpt>
    <trkpt lat="45.60105523002002" lon="-122.78741060776436"><ele>15.9</ele></trkpt>
    <trkpt lat="45.60117733136824" lon="-122.7874863295307"><ele>16.0</ele></trkpt>
    <trkpt lat="45.60128" lon="-122.78755000000001"><ele>16.1</ele></trkpt>
    <trkpt lat="45.60133791233771" lon="-122.7875929672183"><ele>16.2</ele></trkpt>
    <trkpt lat="45.60159" lon="-122.78778000000001"><ele>16.6</ele></trkpt>
    <trkpt lat="45.601613547757914" lon="-122.78779928126521"><ele>16.6</ele></trkpt>
    <trkpt lat="45.60196158265698" lon="-122.78808425757627"><ele>17.1</ele></trkpt>
    <trkpt lat="45.60223158282531" lon="-122.78830533785349"><ele>17.4</ele></trkpt>
    <trkpt lat="45.602347854574106" lon="-122.78840054294395"><ele>17.4</ele></trkpt>
    <trkpt lat="45.60246334597559" lon="-122.78849510907409"><ele>17.5</ele></trkpt>
    <trkpt lat="45.6027302247547" lon="-122.78871363350996"><ele>17.9</ele></trkpt>
    <trkpt lat="45.602806698790815" lon="-122.78877625162315"><ele>18.0</ele></trkpt>
    <trkpt lat="45.602921409844996" lon="-122.78887017879295"><ele>18.1</ele></trkpt>
    <trkpt lat="45.60333499391788" lon="-122.78920882777248"><ele>18.3</ele></trkpt>
    <trkpt lat="45.603934300649904" lon="-122.78969954931264"><ele>18.4</ele></trkpt>
    <trkpt lat="45.604089589764065" lon="-122.78982670242004"><ele>18.4</ele></trkpt>
    <trkpt lat="45.60446" lon="-122.79013"><ele>18.3</ele></trkpt>
    <trkpt lat="45.604504791553545" lon="-122.79020091995979"><ele>18.3</ele></trkpt>
    <trkpt lat="45.604580000000006" lon="-122.79032000000001"><ele>18.2</ele></trkpt>
    <trkpt lat="45.60467629848834" lon="-122.79040089073021"><ele>18.2</ele></trkpt>
    <trkpt lat="45.60483000000001" lon="-122.79053"><ele>18.2</ele></trkpt>
    <trkpt lat="45.60487405251241" lon="-122.7905471315326"><ele>18.2</ele></trkpt>
    <trkpt lat="45.605004219336436" lon="-122.79059775196419"><ele>18.2</ele></trkpt>
    <trkpt lat="45.60501000000001" lon="-122.79060000000001"><ele>18.2</ele></trkpt>
    <trkpt lat="45.60546474334266" lon="-122.79097390008175"><ele>18.0</ele></trkpt>
    <trkpt lat="45.60554191909381" lon="-122.79103735569936"><ele>17.9</ele></trkpt>
    <trkpt lat="45.60591" lon="-122.79134"><ele>18.0</ele></trkpt>
    <trkpt lat="45.60592535322328" lon="-122.79135297082657"><ele>18.0</ele></trkpt>
    <trkpt lat="45.60603916201799" lon="-122.7914491196359"><ele>18.1</ele></trkpt>
    <trkpt lat="45.60619168128711" lon="-122.79157797212187"><ele>18.2</ele></trkpt>
    <trkpt lat="45.606345748975194" lon="-122.7917081327549"><ele>18.3</ele></trkpt>
    <trkpt lat="45.60649" lon="-122.79183"><ele>18.4</ele></trkpt>
    <trkpt lat="45.606500218400875" lon="-122.79183979263418"><ele>18.4</ele></trkpt>
    <trkpt lat="45.60657491652149" lon="-122.7919113783331"><ele>18.5</ele></trkpt>
    <trkpt lat="45.606970000000004" lon="-122.79229000000001"><ele>19.1</ele></trkpt>
    <trkpt lat="45.606984587558024" lon="-122.79230524465524"><ele>19.1</ele></trkpt>
    <trkpt lat="45.60712906089345" lon="-122.79245622579856"><ele>19.3</ele></trkpt>
    <trkpt lat="45.60723796039251" lon="-122.79257003068047"><ele>19.5</ele></trkpt>
    <trkpt lat="45.60734685989157" lon="-122.79268383556237"><ele>19.5</ele></trkpt>
    <trkpt lat="45.607491333227" lon="-122.79283481670569"><ele>19.6</ele></trkpt>
    <trkpt lat="45.607709132225125" lon="-122.7930624264695"><ele>19.5</ele></trkpt>
    <trkpt lat="45.60792620522659" lon="-122.7932892775341"><ele>19.4</ele></trkpt>
    <trkpt lat="45.60807140455867" lon="-122.79344101737664"><ele>19.4</ele></trkpt>
    <trkpt lat="45.60808" lon="-122.79345"><ele>19.4</ele></trkpt>
    <trkpt lat="45.60825062183114" lon="-122.79363294451895"><ele>19.3</ele></trkpt>
    <trkpt lat="45.60843048086644" lon="-122.79382579337346"><ele>19.2</ele></trkpt>
    <trkpt lat="45.608713938706074" lon="-122.79412972316817"><ele>19.3</ele></trkpt>
    <trkpt lat="45.60881969581883" lon="-122.79424311829463"><ele>19.3</ele></trkpt>
    <trkpt lat="45.60892473349544" lon="-122.79435574202567"><ele>19.2</ele></trkpt>
    <trkpt lat="45.609065742979126" lon="-122.79450693552764"><ele>19.0</ele></trkpt>
    <trkpt lat="45.60924200483372" lon="-122.79469592740506"><ele>18.6</ele></trkpt>
    <trkpt lat="45.609347042510336" lon="-122.79480855113609"><ele>18.4</ele></trkpt>
    <trkpt lat="45.60959380910677" lon="-122.79507313976447"><ele>17.8</ele></trkpt>
    <trkpt lat="45.60976935152522" lon="-122.79526136024649"><ele>17.2</ele></trkpt>
    <trkpt lat="45.60983985626706" lon="-122.79533695699746"><ele>17.0</ele></trkpt>
    <trkpt lat="45.61001827643008" lon="-122.79552826306116"><ele>16.5</ele></trkpt>
    <trkpt lat="45.61016072478604" lon="-122.79568099935392"><ele>16.1</ele></trkpt>
    <trkpt lat="45.610303173142" lon="-122.79583373564671"><ele>15.8</ele></trkpt>
    <trkpt lat="45.610482312741155" lon="-122.7960258131058"><ele>15.5</ele></trkpt>
    <trkpt lat="45.610588789290055" lon="-122.79613997962767"><ele>15.4</ele></trkpt>
    <trkpt lat="45.61066073290418" lon="-122.79621711916948"><ele>15.4</ele></trkpt>
    <trkpt lat="45.610910377245176" lon="-122.79648479337956"><ele>15.5</ele></trkpt>
    <trkpt lat="45.611017573230214" lon="-122.79659973129685"><ele>15.5</ele></trkpt>
    <trkpt lat="45.61126721757121" lon="-122.7968674055069"><ele>15.8</ele></trkpt>
    <trkpt lat="45.61162405789725" lon="-122.79725001763427"><ele>16.2</ele></trkpt>
    <trkpt lat="45.61168000000001" lon="-122.79731000000001"><ele>16.3</ele></trkpt>
    <trkpt lat="45.61179978614834" lon="-122.7974463083757"><ele>16.5</ele></trkpt>
    <trkpt lat="45.611904626102024" lon="-122.79756560901265"><ele>16.6</ele></trkpt>
    <trkpt lat="45.61211430600939" lon="-122.79780421028654"><ele>17.1</ele></trkpt>
    <trkpt lat="45.612260000000006" lon="-122.79797"><ele>17.4</ele></trkpt>
    <trkpt lat="45.612286974849894" lon="-122.79800581906298"><ele>17.4</ele></trkpt>
    <trkpt lat="45.61248267552152" lon="-122.79826568388923"><ele>17.9</ele></trkpt>
    <trkpt lat="45.612679035117964" lon="-122.79852642368124"><ele>18.4</ele></trkpt>
    <trkpt lat="45.61287" lon="-122.79878000000001"><ele>19.0</ele></trkpt>
    <trkpt lat="45.61293404458328" lon="-122.79888299567486"><ele>19.2</ele></trkpt>
    <trkpt lat="45.612993197326105" lon="-122.79897812435485"><ele>19.4</ele></trkpt>
    <trkpt lat="45.61305294757138" lon="-122.7990742139306"><ele>19.7</ele></trkpt>
    <trkpt lat="45.613057727591" lon="-122.79908190109666"><ele>19.7</ele></trkpt>
    <trkpt lat="45.614580000000004" lon="-122.80153000000001"><ele>20.2</ele></trkpt>
    <trkpt lat="45.614580000000004" lon="-122.80155"><ele>20.2</ele></trkpt>
    <trkpt lat="45.6176807567067" lon="-122.80659040754703"><ele>21.2</ele></trkpt>
    <trkpt lat="45.61773064707442" lon="-122.80667150639152"><ele>21.3</ele></trkpt>
    <trkpt lat="45.61796703238812" lon="-122.80705576044045"><ele>21.1</ele></trkpt>
    <trkpt lat="45.618055528397534" lon="-122.80719961434318"><ele>21.1</ele></trkpt>
    <trkpt lat="45.61823252041634" lon="-122.80748732214865"><ele>21.0</ele></trkpt>
    <trkpt lat="45.6183798157877" lon="-122.80772675683238"><ele>21.0</ele></trkpt>
    <trkpt lat="45.618439209082595" lon="-122.80782330307582"><ele>20.9</ele></trkpt>
    <trkpt lat="45.618675594396315" lon="-122.80820755712475"><ele>20.6</ele></trkpt>
    <trkpt lat="45.61876409040572" lon="-122.80835141102749"><ele>20.5</ele></trkpt>
    <trkpt lat="45.61894108242453" lon="-122.80863911883294"><ele>20.1</ele></trkpt>
    <trkpt lat="45.61914777109079" lon="-122.80897509976013"><ele>19.6</ele></trkpt>
    <trkpt lat="45.619200000000006" lon="-122.80906000000002"><ele>19.5</ele></trkpt>
    <trkpt lat="45.61920669536125" lon="-122.80907052128197"><ele>19.5</ele></trkpt>
    <trkpt lat="45.61926721776069" lon="-122.80916562790966"><ele>19.5</ele></trkpt>
    <trkpt lat="45.61947723048672" lon="-122.80949564790772"><ele>19.0</ele></trkpt>
    <trkpt lat="45.619627326037325" lon="-122.80973151234437"><ele>18.7</ele></trkpt>
    <trkpt lat="45.619777421587926" lon="-122.80996737678102"><ele>18.4</ele></trkpt>
    <trkpt lat="45.61983" lon="-122.81005"><ele>18.3</ele></trkpt>
    <trkpt lat="45.619870640249424" lon="-122.81010481708063"><ele>18.3</ele></trkpt>
    <trkpt lat="45.61996811033607" lon="-122.81023628836027"><ele>18.2</ele></trkpt>
    <trkpt lat="45.62019575859211" lon="-122.81054334879866"><ele>17.9</ele></trkpt>
    <trkpt lat="45.62026" lon="-122.81063"><ele>17.9</ele></trkpt>
    <trkpt lat="45.62036780466722" lon="-122.81074550500058"><ele>17.8</ele></trkpt>
    <trkpt lat="45.62043905272968" lon="-122.81082184221037"><ele>17.8</ele></trkpt>
    <trkpt lat="45.62065351659445" lon="-122.81105162492264"><ele>17.5</ele></trkpt>
    <trkpt lat="45.620960000000004" lon="-122.81138000000001"><ele>17.2</ele></trkpt>
    <trkpt lat="45.62101281905042" lon="-122.81142929778039"><ele>17.2</ele></trkpt>
    <trkpt lat="45.62116268106686" lon="-122.81156916899576"><ele>17.1</ele></trkpt>
    <trkpt lat="45.621237235537365" lon="-122.81163875316821"><ele>17.0</ele></trkpt>
    <trkpt lat="45.621410000000004" lon="-122.8118"><ele>16.8</ele></trkpt>
    <trkpt lat="45.621532466144615" lon="-122.81192560630217"><ele>16.6</ele></trkpt>
    <trkpt lat="45.62171442457569" lon="-122.81211223033404"><ele>16.3</ele></trkpt>
    <trkpt lat="45.622004535005956" lon="-122.8124097794933"><ele>15.9</ele></trkpt>
    <trkpt lat="45.62219" lon="-122.8126"><ele>15.6</ele></trkpt>
    <trkpt lat="45.62222124065186" lon="-122.81263514573334"><ele>15.6</ele></trkpt>
    <trkpt lat="45.62232655067469" lon="-122.81275361950902"><ele>15.4</ele></trkpt>
    <trkpt lat="45.62243115391884" lon="-122.8128712981587"><ele>15.3</ele></trkpt>
    <trkpt lat="45.62250183178652" lon="-122.81295081075984"><ele>15.3</ele></trkpt>
    <trkpt lat="45.62260714180935" lon="-122.81306928453552"><ele>15.3</ele></trkpt>
    <trkpt lat="45.62283" lon="-122.81332"><ele>15.4</ele></trkpt>
    <trkpt lat="45.622884624814304" lon="-122.81339023190411"><ele>15.4</ele></trkpt>
    <trkpt lat="45.62298426533223" lon="-122.81351834114143"><ele>15.5</ele></trkpt>
    <trkpt lat="45.62308390585015" lon="-122.81364645037877"><ele>15.7</ele></trkpt>
    <trkpt lat="45.62331595457309" lon="-122.81394479873684"><ele>16.1</ele></trkpt>
    <trkpt lat="45.62348179919352" lon="-122.81415802753455"><ele>16.5</ele></trkpt>
    <trkpt lat="45.62353" lon="-122.81422"><ele>16.6</ele></trkpt>
    <trkpt lat="45.62357922644396" lon="-122.81428949615619"><ele>16.7</ele></trkpt>
    <trkpt lat="45.62367329987483" lon="-122.81442230570565"><ele>17.0</ele></trkpt>
    <trkpt lat="45.62373665545071" lon="-122.8145117488716"><ele>17.3</ele></trkpt>
    <trkpt lat="45.623768013261014" lon="-122.81455601872142"><ele>17.5</ele></trkpt>
    <trkpt lat="45.6238313688369" lon="-122.81464546188738"><ele>17.8</ele></trkpt>
    <trkpt lat="45.623894084457476" lon="-122.81473400158703"><ele>18.2</ele></trkpt>
    <trkpt lat="45.623957440033365" lon="-122.81482344475299"><ele>18.7</ele></trkpt>
    <trkpt lat="45.62405215341955" lon="-122.81495715776877"><ele>19.4</ele></trkpt>
    <trkpt lat="45.624146226850414" lon="-122.81508996731822"><ele>20.2</ele></trkpt>
    <trkpt lat="45.62438" lon="-122.81542"><ele>22.3</ele></trkpt>
    <trkpt lat="45.62439959026714" lon="-122.81544596849365"><ele>22.5</ele></trkpt>
    <trkpt lat="45.6247240727824" lon="-122.81587609647899"><ele>25.2</ele></trkpt>
    <trkpt lat="45.62482168134389" lon="-122.81600548457214"><ele>25.9</ele></trkpt>
    <trkpt lat="45.62491928990539" lon="-122.81613487266529"><ele>26.6</ele></trkpt>
    <trkpt lat="45.625020196053434" lon="-122.8162686319778"><ele>26.2</ele></trkpt>
    <trkpt lat="45.625118464132235" lon="-122.81639889431483"><ele>26.1</ele></trkpt>
    <trkpt lat="45.62521607269374" lon="-122.81652828240799"><ele>26.0</ele></trkpt>
    <trkpt lat="45.625240000000005" lon="-122.81656000000001"><ele>26.0</ele></trkpt>
    <trkpt lat="45.62527844115312" lon="-122.81661902381778"><ele>25.9</ele></trkpt>
    <trkpt lat="45.62533911838282" lon="-122.81671218964291"><ele>25.9</ele></trkpt>
    <trkpt lat="45.625399795612516" lon="-122.81680535546803"><ele>26.0</ele></trkpt>
    <trkpt lat="45.625460472842214" lon="-122.81689852129317"><ele>26.1</ele></trkpt>
    <trkpt lat="45.62561308526843" lon="-122.8171328474594"><ele>26.3</ele></trkpt>
    <trkpt lat="45.62588766505535" lon="-122.81755444634484"><ele>26.9</ele></trkpt>
    <trkpt lat="45.62594895518636" lon="-122.8176485532389"><ele>26.9</ele></trkpt>
    <trkpt lat="45.62600963241606" lon="-122.81774171906403"><ele>27.0</ele></trkpt>
    <trkpt lat="45.62607092254707" lon="-122.8178358259581"><ele>27.0</ele></trkpt>
    <trkpt lat="45.62613221267808" lon="-122.81792993285217"><ele>26.9</ele></trkpt>
    <trkpt lat="45.62616224484227" lon="-122.81797604523027"><ele>26.8</ele></trkpt>
    <trkpt lat="45.626223534973285" lon="-122.81807015212433"><ele>26.7</ele></trkpt>
    <trkpt lat="45.626254180038785" lon="-122.81811720557137"><ele>26.6</ele></trkpt>
    <trkpt lat="45.62631485726849" lon="-122.8182103713965"><ele>26.3</ele></trkpt>
    <trkpt lat="45.626406792465005" lon="-122.8183515317376"><ele>25.8</ele></trkpt>
    <trkpt lat="45.6264674696947" lon="-122.81844469756273"><ele>25.4</ele></trkpt>
    <trkpt lat="45.62651" lon="-122.81851"><ele>25.0</ele></trkpt>
    <trkpt lat="45.62652787261602" lon="-122.81848006336817"><ele>24.9</ele></trkpt>
    <trkpt lat="45.626614875999856" lon="-122.81833433270025"><ele>24.0</ele></trkpt>
    <trkpt lat="45.626673267532624" lon="-122.81823652688286"><ele>23.4</ele></trkpt>
    <trkpt lat="45.626818662449224" lon="-122.81799299039756"><ele>21.7</ele></trkpt>
    <trkpt lat="45.62699266921688" lon="-122.81770152906175"><ele>19.6</ele></trkpt>
    <trkpt lat="45.62705106074965" lon="-122.81760372324435"><ele>18.9</ele></trkpt>
    <trkpt lat="45.627138064133476" lon="-122.81745799257644"><ele>17.8</ele></trkpt>
    <trkpt lat="45.6272250675173" lon="-122.81731226190854"><ele>16.8</ele></trkpt>
    <trkpt lat="45.627303896086545" lon="-122.81718022405505"><ele>16.6</ele></trkpt>
    <trkpt lat="45.6273873959784" lon="-122.81704036173619"><ele>15.6</ele></trkpt>
    <trkpt lat="45.627583591528506" lon="-122.81671173418975"><ele>13.1</ele></trkpt>
    <trkpt lat="45.62775117522756" lon="-122.81643103149386"><ele>11.0</ele></trkpt>
    <trkpt lat="45.62783525903475" lon="-122.81629019111679"><ele>10.0</ele></trkpt>
    <trkpt lat="45.62791934284194" lon="-122.81614935073978"><ele>9.1</ele></trkpt>
    <trkpt lat="45.62800342664913" lon="-122.81600851036272"><ele>8.6</ele></trkpt>
    <trkpt lat="45.62803145458486" lon="-122.81596156357037"><ele>8.4</ele></trkpt>
    <trkpt lat="45.62808809437165" lon="-122.81586669192751"><ele>8.1</ele></trkpt>
    <trkpt lat="45.62817334600949" lon="-122.81572389543413"><ele>7.8</ele></trkpt>
    <trkpt lat="45.628230569711604" lon="-122.81562804573308"><ele>7.6</ele></trkpt>
    <trkpt lat="45.62828837732905" lon="-122.81553121797387"><ele>7.4</ele></trkpt>
    <trkpt lat="45.62834618494649" lon="-122.81543439021465"><ele>7.2</ele></trkpt>
    <trkpt lat="45.62840399256393" lon="-122.81533756245543"><ele>7.2</ele></trkpt>
    <trkpt lat="45.62843318833032" lon="-122.81528865954674"><ele>7.2</ele></trkpt>
    <trkpt lat="45.62849099594776" lon="-122.81519183178753"><ele>7.2</ele></trkpt>
    <trkpt lat="45.628510000000006" lon="-122.81516"><ele>7.3</ele></trkpt>
    <trkpt lat="45.628600000000006" lon="-122.81502"><ele>7.4</ele></trkpt>
    <trkpt lat="45.62870049266698" lon="-122.81490610831077"><ele>7.6</ele></trkpt>
    <trkpt lat="45.628750000000004" lon="-122.81485"><ele>7.7</ele></trkpt>
    <trkpt lat="45.628811418344426" lon="-122.81481417263242"><ele>7.7</ele></trkpt>
    <trkpt lat="45.62899" lon="-122.81471"><ele>7.7</ele></trkpt>
    <trkpt lat="45.62901296880113" lon="-122.81471"><ele>7.7</ele></trkpt>
    <trkpt lat="45.62914247122176" lon="-122.81470999999999"><ele>7.7</ele></trkpt>
    <trkpt lat="45.62923420210305" lon="-122.81471000000002"><ele>7.7</ele></trkpt>
    <trkpt lat="45.62929715466864" lon="-122.81470999999999"><ele>7.7</ele></trkpt>
    <trkpt lat="45.62933" lon="-122.81471"><ele>7.8</ele></trkpt>
    <trkpt lat="45.629470000000005" lon="-122.81479000000002"><ele>7.9</ele></trkpt>
    <trkpt lat="45.6296" lon="-122.81488000000002"><ele>7.9</ele></trkpt>
    <trkpt lat="45.629651465745006" lon="-122.81492778962038"><ele>7.9</ele></trkpt>
    <trkpt lat="45.629740000000005" lon="-122.81501000000002"><ele>7.9</ele></trkpt>
    <trkpt lat="45.629752428484636" lon="-122.81502791163963"><ele>7.9</ele></trkpt>
    <trkpt lat="45.62981007164164" lon="-122.8151109856012"><ele>8.1</ele></trkpt>
    <trkpt lat="45.62986771479865" lon="-122.81519405956277"><ele>8.2</ele></trkpt>
    <trkpt lat="45.62992599139694" lon="-122.815278046425"><ele>8.2</ele></trkpt>
    <trkpt lat="45.630075483540374" lon="-122.81549349098466"><ele>8.3</ele></trkpt>
    <trkpt lat="45.63008000000001" lon="-122.81550000000001"><ele>8.3</ele></trkpt>
    <trkpt lat="45.63008560496061" lon="-122.8155532471258"><ele>8.3</ele></trkpt>
    <trkpt lat="45.63009229825597" lon="-122.81561683343165"><ele>8.4</ele></trkpt>
    <trkpt lat="45.63009885768541" lon="-122.81567914801136"><ele>8.5</ele></trkpt>
    <trkpt lat="45.630100000000006" lon="-122.81569"><ele>8.5</ele></trkpt>
    <trkpt lat="45.63009472086249" lon="-122.81574279137519"><ele>8.6</ele></trkpt>
    <trkpt lat="45.63009" lon="-122.81579"><ele>8.7</ele></trkpt>
    <trkpt lat="45.630086105422585" lon="-122.81580428011722"><ele>8.7</ele></trkpt>
    <trkpt lat="45.630053428489845" lon="-122.81592409553726"><ele>9.1</ele></trkpt>
    <trkpt lat="45.630030000000005" lon="-122.81601"><ele>9.4</ele></trkpt>
    <trkpt lat="45.630010428171914" lon="-122.81603120281378"><ele>9.5</ele></trkpt>
    <trkpt lat="45.62993946033926" lon="-122.81610808463248"><ele>10.0</ele></trkpt>
    <trkpt lat="45.62991" lon="-122.81614"><ele>10.2</ele></trkpt>
    <trkpt lat="45.62986000561451" lon="-122.81616083099397"><ele>10.5</ele></trkpt>
    <trkpt lat="45.62979000000001" lon="-122.81619"><ele>11.0</ele></trkpt>
    <trkpt lat="45.629774039161326" lon="-122.81618680783228"><ele>11.1</ele></trkpt>
    <trkpt lat="45.629740000000005" lon="-122.81618000000002"><ele>11.3</ele></trkpt>
    <trkpt lat="45.629670000000004" lon="-122.81617000000001"><ele>11.7</ele></trkpt>
    <trkpt lat="45.62961144926207" lon="-122.81610682683541"><ele>12.2</ele></trkpt>
    <trkpt lat="45.629540376868064" lon="-122.81603014346292"><ele>12.8</ele></trkpt>
    <trkpt lat="45.62946930447404" lon="-122.81595346009043"><ele>13.5</ele></trkpt>
    <trkpt lat="45.629290000000005" lon="-122.81576000000001"><ele>15.2</ele></trkpt>
    <trkpt lat="45.62932762793899" lon="-122.81564711618304"><ele>15.9</ele></trkpt>
    <trkpt lat="45.629360000000005" lon="-122.81555000000002"><ele>16.5</ele></trkpt>
    <trkpt lat="45.629439460547516" lon="-122.81564535265701"><ele>17.3</ele></trkpt>
    <trkpt lat="45.629507661860906" lon="-122.8157271942331"><ele>18.0</ele></trkpt>
    <trkpt lat="45.629610308282075" lon="-122.81585036993849"><ele>19.1</ele></trkpt>
    <trkpt lat="45.62966" lon="-122.81591000000002"><ele>19.6</ele></trkpt>
    <trkpt lat="45.62970020748213" lon="-122.81582958503574"><ele>20.2</ele></trkpt>
    <trkpt lat="45.629740000000005" lon="-122.81575000000001"><ele>20.7</ele></trkpt>
    <trkpt lat="45.62975579316566" lon="-122.8157689517988"><ele>20.8</ele></trkpt>
    <trkpt lat="45.62978954944095" lon="-122.81580945932913"><ele>21.1</ele></trkpt>
    <trkpt lat="45.62984" lon="-122.81587"><ele>21.6</ele></trkpt>
  </trkseg></trk>
</gpx>
