<?xml version="1.0" encoding="UTF-8"?>
<gpx version="1.1" creator="h2c-tracker" xmlns="http://www.topografix.com/GPX/1/1">
  <metadata><name>Hood to Coast 2026 — Leg 9 (5.38 mi)</name><desc>Derived from the official Hood to Coast Strava route (simplified, 441 points, ~5.47 mi). Verify against the official leg map PDF.</desc></metadata>
  <wpt lat="45.431983968066746" lon="-122.3753483698011"><name>Exchange 8 — Dee St/Springwater Trail</name></wpt>
  <wpt lat="45.495360906078936" lon="-122.43157253370785"><name>Exchange 9 — Main City Park/ Springwater Trail</name></wpt>
  <trk><name>HTC Leg 9</name><trkseg>
    <trkpt lat="45.431983968066746" lon="-122.3753483698011"><ele>160.2</ele></trkpt>
    <trkpt lat="45.432462633691536" lon="-122.37551552287641"><ele>161.2</ele></trkpt>
    <trkpt lat="45.43254910795587" lon="-122.37554572023856"><ele>161.4</ele></trkpt>
    <trkpt lat="45.432590000000005" lon="-122.37556000000001"><ele>161.5</ele></trkpt>
    <trkpt lat="45.432846025228315" lon="-122.37568986786943"><ele>162.2</ele></trkpt>
    <trkpt lat="45.4331408672839" lon="-122.37583942543387"><ele>162.8</ele></trkpt>
    <trkpt lat="45.43328" lon="-122.37591"><ele>163.1</ele></trkpt>
    <trkpt lat="45.43334726605215" lon="-122.37596116009601"><ele>163.3</ele></trkpt>
    <trkpt lat="45.43358369752582" lon="-122.37614098121682"><ele>163.9</ele></trkpt>
    <trkpt lat="45.43393993152475" lon="-122.37641191975122"><ele>164.8</ele></trkpt>
    <trkpt lat="45.43399" lon="-122.37645"><ele>164.9</ele></trkpt>
    <trkpt lat="45.43431" lon="-122.37676"><ele>165.6</ele></trkpt>
    <trkpt lat="45.43431318984073" lon="-122.37676382780887"><ele>165.6</ele></trkpt>
    <trkpt lat="45.4344500848049" lon="-122.37692810176587"><ele>165.9</ele></trkpt>
    <trkpt lat="45.43462137548871" lon="-122.37713365058644"><ele>166.3</ele></trkpt>
    <trkpt lat="45.43472387473324" lon="-122.37725664967988"><ele>166.5</ele></trkpt>
    <trkpt lat="45.43491" lon="-122.37748"><ele>166.8</ele></trkpt>
    <trkpt lat="45.43499410902439" lon="-122.37759281689499"><ele>167.0</ele></trkpt>
    <trkpt lat="45.43509168525648" lon="-122.37772369758953"><ele>167.1</ele></trkpt>
    <trkpt lat="45.43535232512474" lon="-122.37807329837091"><ele>167.5</ele></trkpt>
    <trkpt lat="45.43554813246297" lon="-122.37833593815392"><ele>167.6</ele></trkpt>
    <trkpt lat="45.435743939801185" lon="-122.37859857793691"><ele>167.7</ele></trkpt>
    <trkpt lat="45.43590700343736" lon="-122.37881729802376"><ele>167.7</ele></trkpt>
    <trkpt lat="45.436004579669444" lon="-122.3789481787183"><ele>167.7</ele></trkpt>
    <trkpt lat="45.43616764330562" lon="-122.37916689880515"><ele>167.7</ele></trkpt>
    <trkpt lat="45.43629796323975" lon="-122.37934169919583"><ele>167.6</ele></trkpt>
    <trkpt lat="45.436580000000006" lon="-122.37972"><ele>167.3</ele></trkpt>
    <trkpt lat="45.43659205728965" lon="-122.37973406683791"><ele>167.3</ele></trkpt>
    <trkpt lat="45.436800125088375" lon="-122.3799768126031"><ele>167.0</ele></trkpt>
    <trkpt lat="45.43693860499455" lon="-122.38013837249365"><ele>166.8</ele></trkpt>
    <trkpt lat="45.437000000000005" lon="-122.38021"><ele>166.7</ele></trkpt>
    <trkpt lat="45.43718971140817" lon="-122.38040648681562"><ele>166.3</ele></trkpt>
    <trkpt lat="45.43744287971647" lon="-122.3806686968492"><ele>165.8</ele></trkpt>
    <trkpt lat="45.437560000000005" lon="-122.38079"><ele>165.5</ele></trkpt>
    <trkpt lat="45.43782483216573" lon="-122.38100003930387"><ele>164.9</ele></trkpt>
    <trkpt lat="45.43805979578467" lon="-122.38118638976026"><ele>164.3</ele></trkpt>
    <trkpt lat="45.438140000000004" lon="-122.38125000000001"><ele>164.1</ele></trkpt>
    <trkpt lat="45.438297127301695" lon="-122.38136366655868"><ele>163.8</ele></trkpt>
    <trkpt lat="45.43849680715486" lon="-122.38150811581417"><ele>163.3</ele></trkpt>
    <trkpt lat="45.438610000000004" lon="-122.38159000000002"><ele>163.0</ele></trkpt>
    <trkpt lat="45.43870009707975" lon="-122.38164118355505"><ele>162.8</ele></trkpt>
    <trkpt lat="45.43915789656668" lon="-122.38190125641532"><ele>161.9</ele></trkpt>
    <trkpt lat="45.43928237124469" lon="-122.38197196965653"><ele>161.7</ele></trkpt>
    <trkpt lat="45.439406845922704" lon="-122.38204268289775"><ele>161.5</ele></trkpt>
    <trkpt lat="45.43945112215046" lon="-122.38206783592986"><ele>161.5</ele></trkpt>
    <trkpt lat="45.439505423184485" lon="-122.38209868398809"><ele>161.4</ele></trkpt>
    <trkpt lat="45.43965746607978" lon="-122.38218505855119"><ele>160.9</ele></trkpt>
    <trkpt lat="45.43973432292795" lon="-122.38222872041823"><ele>160.7</ele></trkpt>
    <trkpt lat="45.43992479424732" lon="-122.38233692591484"><ele>160.3</ele></trkpt>
    <trkpt lat="45.44002754851172" lon="-122.38239529993274"><ele>160.0</ele></trkpt>
    <trkpt lat="45.440065141535285" lon="-122.38241665628075"><ele>159.9</ele></trkpt>
    <trkpt lat="45.44019629941749" lon="-122.38249116620605"><ele>159.6</ele></trkpt>
    <trkpt lat="45.440279004069325" lon="-122.38253815017168"><ele>159.1</ele></trkpt>
    <trkpt lat="45.44036254412168" lon="-122.38258560872282"><ele>158.6</ele></trkpt>
    <trkpt lat="45.440444413372994" lon="-122.38263211810295"><ele>158.2</ele></trkpt>
    <trkpt lat="45.44052795342535" lon="-122.3826795766541"><ele>157.9</ele></trkpt>
    <trkpt lat="45.440611493477704" lon="-122.38272703520525"><ele>157.6</ele></trkpt>
    <trkpt lat="45.44069503353006" lon="-122.38277449375639"><ele>157.3</ele></trkpt>
    <trkpt lat="45.44086127823426" lon="-122.38286893627317"><ele>156.9</ele></trkpt>
    <trkpt lat="45.44106845756411" lon="-122.38298663348002"><ele>156.4</ele></trkpt>
    <trkpt lat="45.44115116221594" lon="-122.38303361744565"><ele>156.2</ele></trkpt>
    <trkpt lat="45.44118" lon="-122.38305000000001"><ele>156.2</ele></trkpt>
    <trkpt lat="45.441230000000004" lon="-122.38309000000001"><ele>156.2</ele></trkpt>
    <trkpt lat="45.44126153801285" lon="-122.38314046082056"><ele>156.1</ele></trkpt>
    <trkpt lat="45.44133" lon="-122.38325"><ele>156.1</ele></trkpt>
    <trkpt lat="45.44158376900762" lon="-122.38329699426068"><ele>156.0</ele></trkpt>
    <trkpt lat="45.4416" lon="-122.3833"><ele>156.0</ele></trkpt>
    <trkpt lat="45.44183463332588" lon="-122.38342957362774"><ele>156.0</ele></trkpt>
    <trkpt lat="45.44191765218694" lon="-122.38347541986442"><ele>155.9</ele></trkpt>
    <trkpt lat="45.44200150962236" lon="-122.38352172919444"><ele>155.8</ele></trkpt>
    <trkpt lat="45.442210314636554" lon="-122.38363703942616"><ele>155.5</ele></trkpt>
    <trkpt lat="45.44227" lon="-122.38367000000001"><ele>155.4</ele></trkpt>
    <trkpt lat="45.442333992357575" lon="-122.38370712533722"><ele>155.3</ele></trkpt>
    <trkpt lat="45.44262469558144" lon="-122.38387577758925"><ele>154.5</ele></trkpt>
    <trkpt lat="45.44287375077896" lon="-122.3840202676275"><ele>154.0</ele></trkpt>
    <trkpt lat="45.443080324989616" lon="-122.38414011220772"><ele>153.5</ele></trkpt>
    <trkpt lat="45.44345432426616" lon="-122.38435708888724"><ele>152.7</ele></trkpt>
    <trkpt lat="45.443580000000004" lon="-122.38443000000001"><ele>152.4</ele></trkpt>
    <trkpt lat="45.443838413652855" lon="-122.38452690511983"><ele>151.8</ele></trkpt>
    <trkpt lat="45.44392451627818" lon="-122.38455919360433"><ele>151.6</ele></trkpt>
    <trkpt lat="45.44405410507791" lon="-122.38460778940421"><ele>151.5</ele></trkpt>
    <trkpt lat="45.444140000000004" lon="-122.38464"><ele>151.4</ele></trkpt>
    <trkpt lat="45.444213429030555" lon="-122.38466075168256"><ele>151.4</ele></trkpt>
    <trkpt lat="45.44430076177312" lon="-122.38468543267501"><ele>151.1</ele></trkpt>
    <trkpt lat="45.4443889766646" lon="-122.38471036297044"><ele>150.9</ele></trkpt>
    <trkpt lat="45.4446" lon="-122.38477"><ele>150.5</ele></trkpt>
    <trkpt lat="45.444743254111515" lon="-122.38479802797835"><ele>150.2</ele></trkpt>
    <trkpt lat="45.445060000000005" lon="-122.38486"><ele>149.7</ele></trkpt>
    <trkpt lat="45.44540000000001" lon="-122.38485000000001"><ele>149.1</ele></trkpt>
    <trkpt lat="45.44563930389612" lon="-122.38483504350651"><ele>148.8</ele></trkpt>
    <trkpt lat="45.44577317429098" lon="-122.38482667660682"><ele>148.6</ele></trkpt>
    <trkpt lat="45.44588" lon="-122.38482"><ele>148.5</ele></trkpt>
    <trkpt lat="45.4463" lon="-122.38473"><ele>148.2</ele></trkpt>
    <trkpt lat="45.44639511287527" lon="-122.38469707631242"><ele>148.1</ele></trkpt>
    <trkpt lat="45.44661359305397" lon="-122.38462144855825"><ele>147.8</ele></trkpt>
    <trkpt lat="45.44670098512545" lon="-122.38459119745659"><ele>147.7</ele></trkpt>
    <trkpt lat="45.44682" lon="-122.38455"><ele>147.7</ele></trkpt>
    <trkpt lat="45.44683176854547" lon="-122.38454432310253"><ele>147.7</ele></trkpt>
    <trkpt lat="45.44704388316387" lon="-122.38444200349583"><ele>147.6</ele></trkpt>
    <trkpt lat="45.447129069757615" lon="-122.38440091128433"><ele>147.6</ele></trkpt>
    <trkpt lat="45.44725684964822" lon="-122.38433927296705"><ele>147.5</ele></trkpt>
    <trkpt lat="45.447384629538824" lon="-122.38427763464979"><ele>147.4</ele></trkpt>
    <trkpt lat="45.447597596023165" lon="-122.38417490412098"><ele>147.2</ele></trkpt>
    <trkpt lat="45.44815130888246" lon="-122.38390780474613"><ele>146.5</ele></trkpt>
    <trkpt lat="45.448320830204" lon="-122.3838260312452"><ele>146.3</ele></trkpt>
    <trkpt lat="45.44853379668834" lon="-122.38372330071641"><ele>146.1</ele></trkpt>
    <trkpt lat="45.44870416987582" lon="-122.38364111629339"><ele>145.9</ele></trkpt>
    <trkpt lat="45.4488745430633" lon="-122.38355893187035"><ele>145.8</ele></trkpt>
    <trkpt lat="45.44921528943824" lon="-122.3833945630243"><ele>145.3</ele></trkpt>
    <trkpt lat="45.44951344251632" lon="-122.38325074028398"><ele>144.8</ele></trkpt>
    <trkpt lat="45.44964037054099" lon="-122.38318951288883"><ele>144.6</ele></trkpt>
    <trkpt lat="45.44981074372846" lon="-122.3831073284658"><ele>144.2</ele></trkpt>
    <trkpt lat="45.44998111691594" lon="-122.38302514404276"><ele>143.8</ele></trkpt>
    <trkpt lat="45.450194083400284" lon="-122.38292241351397"><ele>143.4</ele></trkpt>
    <trkpt lat="45.45040704988463" lon="-122.38281968298517"><ele>143.1</ele></trkpt>
    <trkpt lat="45.45049223647837" lon="-122.38277859077365"><ele>143.0</ele></trkpt>
    <trkpt lat="45.45083213098738" lon="-122.38261463284971"><ele>142.8</ele></trkpt>
    <trkpt lat="45.450919873178925" lon="-122.38257230787184"><ele>142.8</ele></trkpt>
    <trkpt lat="45.451090246366405" lon="-122.3824901234488"><ele>142.6</ele></trkpt>
    <trkpt lat="45.45134665801355" lon="-122.38236643589214"><ele>142.2</ele></trkpt>
    <trkpt lat="45.45136" lon="-122.38236"><ele>142.2</ele></trkpt>
    <trkpt lat="45.451692787551906" lon="-122.38223169636554"><ele>141.8</ele></trkpt>
    <trkpt lat="45.45204003996646" lon="-122.38209781591655"><ele>141.4</ele></trkpt>
    <trkpt lat="45.45219" lon="-122.38204"><ele>141.2</ele></trkpt>
    <trkpt lat="45.45230292081395" lon="-122.38201343039671"><ele>141.0</ele></trkpt>
    <trkpt lat="45.452524749888084" lon="-122.38196123532046"><ele>140.7</ele></trkpt>
    <trkpt lat="45.45253" lon="-122.38196"><ele>140.7</ele></trkpt>
    <trkpt lat="45.45308000000001" lon="-122.38191"><ele>140.2</ele></trkpt>
    <trkpt lat="45.45310812111778" lon="-122.38191"><ele>140.2</ele></trkpt>
    <trkpt lat="45.45328798559089" lon="-122.38191"><ele>140.0</ele></trkpt>
    <trkpt lat="45.453430000000004" lon="-122.38191"><ele>139.8</ele></trkpt>
    <trkpt lat="45.4536897982783" lon="-122.381955846755"><ele>139.4</ele></trkpt>
    <trkpt lat="45.45382456725638" lon="-122.38197962951584"><ele>139.2</ele></trkpt>
    <trkpt lat="45.45394" lon="-122.382"><ele>139.0</ele></trkpt>
    <trkpt lat="45.45400165626995" lon="-122.38201585446942"><ele>138.8</ele></trkpt>
    <trkpt lat="45.45429" lon="-122.38209"><ele>138.2</ele></trkpt>
    <trkpt lat="45.454746947919" lon="-122.38225527903455"><ele>137.2</ele></trkpt>
    <trkpt lat="45.45476" lon="-122.38226000000002"><ele>137.2</ele></trkpt>
    <trkpt lat="45.45504346733423" lon="-122.38240556430677"><ele>136.7</ele></trkpt>
    <trkpt lat="45.455130000000004" lon="-122.38245"><ele>136.6</ele></trkpt>
    <trkpt lat="45.455332076415104" lon="-122.3825837270394"><ele>136.3</ele></trkpt>
    <trkpt lat="45.45553600613989" lon="-122.38271868053374"><ele>136.0</ele></trkpt>
    <trkpt lat="45.45581000000001" lon="-122.3829"><ele>135.7</ele></trkpt>
    <trkpt lat="45.45593238573443" lon="-122.38301758629386"><ele>135.6</ele></trkpt>
    <trkpt lat="45.456206827488735" lon="-122.38328126562642"><ele>135.3</ele></trkpt>
    <trkpt lat="45.456320000000005" lon="-122.38339"><ele>135.2</ele></trkpt>
    <trkpt lat="45.45658726584587" lon="-122.38370227904097"><ele>134.8</ele></trkpt>
    <trkpt lat="45.4566547349938" lon="-122.38378111141382"><ele>134.7</ele></trkpt>
    <trkpt lat="45.4568578379958" lon="-122.38401842123722"><ele>134.2</ele></trkpt>
    <trkpt lat="45.45687800918435" lon="-122.38404198967856"><ele>134.2</ele></trkpt>
    <trkpt lat="45.45692113379437" lon="-122.3840923773808"><ele>134.1</ele></trkpt>
    <trkpt lat="45.45705954988135" lon="-122.38425410565084"><ele>133.8</ele></trkpt>
    <trkpt lat="45.45727" lon="-122.38450000000002"><ele>133.4</ele></trkpt>
    <trkpt lat="45.45736954017509" lon="-122.38462096438498"><ele>133.2</ele></trkpt>
    <trkpt lat="45.457502317814765" lon="-122.38478231999346"><ele>133.0</ele></trkpt>
    <trkpt lat="45.45754680516826" lon="-122.3848363824396"><ele>132.9</ele></trkpt>
    <trkpt lat="45.45761456282975" lon="-122.38491872370372"><ele>132.7</ele></trkpt>
    <trkpt lat="45.457681636070404" lon="-122.3850002332379"><ele>132.5</ele></trkpt>
    <trkpt lat="45.45785000359288" lon="-122.38520483880329"><ele>132.2</ele></trkpt>
    <trkpt lat="45.45801905553618" lon="-122.38541027609861"><ele>131.9</ele></trkpt>
    <trkpt lat="45.458187423058654" lon="-122.385614881664"><ele>131.7</ele></trkpt>
    <trkpt lat="45.45845708486294" lon="-122.3859425832606"><ele>131.3</ele></trkpt>
    <trkpt lat="45.458693210046896" lon="-122.3862295300901"><ele>130.9</ele></trkpt>
    <trkpt lat="45.45879381990788" lon="-122.38635179439139"><ele>130.7</ele></trkpt>
    <trkpt lat="45.4588951141897" lon="-122.38647489042259"><ele>130.6</ele></trkpt>
    <trkpt lat="45.45902994509184" lon="-122.3866387412209"><ele>130.6</ele></trkpt>
    <trkpt lat="45.459097702753326" lon="-122.38672108248501"><ele>130.6</ele></trkpt>
    <trkpt lat="45.45919831261432" lon="-122.38684334678629"><ele>130.8</ele></trkpt>
    <trkpt lat="45.45928728732132" lon="-122.38695147167857"><ele>130.7</ele></trkpt>
    <trkpt lat="45.459394056969714" lon="-122.38708122154931"><ele>130.6</ele></trkpt>
    <trkpt lat="45.45949672009317" lon="-122.38720598104041"><ele>130.3</ele></trkpt>
    <trkpt lat="45.45963291983696" lon="-122.38737149529858"><ele>130.0</ele></trkpt>
    <trkpt lat="45.45987246712503" lon="-122.38766260077779"><ele>129.6</ele></trkpt>
    <trkpt lat="45.46004288790998" lon="-122.387869701533"><ele>129.3</ele></trkpt>
    <trkpt lat="45.46017977207459" lon="-122.38803604752113"><ele>129.1</ele></trkpt>
    <trkpt lat="45.46029" lon="-122.38817000000002"><ele>128.8</ele></trkpt>
    <trkpt lat="45.460419389516076" lon="-122.38832505788163"><ele>128.6</ele></trkpt>
    <trkpt lat="45.46055707664496" lon="-122.38849005946119"><ele>128.3</ele></trkpt>
    <trkpt lat="45.46069407533821" lon="-122.38865423603285"><ele>128.1</ele></trkpt>
    <trkpt lat="45.46114087007147" lon="-122.38918966615853"><ele>127.6</ele></trkpt>
    <trkpt lat="45.461381134111384" lon="-122.38947759391488"><ele>127.2</ele></trkpt>
    <trkpt lat="45.46162208658696" lon="-122.38976634667911"><ele>126.8</ele></trkpt>
    <trkpt lat="45.46171502539895" lon="-122.38987772274531"><ele>126.6</ele></trkpt>
    <trkpt lat="45.461861662191225" lon="-122.39005344942754"><ele>126.5</ele></trkpt>
    <trkpt lat="45.46201380646865" lon="-122.39023577617296"><ele>126.3</ele></trkpt>
    <trkpt lat="45.462183161637185" lon="-122.39043872811583"><ele>126.0</ele></trkpt>
    <trkpt lat="45.46228505011257" lon="-122.3905608292847"><ele>125.8</ele></trkpt>
    <trkpt lat="45.46265680536058" lon="-122.39100633354953"><ele>125.2</ele></trkpt>
    <trkpt lat="45.46276" lon="-122.39113"><ele>125.1</ele></trkpt>
    <trkpt lat="45.46282535575884" lon="-122.39121063372843"><ele>125.0</ele></trkpt>
    <trkpt lat="45.463059296942326" lon="-122.39149926246131"><ele>124.6</ele></trkpt>
    <trkpt lat="45.46319258901199" lon="-122.3916637137161"><ele>124.4</ele></trkpt>
    <trkpt lat="45.46326739578578" lon="-122.39175600778765"><ele>124.3</ele></trkpt>
    <trkpt lat="45.463468694013436" lon="-122.39200436274386"><ele>123.9</ele></trkpt>
    <trkpt lat="45.46353602010984" lon="-122.39208742740826"><ele>123.8</ele></trkpt>
    <trkpt lat="45.46387197053031" lon="-122.39250191169326"><ele>123.5</ele></trkpt>
    <trkpt lat="45.46403994574055" lon="-122.39270915383575"><ele>123.2</ele></trkpt>
    <trkpt lat="45.464107271836966" lon="-122.39279221850015"><ele>123.1</ele></trkpt>
    <trkpt lat="45.46417459793337" lon="-122.39287528316456"><ele>123.1</ele></trkpt>
    <trkpt lat="45.4642412439682" lon="-122.39295750879195"><ele>123.0</ele></trkpt>
    <trkpt lat="45.464292248586695" lon="-122.39302043656801"><ele>123.0</ele></trkpt>
    <trkpt lat="45.4643" lon="-122.39303000000001"><ele>122.9</ele></trkpt>
    <trkpt lat="45.46442660736141" lon="-122.39318112815474"><ele>122.7</ele></trkpt>
    <trkpt lat="45.464527285378736" lon="-122.3933013050766"><ele>122.6</ele></trkpt>
    <trkpt lat="45.46489620825045" lon="-122.3937416794136"><ele>122.2</ele></trkpt>
    <trkpt lat="45.46516445310485" lon="-122.39406187682872"><ele>121.8</ele></trkpt>
    <trkpt lat="45.46529823074431" lon="-122.39422156397148"><ele>121.7</ele></trkpt>
    <trkpt lat="45.46535270720574" lon="-122.39428659121003"><ele>121.6</ele></trkpt>
    <trkpt lat="45.4656499142295" lon="-122.39464136006842"><ele>121.2</ele></trkpt>
    <trkpt lat="45.4660298703086" lon="-122.39509490447905"><ele>121.0</ele></trkpt>
    <trkpt lat="45.46616433752352" lon="-122.39525541475143"><ele>120.9</ele></trkpt>
    <trkpt lat="45.46621398695673" lon="-122.39531468008275"><ele>120.9</ele></trkpt>
    <trkpt lat="45.46631604412498" lon="-122.39543650326382"><ele>120.7</ele></trkpt>
    <trkpt lat="45.46662014690335" lon="-122.39579950341825"><ele>120.5</ele></trkpt>
    <trkpt lat="45.4668235716644" lon="-122.3960423266508"><ele>120.3</ele></trkpt>
    <trkpt lat="45.46683" lon="-122.39605000000002"><ele>120.3</ele></trkpt>
    <trkpt lat="45.46696548036952" lon="-122.39619137082039"><ele>120.2</ele></trkpt>
    <trkpt lat="45.467072890521294" lon="-122.39630345097875"><ele>120.2</ele></trkpt>
    <trkpt lat="45.46725069786714" lon="-122.39648898907875"><ele>120.2</ele></trkpt>
    <trkpt lat="45.467290000000006" lon="-122.39653000000001"><ele>120.2</ele></trkpt>
    <trkpt lat="45.46746924311685" lon="-122.39670109570247"><ele>120.2</ele></trkpt>
    <trkpt lat="45.467496894201695" lon="-122.39672748991981"><ele>120.2</ele></trkpt>
    <trkpt lat="45.46752828191963" lon="-122.39675745092329"><ele>120.1</ele></trkpt>
    <trkpt lat="45.46789521928876" lon="-122.3971077093211"><ele>119.8</ele></trkpt>
    <trkpt lat="45.46818891864939" lon="-122.39738805871079"><ele>119.5</ele></trkpt>
    <trkpt lat="45.4684086326749" lon="-122.39759778573514"><ele>119.3</ele></trkpt>
    <trkpt lat="45.46847813405032" lon="-122.39766412795713"><ele>119.2</ele></trkpt>
    <trkpt lat="45.46855286671206" lon="-122.3977354636797"><ele>119.0</ele></trkpt>
    <trkpt lat="45.468610000000005" lon="-122.39779000000001"><ele>118.9</ele></trkpt>
    <trkpt lat="45.46862511244214" lon="-122.397811157419"><ele>118.9</ele></trkpt>
    <trkpt lat="45.46866000000001" lon="-122.39786000000001"><ele>118.8</ele></trkpt>
    <trkpt lat="45.46914593489977" lon="-122.39831317524362"><ele>118.1</ele></trkpt>
    <trkpt lat="45.46937172898304" lon="-122.39852374725385"><ele>117.8</ele></trkpt>
    <trkpt lat="45.469550000000005" lon="-122.39869000000002"><ele>117.6</ele></trkpt>
    <trkpt lat="45.46974597208582" lon="-122.39887916749952"><ele>117.3</ele></trkpt>
    <trkpt lat="45.469932157345966" lon="-122.39905888799369"><ele>117.1</ele></trkpt>
    <trkpt lat="45.47019281671018" lon="-122.39931049668553"><ele>116.8</ele></trkpt>
    <trkpt lat="45.470341020177266" lon="-122.39945355419889"><ele>116.7</ele></trkpt>
    <trkpt lat="45.47045198659231" lon="-122.39956066761343"><ele>116.5</ele></trkpt>
    <trkpt lat="45.47063593762934" lon="-122.39973823146167"><ele>116.3</ele></trkpt>
    <trkpt lat="45.47070966699236" lon="-122.39980940077737"><ele>116.2</ele></trkpt>
    <trkpt lat="45.47104182149647" lon="-122.40013002213897"><ele>115.5</ele></trkpt>
    <trkpt lat="45.4712622648445" lon="-122.40034281120407"><ele>115.1</ele></trkpt>
    <trkpt lat="45.471778370385636" lon="-122.40084099641392"><ele>114.4</ele></trkpt>
    <trkpt lat="45.472036795526726" lon="-122.40109044845983"><ele>114.1</ele></trkpt>
    <trkpt lat="45.47214701720074" lon="-122.40119684299238"><ele>114.0</ele></trkpt>
    <trkpt lat="45.47225798361579" lon="-122.4013039564069"><ele>113.9</ele></trkpt>
    <trkpt lat="45.47255290106787" lon="-122.40158863366969"><ele>113.8</ele></trkpt>
    <trkpt lat="45.47281058146792" lon="-122.40183736683363"><ele>113.8</ele></trkpt>
    <trkpt lat="45.472884310830935" lon="-122.40190853614932"><ele>113.8</ele></trkpt>
    <trkpt lat="45.47295804019396" lon="-122.40197970546501"><ele>113.8</ele></trkpt>
    <trkpt lat="45.47310549892" lon="-122.40212204409639"><ele>113.9</ele></trkpt>
    <trkpt lat="45.47328944995703" lon="-122.40229960794463"><ele>114.0</ele></trkpt>
    <trkpt lat="45.473388500515426" lon="-122.40239521924754"><ele>114.0</ele></trkpt>
    <trkpt lat="45.47363054135363" lon="-122.40262885588996"><ele>113.9</ele></trkpt>
    <trkpt lat="45.473740018286605" lon="-122.40273453154053"><ele>113.6</ele></trkpt>
    <trkpt lat="45.47381225816754" lon="-122.40280426309228"><ele>113.5</ele></trkpt>
    <trkpt lat="45.473870000000005" lon="-122.40286"><ele>113.4</ele></trkpt>
    <trkpt lat="45.4738845093414" lon="-122.40287615190836"><ele>113.3</ele></trkpt>
    <trkpt lat="45.473953982110565" lon="-122.4029534895193"><ele>113.2</ele></trkpt>
    <trkpt lat="45.47426519176017" lon="-122.40329993045"><ele>113.0</ele></trkpt>
    <trkpt lat="45.4744" lon="-122.40345"><ele>112.9</ele></trkpt>
    <trkpt lat="45.47443630717619" lon="-122.40349567677005"><ele>112.9</ele></trkpt>
    <trkpt lat="45.474666952355044" lon="-122.40378584328539"><ele>112.7</ele></trkpt>
    <trkpt lat="45.47471" lon="-122.40384000000002"><ele>112.7</ele></trkpt>
    <trkpt lat="45.47485019939229" lon="-122.4040554283345"><ele>112.6</ele></trkpt>
    <trkpt lat="45.474939518211016" lon="-122.40419267432425"><ele>112.5</ele></trkpt>
    <trkpt lat="45.475000695484106" lon="-122.40428667842679"><ele>112.4</ele></trkpt>
    <trkpt lat="45.4750618727572" lon="-122.40438068252936"><ele>112.2</ele></trkpt>
    <trkpt lat="45.475120000000004" lon="-122.40447"><ele>112.2</ele></trkpt>
    <trkpt lat="45.47524175837297" lon="-122.40466568309941"><ele>112.0</ele></trkpt>
    <trkpt lat="45.4753909826273" lon="-122.40490550779388"><ele>111.9</ele></trkpt>
    <trkpt lat="45.4754" lon="-122.40492"><ele>111.8</ele></trkpt>
    <trkpt lat="45.47544488398618" lon="-122.40500648377824"><ele>111.8</ele></trkpt>
    <trkpt lat="45.47563213930755" lon="-122.40536729281212"><ele>111.4</ele></trkpt>
    <trkpt lat="45.47576535809333" lon="-122.40562398266763"><ele>111.1</ele></trkpt>
    <trkpt lat="45.47581" lon="-122.40571000000001"><ele>111.0</ele></trkpt>
    <trkpt lat="45.4758894444132" lon="-122.40589109909247"><ele>110.9</ele></trkpt>
    <trkpt lat="45.476055907995544" lon="-122.40627056446297"><ele>110.4</ele></trkpt>
    <trkpt lat="45.4762223715779" lon="-122.40665002983349"><ele>110.0</ele></trkpt>
    <trkpt lat="45.476389312133264" lon="-122.40703058249733"><ele>109.6</ele></trkpt>
    <trkpt lat="45.47657962436637" lon="-122.4074644125341"><ele>109.3</ele></trkpt>
    <trkpt lat="45.47674000000001" lon="-122.40783"><ele>108.9</ele></trkpt>
    <trkpt lat="45.47674666432432" lon="-122.40784332864862"><ele>108.9</ele></trkpt>
    <trkpt lat="45.476851090396444" lon="-122.40805218079288"><ele>108.7</ele></trkpt>
    <trkpt lat="45.476981622986614" lon="-122.4083132459732"><ele>108.5</ele></trkpt>
    <trkpt lat="45.477500000000006" lon="-122.40935"><ele>107.3</ele></trkpt>
    <trkpt lat="45.477502970891535" lon="-122.40935513153993"><ele>107.3</ele></trkpt>
    <trkpt lat="45.47761691606722" lon="-122.40955194593428"><ele>107.2</ele></trkpt>
    <trkpt lat="45.477902637889656" lon="-122.41004546544576"><ele>106.7</ele></trkpt>
    <trkpt lat="45.477940000000004" lon="-122.41011"><ele>106.6</ele></trkpt>
    <trkpt lat="45.47811109396798" lon="-122.41038173747856"><ele>106.4</ele></trkpt>
    <trkpt lat="45.478380879803204" lon="-122.41081022086391"><ele>106.1</ele></trkpt>
    <trkpt lat="45.47853049377418" lon="-122.41104784305311"><ele>105.9</ele></trkpt>
    <trkpt lat="45.47862000000001" lon="-122.41119"><ele>105.8</ele></trkpt>
    <trkpt lat="45.478684576274176" lon="-122.41128116650472"><ele>105.7</ele></trkpt>
    <trkpt lat="45.47887567893127" lon="-122.4115509584912"><ele>105.4</ele></trkpt>
    <trkpt lat="45.47903546376161" lon="-122.41177653707521"><ele>105.2</ele></trkpt>
    <trkpt lat="45.479130000000005" lon="-122.41191"><ele>105.0</ele></trkpt>
    <trkpt lat="45.479164937696545" lon="-122.4119545039706"><ele>105.0</ele></trkpt>
    <trkpt lat="45.47929841513893" lon="-122.41212452880791"><ele>104.9</ele></trkpt>
    <trkpt lat="45.479365489230574" lon="-122.41220996842468"><ele>104.8</ele></trkpt>
    <trkpt lat="45.4795325037188" lon="-122.41242271307038"><ele>104.8</ele></trkpt>
    <trkpt lat="45.479636468560855" lon="-122.41255514447633"><ele>104.8</ele></trkpt>
    <trkpt lat="45.47974311636658" lon="-122.41269099346695"><ele>104.7</ele></trkpt>
    <trkpt lat="45.47982159305381" lon="-122.41279095781854"><ele>104.5</ele></trkpt>
    <trkpt lat="45.47988799640455" lon="-122.41287554303914"><ele>104.1</ele></trkpt>
    <trkpt lat="45.479920862709456" lon="-122.41291740845134"><ele>103.9</ele></trkpt>
    <trkpt lat="45.47997" lon="-122.41298"><ele>103.6</ele></trkpt>
    <trkpt lat="45.4800558405281" lon="-122.41308300863372"><ele>103.0</ele></trkpt>
    <trkpt lat="45.480090247818566" lon="-122.41312429738228"><ele>102.8</ele></trkpt>
    <trkpt lat="45.48012396696323" lon="-122.41316476035587"><ele>102.6</ele></trkpt>
    <trkpt lat="45.48015837425369" lon="-122.41320604910443"><ele>102.5</ele></trkpt>
    <trkpt lat="45.480192093398344" lon="-122.41324651207802"><ele>102.4</ele></trkpt>
    <trkpt lat="45.4802265006888" lon="-122.41328780082655"><ele>102.4</ele></trkpt>
    <trkpt lat="45.480260219833454" lon="-122.41332826380015"><ele>102.4</ele></trkpt>
    <trkpt lat="45.480294627123925" lon="-122.41336955254872"><ele>102.5</ele></trkpt>
    <trkpt lat="45.48032834626858" lon="-122.4134100155223"><ele>102.6</ele></trkpt>
    <trkpt lat="45.4803964727037" lon="-122.41349176724444"><ele>102.8</ele></trkpt>
    <trkpt lat="45.4805671328644" lon="-122.41369655943728"><ele>103.3</ele></trkpt>
    <trkpt lat="45.48063457115371" lon="-122.41377748538446"><ele>103.5</ele></trkpt>
    <trkpt lat="45.480720000000005" lon="-122.41388"><ele>103.5</ele></trkpt>
    <trkpt lat="45.480810000000005" lon="-122.41383"><ele>103.4</ele></trkpt>
    <trkpt lat="45.48095000000001" lon="-122.41402000000001"><ele>103.3</ele></trkpt>
    <trkpt lat="45.48094801606118" lon="-122.41402793575531"><ele>103.3</ele></trkpt>
    <trkpt lat="45.480940000000004" lon="-122.41406"><ele>103.3</ele></trkpt>
    <trkpt lat="45.48082" lon="-122.41402000000001"><ele>103.1</ele></trkpt>
    <trkpt lat="45.4808" lon="-122.41405"><ele>103.0</ele></trkpt>
    <trkpt lat="45.48080284799888" lon="-122.41405345211986"><ele>103.0</ele></trkpt>
    <trkpt lat="45.480905638712635" lon="-122.41417804692442"><ele>102.9</ele></trkpt>
    <trkpt lat="45.48113" lon="-122.41445000000002"><ele>102.7</ele></trkpt>
    <trkpt lat="45.48114657470923" lon="-122.41446443603708"><ele>102.7</ele></trkpt>
    <trkpt lat="45.481415208505645" lon="-122.41469840740815"><ele>102.6</ele></trkpt>
    <trkpt lat="45.481440000000006" lon="-122.41472000000002"><ele>102.6</ele></trkpt>
    <trkpt lat="45.4815784059774" lon="-122.41491567741633"><ele>102.5</ele></trkpt>
    <trkpt lat="45.481730000000006" lon="-122.41513"><ele>102.5</ele></trkpt>
    <trkpt lat="45.481772942520976" lon="-122.41518202960873"><ele>102.5</ele></trkpt>
    <trkpt lat="45.48184148352476" lon="-122.4152650746077"><ele>102.5</ele></trkpt>
    <trkpt lat="45.4820121506242" lon="-122.41547185665517"><ele>102.4</ele></trkpt>
    <trkpt lat="45.48218350313368" lon="-122.4156794691526"><ele>102.3</ele></trkpt>
    <trkpt lat="45.48225204413747" lon="-122.41576251415158"><ele>102.3</ele></trkpt>
    <trkpt lat="45.48231989973123" lon="-122.41584472870058"><ele>102.2</ele></trkpt>
    <trkpt lat="45.4825597932445" lon="-122.41613538619698"><ele>101.9</ele></trkpt>
    <trkpt lat="45.48290181285342" lon="-122.41654978074187"><ele>101.5</ele></trkpt>
    <trkpt lat="45.483004624359104" lon="-122.41667434824035"><ele>101.5</ele></trkpt>
    <trkpt lat="45.48317529145855" lon="-122.41688113028778"><ele>101.5</ele></trkpt>
    <trkpt lat="45.48329249657503" lon="-122.41702313723604"><ele>101.5</ele></trkpt>
    <trkpt lat="45.48336035216879" lon="-122.41710535178501"><ele>101.2</ele></trkpt>
    <trkpt lat="45.483428207762536" lon="-122.41718756633401"><ele>101.0</ele></trkpt>
    <trkpt lat="45.48359887486198" lon="-122.41739434838146"><ele>100.7</ele></trkpt>
    <trkpt lat="45.48380244164324" lon="-122.41764099202842"><ele>100.2</ele></trkpt>
    <trkpt lat="45.48387098264703" lon="-122.41772403702741"><ele>100.1</ele></trkpt>
    <trkpt lat="45.4840745494283" lon="-122.41797068067436"><ele>99.7</ele></trkpt>
    <trkpt lat="45.48424521652774" lon="-122.41817746272181"><ele>99.4</ele></trkpt>
    <trkpt lat="45.484415198217135" lon="-122.41838341431927"><ele>99.2</ele></trkpt>
    <trkpt lat="45.48468730600219" lon="-122.41871310296521"><ele>99.0</ele></trkpt>
    <trkpt lat="45.48478943209784" lon="-122.41883684001368"><ele>98.9</ele></trkpt>
    <trkpt lat="45.484959413787244" lon="-122.41904279161113"><ele>98.6</ele></trkpt>
    <trkpt lat="45.48512939547665" lon="-122.41924874320861"><ele>98.3</ele></trkpt>
    <trkpt lat="45.4852315215723" lon="-122.41937248025708"><ele>98.1</ele></trkpt>
    <trkpt lat="45.48529937716605" lon="-122.41945469480606"><ele>98.0</ele></trkpt>
    <trkpt lat="45.485503629357346" lon="-122.41970216890302"><ele>97.8</ele></trkpt>
    <trkpt lat="45.4855714849511" lon="-122.419784383452"><ele>97.7</ele></trkpt>
    <trkpt lat="45.4858100076443" lon="-122.42007338004845"><ele>97.6</ele></trkpt>
    <trkpt lat="45.48587786323805" lon="-122.42015559459742"><ele>97.6</ele></trkpt>
    <trkpt lat="45.48594571883181" lon="-122.4202378091464"><ele>97.6</ele></trkpt>
    <trkpt lat="45.486016316065715" lon="-122.42032334549535"><ele>97.6</ele></trkpt>
    <trkpt lat="45.48607046345871" lon="-122.42038895104454"><ele>97.6</ele></trkpt>
    <trkpt lat="45.48622536612728" lon="-122.42057663274224"><ele>97.4</ele></trkpt>
    <trkpt lat="45.48632680681289" lon="-122.42069953934072"><ele>97.1</ele></trkpt>
    <trkpt lat="45.486394662406646" lon="-122.4207817538897"><ele>96.9</ele></trkpt>
    <trkpt lat="45.48646320341044" lon="-122.42086479888869"><ele>96.7</ele></trkpt>
    <trkpt lat="45.48653037359415" lon="-122.42094618298768"><ele>96.6</ele></trkpt>
    <trkpt lat="45.48686828074284" lon="-122.42135559483263"><ele>96.1</ele></trkpt>
    <trkpt lat="45.48707" lon="-122.42160000000001"><ele>95.8</ele></trkpt>
    <trkpt lat="45.487071148729264" lon="-122.42160143028057"><ele>95.8</ele></trkpt>
    <trkpt lat="45.48727169338768" lon="-122.42185112804154"><ele>95.7</ele></trkpt>
    <trkpt lat="45.48757318789105" lon="-122.42222651825651"><ele>95.3</ele></trkpt>
    <trkpt lat="45.48770665849142" lon="-122.4223927022393"><ele>95.2</ele></trkpt>
    <trkpt lat="45.487941078936736" lon="-122.42268457867613"><ele>95.2</ele></trkpt>
    <trkpt lat="45.4880745495371" lon="-122.42285076265894"><ele>95.1</ele></trkpt>
    <trkpt lat="45.48809000000001" lon="-122.42287"><ele>95.1</ele></trkpt>
    <trkpt lat="45.48814238021932" lon="-122.42293301995137"><ele>95.2</ele></trkpt>
    <trkpt lat="45.488311491882705" lon="-122.42313648242137"><ele>95.2</ele></trkpt>
    <trkpt lat="45.4884008598349" lon="-122.42324400323886"><ele>95.2</ele></trkpt>
    <trkpt lat="45.48846891696772" lon="-122.4233258844768"><ele>95.1</ele></trkpt>
    <trkpt lat="45.488537661546324" lon="-122.42340859279793"><ele>95.0</ele></trkpt>
    <trkpt lat="45.488708148101274" lon="-122.42361370943435"><ele>95.0</ele></trkpt>
    <trkpt lat="45.488913694391314" lon="-122.42386100731454"><ele>94.9</ele></trkpt>
    <trkpt lat="45.489084180946264" lon="-122.42406612395098"><ele>94.9</ele></trkpt>
    <trkpt lat="45.489357784369126" lon="-122.42439530306912"><ele>94.9</ele></trkpt>
    <trkpt lat="45.48937" lon="-122.42441000000001"><ele>94.9</ele></trkpt>
    <trkpt lat="45.48962660527691" lon="-122.42473240150176"><ele>95.0</ele></trkpt>
    <trkpt lat="45.489760000000004" lon="-122.42490000000001"><ele>95.1</ele></trkpt>
    <trkpt lat="45.48983177277904" lon="-122.42498011845103"><ele>95.1</ele></trkpt>
    <trkpt lat="45.48993730068463" lon="-122.4250979170433"><ele>95.1</ele></trkpt>
    <trkpt lat="45.490149064736784" lon="-122.42533430482246"><ele>95.1</ele></trkpt>
    <trkpt lat="45.490190000000005" lon="-122.42538"><ele>95.0</ele></trkpt>
    <trkpt lat="45.490366147366586" lon="-122.42555614736659"><ele>95.0</ele></trkpt>
    <trkpt lat="45.490550246717525" lon="-122.42574024671752"><ele>94.9</ele></trkpt>
    <trkpt lat="45.490640000000006" lon="-122.42583"><ele>94.9</ele></trkpt>
    <trkpt lat="45.490777491412814" lon="-122.4259421640473"><ele>94.8</ele></trkpt>
    <trkpt lat="45.491020000000006" lon="-122.42614"><ele>94.7</ele></trkpt>
    <trkpt lat="45.49105006658727" lon="-122.42616139353325"><ele>94.7</ele></trkpt>
    <trkpt lat="45.49129069096935" lon="-122.42633260703589"><ele>94.6</ele></trkpt>
    <trkpt lat="45.49154" lon="-122.42651000000001"><ele>94.6</ele></trkpt>
    <trkpt lat="45.49161172662532" lon="-122.42655833750838"><ele>94.6</ele></trkpt>
    <trkpt lat="45.49169222838977" lon="-122.42661258869747"><ele>94.6</ele></trkpt>
    <trkpt lat="45.49181338761101" lon="-122.42669423947699"><ele>94.7</ele></trkpt>
    <trkpt lat="45.491868681752244" lon="-122.42673150292"><ele>94.7</ele></trkpt>
    <trkpt lat="45.49224354350385" lon="-122.42698412714391"><ele>94.6</ele></trkpt>
    <trkpt lat="45.49246" lon="-122.42713"><ele>94.4</ele></trkpt>
    <trkpt lat="45.49248234414054" lon="-122.42714601330073"><ele>94.4</ele></trkpt>
    <trkpt lat="45.49263985186522" lon="-122.42725889383675"><ele>94.3</ele></trkpt>
    <trkpt lat="45.49271860572756" lon="-122.42731533410475"><ele>94.3</ele></trkpt>
    <trkpt lat="45.49295486731458" lon="-122.4274846549088"><ele>94.3</ele></trkpt>
    <trkpt lat="45.49306000000001" lon="-122.42756000000001"><ele>94.3</ele></trkpt>
    <trkpt lat="45.49316" lon="-122.42766"><ele>94.3</ele></trkpt>
    <trkpt lat="45.4932523314897" lon="-122.42775233148969"><ele>94.3</ele></trkpt>
    <trkpt lat="45.49335984736621" lon="-122.42785984736621"><ele>94.3</ele></trkpt>
    <trkpt lat="45.493570000000005" lon="-122.42807"><ele>94.4</ele></trkpt>
    <trkpt lat="45.49360913891661" lon="-122.42811647746348"><ele>94.4</ele></trkpt>
    <trkpt lat="45.49385036364313" lon="-122.42840293182623"><ele>94.3</ele></trkpt>
    <trkpt lat="45.49398791012044" lon="-122.42856626826803"><ele>94.3</ele></trkpt>
    <trkpt lat="45.49405" lon="-122.42864000000002"><ele>94.3</ele></trkpt>
    <trkpt lat="45.49408685507472" lon="-122.42869475611103"><ele>94.4</ele></trkpt>
    <trkpt lat="45.4941796633246" lon="-122.4288326426537"><ele>94.5</ele></trkpt>
    <trkpt lat="45.494241950740616" lon="-122.42892518395749"><ele>94.6</ele></trkpt>
    <trkpt lat="45.49436527982435" lon="-122.42910841573904"><ele>94.8</ele></trkpt>
    <trkpt lat="45.494400000000006" lon="-122.42916000000001"><ele>94.8</ele></trkpt>
    <trkpt lat="45.49459" lon="-122.4295"><ele>94.8</ele></trkpt>
    <trkpt lat="45.494603598553375" lon="-122.42952766602238"><ele>94.8</ele></trkpt>
    <trkpt lat="45.49472648306208" lon="-122.42977767243664"><ele>94.7</ele></trkpt>
    <trkpt lat="45.49488" lon="-122.43009"><ele>94.6</ele></trkpt>
    <trkpt lat="45.49495035128064" lon="-122.4302685840201"><ele>94.5</ele></trkpt>
    <trkpt lat="45.495125269208984" lon="-122.43071260645357"><ele>94.3</ele></trkpt>
    <trkpt lat="45.495140000000006" lon="-122.43075"><ele>94.2</ele></trkpt>
    <trkpt lat="45.49523208064116" lon="-122.43109201381002"><ele>94.0</ele></trkpt>
    <trkpt lat="45.49530398678291" lon="-122.4313590937651"><ele>93.5</ele></trkpt>
    <trkpt lat="45.49535" lon="-122.43153000000001"><ele>93.4</ele></trkpt>
    <trkpt lat="45.495360906078936" lon="-122.43157253370785"><ele>93.4</ele></trkpt>
  </trkseg></trk>
</gpx>
