<?xml version="1.0" encoding="UTF-8"?>
<gpx version="1.1" creator="h2c-tracker" xmlns="http://www.topografix.com/GPX/1/1">
  <metadata><name>Hood to Coast 2026 — Leg 7 (5.25 mi)</name><desc>Derived from the official Hood to Coast Strava route (simplified, 420 points, ~5.25 mi). Verify against the official leg map PDF.</desc></metadata>
  <wpt lat="45.405726229399775" lon="-122.2770252900568"><name>Exchange 6 — near Sandy HS Softball Fields</name></wpt>
  <wpt lat="45.4536649248559" lon="-122.29050957707133"><name>Exchange 7 — SE Proctor Rd, Boring</name></wpt>
  <trk><name>HTC Leg 7</name><trkseg>
    <trkpt lat="45.405726229399775" lon="-122.2770252900568"><ele>258.4</ele></trkpt>
    <trkpt lat="45.405722423946045" lon="-122.27713659957845"><ele>258.0</ele></trkpt>
    <trkpt lat="45.40571481303858" lon="-122.27735921862177"><ele>257.0</ele></trkpt>
    <trkpt lat="45.405710000000006" lon="-122.2775"><ele>256.6</ele></trkpt>
    <trkpt lat="45.405665410941054" lon="-122.27758360448554"><ele>256.3</ele></trkpt>
    <trkpt lat="45.40563" lon="-122.27765000000001"><ele>256.0</ele></trkpt>
    <trkpt lat="45.4056029252981" lon="-122.27766353735095"><ele>255.9</ele></trkpt>
    <trkpt lat="45.40556304312875" lon="-122.27768347843563"><ele>255.6</ele></trkpt>
    <trkpt lat="45.40548073311966" lon="-122.27772463344017"><ele>255.1</ele></trkpt>
    <trkpt lat="45.40547" lon="-122.27773"><ele>255.0</ele></trkpt>
    <trkpt lat="45.40543915982533" lon="-122.27773257001456"><ele>254.8</ele></trkpt>
    <trkpt lat="45.405264989134736" lon="-122.27774708423877"><ele>253.3</ele></trkpt>
    <trkpt lat="45.40517880157651" lon="-122.2777542665353"><ele>252.7</ele></trkpt>
    <trkpt lat="45.40505041802622" lon="-122.2777649651645"><ele>251.7</ele></trkpt>
    <trkpt lat="45.404990000000005" lon="-122.27777"><ele>251.2</ele></trkpt>
    <trkpt lat="45.404900000000005" lon="-122.27778"><ele>250.5</ele></trkpt>
    <trkpt lat="45.40488283286163" lon="-122.27779716713839"><ele>250.3</ele></trkpt>
    <trkpt lat="45.40484000000001" lon="-122.27784000000001"><ele>249.8</ele></trkpt>
    <trkpt lat="45.40482249470819" lon="-122.27788001209558"><ele>249.6</ele></trkpt>
    <trkpt lat="45.404770000000006" lon="-122.278"><ele>248.6</ele></trkpt>
    <trkpt lat="45.4047670931106" lon="-122.27810319457392"><ele>247.9</ele></trkpt>
    <trkpt lat="45.40476366806872" lon="-122.2782247835608"><ele>247.1</ele></trkpt>
    <trkpt lat="45.40475670982573" lon="-122.27847180118681"><ele>246.0</ele></trkpt>
    <trkpt lat="45.40475000000001" lon="-122.27871"><ele>244.8</ele></trkpt>
    <trkpt lat="45.404787746633595" lon="-122.27896164422393"><ele>243.6</ele></trkpt>
    <trkpt lat="45.404796765676416" lon="-122.27902177117608"><ele>243.3</ele></trkpt>
    <trkpt lat="45.40480597261596" lon="-122.27908315077306"><ele>243.1</ele></trkpt>
    <trkpt lat="45.404810000000005" lon="-122.27911000000002"><ele>243.0</ele></trkpt>
    <trkpt lat="45.40481357303548" lon="-122.27914364608411"><ele>242.9</ele></trkpt>
    <trkpt lat="45.404826619216024" lon="-122.27926649761757"><ele>242.5</ele></trkpt>
    <trkpt lat="45.404852711577114" lon="-122.27951220068448"><ele>241.9</ele></trkpt>
    <trkpt lat="45.40486562326095" lon="-122.27963378570729"><ele>241.6</ele></trkpt>
    <trkpt lat="45.404885125283414" lon="-122.27981742975214"><ele>241.3</ele></trkpt>
    <trkpt lat="45.40489171562204" lon="-122.27987948877421"><ele>241.2</ele></trkpt>
    <trkpt lat="45.40489844045737" lon="-122.27994281430692"><ele>241.2</ele></trkpt>
    <trkpt lat="45.4049051652927" lon="-122.28000613983963"><ele>241.2</ele></trkpt>
    <trkpt lat="45.40491189012804" lon="-122.28006946537234"><ele>241.3</ele></trkpt>
    <trkpt lat="45.40491861496337" lon="-122.28013279090504"><ele>241.3</ele></trkpt>
    <trkpt lat="45.4049253397987" lon="-122.28019611643775"><ele>241.5</ele></trkpt>
    <trkpt lat="45.40493" lon="-122.28024"><ele>241.6</ele></trkpt>
    <trkpt lat="45.40493800833072" lon="-122.28025601666144"><ele>241.7</ele></trkpt>
    <trkpt lat="45.40496409271395" lon="-122.28030818542791"><ele>241.9</ele></trkpt>
    <trkpt lat="45.404990000000005" lon="-122.28036000000002"><ele>242.2</ele></trkpt>
    <trkpt lat="45.40503217659483" lon="-122.28038343144158"><ele>242.5</ele></trkpt>
    <trkpt lat="45.405080000000005" lon="-122.28041"><ele>242.9</ele></trkpt>
    <trkpt lat="45.405162525336166" lon="-122.28041687711135"><ele>243.5</ele></trkpt>
    <trkpt lat="45.4053429805372" lon="-122.28043191504477"><ele>245.0</ele></trkpt>
    <trkpt lat="45.40543275924417" lon="-122.2804393966037"><ele>245.8</ele></trkpt>
    <trkpt lat="45.40552253795115" lon="-122.2804468781626"><ele>246.6</ele></trkpt>
    <trkpt lat="45.40556" lon="-122.28045000000002"><ele>246.9</ele></trkpt>
    <trkpt lat="45.405680000000004" lon="-122.28046"><ele>248.1</ele></trkpt>
    <trkpt lat="45.40576294032491" lon="-122.28049686236663"><ele>248.9</ele></trkpt>
    <trkpt lat="45.405860000000004" lon="-122.28054000000002"><ele>249.8</ele></trkpt>
    <trkpt lat="45.40588741788193" lon="-122.28046079278559"><ele>250.4</ele></trkpt>
    <trkpt lat="45.4059407086019" lon="-122.28030684181678"><ele>250.8</ele></trkpt>
    <trkpt lat="45.405950000000004" lon="-122.28028"><ele>250.8</ele></trkpt>
    <trkpt lat="45.406020000000005" lon="-122.28014"><ele>250.7</ele></trkpt>
    <trkpt lat="45.40604222473449" lon="-122.28011110784519"><ele>250.6</ele></trkpt>
    <trkpt lat="45.40612" lon="-122.28001"><ele>250.5</ele></trkpt>
    <trkpt lat="45.40621443105312" lon="-122.27992815975398"><ele>250.3</ele></trkpt>
    <trkpt lat="45.406270000000006" lon="-122.27988"><ele>250.3</ele></trkpt>
    <trkpt lat="45.406289402994055" lon="-122.27986752664668"><ele>250.2</ele></trkpt>
    <trkpt lat="45.406406620371996" lon="-122.27979217261802"><ele>250.2</ele></trkpt>
    <trkpt lat="45.40655" lon="-122.2797"><ele>250.2</ele></trkpt>
    <trkpt lat="45.406573938681724" lon="-122.27968204598871"><ele>250.2</ele></trkpt>
    <trkpt lat="45.406670000000005" lon="-122.27961"><ele>250.4</ele></trkpt>
    <trkpt lat="45.406870000000005" lon="-122.27934"><ele>249.7</ele></trkpt>
    <trkpt lat="45.40697" lon="-122.27925"><ele>249.5</ele></trkpt>
    <trkpt lat="45.40699" lon="-122.27939"><ele>249.2</ele></trkpt>
    <trkpt lat="45.407230000000006" lon="-122.27978000000002"><ele>248.3</ele></trkpt>
    <trkpt lat="45.40729" lon="-122.27983"><ele>248.2</ele></trkpt>
    <trkpt lat="45.407430000000005" lon="-122.27992"><ele>247.8</ele></trkpt>
    <trkpt lat="45.407540000000004" lon="-122.27997"><ele>247.5</ele></trkpt>
    <trkpt lat="45.40927430999723" lon="-122.27996429503291"><ele>243.4</ele></trkpt>
    <trkpt lat="45.40928150455697" lon="-122.2799642713666"><ele>243.6</ele></trkpt>
    <trkpt lat="45.40940830867238" lon="-122.2799638542478"><ele>243.8</ele></trkpt>
    <trkpt lat="45.40949284474932" lon="-122.2799635761686"><ele>243.9</ele></trkpt>
    <trkpt lat="45.40953511278779" lon="-122.279963437129"><ele>244.0</ele></trkpt>
    <trkpt lat="45.40966191690321" lon="-122.2799630200102"><ele>244.0</ele></trkpt>
    <trkpt lat="45.40991552513404" lon="-122.2799621857726"><ele>244.1</ele></trkpt>
    <trkpt lat="45.410220394603016" lon="-122.27996118291252"><ele>244.3</ele></trkpt>
    <trkpt lat="45.410438030035145" lon="-122.27996046700648"><ele>244.4</ele></trkpt>
    <trkpt lat="45.410525264071985" lon="-122.27996018005241"><ele>244.5</ele></trkpt>
    <trkpt lat="45.41058" lon="-122.27996000000002"><ele>244.5</ele></trkpt>
    <trkpt lat="45.41061248306808" lon="-122.2799585876927"><ele>244.6</ele></trkpt>
    <trkpt lat="45.41065652935158" lon="-122.27995667263691"><ele>244.7</ele></trkpt>
    <trkpt lat="45.41074282411107" lon="-122.27995292069085"><ele>244.9</ele></trkpt>
    <trkpt lat="45.410831815581794" lon="-122.27994905149646"><ele>245.3</ele></trkpt>
    <trkpt lat="45.41087676076903" lon="-122.27994709735788"><ele>245.5</ele></trkpt>
    <trkpt lat="45.41096575223976" lon="-122.2799432281635"><ele>246.0</ele></trkpt>
    <trkpt lat="45.41101069742699" lon="-122.27994127402492"><ele>246.2</ele></trkpt>
    <trkpt lat="45.411100587801464" lon="-122.27993736574777"><ele>246.8</ele></trkpt>
    <trkpt lat="45.4111455329887" lon="-122.27993541160919"><ele>247.2</ele></trkpt>
    <trkpt lat="45.41123452445943" lon="-122.27993154241483"><ele>247.9</ele></trkpt>
    <trkpt lat="45.411279469646665" lon="-122.27992958827625"><ele>248.4</ele></trkpt>
    <trkpt lat="45.4113244148339" lon="-122.27992763413766"><ele>248.8</ele></trkpt>
    <trkpt lat="45.41136846111739" lon="-122.27992571908186"><ele>249.3</ele></trkpt>
    <trkpt lat="45.41145835149186" lon="-122.27992181080471"><ele>250.4</ele></trkpt>
    <trkpt lat="45.411500000000004" lon="-122.27992"><ele>250.9</ele></trkpt>
    <trkpt lat="45.41161" lon="-122.27988"><ele>252.3</ele></trkpt>
    <trkpt lat="45.411631905783146" lon="-122.27986685653012"><ele>252.6</ele></trkpt>
    <trkpt lat="45.411713957194934" lon="-122.27981762568305"><ele>253.7</ele></trkpt>
    <trkpt lat="45.41176" lon="-122.27979"><ele>254.3</ele></trkpt>
    <trkpt lat="45.411792715298134" lon="-122.27975728470186"><ele>254.8</ele></trkpt>
    <trkpt lat="45.41186558514653" lon="-122.27968441485346"><ele>255.7</ele></trkpt>
    <trkpt lat="45.4119" lon="-122.27965"><ele>255.7</ele></trkpt>
    <trkpt lat="45.411922206241776" lon="-122.27960928855676"><ele>255.7</ele></trkpt>
    <trkpt lat="45.41196" lon="-122.27954000000001"><ele>256.2</ele></trkpt>
    <trkpt lat="45.41198601746105" lon="-122.27953256643971"><ele>256.4</ele></trkpt>
    <trkpt lat="45.41203" lon="-122.27952"><ele>256.8</ele></trkpt>
    <trkpt lat="45.41205945418794" lon="-122.27947483691183"><ele>257.1</ele></trkpt>
    <trkpt lat="45.412089447238955" lon="-122.27942884756696"><ele>257.4</ele></trkpt>
    <trkpt lat="45.41212005239304" lon="-122.27938191966402"><ele>257.6</ele></trkpt>
    <trkpt lat="45.412155554371786" lon="-122.2793274832966"><ele>257.9</ele></trkpt>
    <trkpt lat="45.412180000000006" lon="-122.27929"><ele>257.9</ele></trkpt>
    <trkpt lat="45.412330000000004" lon="-122.27885"><ele>257.7</ele></trkpt>
    <trkpt lat="45.412420000000004" lon="-122.27868000000001"><ele>257.6</ele></trkpt>
    <trkpt lat="45.412530000000004" lon="-122.27853"><ele>257.5</ele></trkpt>
    <trkpt lat="45.41274000000001" lon="-122.27838000000001"><ele>257.4</ele></trkpt>
    <trkpt lat="45.412980000000005" lon="-122.27827"><ele>257.3</ele></trkpt>
    <trkpt lat="45.413120000000006" lon="-122.27826"><ele>257.2</ele></trkpt>
    <trkpt lat="45.41703229720976" lon="-122.2782749896445"><ele>255.0</ele></trkpt>
    <trkpt lat="45.4171177325255" lon="-122.27827531698287"><ele>255.0</ele></trkpt>
    <trkpt lat="45.417206765117676" lon="-122.2782756581039"><ele>254.8</ele></trkpt>
    <trkpt lat="45.41738572962116" lon="-122.27827634379166"><ele>254.3</ele></trkpt>
    <trkpt lat="45.417609660080295" lon="-122.27827720176276"><ele>253.6</ele></trkpt>
    <trkpt lat="45.41778862458378" lon="-122.27827788745051"><ele>253.0</ele></trkpt>
    <trkpt lat="45.41787765717597" lon="-122.27827822857157"><ele>252.6</ele></trkpt>
    <trkpt lat="45.41796758908727" lon="-122.27827857313828"><ele>252.3</ele></trkpt>
    <trkpt lat="45.418056621679455" lon="-122.27827891425932"><ele>251.8</ele></trkpt>
    <trkpt lat="45.41814655359075" lon="-122.27827925882603"><ele>251.4</ele></trkpt>
    <trkpt lat="45.41823558618294" lon="-122.27827959994707"><ele>250.9</ele></trkpt>
    <trkpt lat="45.41834" lon="-122.27828000000001"><ele>250.3</ele></trkpt>
    <trkpt lat="45.41834136571569" lon="-122.27845025922178"><ele>249.5</ele></trkpt>
    <trkpt lat="45.418342383090376" lon="-122.2785770919339"><ele>248.9</ele></trkpt>
    <trkpt lat="45.41834545576749" lon="-122.27896015234728"><ele>246.9</ele></trkpt>
    <trkpt lat="45.41834698696779" lon="-122.27915104198472"><ele>246.0</ele></trkpt>
    <trkpt lat="45.418348014619" lon="-122.27927915583533"><ele>245.4</ele></trkpt>
    <trkpt lat="45.41834851816809" lon="-122.27934193162214"><ele>245.1</ele></trkpt>
    <trkpt lat="45.4183500493684" lon="-122.27953282125958"><ele>244.4</ele></trkpt>
    <trkpt lat="45.41835152918614" lon="-122.27971730520449"><ele>244.1</ele></trkpt>
    <trkpt lat="45.41835252600781" lon="-122.27984157563958"><ele>244.0</ele></trkpt>
    <trkpt lat="45.41835351255297" lon="-122.2799645649362"><ele>243.9</ele></trkpt>
    <trkpt lat="45.4183549923707" lon="-122.2801490488811"><ele>243.8</ele></trkpt>
    <trkpt lat="45.41837" lon="-122.28202000000002"><ele>242.3</ele></trkpt>
    <trkpt lat="45.41840160832245" lon="-122.28906865590453"><ele>238.1</ele></trkpt>
    <trkpt lat="45.41840303889646" lon="-122.28938767390922"><ele>235.7</ele></trkpt>
    <trkpt lat="45.418403613424175" lon="-122.28951579358981"><ele>235.0</ele></trkpt>
    <trkpt lat="45.418403900688034" lon="-122.28957985343011"><ele>234.7</ele></trkpt>
    <trkpt lat="45.418404187951886" lon="-122.28964391327041"><ele>234.4</ele></trkpt>
    <trkpt lat="45.418404475215745" lon="-122.28970797311071"><ele>234.2</ele></trkpt>
    <trkpt lat="45.4184047624796" lon="-122.28977203295102"><ele>233.9</ele></trkpt>
    <trkpt lat="45.41840504974346" lon="-122.28983609279132"><ele>233.8</ele></trkpt>
    <trkpt lat="45.41840533126204" lon="-122.28989887143481"><ele>233.6</ele></trkpt>
    <trkpt lat="45.41840562427117" lon="-122.28996421247192"><ele>233.5</ele></trkpt>
    <trkpt lat="45.41840591153503" lon="-122.29002827231221"><ele>233.4</ele></trkpt>
    <trkpt lat="45.41840648606275" lon="-122.29015639199281"><ele>233.3</ele></trkpt>
    <trkpt lat="45.41840677332661" lon="-122.29022045183311"><ele>233.3</ele></trkpt>
    <trkpt lat="45.41840792238204" lon="-122.2904766911943"><ele>233.3</ele></trkpt>
    <trkpt lat="45.418408496909755" lon="-122.2906048108749"><ele>233.3</ele></trkpt>
    <trkpt lat="45.41840907143747" lon="-122.29073293055549"><ele>233.2</ele></trkpt>
    <trkpt lat="45.418409358701325" lon="-122.29079699039579"><ele>233.2</ele></trkpt>
    <trkpt lat="45.41840993322904" lon="-122.2909251100764"><ele>233.0</ele></trkpt>
    <trkpt lat="45.41841" lon="-122.29094"><ele>233.0</ele></trkpt>
    <trkpt lat="45.41848947755869" lon="-122.29093904012612"><ele>232.8</ele></trkpt>
    <trkpt lat="45.418714300072324" lon="-122.29093632487837"><ele>232.3</ele></trkpt>
    <trkpt lat="45.41880422907778" lon="-122.29093523877926"><ele>232.1</ele></trkpt>
    <trkpt lat="45.4188491935805" lon="-122.29093469572972"><ele>232.0</ele></trkpt>
    <trkpt lat="45.418939122585954" lon="-122.2909336096306"><ele>232.0</ele></trkpt>
    <trkpt lat="45.41898408708869" lon="-122.29093306658106"><ele>232.0</ele></trkpt>
    <trkpt lat="45.41902905159141" lon="-122.2909325235315"><ele>232.0</ele></trkpt>
    <trkpt lat="45.419074016094136" lon="-122.29093198048196"><ele>232.1</ele></trkpt>
    <trkpt lat="45.41911898059686" lon="-122.2909314374324"><ele>232.2</ele></trkpt>
    <trkpt lat="45.4191639450996" lon="-122.29093089438285"><ele>232.3</ele></trkpt>
    <trkpt lat="45.41920890960232" lon="-122.29093035133332"><ele>232.5</ele></trkpt>
    <trkpt lat="45.419253874105046" lon="-122.29092980828375"><ele>232.8</ele></trkpt>
    <trkpt lat="45.419298838607766" lon="-122.29092926523421"><ele>233.0</ele></trkpt>
    <trkpt lat="45.4193438031105" lon="-122.29092872218466"><ele>233.3</ele></trkpt>
    <trkpt lat="45.41938876761323" lon="-122.29092817913511"><ele>233.7</ele></trkpt>
    <trkpt lat="45.41943373211595" lon="-122.29092763608557"><ele>234.0</ele></trkpt>
    <trkpt lat="45.41947869661867" lon="-122.290927093036"><ele>234.4</ele></trkpt>
    <trkpt lat="45.41974848363503" lon="-122.29092383473872"><ele>236.9</ele></trkpt>
    <trkpt lat="45.41988337714322" lon="-122.29092220559008"><ele>238.0</ele></trkpt>
    <trkpt lat="45.41997330614867" lon="-122.29092111949096"><ele>238.7</ele></trkpt>
    <trkpt lat="45.4200182706514" lon="-122.29092057644141"><ele>239.0</ele></trkpt>
    <trkpt lat="45.42010819965685" lon="-122.29091949034233"><ele>239.5</ele></trkpt>
    <trkpt lat="45.42015316415957" lon="-122.29091894729277"><ele>239.8</ele></trkpt>
    <trkpt lat="45.42019812866231" lon="-122.2909184042432"><ele>240.0</ele></trkpt>
    <trkpt lat="45.420288057667754" lon="-122.2909173181441"><ele>240.3</ele></trkpt>
    <trkpt lat="45.42033302217048" lon="-122.29091677509459"><ele>240.3</ele></trkpt>
    <trkpt lat="45.42042295117594" lon="-122.29091568899547"><ele>240.5</ele></trkpt>
    <trkpt lat="45.42046791567867" lon="-122.29091514594592"><ele>240.5</ele></trkpt>
    <trkpt lat="45.42055784468412" lon="-122.29091405984681"><ele>240.5</ele></trkpt>
    <trkpt lat="45.420647773689566" lon="-122.29091297374771"><ele>240.5</ele></trkpt>
    <trkpt lat="45.420806948029224" lon="-122.29091105135231"><ele>240.3</ele></trkpt>
    <trkpt lat="45.421029971962746" lon="-122.29090835782654"><ele>239.9</ele></trkpt>
    <trkpt lat="45.42111450522787" lon="-122.29090733689338"><ele>239.7</ele></trkpt>
    <trkpt lat="45.42124220441562" lon="-122.29090579463266"><ele>239.3</ele></trkpt>
    <trkpt lat="45.42137350076358" lon="-122.29090420892798"><ele>239.0</ele></trkpt>
    <trkpt lat="45.421505696401596" lon="-122.2909026123623"><ele>238.6</ele></trkpt>
    <trkpt lat="45.42160911475787" lon="-122.29090136334834"><ele>238.4</ele></trkpt>
    <trkpt lat="45.421738612525715" lon="-122.29089979936563"><ele>238.0</ele></trkpt>
    <trkpt lat="45.421824944370954" lon="-122.2908987567105"><ele>237.7</ele></trkpt>
    <trkpt lat="45.42186811029357" lon="-122.29089823538294"><ele>237.5</ele></trkpt>
    <trkpt lat="45.421954442138805" lon="-122.2908971927278"><ele>237.1</ele></trkpt>
    <trkpt lat="45.422084839196714" lon="-122.2908956178841"><ele>236.4</ele></trkpt>
    <trkpt lat="45.42216937246184" lon="-122.29089459695095"><ele>235.9</ele></trkpt>
    <trkpt lat="45.422254805017026" lon="-122.29089356515681"><ele>235.3</ele></trkpt>
    <trkpt lat="45.4223402375722" lon="-122.29089253336265"><ele>234.7</ele></trkpt>
    <trkpt lat="45.42246883605" lon="-122.29089098024095"><ele>233.7</ele></trkpt>
    <trkpt lat="45.422537182094146" lon="-122.29089015480564"><ele>233.7</ele></trkpt>
    <trkpt lat="45.42255" lon="-122.29089"><ele>233.5</ele></trkpt>
    <trkpt lat="45.422712538910375" lon="-122.2908926429091"><ele>232.1</ele></trkpt>
    <trkpt lat="45.42280066676332" lon="-122.29089407588235"><ele>231.4</ele></trkpt>
    <trkpt lat="45.42288879461627" lon="-122.29089550885556"><ele>230.7</ele></trkpt>
    <trkpt lat="45.42297692246922" lon="-122.29089694182878"><ele>230.1</ele></trkpt>
    <trkpt lat="45.423065050322165" lon="-122.290898374802"><ele>229.5</ele></trkpt>
    <trkpt lat="45.42310911424864" lon="-122.2908990912886"><ele>229.3</ele></trkpt>
    <trkpt lat="45.423196342837784" lon="-122.29090050963964"><ele>228.8</ele></trkpt>
    <trkpt lat="45.423329433881015" lon="-122.29090267372166"><ele>228.3</ele></trkpt>
    <trkpt lat="45.423470618298495" lon="-122.29090496940324"><ele>228.3</ele></trkpt>
    <trkpt lat="45.42359471670367" lon="-122.29090698726347"><ele>228.3</ele></trkpt>
    <trkpt lat="45.423677448973784" lon="-122.29090833250365"><ele>228.3</ele></trkpt>
    <trkpt lat="45.4237610805077" lon="-122.29090969236599"><ele>228.3</ele></trkpt>
    <trkpt lat="45.42378" lon="-122.29091000000001"><ele>228.3</ele></trkpt>
    <trkpt lat="45.42380244735697" lon="-122.29090973898423"><ele>228.3</ele></trkpt>
    <trkpt lat="45.42384381480823" lon="-122.29090925796736"><ele>228.4</ele></trkpt>
    <trkpt lat="45.42392744900316" lon="-122.29090828547672"><ele>228.7</ele></trkpt>
    <trkpt lat="45.42401018390568" lon="-122.29090732344298"><ele>229.0</ele></trkpt>
    <trkpt lat="45.42418644521973" lon="-122.2909052738928"><ele>229.5</ele></trkpt>
    <trkpt lat="45.42427277729192" lon="-122.2909042700315"><ele>230.2</ele></trkpt>
    <trkpt lat="45.424359109364104" lon="-122.2909032661702"><ele>230.8</ele></trkpt>
    <trkpt lat="45.424446340728714" lon="-122.290902251852"><ele>231.4</ele></trkpt>
    <trkpt lat="45.42453267280091" lon="-122.2909012479907"><ele>231.9</ele></trkpt>
    <trkpt lat="45.42461990416551" lon="-122.29090023367249"><ele>232.4</ele></trkpt>
    <trkpt lat="45.4246630702016" lon="-122.29089973174185"><ele>232.6</ele></trkpt>
    <trkpt lat="45.42474940227379" lon="-122.29089872788055"><ele>233.0</ele></trkpt>
    <trkpt lat="45.4248366336384" lon="-122.29089771356236"><ele>233.3</ele></trkpt>
    <trkpt lat="45.42501469353729" lon="-122.29089564309841"><ele>233.5</ele></trkpt>
    <trkpt lat="45.42519185414376" lon="-122.29089358309136"><ele>233.4</ele></trkpt>
    <trkpt lat="45.42532494942172" lon="-122.29089203547184"><ele>233.4</ele></trkpt>
    <trkpt lat="45.42550000000001" lon="-122.29089"><ele>233.2</ele></trkpt>
    <trkpt lat="45.4255470734728" lon="-122.29088927579272"><ele>233.2</ele></trkpt>
    <trkpt lat="45.42576919314962" lon="-122.29088585856695"><ele>233.0</ele></trkpt>
    <trkpt lat="45.42590228510173" lon="-122.29088381099845"><ele>232.9</ele></trkpt>
    <trkpt lat="45.42599131282645" lon="-122.29088244134114"><ele>232.8</ele></trkpt>
    <trkpt lat="45.42615000000001" lon="-122.29088000000002"><ele>232.9</ele></trkpt>
    <trkpt lat="45.42621250380779" lon="-122.29087710247249"><ele>232.9</ele></trkpt>
    <trkpt lat="45.42639047547173" lon="-122.29086885213047"><ele>232.9</ele></trkpt>
    <trkpt lat="45.426525302489864" lon="-122.29086260187135"><ele>232.9</ele></trkpt>
    <trkpt lat="45.42665923066121" lon="-122.29085639328062"><ele>233.0</ele></trkpt>
    <trkpt lat="45.42706191402205" lon="-122.29083772584006"><ele>233.5</ele></trkpt>
    <trkpt lat="45.42715089985401" lon="-122.29083360066903"><ele>233.7</ele></trkpt>
    <trkpt lat="45.42723988568598" lon="-122.29082947549801"><ele>233.8</ele></trkpt>
    <trkpt lat="45.427329770364736" lon="-122.29082530865861"><ele>234.1</ele></trkpt>
    <trkpt lat="45.42746369853609" lon="-122.29081910006788"><ele>234.5</ele></trkpt>
    <trkpt lat="45.42750774202868" lon="-122.29081705831658"><ele>234.6</ele></trkpt>
    <trkpt lat="45.427553583214845" lon="-122.29081493322848"><ele>234.7</ele></trkpt>
    <trkpt lat="45.42759762670744" lon="-122.29081289147715"><ele>234.7</ele></trkpt>
    <trkpt lat="45.42764256904682" lon="-122.29081080805744"><ele>234.7</ele></trkpt>
    <trkpt lat="45.427687511386196" lon="-122.29080872463774"><ele>234.6</ele></trkpt>
    <trkpt lat="45.42773245372557" lon="-122.29080664121803"><ele>234.5</ele></trkpt>
    <trkpt lat="45.42777649721816" lon="-122.29080459946672"><ele>234.3</ele></trkpt>
    <trkpt lat="45.42785829227583" lon="-122.29080080764285"><ele>233.9</ele></trkpt>
    <trkpt lat="45.429170000000006" lon="-122.29074000000001"><ele>231.1</ele></trkpt>
    <trkpt lat="45.42916188836187" lon="-122.29874618684305"><ele>219.2</ele></trkpt>
    <trkpt lat="45.42916174814064" lon="-122.29888458518997"><ele>219.2</ele></trkpt>
    <trkpt lat="45.429161627394585" lon="-122.29900376154424"><ele>219.2</ele></trkpt>
    <trkpt lat="45.42916137291904" lon="-122.29925492891455"><ele>219.2</ele></trkpt>
    <trkpt lat="45.429161245681264" lon="-122.29938051259971"><ele>219.2</ele></trkpt>
    <trkpt lat="45.42916111844349" lon="-122.29950609628487"><ele>219.3</ele></trkpt>
    <trkpt lat="45.429160800349045" lon="-122.29982005549778"><ele>219.6</ele></trkpt>
    <trkpt lat="45.429160545873486" lon="-122.30007122286808"><ele>219.9</ele></trkpt>
    <trkpt lat="45.42916035631517" lon="-122.30025831692964"><ele>220.1</ele></trkpt>
    <trkpt lat="45.42916012391147" lon="-122.30048769937498"><ele>220.2</ele></trkpt>
    <trkpt lat="45.42916" lon="-122.30061"><ele>220.2</ele></trkpt>
    <trkpt lat="45.42916558494221" lon="-122.30065747200877"><ele>220.2</ele></trkpt>
    <trkpt lat="45.42918" lon="-122.30078"><ele>220.0</ele></trkpt>
    <trkpt lat="45.42918124555755" lon="-122.30078193753397"><ele>220.0</ele></trkpt>
    <trkpt lat="45.42924138438132" lon="-122.30087548681539"><ele>219.8</ele></trkpt>
    <trkpt lat="45.42927" lon="-122.30092"><ele>219.7</ele></trkpt>
    <trkpt lat="45.42931666003172" lon="-122.30091871577896"><ele>219.5</ele></trkpt>
    <trkpt lat="45.42940567634261" lon="-122.30091626578873"><ele>219.2</ele></trkpt>
    <trkpt lat="45.42949469265351" lon="-122.30091381579854"><ele>218.8</ele></trkpt>
    <trkpt lat="45.429583708964415" lon="-122.30091136580833"><ele>218.3</ele></trkpt>
    <trkpt lat="45.42967272527531" lon="-122.30090891581813"><ele>217.8</ele></trkpt>
    <trkpt lat="45.42980669931899" lon="-122.30090522845913"><ele>216.9</ele></trkpt>
    <trkpt lat="45.42988852239263" lon="-122.30090297644792"><ele>216.4</ele></trkpt>
    <trkpt lat="45.429971244620944" lon="-122.30090069968934"><ele>215.8</ele></trkpt>
    <trkpt lat="45.43005486600391" lon="-122.30089839818339"><ele>215.2</ele></trkpt>
    <trkpt lat="45.43036" lon="-122.30089000000001"><ele>212.4</ele></trkpt>
    <trkpt lat="45.43036777269477" lon="-122.30088986482271"><ele>212.3</ele></trkpt>
    <trkpt lat="45.43045769823432" lon="-122.30088830090028"><ele>211.5</ele></trkpt>
    <trkpt lat="45.43050266100409" lon="-122.30088751893906"><ele>211.2</ele></trkpt>
    <trkpt lat="45.43054762377387" lon="-122.30088673697786"><ele>210.8</ele></trkpt>
    <trkpt lat="45.43059168728825" lon="-122.30088597065587"><ele>210.5</ele></trkpt>
    <trkpt lat="45.43063665005803" lon="-122.30088518869465"><ele>210.3</ele></trkpt>
    <trkpt lat="45.43072657559757" lon="-122.30088362477223"><ele>209.8</ele></trkpt>
    <trkpt lat="45.43081650113712" lon="-122.3008820608498"><ele>209.5</ele></trkpt>
    <trkpt lat="45.430860564651496" lon="-122.30088129452781"><ele>209.4</ele></trkpt>
    <trkpt lat="45.430905527421274" lon="-122.3008805125666"><ele>209.3</ele></trkpt>
    <trkpt lat="45.43099545296082" lon="-122.30087894864417"><ele>209.3</ele></trkpt>
    <trkpt lat="45.43104041573059" lon="-122.30087816668296"><ele>209.3</ele></trkpt>
    <trkpt lat="45.43108537850037" lon="-122.30087738472176"><ele>209.3</ele></trkpt>
    <trkpt lat="45.43112944201475" lon="-122.30087661839974"><ele>209.4</ele></trkpt>
    <trkpt lat="45.43117440478452" lon="-122.30087583643854"><ele>209.5</ele></trkpt>
    <trkpt lat="45.4312193675543" lon="-122.30087505447733"><ele>209.6</ele></trkpt>
    <trkpt lat="45.43135335660822" lon="-122.3008727242329"><ele>210.1</ele></trkpt>
    <trkpt lat="45.432660000000006" lon="-122.30085000000001"><ele>211.8</ele></trkpt>
    <trkpt lat="45.434922665421" lon="-122.30085632029449"><ele>214.1</ele></trkpt>
    <trkpt lat="45.436240000000005" lon="-122.30086000000001"><ele>216.3</ele></trkpt>
    <trkpt lat="45.436240000000005" lon="-122.29500143515986"><ele>223.0</ele></trkpt>
    <trkpt lat="45.436240000000005" lon="-122.29499374539087"><ele>221.8</ele></trkpt>
    <trkpt lat="45.43624000000001" lon="-122.29486814583052"><ele>223.1</ele></trkpt>
    <trkpt lat="45.436240000000005" lon="-122.29480534605034"><ele>223.7</ele></trkpt>
    <trkpt lat="45.43624" lon="-122.29474254627017"><ele>224.3</ele></trkpt>
    <trkpt lat="45.436240000000005" lon="-122.29467846486185"><ele>224.8</ele></trkpt>
    <trkpt lat="45.43624" lon="-122.29461566508166"><ele>225.3</ele></trkpt>
    <trkpt lat="45.436240000000005" lon="-122.29455286530148"><ele>225.7</ele></trkpt>
    <trkpt lat="45.436240000000005" lon="-122.29449006552132"><ele>226.0</ele></trkpt>
    <trkpt lat="45.436240000000005" lon="-122.29442726574115"><ele>226.3</ele></trkpt>
    <trkpt lat="45.43624" lon="-122.29436318433281"><ele>226.5</ele></trkpt>
    <trkpt lat="45.436240000000005" lon="-122.29430038455264"><ele>226.7</ele></trkpt>
    <trkpt lat="45.436240000000005" lon="-122.29423758477246"><ele>226.8</ele></trkpt>
    <trkpt lat="45.436240000000005" lon="-122.2941747849923"><ele>226.9</ele></trkpt>
    <trkpt lat="45.436240000000005" lon="-122.29411198521213"><ele>226.9</ele></trkpt>
    <trkpt lat="45.436240000000005" lon="-122.2939851040236"><ele>227.0</ele></trkpt>
    <trkpt lat="45.436240000000005" lon="-122.29348142415407"><ele>227.0</ele></trkpt>
    <trkpt lat="45.436240000000005" lon="-122.29317767827855"><ele>226.9</ele></trkpt>
    <trkpt lat="45.436240000000005" lon="-122.29313"><ele>226.9</ele></trkpt>
    <trkpt lat="45.43625" lon="-122.29313"><ele>226.9</ele></trkpt>
    <trkpt lat="45.43624715549938" lon="-122.29288821744713"><ele>226.9</ele></trkpt>
    <trkpt lat="45.43624430616215" lon="-122.29264602378258"><ele>226.9</ele></trkpt>
    <trkpt lat="45.43624216539027" lon="-122.29246405817216"><ele>227.0</ele></trkpt>
    <trkpt lat="45.43623776323962" lon="-122.29208987536765"><ele>226.1</ele></trkpt>
    <trkpt lat="45.436237024522555" lon="-122.29202708441758"><ele>226.0</ele></trkpt>
    <trkpt lat="45.4362355621643" lon="-122.29190278396541"><ele>225.9</ele></trkpt>
    <trkpt lat="45.43623408473019" lon="-122.29177720206528"><ele>225.7</ele></trkpt>
    <trkpt lat="45.436230406220744" lon="-122.29146452876287"><ele>225.5</ele></trkpt>
    <trkpt lat="45.43622600407011" lon="-122.29109034595837"><ele>225.3</ele></trkpt>
    <trkpt lat="45.43622380299478" lon="-122.29090325455611"><ele>225.1</ele></trkpt>
    <trkpt lat="45.4362215868436" lon="-122.2907148817059"><ele>224.9</ele></trkpt>
    <trkpt lat="45.436220124485345" lon="-122.29059058125372"><ele>224.8</ele></trkpt>
    <trkpt lat="45.436220000000006" lon="-122.29058"><ele>224.8</ele></trkpt>
    <trkpt lat="45.436476067417104" lon="-122.29058290161379"><ele>224.2</ele></trkpt>
    <trkpt lat="45.43656419822318" lon="-122.29058390026316"><ele>224.0</ele></trkpt>
    <trkpt lat="45.436608263626226" lon="-122.29058439958784"><ele>223.8</ele></trkpt>
    <trkpt lat="45.4366532283232" lon="-122.29058490910282"><ele>223.6</ele></trkpt>
    <trkpt lat="45.43669729372624" lon="-122.2905854084275"><ele>223.3</ele></trkpt>
    <trkpt lat="45.43674135912928" lon="-122.29058590775219"><ele>223.1</ele></trkpt>
    <trkpt lat="45.43678542453232" lon="-122.29058640707686"><ele>222.7</ele></trkpt>
    <trkpt lat="45.43691852003538" lon="-122.29058791524119"><ele>221.6</ele></trkpt>
    <trkpt lat="45.437007550135405" lon="-122.29058892408086"><ele>221.0</ele></trkpt>
    <trkpt lat="45.43709568094148" lon="-122.29058992273023"><ele>220.4</ele></trkpt>
    <trkpt lat="45.437184711041496" lon="-122.29059093156988"><ele>220.1</ele></trkpt>
    <trkpt lat="45.437228776444535" lon="-122.29059143089457"><ele>219.9</ele></trkpt>
    <trkpt lat="45.43727374114152" lon="-122.29059194040954"><ele>219.8</ele></trkpt>
    <trkpt lat="45.437361871947594" lon="-122.29059293905891"><ele>219.5</ele></trkpt>
    <trkpt lat="45.437583098256724" lon="-122.2905954458726"><ele>219.0</ele></trkpt>
    <trkpt lat="45.43767212835675" lon="-122.29059645471227"><ele>218.9</ele></trkpt>
    <trkpt lat="45.437805223859804" lon="-122.2905979628766"><ele>218.7</ele></trkpt>
    <trkpt lat="45.43793831936286" lon="-122.29059947104095"><ele>218.6</ele></trkpt>
    <trkpt lat="45.43811548026896" lon="-122.29060147852996"><ele>218.5</ele></trkpt>
    <trkpt lat="45.438248575772015" lon="-122.29060298669431"><ele>218.5</ele></trkpt>
    <trkpt lat="45.43860289758421" lon="-122.29060700167236"><ele>218.6</ele></trkpt>
    <trkpt lat="45.43869102839029" lon="-122.29060800032171"><ele>218.9</ele></trkpt>
    <trkpt lat="45.438735093793326" lon="-122.29060849964638"><ele>219.1</ele></trkpt>
    <trkpt lat="45.43877915919637" lon="-122.29060899897107"><ele>219.3</ele></trkpt>
    <trkpt lat="45.43882322459941" lon="-122.29060949829575"><ele>219.6</ele></trkpt>
    <trkpt lat="45.43886729000245" lon="-122.29060999762044"><ele>219.9</ele></trkpt>
    <trkpt lat="45.43891135540549" lon="-122.2906104969451"><ele>220.3</ele></trkpt>
    <trkpt lat="45.438955420808526" lon="-122.29061099626978"><ele>220.8</ele></trkpt>
    <trkpt lat="45.438999486211564" lon="-122.29061149559448"><ele>221.3</ele></trkpt>
    <trkpt lat="45.43904445090854" lon="-122.29061200510945"><ele>221.9</ele></trkpt>
    <trkpt lat="45.43930884332678" lon="-122.29061500105753"><ele>225.7</ele></trkpt>
    <trkpt lat="45.439396974132855" lon="-122.29061599970689"><ele>226.9</ele></trkpt>
    <trkpt lat="45.439486004232876" lon="-122.29061700854656"><ele>228.0</ele></trkpt>
    <trkpt lat="45.439530069635914" lon="-122.29061750787123"><ele>228.4</ele></trkpt>
    <trkpt lat="45.43957413503895" lon="-122.2906180071959"><ele>228.8</ele></trkpt>
    <trkpt lat="45.43961820044199" lon="-122.29061850652059"><ele>229.2</ele></trkpt>
    <trkpt lat="45.43966226584504" lon="-122.29061900584529"><ele>229.5</ele></trkpt>
    <trkpt lat="45.43970633124807" lon="-122.29061950516996"><ele>229.7</ele></trkpt>
    <trkpt lat="45.439750000000004" lon="-122.29062"><ele>229.9</ele></trkpt>
    <trkpt lat="45.439750396663655" lon="-122.29062000000002"><ele>229.9</ele></trkpt>
    <trkpt lat="45.43979446345956" lon="-122.29062"><ele>230.0</ele></trkpt>
    <trkpt lat="45.43983942957784" lon="-122.29062"><ele>230.1</ele></trkpt>
    <trkpt lat="45.43988349637375" lon="-122.29061999999999"><ele>230.1</ele></trkpt>
    <trkpt lat="45.43992756316966" lon="-122.29062000000002"><ele>230.1</ele></trkpt>
    <trkpt lat="45.43997162996558" lon="-122.29062"><ele>230.0</ele></trkpt>
    <trkpt lat="45.440015696761485" lon="-122.29062"><ele>229.9</ele></trkpt>
    <trkpt lat="45.4400597635574" lon="-122.29062"><ele>229.8</ele></trkpt>
    <trkpt lat="45.44010383035331" lon="-122.29062"><ele>229.6</ele></trkpt>
    <trkpt lat="45.44027200363567" lon="-122.29062"><ele>228.8</ele></trkpt>
    <trkpt lat="45.44047255252319" lon="-122.29062000000002"><ele>227.7</ele></trkpt>
    <trkpt lat="45.44060565223328" lon="-122.29061999999999"><ele>227.3</ele></trkpt>
    <trkpt lat="45.44069468514747" lon="-122.29062000000002"><ele>227.0</ele></trkpt>
    <trkpt lat="45.44078371806165" lon="-122.29061999999999"><ele>226.8</ele></trkpt>
    <trkpt lat="45.44087275097584" lon="-122.29061999999999"><ele>226.7</ele></trkpt>
    <trkpt lat="45.44113805107368" lon="-122.29062000000002"><ele>226.5</ele></trkpt>
    <trkpt lat="45.44122618466551" lon="-122.29062"><ele>226.5</ele></trkpt>
    <trkpt lat="45.44170732213107" lon="-122.29062"><ele>226.5</ele></trkpt>
    <trkpt lat="45.44220000000001" lon="-122.29062"><ele>226.6</ele></trkpt>
    <trkpt lat="45.44303" lon="-122.29060000000001"><ele>226.6</ele></trkpt>
    <trkpt lat="45.44670652212927" lon="-122.29058532326496"><ele>226.5</ele></trkpt>
    <trkpt lat="45.4467964540131" lon="-122.29058496425543"><ele>226.3</ele></trkpt>
    <trkpt lat="45.447055457838545" lon="-122.29058393030803"><ele>225.0</ele></trkpt>
    <trkpt lat="45.44731536098283" lon="-122.29058289277053"><ele>223.6</ele></trkpt>
    <trkpt lat="45.44744576221438" lon="-122.29058237220673"><ele>222.9</ele></trkpt>
    <trkpt lat="45.447575264127096" lon="-122.29058185523303"><ele>222.4</ele></trkpt>
    <trkpt lat="45.44766159873558" lon="-122.2905815105839"><ele>222.0</ele></trkpt>
    <trkpt lat="45.44774703402523" lon="-122.29058116952486"><ele>221.7</ele></trkpt>
    <trkpt lat="45.448040000000006" lon="-122.29058"><ele>221.7</ele></trkpt>
    <trkpt lat="45.449070000000006" lon="-122.29055000000001"><ele>222.0</ele></trkpt>
    <trkpt lat="45.45221455500521" lon="-122.29051490452005"><ele>222.9</ele></trkpt>
    <trkpt lat="45.45282337758665" lon="-122.29050810962515"><ele>222.1</ele></trkpt>
    <trkpt lat="45.452991545714745" lon="-122.29050623274873"><ele>221.2</ele></trkpt>
    <trkpt lat="45.45332608338135" lon="-122.29050249906942"><ele>219.9</ele></trkpt>
    <trkpt lat="45.453453783243326" lon="-122.29050107384775"><ele>219.6</ele></trkpt>
    <trkpt lat="45.45355000000001" lon="-122.29050000000001"><ele>219.2</ele></trkpt>
    <trkpt lat="45.4536649248559" lon="-122.29050957707133"><ele>218.9</ele></trkpt>
  </trkseg></trk>
</gpx>
