<?xml version="1.0" encoding="UTF-8"?>
<gpx version="1.1" creator="h2c-tracker" xmlns="http://www.topografix.com/GPX/1/1">
  <metadata><name>Hood to Coast 2026 — Leg 28 (3.83 mi)</name><desc>Derived from the official Hood to Coast Strava route (simplified, 397 points, ~3.84 mi). Verify against the official leg map PDF.</desc></metadata>
  <wpt lat="45.933960000000006" lon="-123.50597"><name>Exchange 27 — Jewell - HWY 202</name></wpt>
  <wpt lat="45.95422073205782" lon="-123.57391749074351"><name>Exchange 28 — HWY 202 m.p. 25.3</name></wpt>
  <trk><name>HTC Leg 28</name><trkseg>
    <trkpt lat="45.933960000000006" lon="-123.50597"><ele>151.2</ele></trkpt>
    <trkpt lat="45.93398383307073" lon="-123.50630604629725"><ele>151.4</ele></trkpt>
    <trkpt lat="45.93399751830317" lon="-123.50649900807461"><ele>151.6</ele></trkpt>
    <trkpt lat="45.934024888768036" lon="-123.50688493162934"><ele>152.0</ele></trkpt>
    <trkpt lat="45.93403857400048" lon="-123.5070778934067"><ele>152.3</ele></trkpt>
    <trkpt lat="45.93405672974218" lon="-123.50733388936466"><ele>152.7</ele></trkpt>
    <trkpt lat="45.93406" lon="-123.50738000000001"><ele>152.7</ele></trkpt>
    <trkpt lat="45.934059192040905" lon="-123.50746295046761"><ele>152.9</ele></trkpt>
    <trkpt lat="45.934058562353975" lon="-123.50752759832527"><ele>153.0</ele></trkpt>
    <trkpt lat="45.934056673293206" lon="-123.50772154189822"><ele>153.5</ele></trkpt>
    <trkpt lat="45.93405226548472" lon="-123.50817407690181"><ele>154.8</ele></trkpt>
    <trkpt lat="45.934050376423954" lon="-123.50836802047476"><ele>155.2</ele></trkpt>
    <trkpt lat="45.934049746737024" lon="-123.50843266833243"><ele>155.4</ele></trkpt>
    <trkpt lat="45.93404848736318" lon="-123.50856196404773"><ele>155.6</ele></trkpt>
    <trkpt lat="45.9340465983024" lon="-123.5087559076207"><ele>155.9</ele></trkpt>
    <trkpt lat="45.934044772210314" lon="-123.50894338640789"><ele>156.1</ele></trkpt>
    <trkpt lat="45.93404355061768" lon="-123.50906880325174"><ele>156.2</ele></trkpt>
    <trkpt lat="45.93404049033923" lon="-123.50938299183994"><ele>156.4</ele></trkpt>
    <trkpt lat="45.93403753081068" lon="-123.50968683677091"><ele>156.7</ele></trkpt>
    <trkpt lat="45.93403634699926" lon="-123.5098083747433"><ele>156.9</ele></trkpt>
    <trkpt lat="45.93403457128213" lon="-123.5099906817019"><ele>157.2</ele></trkpt>
    <trkpt lat="45.93403338747071" lon="-123.51011221967427"><ele>157.5</ele></trkpt>
    <trkpt lat="45.934032191065555" lon="-123.51023505060381"><ele>157.8</ele></trkpt>
    <trkpt lat="45.93403158656611" lon="-123.51029711254716"><ele>158.0</ele></trkpt>
    <trkpt lat="45.93403039016095" lon="-123.51041994347672"><ele>158.2</ele></trkpt>
    <trkpt lat="45.93403000000001" lon="-123.51046000000001"><ele>158.3</ele></trkpt>
    <trkpt lat="45.93402767001059" lon="-123.51054271462428"><ele>158.4</ele></trkpt>
    <trkpt lat="45.93402421248334" lon="-123.5106654568419"><ele>158.6</ele></trkpt>
    <trkpt lat="45.93402075495607" lon="-123.51078819905952"><ele>158.7</ele></trkpt>
    <trkpt lat="45.93401729742882" lon="-123.51091094127713"><ele>158.8</ele></trkpt>
    <trkpt lat="45.93400659729183" lon="-123.51129079614009"><ele>158.9</ele></trkpt>
    <trkpt lat="45.93400299418449" lon="-123.51141870645108"><ele>159.0</ele></trkpt>
    <trkpt lat="45.93400121082832" lon="-123.51148201559491"><ele>159.0</ele></trkpt>
    <trkpt lat="45.93399764411599" lon="-123.51160863388256"><ele>159.2</ele></trkpt>
    <trkpt lat="45.93398694397901" lon="-123.51198848874552"><ele>159.9</ele></trkpt>
    <trkpt lat="45.933979737764304" lon="-123.5122443093675"><ele>160.3</ele></trkpt>
    <trkpt lat="45.933972640734666" lon="-123.51249625391947"><ele>160.6</ele></trkpt>
    <trkpt lat="45.93397253154959" lon="-123.51250012998949"><ele>161.7</ele></trkpt>
    <trkpt lat="45.93396903762732" lon="-123.51262416423046"><ele>161.1</ele></trkpt>
    <trkpt lat="45.93396201338773" lon="-123.51287352473572"><ele>161.4</ele></trkpt>
    <trkpt lat="45.933956663319236" lon="-123.5130634521672"><ele>161.9</ele></trkpt>
    <trkpt lat="45.93395" lon="-123.51330000000002"><ele>162.4</ele></trkpt>
    <trkpt lat="45.933927190321704" lon="-123.51376424404064"><ele>163.5</ele></trkpt>
    <trkpt lat="45.9339115367281" lon="-123.5140828407107"><ele>164.4</ele></trkpt>
    <trkpt lat="45.93388954564719" lon="-123.51453042388684"><ele>165.8</ele></trkpt>
    <trkpt lat="45.93387072330992" lon="-123.5149135138099"><ele>166.9</ele></trkpt>
    <trkpt lat="45.93385576683991" lon="-123.51521792196428"><ele>167.7</ele></trkpt>
    <trkpt lat="45.933840746995024" lon="-123.51552361998372"><ele>168.4</ele></trkpt>
    <trkpt lat="45.933834726382095" lon="-123.5156461571645"><ele>168.7</ele></trkpt>
    <trkpt lat="45.93382876914404" lon="-123.51576740448023"><ele>168.9</ele></trkpt>
    <trkpt lat="45.933816727918185" lon="-123.5160124788418"><ele>169.3</ele></trkpt>
    <trkpt lat="45.93381045380576" lon="-123.51614017548282"><ele>169.3</ele></trkpt>
    <trkpt lat="45.933807285062116" lon="-123.51620466873587"><ele>169.4</ele></trkpt>
    <trkpt lat="45.933800947574824" lon="-123.51633365524197"><ele>169.3</ele></trkpt>
    <trkpt lat="45.9337946734624" lon="-123.516461351883"><ele>169.3</ele></trkpt>
    <trkpt lat="45.93378833597511" lon="-123.5165903383891"><ele>169.1</ele></trkpt>
    <trkpt lat="45.93378199848782" lon="-123.51671932489518"><ele>168.9</ele></trkpt>
    <trkpt lat="45.933780000000006" lon="-123.51676"><ele>168.8</ele></trkpt>
    <trkpt lat="45.93378617713627" lon="-123.51704105969979"><ele>168.2</ele></trkpt>
    <trkpt lat="45.9337889892429" lon="-123.51716901055133"><ele>168.0</ele></trkpt>
    <trkpt lat="45.93379182975464" lon="-123.51729825383569"><ele>167.8</ele></trkpt>
    <trkpt lat="45.93379890262888" lon="-123.51762006961377"><ele>167.2</ele></trkpt>
    <trkpt lat="45.933800000000005" lon="-123.51767000000001"><ele>167.2</ele></trkpt>
    <trkpt lat="45.93379534881307" lon="-123.51774907017783"><ele>167.0</ele></trkpt>
    <trkpt lat="45.933780000000006" lon="-123.51801"><ele>166.5</ele></trkpt>
    <trkpt lat="45.93376192991836" lon="-123.51806421024493"><ele>166.4</ele></trkpt>
    <trkpt lat="45.933723449716396" lon="-123.51817965085081"><ele>166.2</ele></trkpt>
    <trkpt lat="45.93370401527096" lon="-123.51823795418713"><ele>166.1</ele></trkpt>
    <trkpt lat="45.9337" lon="-123.51825000000001"><ele>166.0</ele></trkpt>
    <trkpt lat="45.9336845808391" lon="-123.51829625748275"><ele>166.0</ele></trkpt>
    <trkpt lat="45.93366" lon="-123.51837"><ele>165.9</ele></trkpt>
    <trkpt lat="45.93363949409217" lon="-123.5184072834688"><ele>165.9</ele></trkpt>
    <trkpt lat="45.933611602147465" lon="-123.51845799609553"><ele>165.9</ele></trkpt>
    <trkpt lat="45.93355637609696" lon="-123.51855840709644"><ele>166.0</ele></trkpt>
    <trkpt lat="45.933500592207565" lon="-123.5186598323499"><ele>166.1</ele></trkpt>
    <trkpt lat="45.933440000000004" lon="-123.51877"><ele>166.3</ele></trkpt>
    <trkpt lat="45.933407115048226" lon="-123.51887687609326"><ele>166.5</ele></trkpt>
    <trkpt lat="45.93336" lon="-123.51903000000001"><ele>166.8</ele></trkpt>
    <trkpt lat="45.933356206776544" lon="-123.51905595363424"><ele>166.9</ele></trkpt>
    <trkpt lat="45.9333288346203" lon="-123.51924323680852"><ele>167.3</ele></trkpt>
    <trkpt lat="45.93328259786989" lon="-123.51955959352185"><ele>168.1</ele></trkpt>
    <trkpt lat="45.93324560846956" lon="-123.51981267889252"><ele>168.8</ele></trkpt>
    <trkpt lat="45.93321805136632" lon="-123.52000122749365"><ele>169.4</ele></trkpt>
    <trkpt lat="45.933205105076205" lon="-123.52008980737338"><ele>169.5</ele></trkpt>
    <trkpt lat="45.93317847270797" lon="-123.52027202884027"><ele>170.0</ele></trkpt>
    <trkpt lat="45.933170000000004" lon="-123.52033000000002"><ele>170.1</ele></trkpt>
    <trkpt lat="45.93317487577799" lon="-123.52045677022784"><ele>170.5</ele></trkpt>
    <trkpt lat="45.93318000000001" lon="-123.52059000000001"><ele>170.8</ele></trkpt>
    <trkpt lat="45.933260000000004" lon="-123.52086000000001"><ele>171.4</ele></trkpt>
    <trkpt lat="45.93326306822399" lon="-123.52086767055995"><ele>171.4</ele></trkpt>
    <trkpt lat="45.93332" lon="-123.52101"><ele>171.6</ele></trkpt>
    <trkpt lat="45.933352875764" lon="-123.5210560260696"><ele>171.6</ele></trkpt>
    <trkpt lat="45.933420000000005" lon="-123.52115"><ele>172.0</ele></trkpt>
    <trkpt lat="45.933449648839826" lon="-123.52118327931001"><ele>172.2</ele></trkpt>
    <trkpt lat="45.93355385612141" lon="-123.52130024666688"><ele>172.7</ele></trkpt>
    <trkpt lat="45.933623327642465" lon="-123.52137822490481"><ele>173.0</ele></trkpt>
    <trkpt lat="45.93376156179151" lon="-123.52153338568435"><ele>173.5</ele></trkpt>
    <trkpt lat="45.933910000000004" lon="-123.52170000000001"><ele>174.2</ele></trkpt>
    <trkpt lat="45.93397011136876" lon="-123.52176707341995"><ele>174.4</ele></trkpt>
    <trkpt lat="45.93410865669972" lon="-123.52192166496155"><ele>174.9</ele></trkpt>
    <trkpt lat="45.93449089971537" lon="-123.52234817906094"><ele>176.2</ele></trkpt>
    <trkpt lat="45.934803514821105" lon="-123.52269700100095"><ele>177.4</ele></trkpt>
    <trkpt lat="45.93490937766373" lon="-123.52281512479428"><ele>177.7</ele></trkpt>
    <trkpt lat="45.9350869998829" lon="-123.52301331907839"><ele>178.1</ele></trkpt>
    <trkpt lat="45.9351573382817" lon="-123.52309180401491"><ele>178.2</ele></trkpt>
    <trkpt lat="45.93522838716936" lon="-123.52317108172853"><ele>178.3</ele></trkpt>
    <trkpt lat="45.93544153383237" lon="-123.52340891486946"><ele>178.5</ele></trkpt>
    <trkpt lat="45.93551258272004" lon="-123.5234881925831"><ele>178.5</ele></trkpt>
    <trkpt lat="45.935583631607706" lon="-123.52356747029674"><ele>178.7</ele></trkpt>
    <trkpt lat="45.93575841187136" lon="-123.52376249347229"><ele>178.7</ele></trkpt>
    <trkpt lat="45.936074579421486" lon="-123.524115279298"><ele>178.8</ele></trkpt>
    <trkpt lat="45.93617973177524" lon="-123.52423261031419"><ele>178.7</ele></trkpt>
    <trkpt lat="45.93625149115178" lon="-123.52431268080497"><ele>178.6</ele></trkpt>
    <trkpt lat="45.93632254003945" lon="-123.5243919585186"><ele>178.4</ele></trkpt>
    <trkpt lat="45.936677784477794" lon="-123.52478834708681"><ele>177.4</ele></trkpt>
    <trkpt lat="45.936855406696964" lon="-123.52498654137091"><ele>176.8</ele></trkpt>
    <trkpt lat="45.93699608349454" lon="-123.52514351124391"><ele>176.2</ele></trkpt>
    <trkpt lat="45.93713889175876" lon="-123.52530285944833"><ele>175.6</ele></trkpt>
    <trkpt lat="45.93720994064642" lon="-123.52538213716198"><ele>175.2</ele></trkpt>
    <trkpt lat="45.937423087309426" lon="-123.52561997030288"><ele>174.1</ele></trkpt>
    <trkpt lat="45.937450000000005" lon="-123.52565000000001"><ele>174.0</ele></trkpt>
    <trkpt lat="45.937498336192405" lon="-123.52569028016035"><ele>173.8</ele></trkpt>
    <trkpt lat="45.93773098776779" lon="-123.52588415647315"><ele>173.0</ele></trkpt>
    <trkpt lat="45.93775" lon="-123.52590000000001"><ele>172.9</ele></trkpt>
    <trkpt lat="45.93781418824712" lon="-123.52593209412356"><ele>172.7</ele></trkpt>
    <trkpt lat="45.9379840753006" lon="-123.5260170376503"><ele>172.3</ele></trkpt>
    <trkpt lat="45.938010000000006" lon="-123.52603"><ele>172.3</ele></trkpt>
    <trkpt lat="45.938027259952776" lon="-123.52603431498818"><ele>172.3</ele></trkpt>
    <trkpt lat="45.938071561505694" lon="-123.52604539037642"><ele>172.2</ele></trkpt>
    <trkpt lat="45.93816016461152" lon="-123.52606754115288"><ele>172.2</ele></trkpt>
    <trkpt lat="45.93817000000001" lon="-123.52607"><ele>172.2</ele></trkpt>
    <trkpt lat="45.938337952310036" lon="-123.52610671088743"><ele>172.2</ele></trkpt>
    <trkpt lat="45.93851577417909" lon="-123.52614557905554"><ele>172.2</ele></trkpt>
    <trkpt lat="45.93860468511361" lon="-123.52616501313959"><ele>172.2</ele></trkpt>
    <trkpt lat="45.93869270693879" lon="-123.5261842528828"><ele>172.3</ele></trkpt>
    <trkpt lat="45.939263515138435" lon="-123.5263090197024"><ele>172.3</ele></trkpt>
    <trkpt lat="45.939615602439154" lon="-123.52638597867522"><ele>172.4</ele></trkpt>
    <trkpt lat="45.93979075698016" lon="-123.5264242638208"><ele>172.5</ele></trkpt>
    <trkpt lat="45.940000000000005" lon="-123.52647"><ele>172.6</ele></trkpt>
    <trkpt lat="45.94021094284726" lon="-123.52659145194237"><ele>172.8</ele></trkpt>
    <trkpt lat="45.94033" lon="-123.52666"><ele>172.9</ele></trkpt>
    <trkpt lat="45.9404011744531" lon="-123.5267311744531"><ele>173.0</ele></trkpt>
    <trkpt lat="45.94046" lon="-123.52679"><ele>173.0</ele></trkpt>
    <trkpt lat="45.94050220921271" lon="-123.526846890678"><ele>173.1</ele></trkpt>
    <trkpt lat="45.94066165602142" lon="-123.52706179724626"><ele>173.6</ele></trkpt>
    <trkpt lat="45.940690000000004" lon="-123.5271"><ele>173.6</ele></trkpt>
    <trkpt lat="45.940744496817466" lon="-123.52720899363493"><ele>173.8</ele></trkpt>
    <trkpt lat="45.940780000000004" lon="-123.52728"><ele>173.9</ele></trkpt>
    <trkpt lat="45.94082332848529" lon="-123.52735994680692"><ele>174.0</ele></trkpt>
    <trkpt lat="45.94114673710955" lon="-123.52795667864902"><ele>174.7</ele></trkpt>
    <trkpt lat="45.9413087178393" lon="-123.52825555459728"><ele>175.1</ele></trkpt>
    <trkpt lat="45.9414972346613" lon="-123.52860339315822"><ele>175.6</ele></trkpt>
    <trkpt lat="45.94157794860854" lon="-123.52875232110515"><ele>175.9</ele></trkpt>
    <trkpt lat="45.941715051751814" lon="-123.52900529460402"><ele>176.2</ele></trkpt>
    <trkpt lat="45.941797424204836" lon="-123.52915728271422"><ele>176.5</ele></trkpt>
    <trkpt lat="45.9419074384206" lon="-123.52936027354596"><ele>177.0</ele></trkpt>
    <trkpt lat="45.94204509439913" lon="-123.52961426709928"><ele>177.6</ele></trkpt>
    <trkpt lat="45.9421551086149" lon="-123.52981725793103"><ele>178.1</ele></trkpt>
    <trkpt lat="45.94221039214041" lon="-123.52991926337413"><ele>178.3</ele></trkpt>
    <trkpt lat="45.94226512283067" lon="-123.53002024876278"><ele>178.7</ele></trkpt>
    <trkpt lat="45.94243042057195" lon="-123.53032524503763"><ele>179.8</ele></trkpt>
    <trkpt lat="45.94248515126221" lon="-123.53042623042629"><ele>180.1</ele></trkpt>
    <trkpt lat="45.94262280724074" lon="-123.5306802239796"><ele>180.8</ele></trkpt>
    <trkpt lat="45.942705179693746" lon="-123.5308322120898"><ele>181.2</ele></trkpt>
    <trkpt lat="45.942760463219265" lon="-123.53093421753289"><ele>181.5</ele></trkpt>
    <trkpt lat="45.94278755214677" lon="-123.53098420020001"><ele>181.6</ele></trkpt>
    <trkpt lat="45.94284283567228" lon="-123.53108620564309"><ele>181.7</ele></trkpt>
    <trkpt lat="45.94289756636254" lon="-123.53118719103176"><ele>181.8</ele></trkpt>
    <trkpt lat="45.94295284988805" lon="-123.53128919647486"><ele>181.9</ele></trkpt>
    <trkpt lat="45.94304" lon="-123.53145"><ele>181.9</ele></trkpt>
    <trkpt lat="45.94316738263795" lon="-123.53170274332928"><ele>182.0</ele></trkpt>
    <trkpt lat="45.943272409841185" lon="-123.53191113063727"><ele>182.0</ele></trkpt>
    <trkpt lat="45.943351576074775" lon="-123.53206820649757"><ele>182.0</ele></trkpt>
    <trkpt lat="45.943430742308365" lon="-123.53222528235787"><ele>182.0</ele></trkpt>
    <trkpt lat="45.943482464247644" lon="-123.53232790525325"><ele>181.9</ele></trkpt>
    <trkpt lat="45.943588019225764" lon="-123.53253733973365"><ele>181.7</ele></trkpt>
    <trkpt lat="45.94366718545935" lon="-123.53269441559395"><ele>181.4</ele></trkpt>
    <trkpt lat="45.943670000000004" lon="-123.5327"><ele>181.4</ele></trkpt>
    <trkpt lat="45.943766511027825" lon="-123.5329100534135"><ele>181.0</ele></trkpt>
    <trkpt lat="45.94384" lon="-123.53307000000001"><ele>180.7</ele></trkpt>
    <trkpt lat="45.94387678343994" lon="-123.53318910828172"><ele>180.4</ele></trkpt>
    <trkpt lat="45.94394978863089" lon="-123.53342550604289"><ele>180.0</ele></trkpt>
    <trkpt lat="45.94398592620041" lon="-123.53354252293467"><ele>179.8</ele></trkpt>
    <trkpt lat="45.944004177498144" lon="-123.53360162237496"><ele>179.8</ele></trkpt>
    <trkpt lat="45.94404068009363" lon="-123.53371982125554"><ele>179.7</ele></trkpt>
    <trkpt lat="45.944050000000004" lon="-123.53375000000001"><ele>179.7</ele></trkpt>
    <trkpt lat="45.94408560985555" lon="-123.53390261366663"><ele>179.7</ele></trkpt>
    <trkpt lat="45.944156847976686" lon="-123.53420791990006"><ele>179.8</ele></trkpt>
    <trkpt lat="45.944185457663885" lon="-123.5343305328452"><ele>179.9</ele></trkpt>
    <trkpt lat="45.944190000000006" lon="-123.53435"><ele>179.9</ele></trkpt>
    <trkpt lat="45.944207461665705" lon="-123.53445586134828"><ele>180.0</ele></trkpt>
    <trkpt lat="45.94423839001589" lon="-123.53464336447132"><ele>180.3</ele></trkpt>
    <trkpt lat="45.9442695259389" lon="-123.53483212600457"><ele>180.6</ele></trkpt>
    <trkpt lat="45.94439303176685" lon="-123.53558088008648"><ele>182.0</ele></trkpt>
    <trkpt lat="45.94441358147604" lon="-123.53570546269843"><ele>182.3</ele></trkpt>
    <trkpt lat="45.94444450982622" lon="-123.53589296582145"><ele>182.8</ele></trkpt>
    <trkpt lat="45.944537294876795" lon="-123.53645547519055"><ele>184.4</ele></trkpt>
    <trkpt lat="45.94455784458599" lon="-123.5365800578025"><ele>184.7</ele></trkpt>
    <trkpt lat="45.94458877293617" lon="-123.53676756092551"><ele>185.1</ele></trkpt>
    <trkpt lat="45.94460932264536" lon="-123.53689214353747"><ele>185.3</ele></trkpt>
    <trkpt lat="45.94463007992737" lon="-123.53701798455964"><ele>185.5</ele></trkpt>
    <trkpt lat="45.944650629636556" lon="-123.53714256717159"><ele>185.7</ele></trkpt>
    <trkpt lat="45.94470210769593" lon="-123.53745465290658"><ele>186.0</ele></trkpt>
    <trkpt lat="45.944733036046124" lon="-123.53764215602959"><ele>186.3</ele></trkpt>
    <trkpt lat="45.944774343037324" lon="-123.53789257966372"><ele>186.7</ele></trkpt>
    <trkpt lat="45.94482582109669" lon="-123.5382046653987"><ele>187.3</ele></trkpt>
    <trkpt lat="45.94485633430125" lon="-123.53838965170128"><ele>187.6</ele></trkpt>
    <trkpt lat="45.9448868475058" lon="-123.53857463800387"><ele>187.8</ele></trkpt>
    <trkpt lat="45.94490718964216" lon="-123.53869796220559"><ele>187.8</ele></trkpt>
    <trkpt lat="45.944937702846715" lon="-123.53888294850817"><ele>187.9</ele></trkpt>
    <trkpt lat="45.94495804498308" lon="-123.5390062727099"><ele>187.8</ele></trkpt>
    <trkpt lat="45.94497838711945" lon="-123.53912959691164"><ele>187.8</ele></trkpt>
    <trkpt lat="45.944998729255815" lon="-123.53925292111336"><ele>187.6</ele></trkpt>
    <trkpt lat="45.945008900324" lon="-123.5393145832142"><ele>187.4</ele></trkpt>
    <trkpt lat="45.94501907139218" lon="-123.53937624531508"><ele>187.3</ele></trkpt>
    <trkpt lat="45.94503941352855" lon="-123.5394995695168"><ele>187.0</ele></trkpt>
    <trkpt lat="45.94504958459673" lon="-123.53956123161767"><ele>186.8</ele></trkpt>
    <trkpt lat="45.94507013430592" lon="-123.53968581422961"><ele>186.3</ele></trkpt>
    <trkpt lat="45.945150000000005" lon="-123.54017"><ele>184.4</ele></trkpt>
    <trkpt lat="45.945177878186186" lon="-123.54030142573484"><ele>183.8</ele></trkpt>
    <trkpt lat="45.94521645206493" lon="-123.54048327402037"><ele>183.0</ele></trkpt>
    <trkpt lat="45.945220000000006" lon="-123.54050000000001"><ele>182.9</ele></trkpt>
    <trkpt lat="45.94528604311762" lon="-123.54071464013225"><ele>181.8</ele></trkpt>
    <trkpt lat="45.94532207074841" lon="-123.54083172993232"><ele>181.3</ele></trkpt>
    <trkpt lat="45.94534" lon="-123.54089"><ele>181.1</ele></trkpt>
    <trkpt lat="45.94536199141056" lon="-123.54094600937377"><ele>180.9</ele></trkpt>
    <trkpt lat="45.94538365896977" lon="-123.54100119393863"><ele>180.7</ele></trkpt>
    <trkpt lat="45.945426994088194" lon="-123.54111156306837"><ele>180.3</ele></trkpt>
    <trkpt lat="45.94547032920662" lon="-123.54122193219813"><ele>180.0</ele></trkpt>
    <trkpt lat="45.94551366432504" lon="-123.54133230132786"><ele>179.8</ele></trkpt>
    <trkpt lat="45.94555699944347" lon="-123.5414426704576"><ele>179.6</ele></trkpt>
    <trkpt lat="45.94557866700268" lon="-123.54149785502246"><ele>179.5</ele></trkpt>
    <trkpt lat="45.9456224443162" lon="-123.54160935036782"><ele>179.4</ele></trkpt>
    <trkpt lat="45.94566577943462" lon="-123.54171971949755"><ele>179.3</ele></trkpt>
    <trkpt lat="45.94581524137368" lon="-123.5421003803736"><ele>179.3</ele></trkpt>
    <trkpt lat="45.945878033075886" lon="-123.54226030299014"><ele>179.3</ele></trkpt>
    <trkpt lat="45.94589925844001" lon="-123.54231436133941"><ele>179.4</ele></trkpt>
    <trkpt lat="45.94594126697318" lon="-123.54242135182231"><ele>179.6</ele></trkpt>
    <trkpt lat="45.946024841844434" lon="-123.54263420657254"><ele>180.0</ele></trkpt>
    <trkpt lat="45.94606463940217" lon="-123.5427355659774"><ele>180.1</ele></trkpt>
    <trkpt lat="45.94618403207538" lon="-123.54303964419199"><ele>180.7</ele></trkpt>
    <trkpt lat="45.94631492182083" lon="-123.54337300401242"><ele>182.5</ele></trkpt>
    <trkpt lat="45.94640247644785" lon="-123.54359599470313"><ele>183.6</ele></trkpt>
    <trkpt lat="45.94651169863408" lon="-123.54387416995868"><ele>184.9</ele></trkpt>
    <trkpt lat="45.94662" lon="-123.54415000000002"><ele>186.0</ele></trkpt>
    <trkpt lat="45.94662082347597" lon="-123.54415241896066"><ele>186.1</ele></trkpt>
    <trkpt lat="45.94665997287881" lon="-123.54426742033152"><ele>186.6</ele></trkpt>
    <trkpt lat="45.946699122281665" lon="-123.54438242170238"><ele>187.1</ele></trkpt>
    <trkpt lat="45.946780000000004" lon="-123.54462000000001"><ele>188.3</ele></trkpt>
    <trkpt lat="45.946791698973634" lon="-123.54467230129387"><ele>188.6</ele></trkpt>
    <trkpt lat="45.94681896448573" lon="-123.54479419417149"><ele>189.1</ele></trkpt>
    <trkpt lat="45.94687349550993" lon="-123.54503797992672"><ele>190.0</ele></trkpt>
    <trkpt lat="45.94694152158556" lon="-123.54534209650015"><ele>191.2</ele></trkpt>
    <trkpt lat="45.94695" lon="-123.54538000000001"><ele>191.4</ele></trkpt>
    <trkpt lat="45.94697092774472" lon="-123.54552858698753"><ele>191.9</ele></trkpt>
    <trkpt lat="45.946988603323724" lon="-123.54565408359845"><ele>192.3</ele></trkpt>
    <trkpt lat="45.947006278902734" lon="-123.5457795802094"><ele>192.6</ele></trkpt>
    <trkpt lat="45.947015027421635" lon="-123.54584169469359"><ele>192.8</ele></trkpt>
    <trkpt lat="45.94703270300064" lon="-123.54596719130453"><ele>193.0</ele></trkpt>
    <trkpt lat="45.94705037857965" lon="-123.54609268791546"><ele>193.1</ele></trkpt>
    <trkpt lat="45.94706805415865" lon="-123.5462181845264"><ele>193.1</ele></trkpt>
    <trkpt lat="45.94708572973765" lon="-123.54634368113733"><ele>193.1</ele></trkpt>
    <trkpt lat="45.947112153835555" lon="-123.54653129223247"><ele>193.0</ele></trkpt>
    <trkpt lat="45.94712982941456" lon="-123.54665678884339"><ele>193.0</ele></trkpt>
    <trkpt lat="45.94714732645236" lon="-123.5467810178118"><ele>192.8</ele></trkpt>
    <trkpt lat="45.94715" lon="-123.5468"><ele>192.8</ele></trkpt>
    <trkpt lat="45.94716481052153" lon="-123.5469065713614"><ele>192.6</ele></trkpt>
    <trkpt lat="45.947182260461254" lon="-123.54703213505816"><ele>192.4</ele></trkpt>
    <trkpt lat="45.947191073562124" lon="-123.54709555106662"><ele>192.2</ele></trkpt>
    <trkpt lat="45.94720852350186" lon="-123.5472211147634"><ele>191.8</ele></trkpt>
    <trkpt lat="45.94721716034072" lon="-123.5472832624517"><ele>191.6</ele></trkpt>
    <trkpt lat="45.947234610280454" lon="-123.54740882614847"><ele>191.2</ele></trkpt>
    <trkpt lat="45.94725206022019" lon="-123.54753438984524"><ele>190.7</ele></trkpt>
    <trkpt lat="45.94726951015992" lon="-123.54765995354201"><ele>190.1</ele></trkpt>
    <trkpt lat="45.9473216837171" lon="-123.54803537631216"><ele>188.4</ele></trkpt>
    <trkpt lat="45.94733913365683" lon="-123.54816094000893"><ele>187.9</ele></trkpt>
    <trkpt lat="45.947356583596566" lon="-123.5482865037057"><ele>187.5</ele></trkpt>
    <trkpt lat="45.94738161280305" lon="-123.54846660516975"><ele>186.9</ele></trkpt>
    <trkpt lat="45.94739835769471" lon="-123.54858709558586"><ele>186.5</ele></trkpt>
    <trkpt lat="45.94741510258637" lon="-123.54870758600194"><ele>186.2</ele></trkpt>
    <trkpt lat="45.947432023740056" lon="-123.54882934473821"><ele>185.9</ele></trkpt>
    <trkpt lat="45.94744876863172" lon="-123.5489498351543"><ele>185.7</ele></trkpt>
    <trkpt lat="45.94745705294654" lon="-123.54900944620226"><ele>185.7</ele></trkpt>
    <trkpt lat="45.9474737978382" lon="-123.54912993661836"><ele>185.6</ele></trkpt>
    <trkpt lat="45.94749071899188" lon="-123.54925169535461"><ele>185.6</ele></trkpt>
    <trkpt lat="45.9475079926696" lon="-123.54937599073122"><ele>185.8</ele></trkpt>
    <trkpt lat="45.94752544260933" lon="-123.54950155442799"><ele>185.9</ele></trkpt>
    <trkpt lat="45.94753425571021" lon="-123.54956497043646"><ele>186.0</ele></trkpt>
    <trkpt lat="45.94755152938792" lon="-123.54968926581306"><ele>186.3</ele></trkpt>
    <trkpt lat="45.947568979327656" lon="-123.54981482950984"><ele>186.7</ele></trkpt>
    <trkpt lat="45.94757779242853" lon="-123.5498782455183"><ele>186.8</ele></trkpt>
    <trkpt lat="45.94762132914685" lon="-123.55019152060015"><ele>187.9</ele></trkpt>
    <trkpt lat="45.94763877908658" lon="-123.55031708429692"><ele>188.3</ele></trkpt>
    <trkpt lat="45.94769095264376" lon="-123.55069250706707"><ele>189.3</ele></trkpt>
    <trkpt lat="45.947717215684364" lon="-123.55088148677228"><ele>189.8</ele></trkpt>
    <trkpt lat="45.94773431310007" lon="-123.55100451382873"><ele>190.0</ele></trkpt>
    <trkpt lat="45.94775193930182" lon="-123.55113134584568"><ele>190.2</ele></trkpt>
    <trkpt lat="45.94780428912102" lon="-123.551508036936"><ele>190.7</ele></trkpt>
    <trkpt lat="45.94784782583934" lon="-123.55182131201784"><ele>191.2</ele></trkpt>
    <trkpt lat="45.9478827257188" lon="-123.55207243941138"><ele>191.5</ele></trkpt>
    <trkpt lat="45.94792626243712" lon="-123.5523857144932"><ele>191.7</ele></trkpt>
    <trkpt lat="45.947969799155445" lon="-123.55269898957505"><ele>191.8</ele></trkpt>
    <trkpt lat="45.94800452277289" lon="-123.55294884864843"><ele>191.9</ele></trkpt>
    <trkpt lat="45.948021972712624" lon="-123.55307441234521"><ele>192.0</ele></trkpt>
    <trkpt lat="45.94803942265236" lon="-123.55319997604197"><ele>192.0</ele></trkpt>
    <trkpt lat="45.94805687259209" lon="-123.55332553973875"><ele>191.9</ele></trkpt>
    <trkpt lat="45.94809159620954" lon="-123.55357539881211"><ele>191.8</ele></trkpt>
    <trkpt lat="45.94810904614928" lon="-123.55370096250888"><ele>191.8</ele></trkpt>
    <trkpt lat="45.948170032807326" lon="-123.5541398012875"><ele>191.8</ele></trkpt>
    <trkpt lat="45.94818748274706" lon="-123.55426536498426"><ele>191.8</ele></trkpt>
    <trkpt lat="45.94821356952565" lon="-123.55445307636934"><ele>191.9</ele></trkpt>
    <trkpt lat="45.94823101946538" lon="-123.55457864006611"><ele>191.9</ele></trkpt>
    <trkpt lat="45.94829200612344" lon="-123.55501747884473"><ele>192.3</ele></trkpt>
    <trkpt lat="45.94834453220466" lon="-123.5553954382552"><ele>192.7</ele></trkpt>
    <trkpt lat="45.94840604764876" lon="-123.55583808199432"><ele>193.2</ele></trkpt>
    <trkpt lat="45.948476199931726" lon="-123.55634287342176"><ele>193.6</ele></trkpt>
    <trkpt lat="45.94849364987146" lon="-123.55646843711853"><ele>193.7</ele></trkpt>
    <trkpt lat="45.94852008917408" lon="-123.55665868514393"><ele>193.9</ele></trkpt>
    <trkpt lat="45.948530000000005" lon="-123.55673000000002"><ele>194.0</ele></trkpt>
    <trkpt lat="45.94857985770867" lon="-123.55710051120757"><ele>194.5</ele></trkpt>
    <trkpt lat="45.94863095049621" lon="-123.55748020074631"><ele>195.0</ele></trkpt>
    <trkpt lat="45.94869896029367" lon="-123.55798560688817"><ele>195.8</ele></trkpt>
    <trkpt lat="45.94875005308119" lon="-123.55836529642687"><ele>196.2</ele></trkpt>
    <trkpt lat="45.948792601924325" lon="-123.55868149273172"><ele>196.6</ele></trkpt>
    <trkpt lat="45.9488430111963" lon="-123.55905610281175"><ele>197.1</ele></trkpt>
    <trkpt lat="45.94901969996658" lon="-123.56036914288885"><ele>199.2</ele></trkpt>
    <trkpt lat="45.94903644609761" lon="-123.56049358962728"><ele>199.3</ele></trkpt>
    <trkpt lat="45.949040000000004" lon="-123.56052000000001"><ele>199.3</ele></trkpt>
    <trkpt lat="45.94905855419335" lon="-123.56068234919178"><ele>199.5</ele></trkpt>
    <trkpt lat="45.94908" lon="-123.56087000000001"><ele>199.6</ele></trkpt>
    <trkpt lat="45.94906" lon="-123.56122"><ele>199.9</ele></trkpt>
    <trkpt lat="45.94901635758029" lon="-123.56138911437637"><ele>200.0</ele></trkpt>
    <trkpt lat="45.94888398833656" lon="-123.56190204519584"><ele>200.5</ele></trkpt>
    <trkpt lat="45.94877665346517" lon="-123.56231796782248"><ele>200.8</ele></trkpt>
    <trkpt lat="45.94874" lon="-123.56246000000002"><ele>200.9</ele></trkpt>
    <trkpt lat="45.94872" lon="-123.56265"><ele>201.0</ele></trkpt>
    <trkpt lat="45.948729046670366" lon="-123.5628128400665"><ele>201.2</ele></trkpt>
    <trkpt lat="45.948730000000005" lon="-123.56283"><ele>201.2</ele></trkpt>
    <trkpt lat="45.94877" lon="-123.56305"><ele>201.4</ele></trkpt>
    <trkpt lat="45.94883" lon="-123.56323"><ele>201.6</ele></trkpt>
    <trkpt lat="45.9488543081881" lon="-123.5632708159875"><ele>201.7</ele></trkpt>
    <trkpt lat="45.94893738376683" lon="-123.56341030856372"><ele>201.8</ele></trkpt>
    <trkpt lat="45.94901987430627" lon="-123.56354881879784"><ele>201.9</ele></trkpt>
    <trkpt lat="45.9492135223102" lon="-123.56387397402833"><ele>202.1</ele></trkpt>
    <trkpt lat="45.94935802701405" lon="-123.5641166125236"><ele>202.2</ele></trkpt>
    <trkpt lat="45.949442857710636" lon="-123.56425905212606"><ele>202.1</ele></trkpt>
    <trkpt lat="45.949670437993205" lon="-123.56464118319754"><ele>201.9</ele></trkpt>
    <trkpt lat="45.94975585372907" lon="-123.56478460514211"><ele>201.9</ele></trkpt>
    <trkpt lat="45.9498126025399" lon="-123.56487989232446"><ele>201.9</ele></trkpt>
    <trkpt lat="45.94986993639" lon="-123.56497616184888"><ele>202.0</ele></trkpt>
    <trkpt lat="45.94998343401164" lon="-123.56516673621358"><ele>202.2</ele></trkpt>
    <trkpt lat="45.95007001982609" lon="-123.5653121228423"><ele>202.5</ele></trkpt>
    <trkpt lat="45.95017000000001" lon="-123.56548000000001"><ele>202.9</ele></trkpt>
    <trkpt lat="45.95020941692345" lon="-123.5655604762187"><ele>203.0</ele></trkpt>
    <trkpt lat="45.95031144850958" lon="-123.56576879070707"><ele>203.4</ele></trkpt>
    <trkpt lat="45.950464754852185" lon="-123.56608179115653"><ele>204.1</ele></trkpt>
    <trkpt lat="45.95059268277997" lon="-123.56634297734243"><ele>204.6</ele></trkpt>
    <trkpt lat="45.95074598912258" lon="-123.56665597779192"><ele>205.2</ele></trkpt>
    <trkpt lat="45.95084853863554" lon="-123.56686534971422"><ele>205.6</ele></trkpt>
    <trkpt lat="45.95096403631933" lon="-123.5671011574853"><ele>206.0</ele></trkpt>
    <trkpt lat="45.95104120741747" lon="-123.56725871514399"><ele>206.8</ele></trkpt>
    <trkpt lat="45.95117068912575" lon="-123.56752307363175"><ele>206.7</ele></trkpt>
    <trkpt lat="45.95122248180907" lon="-123.56762881702683"><ele>206.7</ele></trkpt>
    <trkpt lat="45.95127427449238" lon="-123.56773456042194"><ele>206.7</ele></trkpt>
    <trkpt lat="45.95132606717569" lon="-123.56784030381704"><ele>206.7</ele></trkpt>
    <trkpt lat="45.951370000000004" lon="-123.56793"><ele>206.8</ele></trkpt>
    <trkpt lat="45.951377711276706" lon="-123.56794619626008"><ele>206.8</ele></trkpt>
    <trkpt lat="45.95145393167298" lon="-123.56810628458403"><ele>207.0</ele></trkpt>
    <trkpt lat="45.95153015206925" lon="-123.568266372908"><ele>207.3</ele></trkpt>
    <trkpt lat="45.951657186063045" lon="-123.56853318678124"><ele>207.9</ele></trkpt>
    <trkpt lat="45.95170799966057" lon="-123.56863991233055"><ele>208.2</ele></trkpt>
    <trkpt lat="45.9518096268556" lon="-123.56885336342916"><ele>208.8</ele></trkpt>
    <trkpt lat="45.951860440453125" lon="-123.56896008897846"><ele>209.1</ele></trkpt>
    <trkpt lat="45.9519366608494" lon="-123.56912017730241"><ele>209.4</ele></trkpt>
    <trkpt lat="45.95203828804443" lon="-123.56933362840101"><ele>209.8</ele></trkpt>
    <trkpt lat="45.95208910164195" lon="-123.56944035395031"><ele>210.0</ele></trkpt>
    <trkpt lat="45.9521145084407" lon="-123.56949371672495"><ele>210.1</ele></trkpt>
    <trkpt lat="45.952165322038226" lon="-123.56960044227426"><ele>210.4</ele></trkpt>
    <trkpt lat="45.952266949233255" lon="-123.56981389337287"><ele>211.1</ele></trkpt>
    <trkpt lat="45.95244225614469" lon="-123.57018209651795"><ele>212.2</ele></trkpt>
    <trkpt lat="45.95256573318666" lon="-123.57044143960277"><ele>213.1</ele></trkpt>
    <trkpt lat="45.95264042917502" lon="-123.57059832616024"><ele>213.7</ele></trkpt>
    <trkpt lat="45.95283860220533" lon="-123.5710145558025"><ele>215.3</ele></trkpt>
    <trkpt lat="45.95291279005771" lon="-123.57117037510449"><ele>216.0</ele></trkpt>
    <trkpt lat="45.95311096308803" lon="-123.57158660474676"><ele>217.8</ele></trkpt>
    <trkpt lat="45.953334034781136" lon="-123.5720551299082"><ele>219.7</ele></trkpt>
    <trkpt lat="45.953409747041434" lon="-123.57221415097666"><ele>220.5</ele></trkpt>
    <trkpt lat="45.95348596743771" lon="-123.57237423930061"><ele>221.2</ele></trkpt>
    <trkpt lat="45.95356167969801" lon="-123.57253326036907"><ele>221.9</ele></trkpt>
    <trkpt lat="45.953688713691804" lon="-123.57280007424232"><ele>223.0</ele></trkpt>
    <trkpt lat="45.95376442595211" lon="-123.57295909531078"><ele>223.7</ele></trkpt>
    <trkpt lat="45.95384064634839" lon="-123.57311918363473"><ele>224.4</ele></trkpt>
    <trkpt lat="45.9538914599459" lon="-123.57322590918403"><ele>224.9</ele></trkpt>
    <trkpt lat="45.95394176540744" lon="-123.57333156747785"><ele>225.5</ele></trkpt>
    <trkpt lat="45.95399257900496" lon="-123.57343829302715"><ele>226.2</ele></trkpt>
    <trkpt lat="45.9541699184603" lon="-123.57381076519421"><ele>228.5</ele></trkpt>
    <trkpt lat="45.95422073205782" lon="-123.57391749074351"><ele>229.2</ele></trkpt>
  </trkseg></trk>
</gpx>
