<?xml version="1.0" encoding="UTF-8"?>
<gpx version="1.1" creator="h2c-tracker" xmlns="http://www.topografix.com/GPX/1/1">
  <metadata><name>Hood to Coast 2026 — Leg 35 (7.07 mi)</name><desc>Derived from the official Hood to Coast Strava route (simplified, 633 points, ~7.11 mi). Verify against the official leg map PDF.</desc></metadata>
  <wpt lat="46.104376211418355" lon="-123.86604421167516"><name>Exchange 34 — Lewis &amp; Clark Mainline (Fort Clatsop Rd)</name></wpt>
  <wpt lat="46.00760360882629" lon="-123.8674"><name>Exchange 35 — Lewis &amp; Clark Mainline (86645 Lewis &amp; Clark Rd)</name></wpt>
  <trk><name>HTC Leg 35</name><trkseg>
    <trkpt lat="46.104376211418355" lon="-123.86604421167516"><ele>30.6</ele></trkpt>
    <trkpt lat="46.1042776027724" lon="-123.86591721569174"><ele>30.6</ele></trkpt>
    <trkpt lat="46.10417966493357" lon="-123.86579108362658"><ele>30.6</ele></trkpt>
    <trkpt lat="46.10404617431762" lon="-123.86561916389391"><ele>30.7</ele></trkpt>
    <trkpt lat="46.10384828621859" lon="-123.86536430800881"><ele>31.0</ele></trkpt>
    <trkpt lat="46.103616857763804" lon="-123.86506625621098"><ele>31.2</ele></trkpt>
    <trkpt lat="46.103480000000005" lon="-123.86489000000002"><ele>31.2</ele></trkpt>
    <trkpt lat="46.10336" lon="-123.86476"><ele>31.3</ele></trkpt>
    <trkpt lat="46.103341065195714" lon="-123.86474768318556"><ele>31.3</ele></trkpt>
    <trkpt lat="46.10321973528356" lon="-123.86466875984465"><ele>31.2</ele></trkpt>
    <trkpt lat="46.10301642570103" lon="-123.86453650992203"><ele>31.0</ele></trkpt>
    <trkpt lat="46.102935265827355" lon="-123.86448371660616"><ele>31.0</ele></trkpt>
    <trkpt lat="46.10289427599216" lon="-123.86445705331529"><ele>31.0</ele></trkpt>
    <trkpt lat="46.10281311611849" lon="-123.8644042599994"><ele>31.0</ele></trkpt>
    <trkpt lat="46.10273195624482" lon="-123.86435146668353"><ele>31.1</ele></trkpt>
    <trkpt lat="46.10233" lon="-123.86409"><ele>31.5</ele></trkpt>
    <trkpt lat="46.10220161747945" lon="-123.86401272995836"><ele>31.6</ele></trkpt>
    <trkpt lat="46.10199662094818" lon="-123.86388934797115"><ele>31.8</ele></trkpt>
    <trkpt lat="46.101872959073035" lon="-123.86381491916106"><ele>31.9</ele></trkpt>
    <trkpt lat="46.10170862986982" lon="-123.86371601376241"><ele>31.9</ele></trkpt>
    <trkpt lat="46.10162563532275" lon="-123.86366606154087"><ele>31.8</ele></trkpt>
    <trkpt lat="46.101502803393075" lon="-123.86359213225298"><ele>31.8</ele></trkpt>
    <trkpt lat="46.10137914151793" lon="-123.86351770344288"><ele>31.7</ele></trkpt>
    <trkpt lat="46.10092682123637" lon="-123.86324546383548"><ele>31.8</ele></trkpt>
    <trkpt lat="46.100803159361234" lon="-123.8631710350254"><ele>31.8</ele></trkpt>
    <trkpt lat="46.10072099475963" lon="-123.86312158232606"><ele>31.7</ele></trkpt>
    <trkpt lat="46.10063883015802" lon="-123.86307212962673"><ele>31.6</ele></trkpt>
    <trkpt lat="46.100597332884476" lon="-123.86304715351595"><ele>31.5</ele></trkpt>
    <trkpt lat="46.10051516828288" lon="-123.86299770081663"><ele>31.2</ele></trkpt>
    <trkpt lat="46.100433003681275" lon="-123.8629482481173"><ele>30.9</ele></trkpt>
    <trkpt lat="46.100227177204516" lon="-123.86282436660787"><ele>30.0</ele></trkpt>
    <trkpt lat="46.100062848001315" lon="-123.86272546120922"><ele>29.3</ele></trkpt>
    <trkpt lat="46.09993918612617" lon="-123.86265103239913"><ele>28.8</ele></trkpt>
    <trkpt lat="46.09981552425103" lon="-123.86257660358902"><ele>28.2</ele></trkpt>
    <trkpt lat="46.09961052771975" lon="-123.86245322160181"><ele>27.1</ele></trkpt>
    <trkpt lat="46.09933000615064" lon="-123.86228438309301"><ele>26.3</ele></trkpt>
    <trkpt lat="46.09921049400285" lon="-123.86221245189401"><ele>25.9</ele></trkpt>
    <trkpt lat="46.099003837580625" lon="-123.86208807086234"><ele>24.9</ele></trkpt>
    <trkpt lat="46.098755683884875" lon="-123.86193871371994"><ele>23.7</ele></trkpt>
    <trkpt lat="46.098589694790725" lon="-123.86183880927686"><ele>22.9</ele></trkpt>
    <trkpt lat="46.09846603291558" lon="-123.86176438046677"><ele>22.4</ele></trkpt>
    <trkpt lat="46.09834154109497" lon="-123.86168945213444"><ele>21.9</ele></trkpt>
    <trkpt lat="46.098258546547896" lon="-123.86163949991291"><ele>21.6</ele></trkpt>
    <trkpt lat="46.09821704927435" lon="-123.86161452380215"><ele>21.5</ele></trkpt>
    <trkpt lat="46.09813488467275" lon="-123.86156507110282"><ele>21.4</ele></trkpt>
    <trkpt lat="46.098060000000004" lon="-123.86152000000001"><ele>21.3</ele></trkpt>
    <trkpt lat="46.09805205864372" lon="-123.86151457340654"><ele>21.3</ele></trkpt>
    <trkpt lat="46.09801142365722" lon="-123.86148680616579"><ele>21.4</ele></trkpt>
    <trkpt lat="46.09797078867073" lon="-123.861459038925"><ele>21.4</ele></trkpt>
    <trkpt lat="46.097930153684224" lon="-123.86143127168422"><ele>21.5</ele></trkpt>
    <trkpt lat="46.09784969641097" lon="-123.8613762925475"><ele>21.7</ele></trkpt>
    <trkpt lat="46.09780906142446" lon="-123.86134852530672"><ele>21.9</ele></trkpt>
    <trkpt lat="46.097768426437966" lon="-123.86132075806594"><ele>22.1</ele></trkpt>
    <trkpt lat="46.097687156464964" lon="-123.8612652235844"><ele>22.5</ele></trkpt>
    <trkpt lat="46.0976066991917" lon="-123.86121024444768"><ele>23.1</ele></trkpt>
    <trkpt lat="46.09752542921871" lon="-123.86115470996614"><ele>23.6</ele></trkpt>
    <trkpt lat="46.09744415924571" lon="-123.86109917548458"><ele>24.3</ele></trkpt>
    <trkpt lat="46.097241797012956" lon="-123.86096089462552"><ele>26.1</ele></trkpt>
    <trkpt lat="46.097039434780186" lon="-123.86082261376646"><ele>27.8</ele></trkpt>
    <trkpt lat="46.096876894834196" lon="-123.86071154480337"><ele>29.2</ele></trkpt>
    <trkpt lat="46.09675580257443" lon="-123.86062879842588"><ele>30.1</ele></trkpt>
    <trkpt lat="46.09667453260144" lon="-123.86057326394432"><ele>30.7</ele></trkpt>
    <trkpt lat="46.09663389761494" lon="-123.86054549670355"><ele>30.9</ele></trkpt>
    <trkpt lat="46.09655262764194" lon="-123.86048996222199"><ele>31.4</ele></trkpt>
    <trkpt lat="46.09647217036868" lon="-123.86043498308527"><ele>31.9</ele></trkpt>
    <trkpt lat="46.096350265409185" lon="-123.86035168136296"><ele>32.4</ele></trkpt>
    <trkpt lat="46.09626" lon="-123.86029"><ele>32.8</ele></trkpt>
    <trkpt lat="46.09622850499803" lon="-123.86027110299882"><ele>32.9</ele></trkpt>
    <trkpt lat="46.09597941066195" lon="-123.86012164639716"><ele>33.8</ele></trkpt>
    <trkpt lat="46.09585569380837" lon="-123.86004741628503"><ele>34.2</ele></trkpt>
    <trkpt lat="46.09573114664032" lon="-123.8599726879842"><ele>34.5</ele></trkpt>
    <trkpt lat="46.09560742978673" lon="-123.85989845787205"><ele>34.8</ele></trkpt>
    <trkpt lat="46.09535916576511" lon="-123.85974949945907"><ele>35.3</ele></trkpt>
    <trkpt lat="46.09515158715172" lon="-123.85962495229106"><ele>35.8</ele></trkpt>
    <trkpt lat="46.09498635457545" lon="-123.85952581274529"><ele>36.2</ele></trkpt>
    <trkpt lat="46.09490332313008" lon="-123.85947599387805"><ele>36.4</ele></trkpt>
    <trkpt lat="46.094779606276504" lon="-123.8594017637659"><ele>36.6</ele></trkpt>
    <trkpt lat="46.09444831080952" lon="-123.85920298648571"><ele>37.2</ele></trkpt>
    <trkpt lat="46.094283078233246" lon="-123.85910384693996"><ele>37.5</ele></trkpt>
    <trkpt lat="46.09408380276439" lon="-123.85898428165864"><ele>37.8</ele></trkpt>
    <trkpt lat="46.09391940050257" lon="-123.85888564030157"><ele>38.1</ele></trkpt>
    <trkpt lat="46.093629620758264" lon="-123.85871177245497"><ele>38.9</ele></trkpt>
    <trkpt lat="46.093422042144866" lon="-123.85858722528693"><ele>39.5</ele></trkpt>
    <trkpt lat="46.09333984101396" lon="-123.85853790460838"><ele>39.7</ele></trkpt>
    <trkpt lat="46.09313226240056" lon="-123.85841335744036"><ele>40.2</ele></trkpt>
    <trkpt lat="46.09305006126966" lon="-123.8583640367618"><ele>40.3</ele></trkpt>
    <trkpt lat="46.09280096693358" lon="-123.85821458016015"><ele>40.6</ele></trkpt>
    <trkpt lat="46.092677250079994" lon="-123.858140350048"><ele>40.8</ele></trkpt>
    <trkpt lat="46.092511187189274" lon="-123.85804071231358"><ele>40.9</ele></trkpt>
    <trkpt lat="46.09238747033569" lon="-123.85796648220142"><ele>41.0</ele></trkpt>
    <trkpt lat="46.09217989172229" lon="-123.85784193503338"><ele>41.0</ele></trkpt>
    <trkpt lat="46.0920561748687" lon="-123.85776770492123"><ele>41.0</ele></trkpt>
    <trkpt lat="46.09189011197798" lon="-123.85766806718681"><ele>41.0</ele></trkpt>
    <trkpt lat="46.09161" lon="-123.85750000000002"><ele>40.7</ele></trkpt>
    <trkpt lat="46.09160139545941" lon="-123.85749139545942"><ele>40.7</ele></trkpt>
    <trkpt lat="46.09152823450959" lon="-123.8574182345096"><ele>40.6</ele></trkpt>
    <trkpt lat="46.09145433456027" lon="-123.85734433456028"><ele>40.6</ele></trkpt>
    <trkpt lat="46.091306534661626" lon="-123.85719653466164"><ele>40.6</ele></trkpt>
    <trkpt lat="46.091196423737145" lon="-123.85708642373714"><ele>40.7</ele></trkpt>
    <trkpt lat="46.09114" lon="-123.85703000000001"><ele>40.7</ele></trkpt>
    <trkpt lat="46.09101687533978" lon="-123.85689148475726"><ele>40.8</ele></trkpt>
    <trkpt lat="46.0907694184817" lon="-123.85661309579191"><ele>41.0</ele></trkpt>
    <trkpt lat="46.0906283184394" lon="-123.85645435824432"><ele>41.2</ele></trkpt>
    <trkpt lat="46.09048721839711" lon="-123.85629562069676"><ele>41.4</ele></trkpt>
    <trkpt lat="46.09010000000001" lon="-123.85586"><ele>42.1</ele></trkpt>
    <trkpt lat="46.08996369554336" lon="-123.85574173583909"><ele>42.4</ele></trkpt>
    <trkpt lat="46.08988972079072" lon="-123.85567755186254"><ele>42.5</ele></trkpt>
    <trkpt lat="46.089666255392125" lon="-123.85548366276669"><ele>42.7</ele></trkpt>
    <trkpt lat="46.08951830588685" lon="-123.85535529481359"><ele>42.8</ele></trkpt>
    <trkpt lat="46.089420000000004" lon="-123.85527"><ele>42.9</ele></trkpt>
    <trkpt lat="46.089231294442136" lon="-123.85505085806184"><ele>43.2</ele></trkpt>
    <trkpt lat="46.089126934494075" lon="-123.85492966586409"><ele>43.3</ele></trkpt>
    <trkpt lat="46.08898755442921" lon="-123.85476780514358"><ele>43.4</ele></trkpt>
    <trkpt lat="46.088813854649885" lon="-123.85456608927085"><ele>43.5</ele></trkpt>
    <trkpt lat="46.088535794922485" lon="-123.85424318120032"><ele>43.5</ele></trkpt>
    <trkpt lat="46.08825703479276" lon="-123.85391945975935"><ele>43.4</ele></trkpt>
    <trkpt lat="46.08818" lon="-123.85383000000002"><ele>43.4</ele></trkpt>
    <trkpt lat="46.08808193469639" lon="-123.85372029982989"><ele>43.3</ele></trkpt>
    <trkpt lat="46.08769397517856" lon="-123.85328631121669"><ele>43.3</ele></trkpt>
    <trkpt lat="46.087590000000006" lon="-123.85317"><ele>43.2</ele></trkpt>
    <trkpt lat="46.08758796526571" lon="-123.85316816377637"><ele>43.2</ele></trkpt>
    <trkpt lat="46.0873607949365" lon="-123.8529631564061"><ele>42.9</ele></trkpt>
    <trkpt lat="46.087284563282395" lon="-123.85289436198657"><ele>42.8</ele></trkpt>
    <trkpt lat="46.087180000000004" lon="-123.85280000000002"><ele>42.8</ele></trkpt>
    <trkpt lat="46.08717003402091" lon="-123.85279461298428"><ele>42.8</ele></trkpt>
    <trkpt lat="46.08704456271141" lon="-123.85272679065483"><ele>42.8</ele></trkpt>
    <trkpt lat="46.086961195868184" lon="-123.85268172749633"><ele>42.8</ele></trkpt>
    <trkpt lat="46.08687782902496" lon="-123.85263666433782"><ele>42.9</ele></trkpt>
    <trkpt lat="46.08681000000001" lon="-123.85260000000001"><ele>43.0</ele></trkpt>
    <trkpt lat="46.08674933554826" lon="-123.85258491586606"><ele>43.0</ele></trkpt>
    <trkpt lat="46.08653043431542" lon="-123.85253048637034"><ele>42.9</ele></trkpt>
    <trkpt lat="46.086310646842776" lon="-123.85247583651227"><ele>43.0</ele></trkpt>
    <trkpt lat="46.08617948335103" lon="-123.85244322288729"><ele>43.0</ele></trkpt>
    <trkpt lat="46.08609085937013" lon="-123.8524211866542"><ele>43.1</ele></trkpt>
    <trkpt lat="46.08595969587839" lon="-123.85238857302923"><ele>43.4</ele></trkpt>
    <trkpt lat="46.08578422039619" lon="-123.85234494128771"><ele>43.7</ele></trkpt>
    <trkpt lat="46.08556443292355" lon="-123.85229029142965"><ele>44.0</ele></trkpt>
    <trkpt lat="46.08538895744135" lon="-123.85224665968813"><ele>44.3</ele></trkpt>
    <trkpt lat="46.08512574421806" lon="-123.85218121207585"><ele>44.8</ele></trkpt>
    <trkpt lat="46.08496" lon="-123.85214"><ele>45.0</ele></trkpt>
    <trkpt lat="46.08490609085031" lon="-123.85212548599816"><ele>45.1</ele></trkpt>
    <trkpt lat="46.0844684907229" lon="-123.85200767057925"><ele>45.9</ele></trkpt>
    <trkpt lat="46.084380970697424" lon="-123.85198410749547"><ele>46.1</ele></trkpt>
    <trkpt lat="46.08424924863887" lon="-123.85194864386432"><ele>46.4</ele></trkpt>
    <trkpt lat="46.083943370570005" lon="-123.85186629207655"><ele>47.2</ele></trkpt>
    <trkpt lat="46.083679042412236" lon="-123.8517951268033"><ele>47.9</ele></trkpt>
    <trkpt lat="46.08366" lon="-123.85179000000001"><ele>47.9</ele></trkpt>
    <trkpt lat="46.0835025347383" lon="-123.85175254880264"><ele>48.4</ele></trkpt>
    <trkpt lat="46.083413801818914" lon="-123.85173144475694"><ele>48.6</ele></trkpt>
    <trkpt lat="46.083325068899526" lon="-123.85171034071125"><ele>48.8</ele></trkpt>
    <trkpt lat="46.08314849038995" lon="-123.85166834366032"><ele>49.2</ele></trkpt>
    <trkpt lat="46.08306064479976" lon="-123.8516474506551"><ele>49.3</ele></trkpt>
    <trkpt lat="46.0827066004514" lon="-123.85156324551278"><ele>50.2</ele></trkpt>
    <trkpt lat="46.082574388401525" lon="-123.8515318004847"><ele>50.4</ele></trkpt>
    <trkpt lat="46.08244128902244" lon="-123.85150014441615"><ele>50.6</ele></trkpt>
    <trkpt lat="46.08226471051286" lon="-123.85145814736524"><ele>50.7</ele></trkpt>
    <trkpt lat="46.08217686492267" lon="-123.85143725436"><ele>50.7</ele></trkpt>
    <trkpt lat="46.08195503262421" lon="-123.85138449424576"><ele>50.8</ele></trkpt>
    <trkpt lat="46.081810000000004" lon="-123.85135000000001"><ele>50.8</ele></trkpt>
    <trkpt lat="46.08177854336823" lon="-123.8513417553183"><ele>50.8</ele></trkpt>
    <trkpt lat="46.08120606570162" lon="-123.85119171076857"><ele>51.2</ele></trkpt>
    <trkpt lat="46.08111758383661" lon="-123.85116851995718"><ele>51.2</ele></trkpt>
    <trkpt lat="46.080985745857745" lon="-123.85113396564822"><ele>51.2</ele></trkpt>
    <trkpt lat="46.08076542601387" lon="-123.85107622052783"><ele>51.1</ele></trkpt>
    <trkpt lat="46.0801478225961" lon="-123.8509143486643"><ele>50.7</ele></trkpt>
    <trkpt lat="46.079839905705875" lon="-123.85083364464066"><ele>50.5</ele></trkpt>
    <trkpt lat="46.07975142384087" lon="-123.85081045382925"><ele>50.4</ele></trkpt>
    <trkpt lat="46.079575344929495" lon="-123.85076430411459"><ele>50.4</ele></trkpt>
    <trkpt lat="46.079330000000006" lon="-123.8507"><ele>50.5</ele></trkpt>
    <trkpt lat="46.07926703046978" lon="-123.85067988473341"><ele>50.5</ele></trkpt>
    <trkpt lat="46.078917576670236" lon="-123.85056825365857"><ele>50.5</ele></trkpt>
    <trkpt lat="46.07878587297694" lon="-123.85052618164542"><ele>50.5</ele></trkpt>
    <trkpt lat="46.078610000000005" lon="-123.85047000000002"><ele>50.5</ele></trkpt>
    <trkpt lat="46.078301948591324" lon="-123.85039265182338"><ele>50.5</ele></trkpt>
    <trkpt lat="46.07816993720711" lon="-123.85035950527843"><ele>50.5</ele></trkpt>
    <trkpt lat="46.07790502845623" lon="-123.85029298972852"><ele>50.3</ele></trkpt>
    <trkpt lat="46.07764011970534" lon="-123.85022647417858"><ele>50.2</ele></trkpt>
    <trkpt lat="46.07750810832112" lon="-123.8501933276336"><ele>50.2</ele></trkpt>
    <trkpt lat="46.07702258994157" lon="-123.85007141953542"><ele>50.5</ele></trkpt>
    <trkpt lat="46.07653707156202" lon="-123.84994951143722"><ele>50.7</ele></trkpt>
    <trkpt lat="46.07631646193336" lon="-123.84989411888894"><ele>50.6</ele></trkpt>
    <trkpt lat="46.07614015142691" lon="-123.84984984934232"><ele>50.7</ele></trkpt>
    <trkpt lat="46.07578841639648" lon="-123.84976153270915"><ele>50.8</ele></trkpt>
    <trkpt lat="46.07547832254092" lon="-123.8496836716975"><ele>50.9</ele></trkpt>
    <trkpt lat="46.07525682692982" lon="-123.8496280566892"><ele>50.9</ele></trkpt>
    <trkpt lat="46.07512481554559" lon="-123.84959491014425"><ele>50.8</ele></trkpt>
    <trkpt lat="46.07485902081227" lon="-123.8495281721343"><ele>50.6</ele></trkpt>
    <trkpt lat="46.07477130855027" lon="-123.84950614859102"><ele>50.5</ele></trkpt>
    <trkpt lat="46.07454981293915" lon="-123.84945053358271"><ele>50.5</ele></trkpt>
    <trkpt lat="46.07446210067717" lon="-123.84942851003942"><ele>50.4</ele></trkpt>
    <trkpt lat="46.0743292033105" lon="-123.84939514103442"><ele>50.3</ele></trkpt>
    <trkpt lat="46.07406429455961" lon="-123.8493286254845"><ele>50.0</ele></trkpt>
    <trkpt lat="46.07393139719294" lon="-123.84929525647951"><ele>49.9</ele></trkpt>
    <trkpt lat="46.0737550866865" lon="-123.8492509869329"><ele>49.6</ele></trkpt>
    <trkpt lat="46.073666488442065" lon="-123.84922874092959"><ele>49.5</ele></trkpt>
    <trkpt lat="46.07357877618006" lon="-123.8492067173863"><ele>49.4</ele></trkpt>
    <trkpt lat="46.07349017793562" lon="-123.84918447138297"><ele>49.4</ele></trkpt>
    <trkpt lat="46.07331298144673" lon="-123.84913997937632"><ele>49.5</ele></trkpt>
    <trkpt lat="46.07322526918473" lon="-123.84911795583304"><ele>49.5</ele></trkpt>
    <trkpt lat="46.07313667094029" lon="-123.84909570982971"><ele>49.5</ele></trkpt>
    <trkpt lat="46.07296036043385" lon="-123.8490514402831"><ele>49.5</ele></trkpt>
    <trkpt lat="46.072698109630295" lon="-123.84898559211327"><ele>49.5</ele></trkpt>
    <trkpt lat="46.07256609824608" lon="-123.84895244556833"><ele>49.5</ele></trkpt>
    <trkpt lat="46.07247750000163" lon="-123.848930199565"><ele>49.5</ele></trkpt>
    <trkpt lat="46.07230296146008" lon="-123.84888637493846"><ele>49.5</ele></trkpt>
    <trkpt lat="46.072129308900976" lon="-123.84884277277195"><ele>49.7</ele></trkpt>
    <trkpt lat="46.071997297516745" lon="-123.848809626227"><ele>49.7</ele></trkpt>
    <trkpt lat="46.07182187299275" lon="-123.84876557914042"><ele>49.8</ele></trkpt>
    <trkpt lat="46.071720000000006" lon="-123.84874"><ele>49.8</ele></trkpt>
    <trkpt lat="46.07155734282634" lon="-123.84873043193096"><ele>49.8</ele></trkpt>
    <trkpt lat="46.07155" lon="-123.84873"><ele>49.8</ele></trkpt>
    <trkpt lat="46.07142486231396" lon="-123.84874787681231"><ele>49.9</ele></trkpt>
    <trkpt lat="46.071246769690724" lon="-123.84877331861561"><ele>50.1</ele></trkpt>
    <trkpt lat="46.07115906578582" lon="-123.84878584774489"><ele>50.1</ele></trkpt>
    <trkpt lat="46.071130000000004" lon="-123.84879000000001"><ele>50.2</ele></trkpt>
    <trkpt lat="46.0709879770351" lon="-123.84884979914312"><ele>50.2</ele></trkpt>
    <trkpt lat="46.07094" lon="-123.84887"><ele>50.2</ele></trkpt>
    <trkpt lat="46.070780000000006" lon="-123.84896"><ele>50.2</ele></trkpt>
    <trkpt lat="46.07070029124388" lon="-123.84901845308782"><ele>50.2</ele></trkpt>
    <trkpt lat="46.07048" lon="-123.84918"><ele>50.2</ele></trkpt>
    <trkpt lat="46.07046244026448" lon="-123.84919360544394"><ele>50.2</ele></trkpt>
    <trkpt lat="46.07034520547167" lon="-123.84928444003532"><ele>50.2</ele></trkpt>
    <trkpt lat="46.0702667849008" lon="-123.84934520101199"><ele>50.2</ele></trkpt>
    <trkpt lat="46.07018836432993" lon="-123.84940596198865"><ele>50.3</ele></trkpt>
    <trkpt lat="46.07011073588604" lon="-123.84946610921807"><ele>50.4</ele></trkpt>
    <trkpt lat="46.06987388991948" lon="-123.84964961964253"><ele>50.9</ele></trkpt>
    <trkpt lat="46.069715464523796" lon="-123.84977236909035"><ele>51.2</ele></trkpt>
    <trkpt lat="46.06963704395292" lon="-123.84983313006701"><ele>51.3</ele></trkpt>
    <trkpt lat="46.069478618557234" lon="-123.84995587951482"><ele>51.4</ele></trkpt>
    <trkpt lat="46.0692813789396" lon="-123.85010870257733"><ele>51.7</ele></trkpt>
    <trkpt lat="46.06920295836873" lon="-123.85016946355401"><ele>51.8</ele></trkpt>
    <trkpt lat="46.06908413932196" lon="-123.85026152563987"><ele>51.8</ele></trkpt>
    <trkpt lat="46.068926506053245" lon="-123.85038366134043"><ele>51.9</ele></trkpt>
    <trkpt lat="46.06868966008669" lon="-123.85056717176491"><ele>51.9</ele></trkpt>
    <trkpt lat="46.068452814120135" lon="-123.85075068218937"><ele>52.0</ele></trkpt>
    <trkpt lat="46.06833399507336" lon="-123.85084274427524"><ele>52.0</ele></trkpt>
    <trkpt lat="46.068136755455726" lon="-123.85099556733775"><ele>51.9</ele></trkpt>
    <trkpt lat="46.06789990948917" lon="-123.85117907776223"><ele>51.7</ele></trkpt>
    <trkpt lat="46.06786" lon="-123.85121000000001"><ele>51.7</ele></trkpt>
    <trkpt lat="46.067821854062316" lon="-123.85124079672035"><ele>51.7</ele></trkpt>
    <trkpt lat="46.067704161602045" lon="-123.85133581448645"><ele>51.5</ele></trkpt>
    <trkpt lat="46.06754802293808" lon="-123.85146187138946"><ele>51.2</ele></trkpt>
    <trkpt lat="46.067469561297884" lon="-123.85152521656687"><ele>51.0</ele></trkpt>
    <trkpt lat="46.06735265345401" lon="-123.85161960088118"><ele>50.9</ele></trkpt>
    <trkpt lat="46.06727419181382" lon="-123.85168294605857"><ele>50.9</ele></trkpt>
    <trkpt lat="46.06707882232976" lon="-123.85184067555028"><ele>51.0</ele></trkpt>
    <trkpt lat="46.06696112986949" lon="-123.85193569331639"><ele>51.0</ele></trkpt>
    <trkpt lat="46.0668834528457" lon="-123.85199840504201"><ele>50.9</ele></trkpt>
    <trkpt lat="46.066770000000005" lon="-123.85209"><ele>50.9</ele></trkpt>
    <trkpt lat="46.06660224698599" lon="-123.85219834048824"><ele>50.8</ele></trkpt>
    <trkpt lat="46.06647914262848" lon="-123.8522778453858"><ele>50.8</ele></trkpt>
    <trkpt lat="46.06631582418085" lon="-123.85238332188322"><ele>50.9</ele></trkpt>
    <trkpt lat="46.06629" lon="-123.85240000000002"><ele>50.9</ele></trkpt>
    <trkpt lat="46.065940000000005" lon="-123.85255000000001"><ele>51.0</ele></trkpt>
    <trkpt lat="46.06588739440014" lon="-123.85257007511751"><ele>51.1</ele></trkpt>
    <trkpt lat="46.065713521884156" lon="-123.85263642758181"><ele>51.1</ele></trkpt>
    <trkpt lat="46.06562745498874" lon="-123.85266927205166"><ele>51.1</ele></trkpt>
    <trkpt lat="46.065497050601756" lon="-123.85271903639989"><ele>51.0</ele></trkpt>
    <trkpt lat="46.06515104429496" lon="-123.8528510778039"><ele>50.8</ele></trkpt>
    <trkpt lat="46.06502063990797" lon="-123.85290084215212"><ele>50.8</ele></trkpt>
    <trkpt lat="46.064847636754564" lon="-123.85296686285412"><ele>50.8</ele></trkpt>
    <trkpt lat="46.06476070049658" lon="-123.85300003908628"><ele>50.8</ele></trkpt>
    <trkpt lat="46.06454422921418" lon="-123.85308264790436"><ele>51.0</ele></trkpt>
    <trkpt lat="46.064413824827184" lon="-123.85313241225259"><ele>51.1</ele></trkpt>
    <trkpt lat="46.0638939460044" lon="-123.8533308061209"><ele>51.0</ele></trkpt>
    <trkpt lat="46.063677474722" lon="-123.85341341493897"><ele>50.8</ele></trkpt>
    <trkpt lat="46.06359140782659" lon="-123.85344625940881"><ele>50.8</ele></trkpt>
    <trkpt lat="46.0635044715686" lon="-123.85347943564096"><ele>50.8</ele></trkpt>
    <trkpt lat="46.06341753531061" lon="-123.85351261187313"><ele>50.8</ele></trkpt>
    <trkpt lat="46.0632880002862" lon="-123.85356204445904"><ele>50.9</ele></trkpt>
    <trkpt lat="46.06320106402821" lon="-123.8535952206912"><ele>51.0</ele></trkpt>
    <trkpt lat="46.06302806087481" lon="-123.8536612413932"><ele>51.2</ele></trkpt>
    <trkpt lat="46.06272465333442" lon="-123.85377702644342"><ele>51.5</ele></trkpt>
    <trkpt lat="46.06250818205202" lon="-123.8538596352615"><ele>51.7</ele></trkpt>
    <trkpt lat="46.06235" lon="-123.85392000000002"><ele>51.8</ele></trkpt>
    <trkpt lat="46.0622050986528" lon="-123.85397715232422"><ele>51.8</ele></trkpt>
    <trkpt lat="46.06169158472497" lon="-123.85417969367423"><ele>52.3</ele></trkpt>
    <trkpt lat="46.061520702556415" lon="-123.85424709341402"><ele>52.4</ele></trkpt>
    <trkpt lat="46.061393191496634" lon="-123.85429738662086"><ele>52.4</ele></trkpt>
    <trkpt lat="46.061307316701274" lon="-123.85433125755608"><ele>52.5</ele></trkpt>
    <trkpt lat="46.06109219600178" lon="-123.85441610595947"><ele>52.6</ele></trkpt>
    <trkpt lat="46.06066021975844" lon="-123.85458648702756"><ele>52.9</ele></trkpt>
    <trkpt lat="46.060358356841405" lon="-123.85470554849682"><ele>53.1</ele></trkpt>
    <trkpt lat="46.060272482046045" lon="-123.85473941943205"><ele>53.2</ele></trkpt>
    <trkpt lat="46.06018660725068" lon="-123.85477329036726"><ele>53.3</ele></trkpt>
    <trkpt lat="46.05992724802024" lon="-123.85487558743425"><ele>53.7</ele></trkpt>
    <trkpt lat="46.05984" lon="-123.85491"><ele>53.8</ele></trkpt>
    <trkpt lat="46.05962428284557" lon="-123.85498860879356"><ele>54.1</ele></trkpt>
    <trkpt lat="46.059537966999045" lon="-123.85502006287324"><ele>54.3</ele></trkpt>
    <trkpt lat="46.05940805729064" lon="-123.85506740285172"><ele>54.5</ele></trkpt>
    <trkpt lat="46.05932086956688" lon="-123.85509917464937"><ele>54.6</ele></trkpt>
    <trkpt lat="46.05923455372036" lon="-123.85513062872901"><ele>54.7</ele></trkpt>
    <trkpt lat="46.05919095985848" lon="-123.85514651462785"><ele>54.8</ele></trkpt>
    <trkpt lat="46.05893114044167" lon="-123.8552411945848"><ele>54.9</ele></trkpt>
    <trkpt lat="46.05871491488675" lon="-123.85531998864296"><ele>55.0</ele></trkpt>
    <trkpt lat="46.05836790774619" lon="-123.85544644039757"><ele>55.1</ele></trkpt>
    <trkpt lat="46.05823799803779" lon="-123.85549378037608"><ele>55.2</ele></trkpt>
    <trkpt lat="46.05802090060563" lon="-123.8555728921522"><ele>55.4</ele></trkpt>
    <trkpt lat="46.057934584759096" lon="-123.85560434623184"><ele>55.5</ele></trkpt>
    <trkpt lat="46.057631171480416" lon="-123.85571491208765"><ele>55.6</ele></trkpt>
    <trkpt lat="46.05754398375666" lon="-123.85574668388529"><ele>55.6</ele></trkpt>
    <trkpt lat="46.05745766791013" lon="-123.85577813796495"><ele>55.7</ele></trkpt>
    <trkpt lat="46.057067938784925" lon="-123.85592015790041"><ele>56.2</ele></trkpt>
    <trkpt lat="46.056937157199286" lon="-123.85596781559687"><ele>56.3</ele></trkpt>
    <trkpt lat="46.05659102193596" lon="-123.85609394963352"><ele>56.9</ele></trkpt>
    <trkpt lat="46.056027789240474" lon="-123.85629919544627"><ele>57.9</ele></trkpt>
    <trkpt lat="46.05594060151671" lon="-123.85633096724392"><ele>58.0</ele></trkpt>
    <trkpt lat="46.055854285670186" lon="-123.85636242132358"><ele>58.1</ele></trkpt>
    <trkpt lat="46.05572437596178" lon="-123.85640976130206"><ele>58.3</ele></trkpt>
    <trkpt lat="46.05546368466774" lon="-123.85650475897702"><ele>58.5</ele></trkpt>
    <trkpt lat="46.055333774959344" lon="-123.8565520989555"><ele>58.6</ele></trkpt>
    <trkpt lat="46.055160271389056" lon="-123.8566153248328"><ele>58.6</ele></trkpt>
    <trkpt lat="46.054944045834134" lon="-123.85669411889096"><ele>58.7</ele></trkpt>
    <trkpt lat="46.05481413612573" lon="-123.85674145886945"><ele>58.7</ele></trkpt>
    <trkpt lat="46.05450985096981" lon="-123.8568523424432"><ele>58.9</ele></trkpt>
    <trkpt lat="46.054031190366366" lon="-123.85702676961228"><ele>59.3</ele></trkpt>
    <trkpt lat="46.05394400264261" lon="-123.8570585414099"><ele>59.3</ele></trkpt>
    <trkpt lat="46.053940000000004" lon="-123.85706"><ele>59.3</ele></trkpt>
    <trkpt lat="46.053684320013474" lon="-123.85715909803616"><ele>59.3</ele></trkpt>
    <trkpt lat="46.053509761327746" lon="-123.85722675457504"><ele>59.4</ele></trkpt>
    <trkpt lat="46.053206671868466" lon="-123.85734422786892"><ele>59.5</ele></trkpt>
    <trkpt lat="46.05294613651665" lon="-123.85744520777769"><ele>59.6</ele></trkpt>
    <trkpt lat="46.052686469616" lon="-123.85754585108678"><ele>59.8</ele></trkpt>
    <trkpt lat="46.05246935682281" lon="-123.85763000101075"><ele>59.8</ele></trkpt>
    <trkpt lat="46.052121976353725" lon="-123.85776464088912"><ele>60.0</ele></trkpt>
    <trkpt lat="46.051992577128985" lon="-123.85781479424381"><ele>60.1</ele></trkpt>
    <trkpt lat="46.05186230945308" lon="-123.8578652841982"><ele>60.3</ele></trkpt>
    <trkpt lat="46.05173291022834" lon="-123.85791543755289"><ele>60.3</ele></trkpt>
    <trkpt lat="46.05164606511107" lon="-123.85794909752249"><ele>60.4</ele></trkpt>
    <trkpt lat="46.05142982076906" lon="-123.85803291084677"><ele>60.4</ele></trkpt>
    <trkpt lat="46.05117015386841" lon="-123.85813355415584"><ele>60.3</ele></trkpt>
    <trkpt lat="46.05108417720231" lon="-123.85816687752575"><ele>60.3</ele></trkpt>
    <trkpt lat="46.0509539095264" lon="-123.85821736748012"><ele>60.3</ele></trkpt>
    <trkpt lat="46.05052142084237" lon="-123.85838499412868"><ele>60.6</ele></trkpt>
    <trkpt lat="46.05034773060783" lon="-123.85845231406788"><ele>60.7</ele></trkpt>
    <trkpt lat="46.050131486265826" lon="-123.85853612739214"><ele>60.8</ele></trkpt>
    <trkpt lat="46.04978584269907" lon="-123.85867009407113"><ele>61.1</ele></trkpt>
    <trkpt lat="46.04952617579843" lon="-123.85877073738021"><ele>61.3</ele></trkpt>
    <trkpt lat="46.04939590812252" lon="-123.8588212273346"><ele>61.4</ele></trkpt>
    <trkpt lat="46.04904939610459" lon="-123.85895553061327"><ele>61.6</ele></trkpt>
    <trkpt lat="46.04874717509649" lon="-123.85907266730744"><ele>61.7</ele></trkpt>
    <trkpt lat="46.04866032997921" lon="-123.85910632727703"><ele>61.7</ele></trkpt>
    <trkpt lat="46.04835724051993" lon="-123.8592238005709"><ele>62.0</ele></trkpt>
    <trkpt lat="46.04827039540265" lon="-123.8592574605405"><ele>62.1</ele></trkpt>
    <trkpt lat="46.04814099617792" lon="-123.8593076138952"><ele>62.1</ele></trkpt>
    <trkpt lat="46.04801072850201" lon="-123.85935810384959"><ele>62.1</ele></trkpt>
    <trkpt lat="46.0477085074939" lon="-123.85947524054376"><ele>62.2</ele></trkpt>
    <trkpt lat="46.047491394700714" lon="-123.85955939046774"><ele>62.2</ele></trkpt>
    <trkpt lat="46.04727515035871" lon="-123.85964320379202"><ele>62.3</ele></trkpt>
    <trkpt lat="46.04688608423332" lon="-123.85979400045579"><ele>62.6</ele></trkpt>
    <trkpt lat="46.046690000000005" lon="-123.85987000000002"><ele>62.7</ele></trkpt>
    <trkpt lat="46.046626330706765" lon="-123.85989417274864"><ele>62.7</ele></trkpt>
    <trkpt lat="46.046279346596066" lon="-123.86002590908898"><ele>63.0</ele></trkpt>
    <trkpt lat="46.0461062893579" lon="-123.860091612176"><ele>63.2</ele></trkpt>
    <trkpt lat="46.04584626868346" lon="-123.86019033188968"><ele>63.4</ele></trkpt>
    <trkpt lat="46.04562972972716" lon="-123.86027254329004"><ele>63.5</ele></trkpt>
    <trkpt lat="46.04545580285463" lon="-123.86033857654334"><ele>63.6</ele></trkpt>
    <trkpt lat="46.045369709052736" lon="-123.86037126300374"><ele>63.7</ele></trkpt>
    <trkpt lat="46.04506620666017" lon="-123.86048649103073"><ele>63.8</ele></trkpt>
    <trkpt lat="46.044806185985735" lon="-123.8605852107444"><ele>63.8</ele></trkpt>
    <trkpt lat="46.04458964702943" lon="-123.86066742214479"><ele>63.8</ele></trkpt>
    <trkpt lat="46.044459201875036" lon="-123.86071694708474"><ele>63.9</ele></trkpt>
    <trkpt lat="46.044329626354994" lon="-123.86076614185846"><ele>64.0</ele></trkpt>
    <trkpt lat="46.04402612396243" lon="-123.86088136988548"><ele>64.3</ele></trkpt>
    <trkpt lat="46.04376697292236" lon="-123.86097975943288"><ele>64.4</ele></trkpt>
    <trkpt lat="46.04374000000001" lon="-123.86099000000002"><ele>64.4</ele></trkpt>
    <trkpt lat="46.043635464857694" lon="-123.86102853830133"><ele>64.5</ele></trkpt>
    <trkpt lat="46.04346208705986" lon="-123.86109245638349"><ele>64.7</ele></trkpt>
    <trkpt lat="46.04337496253834" lon="-123.86112457602276"><ele>64.9</ele></trkpt>
    <trkpt lat="46.043201584740494" lon="-123.8611884941049"><ele>65.2</ele></trkpt>
    <trkpt lat="46.04285395789961" lon="-123.8613166514656"><ele>66.1</ele></trkpt>
    <trkpt lat="46.04254902207427" lon="-123.86142907020306"><ele>66.7</ele></trkpt>
    <trkpt lat="46.04224408624893" lon="-123.86154148894049"><ele>67.3</ele></trkpt>
    <trkpt lat="46.04198271268436" lon="-123.8616378478583"><ele>67.8</ele></trkpt>
    <trkpt lat="46.04176577262575" lon="-123.86171782576011"><ele>68.2</ele></trkpt>
    <trkpt lat="46.04163508584347" lon="-123.86176600521901"><ele>68.4</ele></trkpt>
    <trkpt lat="46.041330150018126" lon="-123.86187842395647"><ele>68.9</ele></trkpt>
    <trkpt lat="46.04119946323584" lon="-123.86192660341537"><ele>69.0</ele></trkpt>
    <trkpt lat="46.04111233871431" lon="-123.86195872305464"><ele>69.1</ele></trkpt>
    <trkpt lat="46.04102521419279" lon="-123.86199084269391"><ele>69.1</ele></trkpt>
    <trkpt lat="46.0408945274105" lon="-123.86203902215283"><ele>69.2</ele></trkpt>
    <trkpt lat="46.040633153845924" lon="-123.86213538107064"><ele>69.1</ele></trkpt>
    <trkpt lat="46.04041534254211" lon="-123.86221568016882"><ele>69.2</ele></trkpt>
    <trkpt lat="46.040329089265796" lon="-123.86224747861169"><ele>69.1</ele></trkpt>
    <trkpt lat="46.04024196474427" lon="-123.86227959825098"><ele>69.1</ele></trkpt>
    <trkpt lat="46.040024153440456" lon="-123.86235989734917"><ele>68.9</ele></trkpt>
    <trkpt lat="46.039762779875886" lon="-123.86245625626697"><ele>68.8</ele></trkpt>
    <trkpt lat="46.0396320930936" lon="-123.86250443572588"><ele>68.8</ele></trkpt>
    <trkpt lat="46.03954496857207" lon="-123.86253655536515"><ele>68.9</ele></trkpt>
    <trkpt lat="46.039457844050546" lon="-123.86256867500441"><ele>68.9</ele></trkpt>
    <trkpt lat="46.03941428178978" lon="-123.86258473482405"><ele>69.0</ele></trkpt>
    <trkpt lat="46.03919734173118" lon="-123.86266471272585"><ele>69.6</ele></trkpt>
    <trkpt lat="46.039110217209654" lon="-123.86269683236512"><ele>69.8</ele></trkpt>
    <trkpt lat="46.03897865918215" lon="-123.86274533302041"><ele>70.0</ele></trkpt>
    <trkpt lat="46.038848843645084" lon="-123.86279319128293"><ele>70.3</ele></trkpt>
    <trkpt lat="46.03863103234127" lon="-123.8628734903811"><ele>70.7</ele></trkpt>
    <trkpt lat="46.03836965877669" lon="-123.86296984929893"><ele>71.2</ele></trkpt>
    <trkpt lat="46.0382389719944" lon="-123.86301802875784"><ele>71.5</ele></trkpt>
    <trkpt lat="46.037977598429826" lon="-123.86311438767565"><ele>71.8</ele></trkpt>
    <trkpt lat="46.03780334938678" lon="-123.86317862695421"><ele>72.1</ele></trkpt>
    <trkpt lat="46.03771622486525" lon="-123.86321074659347"><ele>72.3</ele></trkpt>
    <trkpt lat="46.03758553808296" lon="-123.86325892605238"><ele>72.6</ele></trkpt>
    <trkpt lat="46.03749928480665" lon="-123.86329072449524"><ele>72.8</ele></trkpt>
    <trkpt lat="46.03736859802436" lon="-123.86333890395416"><ele>73.3</ele></trkpt>
    <trkpt lat="46.03728147350284" lon="-123.86337102359343"><ele>73.6</ele></trkpt>
    <trkpt lat="46.03719434898131" lon="-123.8634031432327"><ele>73.9</ele></trkpt>
    <trkpt lat="46.03688941315597" lon="-123.86351556197016"><ele>75.3</ele></trkpt>
    <trkpt lat="46.03675872637368" lon="-123.86356374142906"><ele>75.9</ele></trkpt>
    <trkpt lat="46.036671601852156" lon="-123.86359586106833"><ele>76.2</ele></trkpt>
    <trkpt lat="46.036540915069864" lon="-123.86364404052725"><ele>76.7</ele></trkpt>
    <trkpt lat="46.03597547692517" lon="-123.86385249698613"><ele>78.6</ele></trkpt>
    <trkpt lat="46.035757665621354" lon="-123.8639327960843"><ele>79.3</ele></trkpt>
    <trkpt lat="46.035670541099826" lon="-123.86396491572359"><ele>79.6</ele></trkpt>
    <trkpt lat="46.03549629205677" lon="-123.86402915500213"><ele>80.1</ele></trkpt>
    <trkpt lat="46.03536560527449" lon="-123.86407733446103"><ele>80.5</ele></trkpt>
    <trkpt lat="46.03532204301372" lon="-123.86409339428067"><ele>80.6</ele></trkpt>
    <trkpt lat="46.03514779397067" lon="-123.86415763355922"><ele>80.8</ele></trkpt>
    <trkpt lat="46.03506" lon="-123.86419000000001"><ele>80.9</ele></trkpt>
    <trkpt lat="46.03501712702373" lon="-123.86420592216155"><ele>81.0</ele></trkpt>
    <trkpt lat="46.0348873715185" lon="-123.86425411074782"><ele>81.1</ele></trkpt>
    <trkpt lat="46.03453990543406" lon="-123.86438315266675"><ele>81.6</ele></trkpt>
    <trkpt lat="46.034452821202365" lon="-123.86441549399981"><ele>81.7</ele></trkpt>
    <trkpt lat="46.034191568507296" lon="-123.864512517999"><ele>82.2</ele></trkpt>
    <trkpt lat="46.03397472877039" lon="-123.86459304791833"><ele>82.6</ele></trkpt>
    <trkpt lat="46.03384410242286" lon="-123.86464155991794"><ele>82.8</ele></trkpt>
    <trkpt lat="46.03375701819116" lon="-123.864673901251"><ele>82.9</ele></trkpt>
    <trkpt lat="46.03362726268594" lon="-123.86472208983726"><ele>83.0</ele></trkpt>
    <trkpt lat="46.03336600999087" lon="-123.86481911383643"><ele>83.2</ele></trkpt>
    <trkpt lat="46.03323538364334" lon="-123.86486762583604"><ele>83.2</ele></trkpt>
    <trkpt lat="46.033149170253964" lon="-123.86489964375578"><ele>83.3</ele></trkpt>
    <trkpt lat="46.03306208602227" lon="-123.86493198508884"><ele>83.4</ele></trkpt>
    <trkpt lat="46.03288791755889" lon="-123.86499666775497"><ele>83.7</ele></trkpt>
    <trkpt lat="46.03271461993782" lon="-123.86506102700776"><ele>83.9</ele></trkpt>
    <trkpt lat="46.0324969093586" lon="-123.86514188034042"><ele>84.2</ele></trkpt>
    <trkpt lat="46.032236527505844" lon="-123.86523858092627"><ele>84.5</ele></trkpt>
    <trkpt lat="46.032018816926616" lon="-123.86531943425894"><ele>84.8</ele></trkpt>
    <trkpt lat="46.03188819057908" lon="-123.86536794625854"><ele>84.9</ele></trkpt>
    <trkpt lat="46.03158426661048" lon="-123.86548081751093"><ele>85.2</ele></trkpt>
    <trkpt lat="46.03145364026294" lon="-123.86552932951054"><ele>85.3</ele></trkpt>
    <trkpt lat="46.03123680052603" lon="-123.86560985942987"><ele>85.3</ele></trkpt>
    <trkpt lat="46.030932005715115" lon="-123.86572305409558"><ele>85.4</ele></trkpt>
    <trkpt lat="46.03084579232574" lon="-123.86575507201532"><ele>85.5</ele></trkpt>
    <trkpt lat="46.03071516597821" lon="-123.86580358401491"><ele>85.6</ele></trkpt>
    <trkpt lat="46.030584539630674" lon="-123.86585209601452"><ele>85.6</ele></trkpt>
    <trkpt lat="46.03045391328313" lon="-123.8659006080141"><ele>85.6</ele></trkpt>
    <trkpt lat="46.030193531430385" lon="-123.86599730859997"><ele>85.6</ele></trkpt>
    <trkpt lat="46.030019362967" lon="-123.8660619912661"><ele>85.6</ele></trkpt>
    <trkpt lat="46.02984693618825" lon="-123.86612602710557"><ele>85.6</ele></trkpt>
    <trkpt lat="46.02962835476671" lon="-123.86620720385154"><ele>85.7</ele></trkpt>
    <trkpt lat="46.02954127053501" lon="-123.86623954518461"><ele>85.8</ele></trkpt>
    <trkpt lat="46.02919380445058" lon="-123.86636858710354"><ele>85.8</ele></trkpt>
    <trkpt lat="46.02919000000001" lon="-123.86637"><ele>85.8</ele></trkpt>
    <trkpt lat="46.02881605071947" lon="-123.86657397233483"><ele>85.8</ele></trkpt>
    <trkpt lat="46.028647844260675" lon="-123.86666572131236"><ele>85.9</ele></trkpt>
    <trkpt lat="46.02853" lon="-123.86673"><ele>86.0</ele></trkpt>
    <trkpt lat="46.02852298428907" lon="-123.86673549880047"><ele>86.0</ele></trkpt>
    <trkpt lat="46.02828600460882" lon="-123.86692123963093"><ele>86.2</ele></trkpt>
    <trkpt lat="46.02804981486085" lon="-123.86710636132528"><ele>86.5</ele></trkpt>
    <trkpt lat="46.0279708216341" lon="-123.86716827493544"><ele>86.6</ele></trkpt>
    <trkpt lat="46.02779" lon="-123.86731"><ele>86.6</ele></trkpt>
    <trkpt lat="46.02773943667412" lon="-123.86734707977233"><ele>86.6</ele></trkpt>
    <trkpt lat="46.02758235850564" lon="-123.8674622704292"><ele>86.7</ele></trkpt>
    <trkpt lat="46.0274653512985" lon="-123.86754807571444"><ele>86.8</ele></trkpt>
    <trkpt lat="46.027347542672146" lon="-123.86763446870711"><ele>87.0</ele></trkpt>
    <trkpt lat="46.02715199638077" lon="-123.86777786932078"><ele>87.3</ele></trkpt>
    <trkpt lat="46.02704000000001" lon="-123.86786000000001"><ele>87.5</ele></trkpt>
    <trkpt lat="46.02691818509921" lon="-123.86795285002438"><ele>87.8</ele></trkpt>
    <trkpt lat="46.02684108325793" lon="-123.86801161876119"><ele>88.0</ele></trkpt>
    <trkpt lat="46.026763186552294" lon="-123.86807099336126"><ele>88.2</ele></trkpt>
    <trkpt lat="46.026646341493844" lon="-123.86816005526137"><ele>88.6</ele></trkpt>
    <trkpt lat="46.02656923965255" lon="-123.86821882399818"><ele>88.8</ele></trkpt>
    <trkpt lat="46.026491342946926" lon="-123.86827819859826"><ele>89.1</ele></trkpt>
    <trkpt lat="46.02641424110563" lon="-123.86833696733504"><ele>89.5</ele></trkpt>
    <trkpt lat="46.0263363444" lon="-123.86839634193512"><ele>89.8</ele></trkpt>
    <trkpt lat="46.026178166395695" lon="-123.86851690872507"><ele>90.4</ele></trkpt>
    <trkpt lat="46.02609947482572" lon="-123.8685768891884"><ele>90.6</ele></trkpt>
    <trkpt lat="46.02605973160856" lon="-123.86860718235171"><ele>90.7</ele></trkpt>
    <trkpt lat="46.02594050195708" lon="-123.86869806184163"><ele>91.0</ele></trkpt>
    <trkpt lat="46.02582206716994" lon="-123.86878833546825"><ele>91.2</ele></trkpt>
    <trkpt lat="46.025742580735624" lon="-123.86884892179486"><ele>91.3</ele></trkpt>
    <trkpt lat="46.02566309430131" lon="-123.86890950812146"><ele>91.3</ele></trkpt>
    <trkpt lat="46.02546994226591" lon="-123.86905673289512"><ele>91.3</ele></trkpt>
    <trkpt lat="46.025392840424615" lon="-123.86911550163192"><ele>91.4</ele></trkpt>
    <trkpt lat="46.02531573858332" lon="-123.86917427036872"><ele>91.5</ele></trkpt>
    <trkpt lat="46.0251607400364" lon="-123.86929241370561"><ele>91.7</ele></trkpt>
    <trkpt lat="46.02504548470664" lon="-123.86938026387918"><ele>91.9</ele></trkpt>
    <trkpt lat="46.02489048615971" lon="-123.86949840721606"><ele>92.3</ele></trkpt>
    <trkpt lat="46.02473628247713" lon="-123.86961594468967"><ele>92.6</ele></trkpt>
    <trkpt lat="46.0246583857715" lon="-123.86967531928974"><ele>92.8</ele></trkpt>
    <trkpt lat="46.02442708024762" lon="-123.86985162550016"><ele>93.1</ele></trkpt>
    <trkpt lat="46.024349978406335" lon="-123.86991039423697"><ele>93.2</ele></trkpt>
    <trkpt lat="46.0242720817007" lon="-123.86996976883705"><ele>93.2</ele></trkpt>
    <trkpt lat="46.0241194677468" lon="-123.87008609458411"><ele>93.0</ele></trkpt>
    <trkpt lat="46.02392790544009" lon="-123.87023210763124"><ele>92.6</ele></trkpt>
    <trkpt lat="46.023850803598805" lon="-123.87029087636805"><ele>92.5</ele></trkpt>
    <trkpt lat="46.02377449662186" lon="-123.87034903924157"><ele>92.4</ele></trkpt>
    <trkpt lat="46.02369739478057" lon="-123.87040780797838"><ele>92.3</ele></trkpt>
    <trkpt lat="46.02355193460576" lon="-123.87051868095607"><ele>92.3</ele></trkpt>
    <trkpt lat="46.023405679566615" lon="-123.87063015979703"><ele>92.3</ele></trkpt>
    <trkpt lat="46.02300904225935" lon="-123.87093248556678"><ele>92.5</ele></trkpt>
    <trkpt lat="46.022810326173555" lon="-123.8710839513833"><ele>92.6</ele></trkpt>
    <trkpt lat="46.022540000000006" lon="-123.87129000000002"><ele>92.9</ele></trkpt>
    <trkpt lat="46.02225459487402" lon="-123.87150986765263"><ele>93.2</ele></trkpt>
    <trkpt lat="46.02209599640037" lon="-123.87163204721753"><ele>93.3</ele></trkpt>
    <trkpt lat="46.02181844907146" lon="-123.87184586145607"><ele>93.5</ele></trkpt>
    <trkpt lat="46.021699500216215" lon="-123.87193749612973"><ele>93.5</ele></trkpt>
    <trkpt lat="46.02142195288732" lon="-123.87215131036828"><ele>93.8</ele></trkpt>
    <trkpt lat="46.021190000000004" lon="-123.87233"><ele>94.1</ele></trkpt>
    <trkpt lat="46.0210974259999" lon="-123.87237011540005"><ele>94.2</ele></trkpt>
    <trkpt lat="46.02089" lon="-123.87246"><ele>94.3</ele></trkpt>
    <trkpt lat="46.02070194371505" lon="-123.8724644775306"><ele>94.4</ele></trkpt>
    <trkpt lat="46.020567063793706" lon="-123.8724676889573"><ele>94.5</ele></trkpt>
    <trkpt lat="46.02047" lon="-123.87247"><ele>94.5</ele></trkpt>
    <trkpt lat="46.020211869718906" lon="-123.87240011942667"><ele>94.7</ele></trkpt>
    <trkpt lat="46.01985833358028" lon="-123.87230441074826"><ele>94.8</ele></trkpt>
    <trkpt lat="46.01963737349364" lon="-123.87224459282425"><ele>94.9</ele></trkpt>
    <trkpt lat="46.01928383735502" lon="-123.87214888414584"><ele>95.1</ele></trkpt>
    <trkpt lat="46.019195453320364" lon="-123.87212495697625"><ele>95.1</ele></trkpt>
    <trkpt lat="46.018797725164404" lon="-123.87201728471302"><ele>94.9</ele></trkpt>
    <trkpt lat="46.018660000000004" lon="-123.87198000000001"><ele>94.9</ele></trkpt>
    <trkpt lat="46.01840534185264" lon="-123.87187676021054"><ele>94.9</ele></trkpt>
    <trkpt lat="46.01805907330569" lon="-123.8717363810699"><ele>94.8</ele></trkpt>
    <trkpt lat="46.017920000000004" lon="-123.87168000000001"><ele>94.7</ele></trkpt>
    <trkpt lat="46.017673387730596" lon="-123.87156043041483"><ele>94.6</ele></trkpt>
    <trkpt lat="46.017590000000006" lon="-123.87152"><ele>94.6</ele></trkpt>
    <trkpt lat="46.01754696754004" lon="-123.87149310471253"><ele>94.5</ele></trkpt>
    <trkpt lat="46.01742322211328" lon="-123.8714157638208"><ele>94.4</ele></trkpt>
    <trkpt lat="46.01725822821095" lon="-123.87131264263184"><ele>94.2</ele></trkpt>
    <trkpt lat="46.01713695769273" lon="-123.87123684855794"><ele>94.2</ele></trkpt>
    <trkpt lat="46.016870000000004" lon="-123.87107"><ele>94.1</ele></trkpt>
    <trkpt lat="46.01680660711425" lon="-123.87105525746844"><ele>94.1</ele></trkpt>
    <trkpt lat="46.01671960087709" lon="-123.8710350234598"><ele>94.2</ele></trkpt>
    <trkpt lat="46.01663170682119" lon="-123.87101458298167"><ele>94.2</ele></trkpt>
    <trkpt lat="46.01644" lon="-123.87097000000001"><ele>94.5</ele></trkpt>
    <trkpt lat="46.016280003824804" lon="-123.87097984591848"><ele>94.6</ele></trkpt>
    <trkpt lat="46.016058972271" lon="-123.87099344786026"><ele>94.9</ele></trkpt>
    <trkpt lat="46.015970020548124" lon="-123.87099892181243"><ele>95.0</ele></trkpt>
    <trkpt lat="46.01579" lon="-123.87101000000001"><ele>95.3</ele></trkpt>
    <trkpt lat="46.01555956733615" lon="-123.87097508596004"><ele>95.6</ele></trkpt>
    <trkpt lat="46.01548980531677" lon="-123.8709645159571"><ele>95.8</ele></trkpt>
    <trkpt lat="46.015460000000004" lon="-123.87096000000001"><ele>95.9</ele></trkpt>
    <trkpt lat="46.01540406798703" lon="-123.8709423165767"><ele>96.0</ele></trkpt>
    <trkpt lat="46.01523365888912" lon="-123.87088844016401"><ele>96.6</ele></trkpt>
    <trkpt lat="46.01514845434017" lon="-123.87086150195766"><ele>96.9</ele></trkpt>
    <trkpt lat="46.0150614929964" lon="-123.87083400832441"><ele>97.1</ele></trkpt>
    <trkpt lat="46.01501757312581" lon="-123.87082012265103"><ele>97.2</ele></trkpt>
    <trkpt lat="46.01479973056767" lon="-123.8707512497111"><ele>97.3</ele></trkpt>
    <trkpt lat="46.01471276922389" lon="-123.87072375607781"><ele>97.5</ele></trkpt>
    <trkpt lat="46.01462492948271" lon="-123.87069598473107"><ele>97.6</ele></trkpt>
    <trkpt lat="46.014451006795156" lon="-123.8706409974645"><ele>98.0</ele></trkpt>
    <trkpt lat="46.01436316705397" lon="-123.87061322611777"><ele>98.2</ele></trkpt>
    <trkpt lat="46.014276205710196" lon="-123.8705857324845"><ele>98.4</ele></trkpt>
    <trkpt lat="46.01401444328147" lon="-123.87050297387121"><ele>99.4</ele></trkpt>
    <trkpt lat="46.01393275232216" lon="-123.87047714651872"><ele>100.0</ele></trkpt>
    <trkpt lat="46.01385018296544" lon="-123.87045104145278"><ele>100.6</ele></trkpt>
    <trkpt lat="46.01376761360873" lon="-123.87042493638684"><ele>101.4</ele></trkpt>
    <trkpt lat="46.013685044252014" lon="-123.8703988313209"><ele>102.2</ele></trkpt>
    <trkpt lat="46.01360774527977" lon="-123.87037439253578"><ele>101.8</ele></trkpt>
    <trkpt lat="46.01353044630753" lon="-123.87034995375063"><ele>101.4</ele></trkpt>
    <trkpt lat="46.013453147335284" lon="-123.8703255149655"><ele>100.9</ele></trkpt>
    <trkpt lat="46.01337584836304" lon="-123.87030107618037"><ele>100.4</ele></trkpt>
    <trkpt lat="46.01328888701926" lon="-123.87027358254707"><ele>100.5</ele></trkpt>
    <trkpt lat="46.013244967148665" lon="-123.8702596968737"><ele>100.6</ele></trkpt>
    <trkpt lat="46.01320192567549" lon="-123.8702460889138"><ele>100.6</ele></trkpt>
    <trkpt lat="46.013114085934305" lon="-123.87021831756707"><ele>100.5</ele></trkpt>
    <trkpt lat="46.01302712459052" lon="-123.87019082393378"><ele>100.4</ele></trkpt>
    <trkpt lat="46.01267840081802" lon="-123.8700805716872"><ele>99.9</ele></trkpt>
    <trkpt lat="46.01245967986246" lon="-123.87001142103381"><ele>99.7</ele></trkpt>
    <trkpt lat="46.012372718518684" lon="-123.86998392740054"><ele>99.6</ele></trkpt>
    <trkpt lat="46.01232967704551" lon="-123.86997031944063"><ele>99.5</ele></trkpt>
    <trkpt lat="46.012241837304316" lon="-123.86994254809387"><ele>99.2</ele></trkpt>
    <trkpt lat="46.012110956089955" lon="-123.86990116878722"><ele>98.7</ele></trkpt>
    <trkpt lat="46.01206791461677" lon="-123.86988756082732"><ele>98.6</ele></trkpt>
    <trkpt lat="46.01202399474618" lon="-123.86987367515395"><ele>98.5</ele></trkpt>
    <trkpt lat="46.01198007487558" lon="-123.86985978948059"><ele>98.4</ele></trkpt>
    <trkpt lat="46.011937033402404" lon="-123.86984618152067"><ele>98.4</ele></trkpt>
    <trkpt lat="46.011893113531805" lon="-123.86983229584729"><ele>98.4</ele></trkpt>
    <trkpt lat="46.01184919366122" lon="-123.86981841017392"><ele>98.5</ele></trkpt>
    <trkpt lat="46.011806152188036" lon="-123.86980480221402"><ele>98.6</ele></trkpt>
    <trkpt lat="46.01158830962989" lon="-123.8697359292741"><ele>99.3</ele></trkpt>
    <trkpt lat="46.01141350854493" lon="-123.86968066429408"><ele>99.9</ele></trkpt>
    <trkpt lat="46.01132654720116" lon="-123.8696531706608"><ele>100.2</ele></trkpt>
    <trkpt lat="46.011282627330566" lon="-123.86963928498743"><ele>100.2</ele></trkpt>
    <trkpt lat="46.011238707459974" lon="-123.86962539931405"><ele>100.3</ele></trkpt>
    <trkpt lat="46.01119566598679" lon="-123.86961179135415"><ele>100.3</ele></trkpt>
    <trkpt lat="46.011190000000006" lon="-123.86961000000001"><ele>100.3</ele></trkpt>
    <trkpt lat="46.01115256004131" lon="-123.86959344759721"><ele>100.3</ele></trkpt>
    <trkpt lat="46.01111043435843" lon="-123.86957482361109"><ele>100.2</ele></trkpt>
    <trkpt lat="46.01102446357703" lon="-123.86953681547617"><ele>100.0</ele></trkpt>
    <trkpt lat="46.01085424142988" lon="-123.869461559369"><ele>99.5</ele></trkpt>
    <trkpt lat="46.010640174184225" lon="-123.86936691911303"><ele>99.0</ele></trkpt>
    <trkpt lat="46.010598048501336" lon="-123.86934829512691"><ele>98.9</ele></trkpt>
    <trkpt lat="46.01042696664638" lon="-123.8692726589384"><ele>98.4</ele></trkpt>
    <trkpt lat="46.0103418555728" lon="-123.86923503088482"><ele>98.2</ele></trkpt>
    <trkpt lat="46.010298870182105" lon="-123.86921602681736"><ele>98.2</ele></trkpt>
    <trkpt lat="46.01025760420704" lon="-123.8691977829126"><ele>98.1</ele></trkpt>
    <trkpt lat="46.01024" lon="-123.86919"><ele>98.1</ele></trkpt>
    <trkpt lat="46.01021640227658" lon="-123.86917247894355"><ele>98.1</ele></trkpt>
    <trkpt lat="46.01017563804266" lon="-123.86914221193724"><ele>98.2</ele></trkpt>
    <trkpt lat="46.01013647240614" lon="-123.86911313187237"><ele>98.2</ele></trkpt>
    <trkpt lat="46.01009650747093" lon="-123.86908345833677"><ele>98.4</ele></trkpt>
    <trkpt lat="46.0100565425357" lon="-123.86905378480118"><ele>98.5</ele></trkpt>
    <trkpt lat="46.009898281392225" lon="-123.86893627760024"><ele>99.2</ele></trkpt>
    <trkpt lat="46.00981915082049" lon="-123.86887752399976"><ele>99.5</ele></trkpt>
    <trkpt lat="46.00977918588528" lon="-123.86884785046418"><ele>99.6</ele></trkpt>
    <trkpt lat="46.00970005531353" lon="-123.86878909686371"><ele>99.8</ele></trkpt>
    <trkpt lat="46.00962012544309" lon="-123.86872974979252"><ele>99.9</ele></trkpt>
    <trkpt lat="46.0094218993644" lon="-123.86858256905597"><ele>100.0</ele></trkpt>
    <trkpt lat="46.00914454271397" lon="-123.86837663471896"><ele>100.1</ele></trkpt>
    <trkpt lat="46.00906461284353" lon="-123.86831728764777"><ele>100.2</ele></trkpt>
    <trkpt lat="46.008906351700055" lon="-123.86819978044682"><ele>100.5</ele></trkpt>
    <trkpt lat="46.008747291257876" lon="-123.86808167977517"><ele>100.5</ele></trkpt>
    <trkpt lat="46.00854906517918" lon="-123.86793449903863"><ele>100.6</ele></trkpt>
    <trkpt lat="46.00850910024397" lon="-123.86790482550303"><ele>100.6</ele></trkpt>
    <trkpt lat="46.008469135308744" lon="-123.86787515196744"><ele>100.5</ele></trkpt>
    <trkpt lat="46.00842917037352" lon="-123.86784547843185"><ele>100.5</ele></trkpt>
    <trkpt lat="46.00839000473701" lon="-123.86781639836697"><ele>100.4</ele></trkpt>
    <trkpt lat="46.008310074866564" lon="-123.86775705129578"><ele>100.1</ele></trkpt>
    <trkpt lat="46.00819097935961" lon="-123.86766862415972"><ele>99.6</ele></trkpt>
    <trkpt lat="46.00815101442439" lon="-123.86763895062413"><ele>99.4</ele></trkpt>
    <trkpt lat="46.008111049489166" lon="-123.86760927708853"><ele>99.3</ele></trkpt>
    <trkpt lat="46.00807188385265" lon="-123.86758019702364"><ele>99.2</ele></trkpt>
    <trkpt lat="46.00803191891743" lon="-123.86755052348806"><ele>99.2</ele></trkpt>
    <trkpt lat="46.007991953982206" lon="-123.86752084995246"><ele>99.2</ele></trkpt>
    <trkpt lat="46.00795198904699" lon="-123.86749117641688"><ele>99.2</ele></trkpt>
    <trkpt lat="46.00791202411177" lon="-123.86746150288127"><ele>99.4</ele></trkpt>
    <trkpt lat="46.00791" lon="-123.86746000000001"><ele>99.4</ele></trkpt>
    <trkpt lat="46.0078690892923" lon="-123.8674477267877"><ele>99.5</ele></trkpt>
    <trkpt lat="46.007737027364755" lon="-123.86740810820943"><ele>100.0</ele></trkpt>
    <trkpt lat="46.00771" lon="-123.8674"><ele>100.1</ele></trkpt>
    <trkpt lat="46.007693541062835" lon="-123.8674"><ele>100.2</ele></trkpt>
    <trkpt lat="46.007648574944554" lon="-123.8674"><ele>100.3</ele></trkpt>
    <trkpt lat="46.00760360882629" lon="-123.8674"><ele>100.3</ele></trkpt>
  </trkseg></trk>
</gpx>
