<?xml version="1.0" encoding="UTF-8"?>
<gpx version="1.1" creator="h2c-tracker" xmlns="http://www.topografix.com/GPX/1/1">
  <metadata><name>Hood to Coast 2026 — Leg 8 (6 mi)</name><desc>Derived from the official Hood to Coast Strava route (simplified, 294 points, ~6.02 mi). Verify against the official leg map PDF.</desc></metadata>
  <wpt lat="45.4536649248559" lon="-122.29050957707133"><name>Exchange 7 — SE Proctor Rd, Boring</name></wpt>
  <wpt lat="45.431983968066746" lon="-122.3753483698011"><name>Exchange 8 — Dee St/Springwater Trail</name></wpt>
  <trk><name>HTC Leg 8</name><trkseg>
    <trkpt lat="45.4536649248559" lon="-122.29050957707133"><ele>218.9</ele></trkpt>
    <trkpt lat="45.45392438607945" lon="-122.29053119883997"><ele>217.7</ele></trkpt>
    <trkpt lat="45.454130877710654" lon="-122.29054840647589"><ele>216.8</ele></trkpt>
    <trkpt lat="45.454150000000006" lon="-122.29055000000001"><ele>216.8</ele></trkpt>
    <trkpt lat="45.454237391317506" lon="-122.29087528990402"><ele>216.1</ele></trkpt>
    <trkpt lat="45.454330000000006" lon="-122.29122000000001"><ele>215.6</ele></trkpt>
    <trkpt lat="45.45433177445933" lon="-122.29122737083104"><ele>215.6</ele></trkpt>
    <trkpt lat="45.45437439574201" lon="-122.29140441308218"><ele>215.4</ele></trkpt>
    <trkpt lat="45.454417600877875" lon="-122.29158388056962"><ele>215.2</ele></trkpt>
    <trkpt lat="45.454460514087145" lon="-122.29176213543892"><ele>215.0</ele></trkpt>
    <trkpt lat="45.45450342729642" lon="-122.29194039030823"><ele>214.9</ele></trkpt>
    <trkpt lat="45.4545463405057" lon="-122.29211864517752"><ele>214.8</ele></trkpt>
    <trkpt lat="45.45458925371497" lon="-122.29229690004682"><ele>214.6</ele></trkpt>
    <trkpt lat="45.45459" lon="-122.29230000000001"><ele>214.6</ele></trkpt>
    <trkpt lat="45.45467395547179" lon="-122.29265396301926"><ele>214.1</ele></trkpt>
    <trkpt lat="45.45471630141768" lon="-122.29283249693185"><ele>213.7</ele></trkpt>
    <trkpt lat="45.454758647363576" lon="-122.29301103084444"><ele>213.3</ele></trkpt>
    <trkpt lat="45.454800993309476" lon="-122.29318956475703"><ele>213.0</ele></trkpt>
    <trkpt lat="45.45484333925536" lon="-122.29336809866959"><ele>212.7</ele></trkpt>
    <trkpt lat="45.45488568520126" lon="-122.29354663258218"><ele>212.1</ele></trkpt>
    <trkpt lat="45.45492803114715" lon="-122.29372516649475"><ele>211.8</ele></trkpt>
    <trkpt lat="45.45497037709304" lon="-122.29390370040734"><ele>211.4</ele></trkpt>
    <trkpt lat="45.455012723038934" lon="-122.29408223431992"><ele>210.9</ele></trkpt>
    <trkpt lat="45.45505506898483" lon="-122.29426076823252"><ele>210.4</ele></trkpt>
    <trkpt lat="45.45509741493072" lon="-122.2944393021451"><ele>210.1</ele></trkpt>
    <trkpt lat="45.455182106822505" lon="-122.29479636997027"><ele>209.7</ele></trkpt>
    <trkpt lat="45.4552244527684" lon="-122.29497490388285"><ele>209.8</ele></trkpt>
    <trkpt lat="45.4552667987143" lon="-122.29515343779545"><ele>210.1</ele></trkpt>
    <trkpt lat="45.45535149060608" lon="-122.29551050562063"><ele>210.9</ele></trkpt>
    <trkpt lat="45.45539383655197" lon="-122.29568903953319"><ele>211.2</ele></trkpt>
    <trkpt lat="45.45552087438965" lon="-122.29622464127095"><ele>212.4</ele></trkpt>
    <trkpt lat="45.45556322033555" lon="-122.29640317518353"><ele>212.7</ele></trkpt>
    <trkpt lat="45.455647912227334" lon="-122.29676024300869"><ele>213.0</ele></trkpt>
    <trkpt lat="45.45569025817322" lon="-122.29693877692128"><ele>213.0</ele></trkpt>
    <trkpt lat="45.45573260411912" lon="-122.29711731083387"><ele>213.0</ele></trkpt>
    <trkpt lat="45.455817296010906" lon="-122.29747437865903"><ele>212.7</ele></trkpt>
    <trkpt lat="45.4558596419568" lon="-122.2976529125716"><ele>212.4</ele></trkpt>
    <trkpt lat="45.455944333848585" lon="-122.29800998039678"><ele>211.9</ele></trkpt>
    <trkpt lat="45.45598667979448" lon="-122.29818851430937"><ele>211.6</ele></trkpt>
    <trkpt lat="45.45602902574037" lon="-122.29836704822195"><ele>211.2</ele></trkpt>
    <trkpt lat="45.45611371763216" lon="-122.29872411604711"><ele>210.6</ele></trkpt>
    <trkpt lat="45.45615606357805" lon="-122.2989026499597"><ele>210.3</ele></trkpt>
    <trkpt lat="45.45619754532096" lon="-122.29907754032305"><ele>210.3</ele></trkpt>
    <trkpt lat="45.45623931513154" lon="-122.29925364520281"><ele>210.5</ele></trkpt>
    <trkpt lat="45.45632256668503" lon="-122.29960464044592"><ele>210.6</ele></trkpt>
    <trkpt lat="45.456406106306176" lon="-122.29995685020543"><ele>210.6</ele></trkpt>
    <trkpt lat="45.456447588049095" lon="-122.30013174056879"><ele>210.6</ele></trkpt>
    <trkpt lat="45.45648935785967" lon="-122.30030784544854"><ele>210.5</ele></trkpt>
    <trkpt lat="45.45657260941316" lon="-122.30065884069165"><ele>210.2</ele></trkpt>
    <trkpt lat="45.45658" lon="-122.30069"><ele>209.8</ele></trkpt>
    <trkpt lat="45.45648540129644" lon="-122.30069733323285"><ele>209.7</ele></trkpt>
    <trkpt lat="45.456351599930855" lon="-122.30070770543173"><ele>209.5</ele></trkpt>
    <trkpt lat="45.45617200078241" lon="-122.30072162784633"><ele>209.2</ele></trkpt>
    <trkpt lat="45.455903500055484" lon="-122.30074244185616"><ele>208.7</ele></trkpt>
    <trkpt lat="45.455723900907046" lon="-122.30075636427078"><ele>208.4</ele></trkpt>
    <trkpt lat="45.45563410133282" lon="-122.30076332547807"><ele>208.3</ele></trkpt>
    <trkpt lat="45.45558920154571" lon="-122.30076680608173"><ele>208.2</ele></trkpt>
    <trkpt lat="45.45550029996723" lon="-122.30077369767696"><ele>208.2</ele></trkpt>
    <trkpt lat="45.455412296384495" lon="-122.30078051966012"><ele>208.2</ele></trkpt>
    <trkpt lat="45.4553251907975" lon="-122.3007872720312"><ele>208.1</ele></trkpt>
    <trkpt lat="45.455290000000005" lon="-122.30079"><ele>208.1</ele></trkpt>
    <trkpt lat="45.45515077577914" lon="-122.30079093126571"><ele>208.1</ele></trkpt>
    <trkpt lat="45.455062643157504" lon="-122.30079152078156"><ele>208.2</ele></trkpt>
    <trkpt lat="45.454975409848345" lon="-122.30079210428197"><ele>208.2</ele></trkpt>
    <trkpt lat="45.45488817653917" lon="-122.30079268778235"><ele>208.3</ele></trkpt>
    <trkpt lat="45.454800043917544" lon="-122.30079327729821"><ele>208.6</ele></trkpt>
    <trkpt lat="45.45475687691919" lon="-122.30079356604068"><ele>208.7</ele></trkpt>
    <trkpt lat="45.454668744297564" lon="-122.30079415555656"><ele>209.0</ele></trkpt>
    <trkpt lat="45.454581510988405" lon="-122.30079473905694"><ele>209.4</ele></trkpt>
    <trkpt lat="45.45449427767923" lon="-122.30079532255732"><ele>209.9</ele></trkpt>
    <trkpt lat="45.454406145057604" lon="-122.3007959120732"><ele>210.4</ele></trkpt>
    <trkpt lat="45.454318911748445" lon="-122.30079649557359"><ele>210.9</ele></trkpt>
    <trkpt lat="45.45423167843928" lon="-122.30079707907399"><ele>211.5</ele></trkpt>
    <trkpt lat="45.45401314551013" lon="-122.30079854083272"><ele>213.1</ele></trkpt>
    <trkpt lat="45.45388184589015" lon="-122.30079941909105"><ele>214.1</ele></trkpt>
    <trkpt lat="45.453792813956056" lon="-122.30080001462238"><ele>214.8</ele></trkpt>
    <trkpt lat="45.45370468133443" lon="-122.30080060413825"><ele>215.3</ele></trkpt>
    <trkpt lat="45.45361744802526" lon="-122.30080118763864"><ele>215.8</ele></trkpt>
    <trkpt lat="45.45349783946734" lon="-122.30080198769588"><ele>216.2</ele></trkpt>
    <trkpt lat="45.45337823090941" lon="-122.30080278775313"><ele>216.6</ele></trkpt>
    <trkpt lat="45.45315700004287" lon="-122.30080426755825"><ele>217.4</ele></trkpt>
    <trkpt lat="45.45306886742124" lon="-122.30080485707413"><ele>217.7</ele></trkpt>
    <trkpt lat="45.45297983548715" lon="-122.30080545260546"><ele>217.9</ele></trkpt>
    <trkpt lat="45.45271453830979" lon="-122.3008072271685"><ele>218.5</ele></trkpt>
    <trkpt lat="45.452581440064876" lon="-122.30080811745778"><ele>218.8</ele></trkpt>
    <trkpt lat="45.452493307443255" lon="-122.30080870697363"><ele>218.9</ele></trkpt>
    <trkpt lat="45.452360209198346" lon="-122.3008095972629"><ele>219.0</ele></trkpt>
    <trkpt lat="45.4523" lon="-122.30081000000001"><ele>219.1</ele></trkpt>
    <trkpt lat="45.45227208924847" lon="-122.30081121351094"><ele>219.1</ele></trkpt>
    <trkpt lat="45.452228042935104" lon="-122.30081312856805"><ele>219.1</ele></trkpt>
    <trkpt lat="45.45213905140404" lon="-122.30081699776505"><ele>219.1</ele></trkpt>
    <trkpt lat="45.45209500509069" lon="-122.30081891282217"><ele>219.1</ele></trkpt>
    <trkpt lat="45.452070000000006" lon="-122.30082000000002"><ele>219.0</ele></trkpt>
    <trkpt lat="45.45196282349616" lon="-122.30082176664568"><ele>218.9</ele></trkpt>
    <trkpt lat="45.45156445032136" lon="-122.3008283332365"><ele>218.4</ele></trkpt>
    <trkpt lat="45.451387295658975" lon="-122.30083125336827"><ele>218.1</ele></trkpt>
    <trkpt lat="45.450900794784104" lon="-122.30083927261346"><ele>217.1</ele></trkpt>
    <trkpt lat="45.45081266708404" lon="-122.30084072526785"><ele>216.9</ele></trkpt>
    <trkpt lat="45.45068047553393" lon="-122.30084290424945"><ele>216.5</ele></trkpt>
    <trkpt lat="45.45054738472158" lon="-122.30084509805405"><ele>216.0</ele></trkpt>
    <trkpt lat="45.45045925702151" lon="-122.30084655070844"><ele>215.6</ele></trkpt>
    <trkpt lat="45.45037112932145" lon="-122.30084800336286"><ele>215.1</ele></trkpt>
    <trkpt lat="45.450326166209166" lon="-122.30084874451305"><ele>214.9</ele></trkpt>
    <trkpt lat="45.450282102359125" lon="-122.30084947084025"><ele>214.6</ele></trkpt>
    <trkpt lat="45.450250000000004" lon="-122.30085000000001"><ele>214.3</ele></trkpt>
    <trkpt lat="45.45019399937809" lon="-122.30085254548281"><ele>213.9</ele></trkpt>
    <trkpt lat="45.44988389078725" lon="-122.30086664132786"><ele>211.3</ele></trkpt>
    <trkpt lat="45.44979580197014" lon="-122.300870645365"><ele>210.6</ele></trkpt>
    <trkpt lat="45.449751757561586" lon="-122.30087264738358"><ele>210.3</ele></trkpt>
    <trkpt lat="45.44970771315304" lon="-122.30087464940215"><ele>210.0</ele></trkpt>
    <trkpt lat="45.449663668744485" lon="-122.30087665142072"><ele>209.8</ele></trkpt>
    <trkpt lat="45.449618725470444" lon="-122.30087869429681"><ele>209.6</ele></trkpt>
    <trkpt lat="45.449530636653336" lon="-122.30088269833395"><ele>209.3</ele></trkpt>
    <trkpt lat="45.44944254783623" lon="-122.30088670237109"><ele>209.1</ele></trkpt>
    <trkpt lat="45.4493976045622" lon="-122.30088874524718"><ele>209.1</ele></trkpt>
    <trkpt lat="45.44937" lon="-122.30089000000001"><ele>209.1</ele></trkpt>
    <trkpt lat="45.44930948917247" lon="-122.3008889872665"><ele>209.1</ele></trkpt>
    <trkpt lat="45.44922136165519" lon="-122.30088751232897"><ele>209.2</ele></trkpt>
    <trkpt lat="45.44917639863617" lon="-122.30088675980981"><ele>209.3</ele></trkpt>
    <trkpt lat="45.44913233487753" lon="-122.30088602234105"><ele>209.4</ele></trkpt>
    <trkpt lat="45.44908827111889" lon="-122.3008852848723"><ele>209.6</ele></trkpt>
    <trkpt lat="45.44904420736025" lon="-122.30088454740353"><ele>209.8</ele></trkpt>
    <trkpt lat="45.44900014360161" lon="-122.30088380993476"><ele>210.0</ele></trkpt>
    <trkpt lat="45.44891111682395" lon="-122.30088231994685"><ele>210.6</ele></trkpt>
    <trkpt lat="45.448778925548034" lon="-122.30088010754056"><ele>211.4</ele></trkpt>
    <trkpt lat="45.44873396252902" lon="-122.30087935502141"><ele>211.7</ele></trkpt>
    <trkpt lat="45.448689898770375" lon="-122.30087861755266"><ele>211.9</ele></trkpt>
    <trkpt lat="45.448601771253095" lon="-122.30087714261512"><ele>212.4</ele></trkpt>
    <trkpt lat="45.44851274447544" lon="-122.30087565262721"><ele>212.8</ele></trkpt>
    <trkpt lat="45.44846868071679" lon="-122.30087491515846"><ele>213.0</ele></trkpt>
    <trkpt lat="45.44829242568224" lon="-122.30087196528339"><ele>213.6</ele></trkpt>
    <trkpt lat="45.44816293218746" lon="-122.30086979802826"><ele>213.9</ele></trkpt>
    <trkpt lat="45.44807660319094" lon="-122.30086835319148"><ele>214.0</ele></trkpt>
    <trkpt lat="45.44803343869269" lon="-122.3008676307731"><ele>214.0</ele></trkpt>
    <trkpt lat="45.447947109696166" lon="-122.30086618593634"><ele>214.0</ele></trkpt>
    <trkpt lat="45.44781761620139" lon="-122.30086401868121"><ele>214.0</ele></trkpt>
    <trkpt lat="45.44781132137873" lon="-122.30086391332853"><ele>213.9</ele></trkpt>
    <trkpt lat="45.44698" lon="-122.30085000000001"><ele>214.6</ele></trkpt>
    <trkpt lat="45.4465" lon="-122.30088"><ele>214.2</ele></trkpt>
    <trkpt lat="45.44471908852934" lon="-122.30086851024859"><ele>212.8</ele></trkpt>
    <trkpt lat="45.44460127850632" lon="-122.30086775018393"><ele>211.8</ele></trkpt>
    <trkpt lat="45.444519441009405" lon="-122.30086722220007"><ele>212.0</ele></trkpt>
    <trkpt lat="45.44439533579432" lon="-122.30086642152125"><ele>212.3</ele></trkpt>
    <trkpt lat="45.44427212989238" lon="-122.30086562664448"><ele>212.5</ele></trkpt>
    <trkpt lat="45.44405539542255" lon="-122.30086422835758"><ele>212.6</ele></trkpt>
    <trkpt lat="45.44383776163957" lon="-122.30086282426865"><ele>212.8</ele></trkpt>
    <trkpt lat="45.4437514275769" lon="-122.3008622672747"><ele>212.9</ele></trkpt>
    <trkpt lat="45.44349062676258" lon="-122.3008605846888"><ele>213.0</ele></trkpt>
    <trkpt lat="45.443400000000004" lon="-122.30086000000001"><ele>213.1</ele></trkpt>
    <trkpt lat="45.4432738952468" lon="-122.30086147490941"><ele>213.3</ele></trkpt>
    <trkpt lat="45.44300320832873" lon="-122.30086464083827"><ele>213.5</ele></trkpt>
    <trkpt lat="45.44264888724662" lon="-122.3008687849445"><ele>213.5</ele></trkpt>
    <trkpt lat="45.442560756622136" lon="-122.30086981571203"><ele>213.6</ele></trkpt>
    <trkpt lat="45.442427661393324" lon="-122.30087137238138"><ele>213.8</ele></trkpt>
    <trkpt lat="45.44225140014435" lon="-122.30087343391645"><ele>214.1</ele></trkpt>
    <trkpt lat="45.44216237022778" lon="-122.30087447520202"><ele>214.2</ele></trkpt>
    <trkpt lat="45.442074239603286" lon="-122.30087550596956"><ele>214.3</ele></trkpt>
    <trkpt lat="45.44198610897881" lon="-122.30087653673709"><ele>214.2</ele></trkpt>
    <trkpt lat="45.44189707906224" lon="-122.30087757802266"><ele>213.8</ele></trkpt>
    <trkpt lat="45.4418521144579" lon="-122.30087810392448"><ele>213.6</ele></trkpt>
    <trkpt lat="45.441807149853574" lon="-122.30087862982629"><ele>213.3</ele></trkpt>
    <trkpt lat="45.44176308454133" lon="-122.30087914521005"><ele>213.0</ele></trkpt>
    <trkpt lat="45.44171811993701" lon="-122.30087967111186"><ele>212.6</ele></trkpt>
    <trkpt lat="45.44169" lon="-122.30088"><ele>212.3</ele></trkpt>
    <trkpt lat="45.441540058602875" lon="-122.30087852998632"><ele>210.9</ele></trkpt>
    <trkpt lat="45.441451027795054" lon="-122.30087765713526"><ele>210.1</ele></trkpt>
    <trkpt lat="45.441406062740604" lon="-122.30087721630139"><ele>209.7</ele></trkpt>
    <trkpt lat="45.44131703193278" lon="-122.30087634345031"><ele>209.1</ele></trkpt>
    <trkpt lat="45.44118393537161" lon="-122.30087503858209"><ele>208.1</ele></trkpt>
    <trkpt lat="45.44113267520953" lon="-122.30087453603147"><ele>208.0</ele></trkpt>
    <trkpt lat="45.44112368219864" lon="-122.30087444786469"><ele>208.0</ele></trkpt>
    <trkpt lat="45.440670000000004" lon="-122.30087"><ele>207.3</ele></trkpt>
    <trkpt lat="45.43981" lon="-122.30084000000001"><ele>205.9</ele></trkpt>
    <trkpt lat="45.439835955064616" lon="-122.31282258816266"><ele>191.8</ele></trkpt>
    <trkpt lat="45.43983642147513" lon="-122.31303791434883"><ele>192.0</ele></trkpt>
    <trkpt lat="45.43983678238802" lon="-122.31320453580241"><ele>191.9</ele></trkpt>
    <trkpt lat="45.439837184944714" lon="-122.31339038280832"><ele>191.8</ele></trkpt>
    <trkpt lat="45.439837454241264" lon="-122.31351470804675"><ele>191.8</ele></trkpt>
    <trkpt lat="45.43983785679795" lon="-122.31370055505268"><ele>191.9</ele></trkpt>
    <trkpt lat="45.439838939536635" lon="-122.3142004194134"><ele>192.2</ele></trkpt>
    <trkpt lat="45.43983990012019" lon="-122.31464388882063"><ele>192.7</ele></trkpt>
    <trkpt lat="45.439840000000004" lon="-122.31469000000001"><ele>192.7</ele></trkpt>
    <trkpt lat="45.43984056577998" lon="-122.31476949208698"><ele>192.8</ele></trkpt>
    <trkpt lat="45.439848511061996" lon="-122.31588580420978"><ele>193.7</ele></trkpt>
    <trkpt lat="45.43985008004995" lon="-122.31610624701705"><ele>193.8</ele></trkpt>
    <trkpt lat="45.43986" lon="-122.31750000000001"><ele>193.8</ele></trkpt>
    <trkpt lat="45.43988" lon="-122.31797000000002"><ele>193.7</ele></trkpt>
    <trkpt lat="45.43987556893187" lon="-122.31945440782388"><ele>193.5</ele></trkpt>
    <trkpt lat="45.439870000000006" lon="-122.32132000000001"><ele>190.4</ele></trkpt>
    <trkpt lat="45.43991085238335" lon="-122.32967839763383"><ele>176.4</ele></trkpt>
    <trkpt lat="45.43992" lon="-122.33155000000001"><ele>174.6</ele></trkpt>
    <trkpt lat="45.436860891816345" lon="-122.33159190559155"><ele>170.3</ele></trkpt>
    <trkpt lat="45.436695424144915" lon="-122.331594172272"><ele>170.3</ele></trkpt>
    <trkpt lat="45.43656412914476" lon="-122.33159597083363"><ele>170.0</ele></trkpt>
    <trkpt lat="45.43652006438444" lon="-122.3315965744605"><ele>170.0</ele></trkpt>
    <trkpt lat="45.43643283414461" lon="-122.33159776939529"><ele>170.0</ele></trkpt>
    <trkpt lat="45.43638876938429" lon="-122.33159837302213"><ele>170.0</ele></trkpt>
    <trkpt lat="45.43630153914446" lon="-122.33159956795693"><ele>170.2</ele></trkpt>
    <trkpt lat="45.43625747438413" lon="-122.33160017158379"><ele>170.3</ele></trkpt>
    <trkpt lat="45.43617024414431" lon="-122.33160136651858"><ele>170.6</ele></trkpt>
    <trkpt lat="45.4361270786648" lon="-122.33160195782652"><ele>170.8</ele></trkpt>
    <trkpt lat="45.43590855342482" lon="-122.33160495132296"><ele>171.9</ele></trkpt>
    <trkpt lat="45.43573589150681" lon="-122.33160731655471"><ele>172.9</ele></trkpt>
    <trkpt lat="45.43554" lon="-122.33161000000001"><ele>174.0</ele></trkpt>
    <trkpt lat="45.435475112999285" lon="-122.3316120490632"><ele>174.3</ele></trkpt>
    <trkpt lat="45.43530158638208" lon="-122.3316175288511"><ele>175.3</ele></trkpt>
    <trkpt lat="45.43508490288598" lon="-122.33162437148782"><ele>176.5</ele></trkpt>
    <trkpt lat="45.43491137626877" lon="-122.33162985127574"><ele>177.4</ele></trkpt>
    <trkpt lat="45.43459000000001" lon="-122.33164000000001"><ele>179.0</ele></trkpt>
    <trkpt lat="45.43446764662453" lon="-122.33148786749611"><ele>179.9</ele></trkpt>
    <trkpt lat="45.43430094754541" lon="-122.33128059615436"><ele>180.9</ele></trkpt>
    <trkpt lat="45.43410104417818" lon="-122.33103203905752"><ele>182.1</ele></trkpt>
    <trkpt lat="45.43400075367529" lon="-122.33090733922589"><ele>182.8</ele></trkpt>
    <trkpt lat="45.43379813975393" lon="-122.33065541186335"><ele>183.9</ele></trkpt>
    <trkpt lat="45.433697171612515" lon="-122.3305298694653"><ele>184.4</ele></trkpt>
    <trkpt lat="45.43359688110963" lon="-122.33040516963368"><ele>184.7</ele></trkpt>
    <trkpt lat="45.433529794894866" lon="-122.33032175555712"><ele>185.0</ele></trkpt>
    <trkpt lat="45.43342950439198" lon="-122.33019705572549"><ele>185.6</ele></trkpt>
    <trkpt lat="45.433262805312864" lon="-122.32998978438373"><ele>186.6</ele></trkpt>
    <trkpt lat="45.433197074375165" lon="-122.32990805544003"><ele>186.9</ele></trkpt>
    <trkpt lat="45.43316387008705" lon="-122.32986676968497"><ele>187.0</ele></trkpt>
    <trkpt lat="45.433098139149344" lon="-122.32978504074126"><ele>187.1</ele></trkpt>
    <trkpt lat="45.433032408211645" lon="-122.32970331179756"><ele>187.2</ele></trkpt>
    <trkpt lat="45.43299988156207" lon="-122.32966286860892"><ele>187.3</ele></trkpt>
    <trkpt lat="45.43293415062436" lon="-122.32958113966522"><ele>187.3</ele></trkpt>
    <trkpt lat="45.43286841968666" lon="-122.32949941072152"><ele>187.3</ele></trkpt>
    <trkpt lat="45.432770162099374" lon="-122.32937723858919"><ele>187.2</ele></trkpt>
    <trkpt lat="45.432700000000004" lon="-122.32929000000001"><ele>187.1</ele></trkpt>
    <trkpt lat="45.432697890823235" lon="-122.32971605370693"><ele>186.8</ele></trkpt>
    <trkpt lat="45.43269757361648" lon="-122.32978012947288"><ele>186.8</ele></trkpt>
    <trkpt lat="45.43265937557818" lon="-122.33749613320828"><ele>178.3</ele></trkpt>
    <trkpt lat="45.432658760197064" lon="-122.33762044019421"><ele>177.7</ele></trkpt>
    <trkpt lat="45.43265814481594" lon="-122.33774474718015"><ele>177.3</ele></trkpt>
    <trkpt lat="45.43265535974057" lon="-122.33830733240518"><ele>175.5</ele></trkpt>
    <trkpt lat="45.4326541226342" lon="-122.33855722789237"><ele>174.7</ele></trkpt>
    <trkpt lat="45.43265350725308" lon="-122.3386815348783"><ele>174.3</ele></trkpt>
    <trkpt lat="45.432653196390454" lon="-122.33874432912893"><ele>174.1</ele></trkpt>
    <trkpt lat="45.432652581009336" lon="-122.33886863611485"><ele>173.9</ele></trkpt>
    <trkpt lat="45.43265171820694" lon="-122.33904292219825"><ele>173.8</ele></trkpt>
    <trkpt lat="45.43265056357433" lon="-122.33927615798629"><ele>173.8</ele></trkpt>
    <trkpt lat="45.43265" lon="-122.33939000000001"><ele>173.8</ele></trkpt>
    <trkpt lat="45.432650579708586" lon="-122.33946710124147"><ele>173.8</ele></trkpt>
    <trkpt lat="45.43265106146547" lon="-122.33953117490711"><ele>173.8</ele></trkpt>
    <trkpt lat="45.432652015344104" lon="-122.33965804076507"><ele>173.8</ele></trkpt>
    <trkpt lat="45.43265249710099" lon="-122.33972211443073"><ele>173.8</ele></trkpt>
    <trkpt lat="45.432653450979615" lon="-122.33984898028868"><ele>174.0</ele></trkpt>
    <trkpt lat="45.43265584049376" lon="-122.34016678567028"><ele>174.4</ele></trkpt>
    <trkpt lat="45.43267" lon="-122.34205000000001"><ele>171.3</ele></trkpt>
    <trkpt lat="45.432638774285614" lon="-122.34519130686775"><ele>165.6</ele></trkpt>
    <trkpt lat="45.43262000000001" lon="-122.34708"><ele>165.1</ele></trkpt>
    <trkpt lat="45.4325554191438" lon="-122.36960949297931"><ele>158.7</ele></trkpt>
    <trkpt lat="45.432554739542184" lon="-122.36984657685655"><ele>158.6</ele></trkpt>
    <trkpt lat="45.43255299829264" lon="-122.37045402419602"><ele>158.4</ele></trkpt>
    <trkpt lat="45.4325524288967" lon="-122.37065266203912"><ele>158.2</ele></trkpt>
    <trkpt lat="45.43255203950334" lon="-122.37078850469308"><ele>158.0</ele></trkpt>
    <trkpt lat="45.432551179899136" lon="-122.37108838375943"><ele>157.8</ele></trkpt>
    <trkpt lat="45.43255090071145" lon="-122.37118578037925"><ele>157.7</ele></trkpt>
    <trkpt lat="45.432550544379794" lon="-122.37131008922299"><ele>157.6</ele></trkpt>
    <trkpt lat="45.43255018804813" lon="-122.37143439806673"><ele>157.5</ele></trkpt>
    <trkpt lat="45.432550000000006" lon="-122.37150000000001"><ele>157.4</ele></trkpt>
    <trkpt lat="45.43254886854282" lon="-122.37155996723132"><ele>157.4</ele></trkpt>
    <trkpt lat="45.43254420347323" lon="-122.37180721591926"><ele>157.1</ele></trkpt>
    <trkpt lat="45.432541182055104" lon="-122.37196735107985"><ele>157.3</ele></trkpt>
    <trkpt lat="45.43254" lon="-122.37203000000001"><ele>157.3</ele></trkpt>
    <trkpt lat="45.43248380836098" lon="-122.37226279393312"><ele>157.2</ele></trkpt>
    <trkpt lat="45.43247" lon="-122.37232000000002"><ele>157.1</ele></trkpt>
    <trkpt lat="45.432390000000005" lon="-122.37249000000001"><ele>157.0</ele></trkpt>
    <trkpt lat="45.432371695107605" lon="-122.37252660978481"><ele>157.0</ele></trkpt>
    <trkpt lat="45.43234" lon="-122.37259000000002"><ele>156.9</ele></trkpt>
    <trkpt lat="45.432170000000006" lon="-122.37278"><ele>156.8</ele></trkpt>
    <trkpt lat="45.432064753084994" lon="-122.37286371913696"><ele>156.8</ele></trkpt>
    <trkpt lat="45.43198858277732" lon="-122.37292430915443"><ele>156.8</ele></trkpt>
    <trkpt lat="45.43191241246966" lon="-122.37298489917187"><ele>156.8</ele></trkpt>
    <trkpt lat="45.43187471994628" lon="-122.37301488186093"><ele>156.8</ele></trkpt>
    <trkpt lat="45.431760857115236" lon="-122.37310545456742"><ele>157.0</ele></trkpt>
    <trkpt lat="45.43173" lon="-122.37313"><ele>157.1</ele></trkpt>
    <trkpt lat="45.43174422362533" lon="-122.37320111812664"><ele>157.2</ele></trkpt>
    <trkpt lat="45.431760000000004" lon="-122.37328000000001"><ele>157.3</ele></trkpt>
    <trkpt lat="45.43175491762404" lon="-122.37344771840682"><ele>157.6</ele></trkpt>
    <trkpt lat="45.43174952470641" lon="-122.37362568468848"><ele>157.6</ele></trkpt>
    <trkpt lat="45.43174874874704" lon="-122.37365129134773"><ele>157.4</ele></trkpt>
    <trkpt lat="45.43174502414206" lon="-122.37377420331205"><ele>157.6</ele></trkpt>
    <trkpt lat="45.431741260739116" lon="-122.37389839560933"><ele>157.6</ele></trkpt>
    <trkpt lat="45.431737458538194" lon="-122.37402386823958"><ele>157.7</ele></trkpt>
    <trkpt lat="45.43173369513525" lon="-122.37414806053687"><ele>157.8</ele></trkpt>
    <trkpt lat="45.43173" lon="-122.37427000000001"><ele>158.0</ele></trkpt>
    <trkpt lat="45.43172821376824" lon="-122.3744593405672"><ele>158.3</ele></trkpt>
    <trkpt lat="45.43172174627512" lon="-122.37514489483723"><ele>159.3</ele></trkpt>
    <trkpt lat="45.431720000000006" lon="-122.37533"><ele>159.6</ele></trkpt>
    <trkpt lat="45.43187" lon="-122.37534000000001"><ele>159.9</ele></trkpt>
    <trkpt lat="45.431850000000004" lon="-122.37533"><ele>159.9</ele></trkpt>
    <trkpt lat="45.43185448999626" lon="-122.37533040818148"><ele>160.0</ele></trkpt>
    <trkpt lat="45.431960000000004" lon="-122.37534000000001"><ele>160.2</ele></trkpt>
    <trkpt lat="45.431983968066746" lon="-122.3753483698011"><ele>160.2</ele></trkpt>
  </trkseg></trk>
</gpx>
