<?xml version="1.0" encoding="UTF-8"?>
<gpx version="1.1" creator="h2c-tracker" xmlns="http://www.topografix.com/GPX/1/1">
  <metadata><name>Hood to Coast 2026 — Leg 16 (4 mi)</name><desc>Derived from the official Hood to Coast Strava route (simplified, 312 points, ~4.26 mi). Verify against the official leg map PDF.</desc></metadata>
  <wpt lat="45.695002795872256" lon="-122.87133999453194"><name>Exchange 15 — Rocky Point Weigh Station</name></wpt>
  <wpt lat="45.74928868805978" lon="-122.87427160531465"><name>Exchange 16 — Scappoose High School</name></wpt>
  <trk><name>HTC Leg 16</name><trkseg>
    <trkpt lat="45.695002795872256" lon="-122.87133999453194"><ele>27.5</ele></trkpt>
    <trkpt lat="45.69518238222657" lon="-122.8713256796776"><ele>27.7</ele></trkpt>
    <trkpt lat="45.695810036534915" lon="-122.87127564926172"><ele>28.4</ele></trkpt>
    <trkpt lat="45.69612431265497" lon="-122.87125059826664"><ele>28.9</ele></trkpt>
    <trkpt lat="45.69634879559787" lon="-122.87123270469874"><ele>29.1</ele></trkpt>
    <trkpt lat="45.696797761483666" lon="-122.8711969175629"><ele>29.4</ele></trkpt>
    <trkpt lat="45.697010000000006" lon="-122.87118000000001"><ele>29.4</ele></trkpt>
    <trkpt lat="45.69724709398045" lon="-122.87118000000001"><ele>29.5</ele></trkpt>
    <trkpt lat="45.697630000000004" lon="-122.87118000000001"><ele>29.5</ele></trkpt>
    <trkpt lat="45.6976508797289" lon="-122.87118092505129"><ele>29.5</ele></trkpt>
    <trkpt lat="45.69783155704665" lon="-122.87118892974257"><ele>29.6</ele></trkpt>
    <trkpt lat="45.69810122468509" lon="-122.87120087704301"><ele>29.7</ele></trkpt>
    <trkpt lat="45.69877449488905" lon="-122.87123070546977"><ele>30.0</ele></trkpt>
    <trkpt lat="45.699089107133894" lon="-122.87124464398694"><ele>30.2</ele></trkpt>
    <trkpt lat="45.69921" lon="-122.87125"><ele>30.3</ele></trkpt>
    <trkpt lat="45.69922392121664" lon="-122.87125122834266"><ele>30.3</ele></trkpt>
    <trkpt lat="45.699313683171624" lon="-122.87125914851514"><ele>30.3</ele></trkpt>
    <trkpt lat="45.69940254750705" lon="-122.87126698948592"><ele>30.3</ele></trkpt>
    <trkpt lat="45.69949141184247" lon="-122.87127483045668"><ele>30.4</ele></trkpt>
    <trkpt lat="45.699893545400776" lon="-122.87131031282948"><ele>30.4</ele></trkpt>
    <trkpt lat="45.700205917004105" lon="-122.87133787502978"><ele>30.4</ele></trkpt>
    <trkpt lat="45.700230000000005" lon="-122.87134"><ele>30.5</ele></trkpt>
    <trkpt lat="45.70091839403403" lon="-122.8714371850401"><ele>30.6</ele></trkpt>
    <trkpt lat="45.70122984803827" lon="-122.87148115501716"><ele>30.7</ele></trkpt>
    <trkpt lat="45.701719403613886" lon="-122.8715502687455"><ele>31.0</ele></trkpt>
    <trkpt lat="45.7018966102025" lon="-122.87157528614624"><ele>31.1</ele></trkpt>
    <trkpt lat="45.70198610847959" lon="-122.87158792119712"><ele>31.1</ele></trkpt>
    <trkpt lat="45.70211946091243" lon="-122.87160674742293"><ele>31.2</ele></trkpt>
    <trkpt lat="45.702476559037976" lon="-122.87165716127595"><ele>31.1</ele></trkpt>
    <trkpt lat="45.70319254525461" lon="-122.87175824168301"><ele>30.6</ele></trkpt>
    <trkpt lat="45.703595287501464" lon="-122.87181509941198"><ele>30.1</ele></trkpt>
    <trkpt lat="45.70372953491709" lon="-122.8718340519883"><ele>29.9</ele></trkpt>
    <trkpt lat="45.70395328060979" lon="-122.8718656396155"><ele>29.6</ele></trkpt>
    <trkpt lat="45.70422177544102" lon="-122.87190354476814"><ele>29.1</ele></trkpt>
    <trkpt lat="45.704480000000004" lon="-122.87194000000001"><ele>28.7</ele></trkpt>
    <trkpt lat="45.704534439127045" lon="-122.87195380639179"><ele>28.6</ele></trkpt>
    <trkpt lat="45.70506487967432" lon="-122.87208833224486"><ele>27.5</ele></trkpt>
    <trkpt lat="45.70533054271971" lon="-122.87215570746345"><ele>26.9</ele></trkpt>
    <trkpt lat="45.70577331446201" lon="-122.87226799949438"><ele>25.9</ele></trkpt>
    <trkpt lat="45.706083254681616" lon="-122.87234660391606"><ele>25.1</ele></trkpt>
    <trkpt lat="45.7062160862043" lon="-122.87238029152533"><ele>24.7</ele></trkpt>
    <trkpt lat="45.706304640552766" lon="-122.87240274993152"><ele>24.6</ele></trkpt>
    <trkpt lat="45.706393194901224" lon="-122.87242520833773"><ele>24.4</ele></trkpt>
    <trkpt lat="45.707182214146" lon="-122.87262531273687"><ele>22.7</ele></trkpt>
    <trkpt lat="45.70744522056093" lon="-122.87269201420327"><ele>22.0</ele></trkpt>
    <trkpt lat="45.70784017295506" lon="-122.87279217869488"><ele>21.2</ele></trkpt>
    <trkpt lat="45.70801551056502" lon="-122.87283664633912"><ele>20.9</ele></trkpt>
    <trkpt lat="45.70814657100074" lon="-122.8728698847803"><ele>20.7</ele></trkpt>
    <trkpt lat="45.708409577415665" lon="-122.87293658624667"><ele>20.3</ele></trkpt>
    <trkpt lat="45.70876025263557" lon="-122.8730255215352"><ele>19.9</ele></trkpt>
    <trkpt lat="45.70884880698402" lon="-122.87304797994136"><ele>19.8</ele></trkpt>
    <trkpt lat="45.708936475789" lon="-122.8730702137635"><ele>19.7</ele></trkpt>
    <trkpt lat="45.70906753622472" lon="-122.87310345220467"><ele>19.6</ele></trkpt>
    <trkpt lat="45.70919948220393" lon="-122.87313691522989"><ele>19.6</ele></trkpt>
    <trkpt lat="45.70938367524873" lon="-122.87318362871477"><ele>19.6</ele></trkpt>
    <trkpt lat="45.709515621227936" lon="-122.87321709174"><ele>19.5</ele></trkpt>
    <trkpt lat="45.70973523601212" lon="-122.87327278858737"><ele>19.4</ele></trkpt>
    <trkpt lat="45.70982379036057" lon="-122.87329524699354"><ele>19.3</ele></trkpt>
    <trkpt lat="45.70995573633978" lon="-122.87332871001877"><ele>19.4</ele></trkpt>
    <trkpt lat="45.71022051384168" lon="-122.87339586065329"><ele>19.5</ele></trkpt>
    <trkpt lat="45.71052868297432" lon="-122.87347401590682"><ele>19.5</ele></trkpt>
    <trkpt lat="45.710836852106965" lon="-122.87355217116036"><ele>19.6</ele></trkpt>
    <trkpt lat="45.71096879808617" lon="-122.87358563418559"><ele>19.7</ele></trkpt>
    <trkpt lat="45.71132124439304" lon="-122.87367501864222"><ele>20.0</ele></trkpt>
    <trkpt lat="45.71171708233066" lon="-122.87377540771789"><ele>20.2</ele></trkpt>
    <trkpt lat="45.71184991385334" lon="-122.87380909532718"><ele>20.2</ele></trkpt>
    <trkpt lat="45.71206952863753" lon="-122.87386479217453"><ele>20.2</ele></trkpt>
    <trkpt lat="45.712158082985994" lon="-122.87388725058072"><ele>20.2</ele></trkpt>
    <trkpt lat="45.7122900289652" lon="-122.87392071360594"><ele>20.3</ele></trkpt>
    <trkpt lat="45.71259819809784" lon="-122.8739988688595"><ele>20.5</ele></trkpt>
    <trkpt lat="45.712774421251275" lon="-122.8740435610878"><ele>20.4</ele></trkpt>
    <trkpt lat="45.71308259038392" lon="-122.87412171634135"><ele>20.5</ele></trkpt>
    <trkpt lat="45.713214536363125" lon="-122.87415517936657"><ele>20.5</ele></trkpt>
    <trkpt lat="45.71339075951656" lon="-122.8741998715949"><ele>20.4</ele></trkpt>
    <trkpt lat="45.7139637061511" lon="-122.87434517748295"><ele>20.2</ele></trkpt>
    <trkpt lat="45.714271875283735" lon="-122.87442333273648"><ele>19.9</ele></trkpt>
    <trkpt lat="45.714448098437174" lon="-122.8744680249648"><ele>19.7</ele></trkpt>
    <trkpt lat="45.714580929959865" lon="-122.8745017125741"><ele>19.5</ele></trkpt>
    <trkpt lat="45.7148890990925" lon="-122.87457986782763"><ele>19.0</ele></trkpt>
    <trkpt lat="45.71502104507171" lon="-122.87461333085287"><ele>18.9</ele></trkpt>
    <trkpt lat="45.71519195496424" lon="-122.87465667557682"><ele>18.7</ele></trkpt>
    <trkpt lat="45.71532035876951" lon="-122.8746892402658"><ele>18.5</ele></trkpt>
    <trkpt lat="45.71566306409805" lon="-122.87477615429775"><ele>17.9</ele></trkpt>
    <trkpt lat="45.715919871708586" lon="-122.87484128367569"><ele>17.5</ele></trkpt>
    <trkpt lat="45.71613417323186" lon="-122.87489563301868"><ele>17.2</ele></trkpt>
    <trkpt lat="45.716259034863185" lon="-122.87492729937141"><ele>17.0</ele></trkpt>
    <trkpt lat="45.71634227595074" lon="-122.87494841027322"><ele>16.9</ele></trkpt>
    <trkpt lat="45.716550378669616" lon="-122.87500118752777"><ele>16.9</ele></trkpt>
    <trkpt lat="45.716839065845605" lon="-122.87507440193195"><ele>16.7</ele></trkpt>
    <trkpt lat="45.71694" lon="-122.8751"><ele>16.6</ele></trkpt>
    <trkpt lat="45.71717204137238" lon="-122.87514148225651"><ele>16.6</ele></trkpt>
    <trkpt lat="45.717473671833645" lon="-122.87519540502053"><ele>16.5</ele></trkpt>
    <trkpt lat="45.717732467199816" lon="-122.87524167011395"><ele>16.4</ele></trkpt>
    <trkpt lat="45.7180724707671" lon="-122.87530245287456"><ele>16.3</ele></trkpt>
    <trkpt lat="45.71837499362617" lon="-122.8753565351734"><ele>16.2</ele></trkpt>
    <trkpt lat="45.71859720068195" lon="-122.8753962593398"><ele>16.1</ele></trkpt>
    <trkpt lat="45.71873" lon="-122.87542"><ele>16.0</ele></trkpt>
    <trkpt lat="45.718967547417535" lon="-122.87542647016312"><ele>15.9</ele></trkpt>
    <trkpt lat="45.71963742147244" lon="-122.87544471575997"><ele>15.8</ele></trkpt>
    <trkpt lat="45.719765102164786" lon="-122.87544819344419"><ele>15.8</ele></trkpt>
    <trkpt lat="45.72014814424182" lon="-122.87545862649687"><ele>15.7</ele></trkpt>
    <trkpt lat="45.720631892217035" lon="-122.87547180251175"><ele>15.6</ele></trkpt>
    <trkpt lat="45.720845892250686" lon="-122.87547763130645"><ele>15.6</ele></trkpt>
    <trkpt lat="45.72110215279518" lon="-122.87548461116563"><ele>15.6</ele></trkpt>
    <trkpt lat="45.72130000000001" lon="-122.87549000000001"><ele>15.6</ele></trkpt>
    <trkpt lat="45.721458179875796" lon="-122.87549668365673"><ele>15.6</ele></trkpt>
    <trkpt lat="45.72163706721187" lon="-122.87550424227658"><ele>15.6</ele></trkpt>
    <trkpt lat="45.72221508006161" lon="-122.87552866535472"><ele>15.7</ele></trkpt>
    <trkpt lat="45.72257824832178" lon="-122.87554401049249"><ele>15.8</ele></trkpt>
    <trkpt lat="45.72279848649936" lon="-122.87555331633098"><ele>15.8</ele></trkpt>
    <trkpt lat="45.72308434666455" lon="-122.87556539492951"><ele>15.8</ele></trkpt>
    <trkpt lat="45.72329020194073" lon="-122.87557409303976"><ele>15.8</ele></trkpt>
    <trkpt lat="45.72343" lon="-122.87558000000001"><ele>15.7</ele></trkpt>
    <trkpt lat="45.723453802746434" lon="-122.87558121287881"><ele>15.7</ele></trkpt>
    <trkpt lat="45.723631756030834" lon="-122.8755902805621"><ele>15.6</ele></trkpt>
    <trkpt lat="45.72394272490153" lon="-122.87560612610964"><ele>15.5</ele></trkpt>
    <trkpt lat="45.72412067818593" lon="-122.87561519379292"><ele>15.2</ele></trkpt>
    <trkpt lat="45.72443254581059" lon="-122.87563108513686"><ele>14.9</ele></trkpt>
    <trkpt lat="45.72465543679307" lon="-122.87564244263915"><ele>14.5</ele></trkpt>
    <trkpt lat="45.72501134336186" lon="-122.87566057800572"><ele>13.9</ele></trkpt>
    <trkpt lat="45.72523423434433" lon="-122.87567193550801"><ele>13.4</ele></trkpt>
    <trkpt lat="45.72559014091311" lon="-122.87569007087458"><ele>12.6</ele></trkpt>
    <trkpt lat="45.72572405525339" lon="-122.87569689453522"><ele>12.3</ele></trkpt>
    <trkpt lat="45.72590200853779" lon="-122.87570596221849"><ele>12.0</ele></trkpt>
    <trkpt lat="45.72599098517998" lon="-122.87571049606015"><ele>11.9</ele></trkpt>
    <trkpt lat="45.72607996182218" lon="-122.87571502990178"><ele>11.8</ele></trkpt>
    <trkpt lat="45.72643317212908" lon="-122.8757330278792"><ele>11.7</ele></trkpt>
    <trkpt lat="45.726697405793786" lon="-122.87574649201497"><ele>11.6</ele></trkpt>
    <trkpt lat="45.7268304213801" lon="-122.87575326987925"><ele>11.6</ele></trkpt>
    <trkpt lat="45.72696253821245" lon="-122.87576000194714"><ele>11.7</ele></trkpt>
    <trkpt lat="45.72709555379876" lon="-122.87576677981141"><ele>11.8</ele></trkpt>
    <trkpt lat="45.727183631687" lon="-122.87577126785668"><ele>12.0</ele></trkpt>
    <trkpt lat="45.72731574851935" lon="-122.87577799992457"><ele>12.2</ele></trkpt>
    <trkpt lat="45.72758088093802" lon="-122.87579150985673"><ele>12.7</ele></trkpt>
    <trkpt lat="45.72784601335668" lon="-122.87580501978888"><ele>13.1</ele></trkpt>
    <trkpt lat="45.72811114577535" lon="-122.87581852972104"><ele>13.5</ele></trkpt>
    <trkpt lat="45.72833134049594" lon="-122.8758297498342"><ele>13.7</ele></trkpt>
    <trkpt lat="45.728466153590176" lon="-122.87583661929122"><ele>13.8</ele></trkpt>
    <trkpt lat="45.72860006793045" lon="-122.87584344295189"><ele>13.9</ele></trkpt>
    <trkpt lat="45.72904854615728" lon="-122.8758662953456"><ele>13.9</ele></trkpt>
    <trkpt lat="45.72971991536659" lon="-122.87590050524162"><ele>13.9</ele></trkpt>
    <trkpt lat="45.73012075963345" lon="-122.8759209304272"><ele>14.0</ele></trkpt>
    <trkpt lat="45.730563845336505" lon="-122.87594350804264"><ele>14.0</ele></trkpt>
    <trkpt lat="45.730829876509134" lon="-122.87595706377118"><ele>14.0</ele></trkpt>
    <trkpt lat="45.73114084537984" lon="-122.87597290931873"><ele>14.0</ele></trkpt>
    <trkpt lat="45.731280000000005" lon="-122.87598000000001"><ele>14.0</ele></trkpt>
    <trkpt lat="45.731494772928" lon="-122.87599673555283"><ele>14.1</ele></trkpt>
    <trkpt lat="45.73162857418778" lon="-122.87600716162501"><ele>14.1</ele></trkpt>
    <trkpt lat="45.73205" lon="-122.87604"><ele>14.0</ele></trkpt>
    <trkpt lat="45.73211895943986" lon="-122.87604248706177"><ele>14.0</ele></trkpt>
    <trkpt lat="45.73260983393957" lon="-122.87606019073225"><ele>14.2</ele></trkpt>
    <trkpt lat="45.73287774712806" lon="-122.87606985317511"><ele>14.3</ele></trkpt>
    <trkpt lat="45.73310070843928" lon="-122.87607789440273"><ele>14.3</ele></trkpt>
    <trkpt lat="45.733189713156264" lon="-122.87608110440894"><ele>14.3</ele></trkpt>
    <trkpt lat="45.73336862162776" lon="-122.87608755684559"><ele>14.4</ele></trkpt>
    <trkpt lat="45.733591582938985" lon="-122.87609559807322"><ele>14.4</ele></trkpt>
    <trkpt lat="45.73368058765597" lon="-122.8760988080794"><ele>14.5</ele></trkpt>
    <trkpt lat="45.73376959237295" lon="-122.87610201808559"><ele>14.6</ele></trkpt>
    <trkpt lat="45.733992553684175" lon="-122.87611005931322"><ele>14.8</ele></trkpt>
    <trkpt lat="45.73452927909868" lon="-122.87612941662323"><ele>15.3</ele></trkpt>
    <trkpt lat="45.734990485359404" lon="-122.87614605029167"><ele>15.7</ele></trkpt>
    <trkpt lat="45.7351" lon="-122.87615000000001"><ele>15.6</ele></trkpt>
    <trkpt lat="45.73512441981244" lon="-122.87615173147816"><ele>15.6</ele></trkpt>
    <trkpt lat="45.735213343902856" lon="-122.87615803660924"><ele>15.6</ele></trkpt>
    <trkpt lat="45.73561395142125" lon="-122.87618644154333"><ele>15.8</ele></trkpt>
    <trkpt lat="45.73570287551166" lon="-122.87619274667443"><ele>15.8</ele></trkpt>
    <trkpt lat="45.736013660716516" lon="-122.8762147827892"><ele>16.0</ele></trkpt>
    <trkpt lat="45.736191508897335" lon="-122.87622739305141"><ele>16.1</ele></trkpt>
    <trkpt lat="45.73627234897952" lon="-122.87623312498877"><ele>15.7</ele></trkpt>
    <trkpt lat="45.736477143854394" lon="-122.87624764589677"><ele>14.6</ele></trkpt>
    <trkpt lat="45.73656427149854" lon="-122.87625382365151"><ele>14.5</ele></trkpt>
    <trkpt lat="45.73660738620903" lon="-122.87625688068476"><ele>14.3</ele></trkpt>
    <trkpt lat="45.736651399142666" lon="-122.87626000140621"><ele>14.2</ele></trkpt>
    <trkpt lat="45.7366954120763" lon="-122.87626312212768"><ele>14.0</ele></trkpt>
    <trkpt lat="45.73673852678681" lon="-122.87626617916095"><ele>13.8</ele></trkpt>
    <trkpt lat="45.73678253972044" lon="-122.87626929988238"><ele>13.5</ele></trkpt>
    <trkpt lat="45.73686966736457" lon="-122.8762754776371"><ele>13.0</ele></trkpt>
    <trkpt lat="45.73708793558648" lon="-122.876290953868"><ele>11.6</ele></trkpt>
    <trkpt lat="45.73721907616425" lon="-122.87630025234418"><ele>10.8</ele></trkpt>
    <trkpt lat="45.73730081446958" lon="-122.87630604796973"><ele>10.6</ele></trkpt>
    <trkpt lat="45.73738345099804" lon="-122.87631190728348"><ele>10.5</ele></trkpt>
    <trkpt lat="45.73746518930336" lon="-122.87631770290906"><ele>10.4</ele></trkpt>
    <trkpt lat="45.737650223269256" lon="-122.8763308226768"><ele>10.3</ele></trkpt>
    <trkpt lat="45.7378289696732" lon="-122.87634349662721"><ele>10.2</ele></trkpt>
    <trkpt lat="45.73791879198674" lon="-122.8763498654465"><ele>10.2</ele></trkpt>
    <trkpt lat="45.73818825892737" lon="-122.87636897190441"><ele>10.2</ele></trkpt>
    <trkpt lat="45.73845682764487" lon="-122.87638801467409"><ele>10.2</ele></trkpt>
    <trkpt lat="45.73859156111518" lon="-122.87639756790304"><ele>10.3</ele></trkpt>
    <trkpt lat="45.73885204582445" lon="-122.876416037479"><ele>10.5</ele></trkpt>
    <trkpt lat="45.7391044465255" lon="-122.87643393386124"><ele>10.8</ele></trkpt>
    <trkpt lat="45.73919" lon="-122.87644000000002"><ele>10.9</ele></trkpt>
    <trkpt lat="45.73923106371284" lon="-122.87644373306482"><ele>10.9</ele></trkpt>
    <trkpt lat="45.73940159207879" lon="-122.87645923564354"><ele>11.0</ele></trkpt>
    <trkpt lat="45.73948775377948" lon="-122.87646706852543"><ele>11.0</ele></trkpt>
    <trkpt lat="45.73970136299577" lon="-122.87648648754507"><ele>11.0</ele></trkpt>
    <trkpt lat="45.73991227965891" lon="-122.87650566178718"><ele>11.1</ele></trkpt>
    <trkpt lat="45.740171662278684" lon="-122.87652924202536"><ele>11.2</ele></trkpt>
    <trkpt lat="45.74030539241829" lon="-122.87654139931075"><ele>11.4</ele></trkpt>
    <trkpt lat="45.740394246672125" lon="-122.8765494769702"><ele>11.6</ele></trkpt>
    <trkpt lat="45.740527976811734" lon="-122.87656163425562"><ele>12.0</ele></trkpt>
    <trkpt lat="45.74069760765996" lon="-122.87657705524182"><ele>12.4</ele></trkpt>
    <trkpt lat="45.740910319358534" lon="-122.87659639266897"><ele>12.9</ele></trkpt>
    <trkpt lat="45.741081745242184" lon="-122.87661197684022"><ele>13.3</ele></trkpt>
    <trkpt lat="45.741210987793224" lon="-122.87662372616303"><ele>13.6</ele></trkpt>
    <trkpt lat="45.74129894452934" lon="-122.87663172222994"><ele>13.5</ele></trkpt>
    <trkpt lat="45.7413429228974" lon="-122.87663572026341"><ele>13.4</ele></trkpt>
    <trkpt lat="45.74139" lon="-122.87664000000001"><ele>13.3</ele></trkpt>
    <trkpt lat="45.741371958354485" lon="-122.87658587506345"><ele>13.2</ele></trkpt>
    <trkpt lat="45.741333973853216" lon="-122.87647192155967"><ele>13.0</ele></trkpt>
    <trkpt lat="45.741330000000005" lon="-122.87646000000001"><ele>13.0</ele></trkpt>
    <trkpt lat="45.7413324901428" lon="-122.87641019714405"><ele>12.9</ele></trkpt>
    <trkpt lat="45.741338852473035" lon="-122.87628295053929"><ele>12.6</ele></trkpt>
    <trkpt lat="45.74135144860159" lon="-122.8760310279682"><ele>11.9</ele></trkpt>
    <trkpt lat="45.74136" lon="-122.87586"><ele>11.2</ele></trkpt>
    <trkpt lat="45.7413857954183" lon="-122.87567298321733"><ele>10.3</ele></trkpt>
    <trkpt lat="45.74140218593169" lon="-122.87555415199523"><ele>9.9</ele></trkpt>
    <trkpt lat="45.74141857644509" lon="-122.87543532077314"><ele>9.4</ele></trkpt>
    <trkpt lat="45.74143479259131" lon="-122.87531775371299"><ele>9.1</ele></trkpt>
    <trkpt lat="45.741440000000004" lon="-122.87528"><ele>9.0</ele></trkpt>
    <trkpt lat="45.74147359164803" lon="-122.87521281670395"><ele>8.8</ele></trkpt>
    <trkpt lat="45.74148" lon="-122.8752"><ele>8.7</ele></trkpt>
    <trkpt lat="45.74148404630046" lon="-122.87509479618836"><ele>8.5</ele></trkpt>
    <trkpt lat="45.74149117244272" lon="-122.87490951648921"><ele>8.2</ele></trkpt>
    <trkpt lat="45.74149592320424" lon="-122.87478599668978"><ele>8.1</ele></trkpt>
    <trkpt lat="45.7415" lon="-122.87468000000001"><ele>8.0</ele></trkpt>
    <trkpt lat="45.741530000000004" lon="-122.87460000000002"><ele>8.0</ele></trkpt>
    <trkpt lat="45.74153551284231" lon="-122.87460050116749"><ele>8.0</ele></trkpt>
    <trkpt lat="45.741822718543645" lon="-122.87462661077672"><ele>7.8</ele></trkpt>
    <trkpt lat="45.74199055437536" lon="-122.87464186857957"><ele>7.6</ele></trkpt>
    <trkpt lat="45.74219" lon="-122.87466"><ele>7.3</ele></trkpt>
    <trkpt lat="45.74228264115075" lon="-122.87468470430687"><ele>7.2</ele></trkpt>
    <trkpt lat="45.742340000000006" lon="-122.8747"><ele>7.1</ele></trkpt>
    <trkpt lat="45.74244149430569" lon="-122.87476343394107"><ele>7.0</ele></trkpt>
    <trkpt lat="45.74252062906115" lon="-122.87481289316322"><ele>6.9</ele></trkpt>
    <trkpt lat="45.74256019643888" lon="-122.87483762277431"><ele>6.8</ele></trkpt>
    <trkpt lat="45.742580000000004" lon="-122.87485000000001"><ele>6.7</ele></trkpt>
    <trkpt lat="45.74270739917909" lon="-122.87496632098961"><ele>6.3</ele></trkpt>
    <trkpt lat="45.742780209157985" lon="-122.87503279966599"><ele>6.1</ele></trkpt>
    <trkpt lat="45.742810000000006" lon="-122.87506"><ele>6.0</ele></trkpt>
    <trkpt lat="45.74289948786416" lon="-122.87510602233013"><ele>5.9</ele></trkpt>
    <trkpt lat="45.74302053092992" lon="-122.87516827304967"><ele>5.7</ele></trkpt>
    <trkpt lat="45.743102637065434" lon="-122.87521049906223"><ele>5.6</ele></trkpt>
    <trkpt lat="45.74316" lon="-122.87524"><ele>5.6</ele></trkpt>
    <trkpt lat="45.74322935836282" lon="-122.87524527726674"><ele>5.6</ele></trkpt>
    <trkpt lat="45.74331557185847" lon="-122.87525183698924"><ele>5.6</ele></trkpt>
    <trkpt lat="45.74344489210195" lon="-122.87526167657298"><ele>5.7</ele></trkpt>
    <trkpt lat="45.74407892051789" lon="-122.8753099178655"><ele>5.7</ele></trkpt>
    <trkpt lat="45.744783895456315" lon="-122.87536355726299"><ele>6.0</ele></trkpt>
    <trkpt lat="45.745000000000005" lon="-122.87538"><ele>6.1</ele></trkpt>
    <trkpt lat="45.74501429971831" lon="-122.8751226050706"><ele>6.1</ele></trkpt>
    <trkpt lat="45.74503000000001" lon="-122.87484"><ele>6.2</ele></trkpt>
    <trkpt lat="45.74500485391676" lon="-122.87461997177165"><ele>6.3</ele></trkpt>
    <trkpt lat="45.74499061023876" lon="-122.87449533958917"><ele>6.3</ele></trkpt>
    <trkpt lat="45.74499" lon="-122.87449000000001"><ele>6.3</ele></trkpt>
    <trkpt lat="45.74474853542016" lon="-122.87356438577727"><ele>6.7</ele></trkpt>
    <trkpt lat="45.74468933451029" lon="-122.87333744895614"><ele>6.8</ele></trkpt>
    <trkpt lat="45.74463" lon="-122.87311000000001"><ele>7.0</ele></trkpt>
    <trkpt lat="45.74463" lon="-122.87310000000001"><ele>7.0</ele></trkpt>
    <trkpt lat="45.744539673317945" lon="-122.87273869327177"><ele>7.2</ele></trkpt>
    <trkpt lat="45.74443473254561" lon="-122.87231893018246"><ele>7.6</ele></trkpt>
    <trkpt lat="45.74434495662478" lon="-122.87195982649914"><ele>7.9</ele></trkpt>
    <trkpt lat="45.74432" lon="-122.87186000000001"><ele>8.0</ele></trkpt>
    <trkpt lat="45.74433410576699" lon="-122.87185255285596"><ele>8.0</ele></trkpt>
    <trkpt lat="45.7445003481955" lon="-122.87176478511418"><ele>8.3</ele></trkpt>
    <trkpt lat="45.74462524098444" lon="-122.87169884792749"><ele>8.5</ele></trkpt>
    <trkpt lat="45.7449146884615" lon="-122.87154603404207"><ele>9.3</ele></trkpt>
    <trkpt lat="45.74499738774066" lon="-122.87150237293197"><ele>9.5</ele></trkpt>
    <trkpt lat="45.7451214366594" lon="-122.87143688126679"><ele>9.9</ele></trkpt>
    <trkpt lat="45.745368690626684" lon="-122.87130634345797"><ele>10.9</ele></trkpt>
    <trkpt lat="45.745615944593965" lon="-122.87117580564916"><ele>12.1</ele></trkpt>
    <trkpt lat="45.74569780000294" lon="-122.87113259006057"><ele>12.5</ele></trkpt>
    <trkpt lat="45.74582184892167" lon="-122.87106709839541"><ele>12.9</ele></trkpt>
    <trkpt lat="45.74590370433064" lon="-122.87102388280681"><ele>13.2</ele></trkpt>
    <trkpt lat="45.74593" lon="-122.87101000000001"><ele>13.2</ele></trkpt>
    <trkpt lat="45.74594514761255" lon="-122.87100242619374"><ele>13.3</ele></trkpt>
    <trkpt lat="45.74602581395936" lon="-122.87096209302034"><ele>13.4</ele></trkpt>
    <trkpt lat="45.74611072590338" lon="-122.87091963704832"><ele>13.5</ele></trkpt>
    <trkpt lat="45.746236395580524" lon="-122.87085680220974"><ele>13.5</ele></trkpt>
    <trkpt lat="45.746362065257685" lon="-122.87079396737118"><ele>13.6</ele></trkpt>
    <trkpt lat="45.74657094863996" lon="-122.87068952568004"><ele>13.5</ele></trkpt>
    <trkpt lat="45.746819740635935" lon="-122.87056512968203"><ele>13.5</ele></trkpt>
    <trkpt lat="45.74694201383532" lon="-122.87050399308234"><ele>13.5</ele></trkpt>
    <trkpt lat="45.74706768351247" lon="-122.87044115824378"><ele>14.0</ele></trkpt>
    <trkpt lat="45.74715089721761" lon="-122.87039955139122"><ele>14.4</ele></trkpt>
    <trkpt lat="45.747234960042185" lon="-122.87035751997891"><ele>14.8</ele></trkpt>
    <trkpt lat="45.74736062971934" lon="-122.87029468514034"><ele>15.5</ele></trkpt>
    <trkpt lat="45.74739" lon="-122.87028000000001"><ele>15.6</ele></trkpt>
    <trkpt lat="45.74744362445685" lon="-122.87025219472608"><ele>15.9</ele></trkpt>
    <trkpt lat="45.747604301051155" lon="-122.87016888093645"><ele>16.8</ele></trkpt>
    <trkpt lat="45.74776413197917" lon="-122.87008600564045"><ele>17.6</ele></trkpt>
    <trkpt lat="45.74784277894375" lon="-122.8700452257329"><ele>17.9</ele></trkpt>
    <trkpt lat="45.74792058024204" lon="-122.87000488431896"><ele>18.2</ele></trkpt>
    <trkpt lat="45.74803812785576" lon="-122.86994393370443"><ele>18.6</ele></trkpt>
    <trkpt lat="45.74811592915405" lon="-122.8699035922905"><ele>18.8</ele></trkpt>
    <trkpt lat="45.748155675469484" lon="-122.86988298308992"><ele>18.9</ele></trkpt>
    <trkpt lat="45.748195421784914" lon="-122.86986237388932"><ele>19.0</ele></trkpt>
    <trkpt lat="45.748200000000004" lon="-122.86986000000002"><ele>19.0</ele></trkpt>
    <trkpt lat="45.74822620138396" lon="-122.8699637138115"><ele>19.1</ele></trkpt>
    <trkpt lat="45.74825528469004" lon="-122.8700788352314"><ele>19.2</ele></trkpt>
    <trkpt lat="45.74831314516214" lon="-122.87030786626681"><ele>19.5</ele></trkpt>
    <trkpt lat="45.74836702581341" lon="-122.87052114384474"><ele>19.5</ele></trkpt>
    <trkpt lat="45.74844" lon="-122.87081"><ele>19.5</ele></trkpt>
    <trkpt lat="45.748469798554716" lon="-122.8709887913283"><ele>19.4</ele></trkpt>
    <trkpt lat="45.74853" lon="-122.87135"><ele>19.3</ele></trkpt>
    <trkpt lat="45.74854930059059" lon="-122.87142475149369"><ele>19.3</ele></trkpt>
    <trkpt lat="45.74859580082789" lon="-122.87160484765089"><ele>19.3</ele></trkpt>
    <trkpt lat="45.748734989457674" lon="-122.87214392742337"><ele>19.2</ele></trkpt>
    <trkpt lat="45.74889820841143" lon="-122.87277607702205"><ele>19.3</ele></trkpt>
    <trkpt lat="45.749022417099" lon="-122.87325713924056"><ele>19.5</ele></trkpt>
    <trkpt lat="45.749084209360646" lon="-122.87349646165077"><ele>19.6</ele></trkpt>
    <trkpt lat="45.74916" lon="-122.87379000000001"><ele>19.7</ele></trkpt>
    <trkpt lat="45.74928868805978" lon="-122.87427160531465"><ele>19.9</ele></trkpt>
  </trkseg></trk>
</gpx>
