<?xml version="1.0" encoding="UTF-8"?>
<gpx version="1.1" creator="h2c-tracker" xmlns="http://www.topografix.com/GPX/1/1">
  <metadata><name>Hood to Coast 2026 — Leg 34 (4.12 mi)</name><desc>Derived from the official Hood to Coast Strava route (simplified, 451 points, ~4.16 mi). Verify against the official leg map PDF.</desc></metadata>
  <wpt lat="46.147566226764155" lon="-123.8460216976478"><name>Exchange 33 — Lewis &amp; Clark School</name></wpt>
  <wpt lat="46.104376211418355" lon="-123.86604421167516"><name>Exchange 34 — Lewis &amp; Clark Mainline (Fort Clatsop Rd)</name></wpt>
  <trk><name>HTC Leg 34</name><trkseg>
    <trkpt lat="46.147566226764155" lon="-123.8460216976478"><ele>21.9</ele></trkpt>
    <trkpt lat="46.14741" lon="-123.84623"><ele>21.3</ele></trkpt>
    <trkpt lat="46.14737838087756" lon="-123.84628907783404"><ele>21.1</ele></trkpt>
    <trkpt lat="46.1471738560208" lon="-123.84667121638219"><ele>20.5</ele></trkpt>
    <trkpt lat="46.1470649960164" lon="-123.8468746127062"><ele>20.0</ele></trkpt>
    <trkpt lat="46.14703" lon="-123.84694"><ele>19.8</ele></trkpt>
    <trkpt lat="46.14694" lon="-123.84713"><ele>19.3</ele></trkpt>
    <trkpt lat="46.1469201756285" lon="-123.84719828394627"><ele>19.1</ele></trkpt>
    <trkpt lat="46.14688576558184" lon="-123.84731680744031"><ele>18.8</ele></trkpt>
    <trkpt lat="46.14681659791229" lon="-123.84755505163542"><ele>18.2</ele></trkpt>
    <trkpt lat="46.14676" lon="-123.84775"><ele>17.7</ele></trkpt>
    <trkpt lat="46.146711634381425" lon="-123.84797863746962"><ele>17.1</ele></trkpt>
    <trkpt lat="46.146672503628494" lon="-123.84816361921077"><ele>16.6</ele></trkpt>
    <trkpt lat="46.14656824249484" lon="-123.84865649002444"><ele>15.2</ele></trkpt>
    <trkpt lat="46.14654" lon="-123.84879000000001"><ele>14.8</ele></trkpt>
    <trkpt lat="46.14652135711292" lon="-123.84883660721772"><ele>14.7</ele></trkpt>
    <trkpt lat="46.146454357396195" lon="-123.84900410650951"><ele>14.3</ele></trkpt>
    <trkpt lat="46.146420000000006" lon="-123.84909"><ele>14.0</ele></trkpt>
    <trkpt lat="46.146300000000004" lon="-123.84932"><ele>13.4</ele></trkpt>
    <trkpt lat="46.14623888544407" lon="-123.84941306080108"><ele>13.2</ele></trkpt>
    <trkpt lat="46.146115768513994" lon="-123.84960053430824"><ele>12.6</ele></trkpt>
    <trkpt lat="46.14602358548595" lon="-123.84974090391914"><ele>12.1</ele></trkpt>
    <trkpt lat="46.14596233635993" lon="-123.84983416963374"><ele>11.7</ele></trkpt>
    <trkpt lat="46.14565547205181" lon="-123.85030144028475"><ele>9.7</ele></trkpt>
    <trkpt lat="46.14547110599571" lon="-123.85058217950653"><ele>8.4</ele></trkpt>
    <trkpt lat="46.1454098568697" lon="-123.85067544522116"><ele>7.9</ele></trkpt>
    <trkpt lat="46.14528673993962" lon="-123.85086291872832"><ele>7.1</ele></trkpt>
    <trkpt lat="46.14513330778556" lon="-123.85109655405381"><ele>6.0</ele></trkpt>
    <trkpt lat="46.14510237388353" lon="-123.8511436579501"><ele>5.8</ele></trkpt>
    <trkpt lat="46.145010809533524" lon="-123.85128308548306"><ele>5.0</ele></trkpt>
    <trkpt lat="46.14494894172947" lon="-123.8513772932756"><ele>4.5</ele></trkpt>
    <trkpt lat="46.144918626505486" lon="-123.85142345509394"><ele>4.4</ele></trkpt>
    <trkpt lat="46.144887692603454" lon="-123.85147055899023"><ele>4.2</ele></trkpt>
    <trkpt lat="46.14485675870142" lon="-123.85151766288648"><ele>4.1</ele></trkpt>
    <trkpt lat="46.144826443477434" lon="-123.85156382470484"><ele>4.0</ele></trkpt>
    <trkpt lat="46.144765194351415" lon="-123.85165709041945"><ele>3.9</ele></trkpt>
    <trkpt lat="46.144723124244656" lon="-123.85172115171838"><ele>3.9</ele></trkpt>
    <trkpt lat="46.144540000000006" lon="-123.852"><ele>3.8</ele></trkpt>
    <trkpt lat="46.14436421584906" lon="-123.85229883305661"><ele>3.7</ele></trkpt>
    <trkpt lat="46.14424" lon="-123.85251000000001"><ele>3.6</ele></trkpt>
    <trkpt lat="46.14419319907316" lon="-123.85259820174674"><ele>3.6</ele></trkpt>
    <trkpt lat="46.14397557142185" lon="-123.85300834616655"><ele>3.5</ele></trkpt>
    <trkpt lat="46.14392089110744" lon="-123.8531113975283"><ele>3.5</ele></trkpt>
    <trkpt lat="46.14389355095024" lon="-123.85316292320917"><ele>3.5</ele></trkpt>
    <trkpt lat="46.14383941743898" lon="-123.85326494405732"><ele>3.6</ele></trkpt>
    <trkpt lat="46.143784737124584" lon="-123.85336799541906"><ele>3.8</ele></trkpt>
    <trkpt lat="46.14373060361333" lon="-123.85347001626721"><ele>4.1</ele></trkpt>
    <trkpt lat="46.14362124298452" lon="-123.85367611899072"><ele>4.6</ele></trkpt>
    <trkpt lat="46.14356710947327" lon="-123.85377813983885"><ele>4.9</ele></trkpt>
    <trkpt lat="46.14351242915887" lon="-123.8538811912006"><ele>5.0</ele></trkpt>
    <trkpt lat="46.143322141664754" lon="-123.85423980993953"><ele>5.5</ele></trkpt>
    <trkpt lat="46.14320000000001" lon="-123.85447"><ele>5.7</ele></trkpt>
    <trkpt lat="46.14306992558764" lon="-123.85468796252883"><ele>5.9</ele></trkpt>
    <trkpt lat="46.1429537174431" lon="-123.85488268968996"><ele>6.0</ele></trkpt>
    <trkpt lat="46.14283809620838" lon="-123.85507643338056"><ele>6.1</ele></trkpt>
    <trkpt lat="46.142830000000004" lon="-123.85509"><ele>6.1</ele></trkpt>
    <trkpt lat="46.14269" lon="-123.85524000000001"><ele>6.1</ele></trkpt>
    <trkpt lat="46.142570000000006" lon="-123.85532"><ele>6.2</ele></trkpt>
    <trkpt lat="46.14249258730322" lon="-123.85535560984053"><ele>6.2</ele></trkpt>
    <trkpt lat="46.14232378704824" lon="-123.85543325795783"><ele>6.2</ele></trkpt>
    <trkpt lat="46.14219611578939" lon="-123.8554919867369"><ele>6.1</ele></trkpt>
    <trkpt lat="46.142070000000004" lon="-123.85555000000001"><ele>6.0</ele></trkpt>
    <trkpt lat="46.14202674650063" lon="-123.85556684207056"><ele>6.0</ele></trkpt>
    <trkpt lat="46.14176973652289" lon="-123.85566691675217"><ele>5.7</ele></trkpt>
    <trkpt lat="46.14150925343734" lon="-123.85576834379432"><ele>5.3</ele></trkpt>
    <trkpt lat="46.14129218419938" lon="-123.85585286632944"><ele>5.0</ele></trkpt>
    <trkpt lat="46.1412053565042" lon="-123.85588667534351"><ele>4.8</ele></trkpt>
    <trkpt lat="46.1411619426566" lon="-123.85590357985053"><ele>4.8</ele></trkpt>
    <trkpt lat="46.141075114961424" lon="-123.85593738886459"><ele>4.8</ele></trkpt>
    <trkpt lat="46.14098828726624" lon="-123.85597119787863"><ele>4.9</ele></trkpt>
    <trkpt lat="46.14094" lon="-123.85599"><ele>5.0</ele></trkpt>
    <trkpt lat="46.14090143534724" lon="-123.85599856992283"><ele>5.0</ele></trkpt>
    <trkpt lat="46.140795662491506" lon="-123.85602207500189"><ele>5.0</ele></trkpt>
    <trkpt lat="46.14076000000001" lon="-123.85603"><ele>5.1</ele></trkpt>
    <trkpt lat="46.140663882377005" lon="-123.85603"><ele>5.4</ele></trkpt>
    <trkpt lat="46.140487615193365" lon="-123.85603"><ele>5.9</ele></trkpt>
    <trkpt lat="46.14043" lon="-123.85603"><ele>6.2</ele></trkpt>
    <trkpt lat="46.14019079626344" lon="-123.85592534836526"><ele>7.1</ele></trkpt>
    <trkpt lat="46.139950000000006" lon="-123.85582000000001"><ele>8.0</ele></trkpt>
    <trkpt lat="46.13971923389475" lon="-123.85578257846942"><ele>8.8</ele></trkpt>
    <trkpt lat="46.13958" lon="-123.85576"><ele>9.3</ele></trkpt>
    <trkpt lat="46.13950161481435" lon="-123.8557636177778"><ele>9.5</ele></trkpt>
    <trkpt lat="46.139237349144196" lon="-123.85577581465489"><ele>10.3</ele></trkpt>
    <trkpt lat="46.13897578006251" lon="-123.85578788707406"><ele>10.9</ele></trkpt>
    <trkpt lat="46.13893263464698" lon="-123.85578987840091"><ele>11.0</ele></trkpt>
    <trkpt lat="46.13884544495308" lon="-123.85579390254063"><ele>11.1</ele></trkpt>
    <trkpt lat="46.13871241325518" lon="-123.85580004246515"><ele>11.3</ele></trkpt>
    <trkpt lat="46.13858028042011" lon="-123.8558061409037"><ele>11.3</ele></trkpt>
    <trkpt lat="46.1384472487222" lon="-123.85581228082822"><ele>11.3</ele></trkpt>
    <trkpt lat="46.13828" lon="-123.85582000000001"><ele>11.4</ele></trkpt>
    <trkpt lat="46.13813909972117" lon="-123.8558458317178"><ele>11.4</ele></trkpt>
    <trkpt lat="46.13805077664178" lon="-123.85586202428237"><ele>11.3</ele></trkpt>
    <trkpt lat="46.13796334571469" lon="-123.85587805328565"><ele>11.3</ele></trkpt>
    <trkpt lat="46.137875022635285" lon="-123.85589424585021"><ele>11.2</ele></trkpt>
    <trkpt lat="46.13778759170819" lon="-123.85591027485351"><ele>11.0</ele></trkpt>
    <trkpt lat="46.13769926862879" lon="-123.85592646741807"><ele>10.8</ele></trkpt>
    <trkpt lat="46.13768" lon="-123.85593000000001"><ele>10.8</ele></trkpt>
    <trkpt lat="46.13761420359181" lon="-123.85595856949305"><ele>10.6</ele></trkpt>
    <trkpt lat="46.13748674806163" lon="-123.85601391202587"><ele>10.2</ele></trkpt>
    <trkpt lat="46.13731709441673" lon="-123.85608757742432"><ele>9.6</ele></trkpt>
    <trkpt lat="46.13723269818729" lon="-123.85612422315555"><ele>9.3</ele></trkpt>
    <trkpt lat="46.13706304454239" lon="-123.85619788855396"><ele>8.6</ele></trkpt>
    <trkpt lat="46.13692" lon="-123.85626"><ele>8.0</ele></trkpt>
    <trkpt lat="46.136893568186146" lon="-123.85627237233841"><ele>7.9</ele></trkpt>
    <trkpt lat="46.13676696185488" lon="-123.85633163487644"><ele>7.4</ele></trkpt>
    <trkpt lat="46.13659929401077" lon="-123.8564101176971"><ele>6.8</ele></trkpt>
    <trkpt lat="46.1365163155369" lon="-123.85644895868485"><ele>6.5</ele></trkpt>
    <trkpt lat="46.13645" lon="-123.85648"><ele>6.2</ele></trkpt>
    <trkpt lat="46.13643402785131" lon="-123.85649038189666"><ele>6.1</ele></trkpt>
    <trkpt lat="46.13635448938064" lon="-123.85654208190257"><ele>5.8</ele></trkpt>
    <trkpt lat="46.136250000000004" lon="-123.85661"><ele>5.5</ele></trkpt>
    <trkpt lat="46.13615729395097" lon="-123.85667489423432"><ele>5.1</ele></trkpt>
    <trkpt lat="46.1360788059444" lon="-123.85672983583893"><ele>4.9</ele></trkpt>
    <trkpt lat="46.136050000000004" lon="-123.85675"><ele>4.8</ele></trkpt>
    <trkpt lat="46.13603976821498" lon="-123.85675918772533"><ele>4.8</ele></trkpt>
    <trkpt lat="46.13600311692025" lon="-123.85679209909205"><ele>4.7</ele></trkpt>
    <trkpt lat="46.135928287193494" lon="-123.8568592931324"><ele>4.7</ele></trkpt>
    <trkpt lat="46.13589163589875" lon="-123.8568922044991"><ele>4.7</ele></trkpt>
    <trkpt lat="46.13585422103537" lon="-123.85692580151928"><ele>4.8</ele></trkpt>
    <trkpt lat="46.13578015487725" lon="-123.85699230990615"><ele>4.9</ele></trkpt>
    <trkpt lat="46.13563202256102" lon="-123.85712532667992"><ele>5.3</ele></trkpt>
    <trkpt lat="46.135560000000005" lon="-123.85719000000002"><ele>5.5</ele></trkpt>
    <trkpt lat="46.13546015162068" lon="-123.8573163706051"><ele>5.8</ele></trkpt>
    <trkpt lat="46.13526136949834" lon="-123.85756795422867"><ele>6.4</ele></trkpt>
    <trkpt lat="46.13516130230751" lon="-123.85769460176708"><ele>6.7</ele></trkpt>
    <trkpt lat="46.13506191124634" lon="-123.85782039357886"><ele>7.0</ele></trkpt>
    <trkpt lat="46.134994974409224" lon="-123.85790511051334"><ele>7.1</ele></trkpt>
    <trkpt lat="46.134961844055496" lon="-123.85794704111727"><ele>7.1</ele></trkpt>
    <trkpt lat="46.13492" lon="-123.858"><ele>7.1</ele></trkpt>
    <trkpt lat="46.134892615127825" lon="-123.8580251940824"><ele>7.1</ele></trkpt>
    <trkpt lat="46.134854698945524" lon="-123.85806007697013"><ele>7.1</ele></trkpt>
    <trkpt lat="46.13478038322821" lon="-123.85812844743006"><ele>7.0</ele></trkpt>
    <trkpt lat="46.13467000000001" lon="-123.85823"><ele>6.8</ele></trkpt>
    <trkpt lat="46.134668789392606" lon="-123.85823065574569"><ele>6.8</ele></trkpt>
    <trkpt lat="46.13455091460479" lon="-123.85829450458908"><ele>6.7</ele></trkpt>
    <trkpt lat="46.13443" lon="-123.85836"><ele>6.5</ele></trkpt>
    <trkpt lat="46.13435159215638" lon="-123.85838560256119"><ele>6.4</ele></trkpt>
    <trkpt lat="46.134182302745415" lon="-123.8584408807362"><ele>5.9</ele></trkpt>
    <trkpt lat="46.13394" lon="-123.85852000000001"><ele>5.3</ele></trkpt>
    <trkpt lat="46.13388432290528" lon="-123.85853336250274"><ele>5.2</ele></trkpt>
    <trkpt lat="46.13375568810265" lon="-123.85856423485538"><ele>4.9</ele></trkpt>
    <trkpt lat="46.13354011391617" lon="-123.85861597266012"><ele>4.6</ele></trkpt>
    <trkpt lat="46.133144451006004" lon="-123.85871093175857"><ele>4.1</ele></trkpt>
    <trkpt lat="46.13296879796517" lon="-123.85875308848836"><ele>3.9</ele></trkpt>
    <trkpt lat="46.132940000000005" lon="-123.85876"><ele>3.9</ele></trkpt>
    <trkpt lat="46.132747547216454" lon="-123.85879338466654"><ele>3.8</ele></trkpt>
    <trkpt lat="46.132703795425755" lon="-123.85880097426288"><ele>3.7</ele></trkpt>
    <trkpt lat="46.13261539895066" lon="-123.8588163083453"><ele>3.6</ele></trkpt>
    <trkpt lat="46.13240289025297" lon="-123.85885317209897"><ele>3.4</ele></trkpt>
    <trkpt lat="46.132190381555276" lon="-123.85889003585265"><ele>3.3</ele></trkpt>
    <trkpt lat="46.132062697757924" lon="-123.85891218508283"><ele>3.2</ele></trkpt>
    <trkpt lat="46.13176536415989" lon="-123.85896376336004"><ele>3.1</ele></trkpt>
    <trkpt lat="46.1316769676848" lon="-123.85897909744244"><ele>3.1</ele></trkpt>
    <trkpt lat="46.131588571209704" lon="-123.85899443152485"><ele>3.0</ele></trkpt>
    <trkpt lat="46.13150017473462" lon="-123.85900976560727"><ele>3.1</ele></trkpt>
    <trkpt lat="46.13136802646882" lon="-123.85903268928604"><ele>3.2</ele></trkpt>
    <trkpt lat="46.13127962999373" lon="-123.85904802336844"><ele>3.4</ele></trkpt>
    <trkpt lat="46.13119123351864" lon="-123.85906335745085"><ele>3.6</ele></trkpt>
    <trkpt lat="46.13110283704354" lon="-123.85907869153328"><ele>3.9</ele></trkpt>
    <trkpt lat="46.13101444056846" lon="-123.85909402561569"><ele>4.2</ele></trkpt>
    <trkpt lat="46.13098" lon="-123.85910000000001"><ele>4.4</ele></trkpt>
    <trkpt lat="46.1309258447154" lon="-123.85910653598263"><ele>4.6</ele></trkpt>
    <trkpt lat="46.13083801779059" lon="-123.85911713578392"><ele>5.1</ele></trkpt>
    <trkpt lat="46.13074929467267" lon="-123.85912784374639"><ele>5.5</ele></trkpt>
    <trkpt lat="46.130527038781324" lon="-123.85915466773329"><ele>6.8</ele></trkpt>
    <trkpt lat="46.130438315663405" lon="-123.8591653756958"><ele>7.4</ele></trkpt>
    <trkpt lat="46.1304" lon="-123.85917"><ele>7.6</ele></trkpt>
    <trkpt lat="46.130351045176326" lon="-123.85915776129409"><ele>8.0</ele></trkpt>
    <trkpt lat="46.13008000000001" lon="-123.85909000000001"><ele>9.9</ele></trkpt>
    <trkpt lat="46.13004911268208" lon="-123.85907548032064"><ele>10.2</ele></trkpt>
    <trkpt lat="46.129924269696" lon="-123.85901679344684"><ele>11.1</ele></trkpt>
    <trkpt lat="46.12979942670992" lon="-123.85895810657306"><ele>11.9</ele></trkpt>
    <trkpt lat="46.12967458372384" lon="-123.85889941969926"><ele>12.6</ele></trkpt>
    <trkpt lat="46.12958992991822" lon="-123.85885962517523"><ele>13.0</ele></trkpt>
    <trkpt lat="46.12950442102364" lon="-123.85881942868633"><ele>13.4</ele></trkpt>
    <trkpt lat="46.12941976721802" lon="-123.85877963416232"><ele>13.7</ele></trkpt>
    <trkpt lat="46.12933425832344" lon="-123.85873943767342"><ele>14.0</ele></trkpt>
    <trkpt lat="46.1292923589651" lon="-123.85871974139386"><ele>14.1</ele></trkpt>
    <trkpt lat="46.12920685007053" lon="-123.85867954490496"><ele>14.3</ele></trkpt>
    <trkpt lat="46.1291221962649" lon="-123.85863975038095"><ele>14.4</ele></trkpt>
    <trkpt lat="46.12903668737033" lon="-123.85859955389203"><ele>14.4</ele></trkpt>
    <trkpt lat="46.1289520335647" lon="-123.85855975936803"><ele>14.4</ele></trkpt>
    <trkpt lat="46.128910000000005" lon="-123.85854"><ele>14.3</ele></trkpt>
    <trkpt lat="46.12886772441968" lon="-123.85851486316845"><ele>14.3</ele></trkpt>
    <trkpt lat="46.12878540672892" lon="-123.8584659175145"><ele>14.2</ele></trkpt>
    <trkpt lat="46.12854" lon="-123.85832"><ele>13.7</ele></trkpt>
    <trkpt lat="46.12853776282133" lon="-123.85831816958108"><ele>13.7</ele></trkpt>
    <trkpt lat="46.12843" lon="-123.85823"><ele>13.5</ele></trkpt>
    <trkpt lat="46.128421343580975" lon="-123.85822016801791"><ele>13.5</ele></trkpt>
    <trkpt lat="46.128351384791046" lon="-123.85814070865155"><ele>13.4</ele></trkpt>
    <trkpt lat="46.12828142600111" lon="-123.85806124928521"><ele>13.3</ele></trkpt>
    <trkpt lat="46.12824609327892" lon="-123.85802111829213"><ele>13.3</ele></trkpt>
    <trkpt lat="46.128035510254676" lon="-123.85778193757321"><ele>13.3</ele></trkpt>
    <trkpt lat="46.1279295120881" lon="-123.85766154459391"><ele>13.2</ele></trkpt>
    <trkpt lat="46.12782422057598" lon="-123.85754195423445"><ele>13.2</ele></trkpt>
    <trkpt lat="46.12771822240941" lon="-123.85742156125515"><ele>13.3</ele></trkpt>
    <trkpt lat="46.12762" lon="-123.85731000000001"><ele>13.5</ele></trkpt>
    <trkpt lat="46.12750375215125" lon="-123.85718763384342"><ele>13.7</ele></trkpt>
    <trkpt lat="46.127430000000004" lon="-123.85711"><ele>13.8</ele></trkpt>
    <trkpt lat="46.12739130885947" lon="-123.8570809816446"><ele>13.8</ele></trkpt>
    <trkpt lat="46.1273115127254" lon="-123.85702113454406"><ele>13.9</ele></trkpt>
    <trkpt lat="46.12731" lon="-123.85702"><ele>13.9</ele></trkpt>
    <trkpt lat="46.12706000000001" lon="-123.85688"><ele>13.9</ele></trkpt>
    <trkpt lat="46.12697472623334" lon="-123.85684345410002"><ele>14.0</ele></trkpt>
    <trkpt lat="46.12684541172269" lon="-123.85678803359545"><ele>13.9</ele></trkpt>
    <trkpt lat="46.126780000000004" lon="-123.85676000000001"><ele>13.9</ele></trkpt>
    <trkpt lat="46.12658405155598" lon="-123.85669762194863"><ele>13.8</ele></trkpt>
    <trkpt lat="46.12627668123564" lon="-123.85659977395737"><ele>13.7</ele></trkpt>
    <trkpt lat="46.12618886114411" lon="-123.85657181738844"><ele>13.7</ele></trkpt>
    <trkpt lat="46.125931548275936" lon="-123.85648990464148"><ele>13.4</ele></trkpt>
    <trkpt lat="46.12567599180959" lon="-123.85640855102591"><ele>13.1</ele></trkpt>
    <trkpt lat="46.12554777447596" lon="-123.85636773443525"><ele>12.9</ele></trkpt>
    <trkpt lat="46.12529221800962" lon="-123.85628638081968"><ele>12.4</ele></trkpt>
    <trkpt lat="46.12507354598172" lon="-123.85621676896304"><ele>11.8</ele></trkpt>
    <trkpt lat="46.124986604091106" lon="-123.8561890919598"><ele>11.4</ele></trkpt>
    <trkpt lat="46.124854873953815" lon="-123.85614715710642"><ele>10.9</ele></trkpt>
    <trkpt lat="46.12476793206321" lon="-123.85611948010317"><ele>10.5</ele></trkpt>
    <trkpt lat="46.12468011197168" lon="-123.85609152353425"><ele>10.0</ele></trkpt>
    <trkpt lat="46.124374498053164" lon="-123.85599423467438"><ele>8.2</ele></trkpt>
    <trkpt lat="46.124286677961635" lon="-123.85596627810544"><ele>7.7</ele></trkpt>
    <trkpt lat="46.124242767915874" lon="-123.85595229982098"><ele>7.4</ele></trkpt>
    <trkpt lat="46.12415582602526" lon="-123.85592462281775"><ele>7.0</ele></trkpt>
    <trkpt lat="46.12402497408888" lon="-123.85588296753004"><ele>6.5</ele></trkpt>
    <trkpt lat="46.123895878554336" lon="-123.85584187137371"><ele>6.0</ele></trkpt>
    <trkpt lat="46.12389" lon="-123.85584000000001"><ele>6.0</ele></trkpt>
    <trkpt lat="46.123809638116754" lon="-123.85581565962191"><ele>5.7</ele></trkpt>
    <trkpt lat="46.12368025802368" lon="-123.85577647238219"><ele>5.3</ele></trkpt>
    <trkpt lat="46.1235940046283" lon="-123.8557503475557"><ele>5.0</ele></trkpt>
    <trkpt lat="46.12350863136962" lon="-123.85572448930908"><ele>4.8</ele></trkpt>
    <trkpt lat="46.123378371139864" lon="-123.8556850354895"><ele>4.6</ele></trkpt>
    <trkpt lat="46.123292117744484" lon="-123.855658910663"><ele>4.5</ele></trkpt>
    <trkpt lat="46.12311873081704" lon="-123.85560639443017"><ele>4.3</ele></trkpt>
    <trkpt lat="46.12294622402628" lon="-123.85555414477722"><ele>4.1</ele></trkpt>
    <trkpt lat="46.12281684393321" lon="-123.85551495753748"><ele>4.1</ele></trkpt>
    <trkpt lat="46.12273059053783" lon="-123.85548883271099"><ele>4.1</ele></trkpt>
    <trkpt lat="46.12238557695632" lon="-123.85538433340506"><ele>4.3</ele></trkpt>
    <trkpt lat="46.122169943467874" lon="-123.85531902133884"><ele>4.4</ele></trkpt>
    <trkpt lat="46.121909423008354" lon="-123.85524011369967"><ele>4.5</ele></trkpt>
    <trkpt lat="46.12181" lon="-123.85521000000001"><ele>4.5</ele></trkpt>
    <trkpt lat="46.121778501642005" lon="-123.85520879514479"><ele>4.5</ele></trkpt>
    <trkpt lat="46.12142159608733" lon="-123.85519514301974"><ele>4.3</ele></trkpt>
    <trkpt lat="46.12088668725854" lon="-123.8551746820263"><ele>4.3</ele></trkpt>
    <trkpt lat="46.12052978170387" lon="-123.85516102990124"><ele>4.1</ele></trkpt>
    <trkpt lat="46.120306828108" lon="-123.85515250162163"><ele>3.9</ele></trkpt>
    <trkpt lat="46.120128824833884" lon="-123.85514569275321"><ele>3.6</ele></trkpt>
    <trkpt lat="46.11999487287508" lon="-123.8551405689078"><ele>3.4</ele></trkpt>
    <trkpt lat="46.119980000000005" lon="-123.85514"><ele>3.4</ele></trkpt>
    <trkpt lat="46.119860912618" lon="-123.85513592166501"><ele>3.1</ele></trkpt>
    <trkpt lat="46.11963794348515" lon="-123.8551282857358"><ele>2.7</ele></trkpt>
    <trkpt lat="46.119325966512974" lon="-123.8551176015929"><ele>1.9</ele></trkpt>
    <trkpt lat="46.11923695867365" lon="-123.85511455337924"><ele>1.8</ele></trkpt>
    <trkpt lat="46.11914795083433" lon="-123.85511150516555"><ele>1.6</ele></trkpt>
    <trkpt lat="46.11905894299501" lon="-123.85510845695188"><ele>1.6</ele></trkpt>
    <trkpt lat="46.118835973862154" lon="-123.85510082102267"><ele>1.5</ele></trkpt>
    <trkpt lat="46.11874696602284" lon="-123.85509777280902"><ele>1.5</ele></trkpt>
    <trkpt lat="46.118520000000004" lon="-123.85509"><ele>1.2</ele></trkpt>
    <trkpt lat="46.118479040932634" lon="-123.85509124118386"><ele>1.2</ele></trkpt>
    <trkpt lat="46.11834597057583" lon="-123.85509527361893"><ele>1.1</ele></trkpt>
    <trkpt lat="46.11825605817259" lon="-123.85509799823721"><ele>1.1</ele></trkpt>
    <trkpt lat="46.118190000000006" lon="-123.85510000000001"><ele>1.1</ele></trkpt>
    <trkpt lat="46.117989639149094" lon="-123.85512357186481"><ele>1.2</ele></trkpt>
    <trkpt lat="46.117723424173306" lon="-123.85515489127374"><ele>1.2</ele></trkpt>
    <trkpt lat="46.117545051176066" lon="-123.85517587633224"><ele>1.2</ele></trkpt>
    <trkpt lat="46.117411495514816" lon="-123.85519158876298"><ele>1.1</ele></trkpt>
    <trkpt lat="46.117277939853565" lon="-123.8552073011937"><ele>1.1</ele></trkpt>
    <trkpt lat="46.117000000000004" lon="-123.85524000000001"><ele>1.1</ele></trkpt>
    <trkpt lat="46.116876819168525" lon="-123.855260949121"><ele>1.1</ele></trkpt>
    <trkpt lat="46.1164784799477" lon="-123.85532869388645"><ele>1.2</ele></trkpt>
    <trkpt lat="46.11607924758962" lon="-123.85539659054598"><ele>1.2</ele></trkpt>
    <trkpt lat="46.11568001523153" lon="-123.85546448720552"><ele>1.0</ele></trkpt>
    <trkpt lat="46.115591594642154" lon="-123.85547952472074"><ele>1.0</ele></trkpt>
    <trkpt lat="46.11553000000001" lon="-123.85549"><ele>1.0</ele></trkpt>
    <trkpt lat="46.115370000000006" lon="-123.85549"><ele>1.0</ele></trkpt>
    <trkpt lat="46.11514726007944" lon="-123.85545519688742"><ele>1.0</ele></trkpt>
    <trkpt lat="46.115050000000004" lon="-123.85544000000002"><ele>1.0</ele></trkpt>
    <trkpt lat="46.11488702518571" lon="-123.8553693775805"><ele>1.0</ele></trkpt>
    <trkpt lat="46.114800895050585" lon="-123.85533205452194"><ele>1.1</ele></trkpt>
    <trkpt lat="46.11475" lon="-123.85531000000002"><ele>1.1</ele></trkpt>
    <trkpt lat="46.114593413725544" lon="-123.85521492976196"><ele>1.2</ele></trkpt>
    <trkpt lat="46.11446990801925" lon="-123.85513994415456"><ele>1.2</ele></trkpt>
    <trkpt lat="46.11434640231296" lon="-123.85506495854716"><ele>1.2</ele></trkpt>
    <trkpt lat="46.11419" lon="-123.85497000000001"><ele>1.2</ele></trkpt>
    <trkpt lat="46.11409485488975" lon="-123.85493432058367"><ele>1.1</ele></trkpt>
    <trkpt lat="46.11403000000001" lon="-123.85491"><ele>1.1</ele></trkpt>
    <trkpt lat="46.11387516040969" lon="-123.85488235007317"><ele>1.1</ele></trkpt>
    <trkpt lat="46.11375" lon="-123.85486000000002"><ele>1.1</ele></trkpt>
    <trkpt lat="46.11374212790261" lon="-123.85486060554597"><ele>1.1</ele></trkpt>
    <trkpt lat="46.113620000000004" lon="-123.85487"><ele>1.2</ele></trkpt>
    <trkpt lat="46.11356383664236" lon="-123.85488083854273"><ele>1.2</ele></trkpt>
    <trkpt lat="46.1132545274887" lon="-123.85494052978291"><ele>1.5</ele></trkpt>
    <trkpt lat="46.11312171174261" lon="-123.85496616089179"><ele>1.6</ele></trkpt>
    <trkpt lat="46.11272326450431" lon="-123.85504305421847"><ele>1.7</ele></trkpt>
    <trkpt lat="46.112480000000005" lon="-123.85509"><ele>1.6</ele></trkpt>
    <trkpt lat="46.112368817493625" lon="-123.85510389781331"><ele>1.6</ele></trkpt>
    <trkpt lat="46.11214661826247" lon="-123.85513167271719"><ele>1.7</ele></trkpt>
    <trkpt lat="46.112080000000006" lon="-123.85514"><ele>1.7</ele></trkpt>
    <trkpt lat="46.11188255728652" lon="-123.8551005114573"><ele>1.8</ele></trkpt>
    <trkpt lat="46.11174982797502" lon="-123.85507396559501"><ele>1.9</ele></trkpt>
    <trkpt lat="46.11166163870094" lon="-123.8550563277402"><ele>2.1</ele></trkpt>
    <trkpt lat="46.111630000000005" lon="-123.85505"><ele>2.1</ele></trkpt>
    <trkpt lat="46.11144240354654" lon="-123.85500483789085"><ele>2.5</ele></trkpt>
    <trkpt lat="46.11131111973467" lon="-123.85497323252872"><ele>2.7</ele></trkpt>
    <trkpt lat="46.11118427118673" lon="-123.85494269491534"><ele>2.8</ele></trkpt>
    <trkpt lat="46.111099114119575" lon="-123.8549221941399"><ele>2.9</ele></trkpt>
    <trkpt lat="46.11088622145169" lon="-123.85487094220133"><ele>2.9</ele></trkpt>
    <trkpt lat="46.11064937835869" lon="-123.85481392441969"><ele>3.0</ele></trkpt>
    <trkpt lat="46.11033979693748" lon="-123.85473939555902"><ele>2.5</ele></trkpt>
    <trkpt lat="46.11002932846348" lon="-123.85466465314863"><ele>1.8</ele></trkpt>
    <trkpt lat="46.1099406231852" lon="-123.85464329817421"><ele>1.7</ele></trkpt>
    <trkpt lat="46.10980756526778" lon="-123.85461126571262"><ele>1.6</ele></trkpt>
    <trkpt lat="46.109585802072075" lon="-123.85455787827662"><ele>1.4</ele></trkpt>
    <trkpt lat="46.10947" lon="-123.85453000000001"><ele>1.3</ele></trkpt>
    <trkpt lat="46.10909892844846" lon="-123.85443213497541"><ele>1.2</ele></trkpt>
    <trkpt lat="46.10901046286496" lon="-123.85440880339296"><ele>1.2</ele></trkpt>
    <trkpt lat="46.10878929890619" lon="-123.85435047443681"><ele>1.2</ele></trkpt>
    <trkpt lat="46.10870083332268" lon="-123.85432714285434"><ele>1.2</ele></trkpt>
    <trkpt lat="46.10861236773917" lon="-123.85430381127188"><ele>1.3</ele></trkpt>
    <trkpt lat="46.10856813494741" lon="-123.85429214548064"><ele>1.4</ele></trkpt>
    <trkpt lat="46.108560000000004" lon="-123.85429"><ele>1.4</ele></trkpt>
    <trkpt lat="46.108479734497706" lon="-123.85426830662101"><ele>1.5</ele></trkpt>
    <trkpt lat="46.10839134064399" lon="-123.85424441639029"><ele>1.7</ele></trkpt>
    <trkpt lat="46.10830294679026" lon="-123.85422052615954"><ele>1.9</ele></trkpt>
    <trkpt lat="46.10825874986341" lon="-123.85420858104418"><ele>2.1</ele></trkpt>
    <trkpt lat="46.10821455293655" lon="-123.85419663592882"><ele>2.3</ele></trkpt>
    <trkpt lat="46.10819" lon="-123.85419000000002"><ele>2.4</ele></trkpt>
    <trkpt lat="46.108127463126785" lon="-123.85416469134374"><ele>2.7</ele></trkpt>
    <trkpt lat="46.107997580706495" lon="-123.85411212796217"><ele>3.4</ele></trkpt>
    <trkpt lat="46.10778197588883" lon="-123.85402487274877"><ele>4.7</ele></trkpt>
    <trkpt lat="46.10769538760862" lon="-123.85398983049437"><ele>5.1</ele></trkpt>
    <trkpt lat="46.10765209346853" lon="-123.85397230936718"><ele>5.3</ele></trkpt>
    <trkpt lat="46.10760879932843" lon="-123.85395478823997"><ele>5.4</ele></trkpt>
    <trkpt lat="46.10756550518835" lon="-123.8539372671128"><ele>5.5</ele></trkpt>
    <trkpt lat="46.10747891690815" lon="-123.8539022248584"><ele>5.7</ele></trkpt>
    <trkpt lat="46.10743562276805" lon="-123.85388470373121"><ele>5.8</ele></trkpt>
    <trkpt lat="46.10739232862796" lon="-123.85386718260402"><ele>5.8</ele></trkpt>
    <trkpt lat="46.107305740347776" lon="-123.85383214034964"><ele>5.8</ele></trkpt>
    <trkpt lat="46.10687279894682" lon="-123.8536569290777"><ele>5.7</ele></trkpt>
    <trkpt lat="46.10674291652653" lon="-123.85360436569613"><ele>5.7</ele></trkpt>
    <trkpt lat="46.10630997512558" lon="-123.85342915442419"><ele>5.8</ele></trkpt>
    <trkpt lat="46.106093504425104" lon="-123.85334154878822"><ele>5.8</ele></trkpt>
    <trkpt lat="46.10583373958453" lon="-123.85323642202508"><ele>5.9</ele></trkpt>
    <trkpt lat="46.10561726888405" lon="-123.85314881638911"><ele>5.9</ele></trkpt>
    <trkpt lat="46.10551509471343" lon="-123.85310746652894"><ele>5.9</ele></trkpt>
    <trkpt lat="46.10538694405875" lon="-123.85305560399246"><ele>6.1</ele></trkpt>
    <trkpt lat="46.10517220512388" lon="-123.85296869920157"><ele>6.5</ele></trkpt>
    <trkpt lat="46.10508648272649" lon="-123.85293400736974"><ele>6.7</ele></trkpt>
    <trkpt lat="46.105000760329105" lon="-123.85289931553788"><ele>6.9</ele></trkpt>
    <trkpt lat="46.10491417204891" lon="-123.85286427328352"><ele>7.2</ele></trkpt>
    <trkpt lat="46.10482844965152" lon="-123.85282958145167"><ele>7.5</ele></trkpt>
    <trkpt lat="46.10474272725413" lon="-123.85279488961982"><ele>7.9</ele></trkpt>
    <trkpt lat="46.10465700485674" lon="-123.85276019778799"><ele>8.4</ele></trkpt>
    <trkpt lat="46.104571282459354" lon="-123.85272550595613"><ele>8.8</ele></trkpt>
    <trkpt lat="46.104442265921875" lon="-123.85267329299711"><ele>9.6</ele></trkpt>
    <trkpt lat="46.10436000000001" lon="-123.85264000000001"><ele>10.1</ele></trkpt>
    <trkpt lat="46.10435661800802" lon="-123.85263826330143"><ele>10.2</ele></trkpt>
    <trkpt lat="46.104230381645735" lon="-123.85257343922348"><ele>11.1</ele></trkpt>
    <trkpt lat="46.10399" lon="-123.85245"><ele>13.0</ele></trkpt>
    <trkpt lat="46.103956717814825" lon="-123.85251656437036"><ele>13.5</ele></trkpt>
    <trkpt lat="46.10382573821039" lon="-123.85277852357923"><ele>15.1</ele></trkpt>
    <trkpt lat="46.10381" lon="-123.85281"><ele>15.3</ele></trkpt>
    <trkpt lat="46.10367671732634" lon="-123.85302103089998"><ele>16.6</ele></trkpt>
    <trkpt lat="46.10352531529905" lon="-123.85326075077651"><ele>18.3</ele></trkpt>
    <trkpt lat="46.10346475448814" lon="-123.85335663872713"><ele>18.9</ele></trkpt>
    <trkpt lat="46.10345" lon="-123.85338000000002"><ele>19.0</ele></trkpt>
    <trkpt lat="46.10343359927716" lon="-123.85340337103005"><ele>19.1</ele></trkpt>
    <trkpt lat="46.103370265907316" lon="-123.8534936210821"><ele>19.6</ele></trkpt>
    <trkpt lat="46.10333827935688" lon="-123.85353920191648"><ele>19.9</ele></trkpt>
    <trkpt lat="46.103274306256026" lon="-123.85363036358518"><ele>20.3</ele></trkpt>
    <trkpt lat="46.10314636005431" lon="-123.85381268692262"><ele>21.0</ele></trkpt>
    <trkpt lat="46.10305" lon="-123.85395000000001"><ele>21.5</ele></trkpt>
    <trkpt lat="46.102979203898684" lon="-123.85402866233483"><ele>21.9</ele></trkpt>
    <trkpt lat="46.10296" lon="-123.85405000000002"><ele>22.0</ele></trkpt>
    <trkpt lat="46.10298530806385" lon="-123.85413742785693"><ele>22.3</ele></trkpt>
    <trkpt lat="46.10301995569779" lon="-123.85425711968328"><ele>22.5</ele></trkpt>
    <trkpt lat="46.10307" lon="-123.85443000000001"><ele>22.8</ele></trkpt>
    <trkpt lat="46.103071124735436" lon="-123.85443702959647"><ele>22.9</ele></trkpt>
    <trkpt lat="46.10309114380679" lon="-123.85456214879244"><ele>23.0</ele></trkpt>
    <trkpt lat="46.10311" lon="-123.85468000000002"><ele>23.1</ele></trkpt>
    <trkpt lat="46.10311032002947" lon="-123.85475360677827"><ele>23.1</ele></trkpt>
    <trkpt lat="46.103112575713475" lon="-123.85527241409841"><ele>23.2</ele></trkpt>
    <trkpt lat="46.10311315091289" lon="-123.85540470996504"><ele>23.2</ele></trkpt>
    <trkpt lat="46.10311457763302" lon="-123.85573285559504"><ele>23.2</ele></trkpt>
    <trkpt lat="46.103115417875316" lon="-123.85592611132179"><ele>23.1</ele></trkpt>
    <trkpt lat="46.103115981796314" lon="-123.85605581315183"><ele>23.2</ele></trkpt>
    <trkpt lat="46.103116540078105" lon="-123.85618421796357"><ele>23.4</ele></trkpt>
    <trkpt lat="46.10311822056269" lon="-123.85657072941709"><ele>23.8</ele></trkpt>
    <trkpt lat="46.10311906080498" lon="-123.85676398514383"><ele>24.0</ele></trkpt>
    <trkpt lat="46.10311962472598" lon="-123.85689368697388"><ele>24.1</ele></trkpt>
    <trkpt lat="46.103120000000004" lon="-123.85698000000001"><ele>24.1</ele></trkpt>
    <trkpt lat="46.103143856060534" lon="-123.85714699242371"><ele>24.2</ele></trkpt>
    <trkpt lat="46.103170000000006" lon="-123.85733"><ele>24.3</ele></trkpt>
    <trkpt lat="46.10317192510569" lon="-123.85733577531707"><ele>24.3</ele></trkpt>
    <trkpt lat="46.103260000000006" lon="-123.8576"><ele>24.5</ele></trkpt>
    <trkpt lat="46.103390000000005" lon="-123.85782"><ele>24.7</ele></trkpt>
    <trkpt lat="46.10345519167102" lon="-123.85790381786273"><ele>24.8</ele></trkpt>
    <trkpt lat="46.103460000000005" lon="-123.85791"><ele>24.8</ele></trkpt>
    <trkpt lat="46.10352787258475" lon="-123.85797787258475"><ele>24.9</ele></trkpt>
    <trkpt lat="46.103550000000006" lon="-123.858"><ele>24.9</ele></trkpt>
    <trkpt lat="46.10365116616775" lon="-123.85805058308387"><ele>25.0</ele></trkpt>
    <trkpt lat="46.103730000000006" lon="-123.85809"><ele>25.0</ele></trkpt>
    <trkpt lat="46.10391003108258" lon="-123.85814861477107"><ele>25.0</ele></trkpt>
    <trkpt lat="46.103997755874175" lon="-123.85817717633113"><ele>24.9</ele></trkpt>
    <trkpt lat="46.10416" lon="-123.85823"><ele>24.9</ele></trkpt>
    <trkpt lat="46.10421256836688" lon="-123.85826066488067"><ele>24.8</ele></trkpt>
    <trkpt lat="46.10433679167183" lon="-123.85833312847524"><ele>24.8</ele></trkpt>
    <trkpt lat="46.104400000000005" lon="-123.85837000000001"><ele>24.8</ele></trkpt>
    <trkpt lat="46.10444676104941" lon="-123.85843680149917"><ele>24.8</ele></trkpt>
    <trkpt lat="46.10451001676956" lon="-123.85852716681366"><ele>24.9</ele></trkpt>
    <trkpt lat="46.10457391143637" lon="-123.8586184449091"><ele>25.0</ele></trkpt>
    <trkpt lat="46.10461" lon="-123.85867"><ele>25.1</ele></trkpt>
    <trkpt lat="46.10462885044071" lon="-123.85871798294001"><ele>25.2</ele></trkpt>
    <trkpt lat="46.10472" lon="-123.85895000000001"><ele>25.5</ele></trkpt>
    <trkpt lat="46.104760000000006" lon="-123.85912"><ele>25.7</ele></trkpt>
    <trkpt lat="46.10476568785756" lon="-123.85918825429061"><ele>25.8</ele></trkpt>
    <trkpt lat="46.10479" lon="-123.85948"><ele>26.2</ele></trkpt>
    <trkpt lat="46.10478985517958" lon="-123.8595726850661"><ele>26.3</ele></trkpt>
    <trkpt lat="46.10478945186884" lon="-123.85983080394578"><ele>26.5</ele></trkpt>
    <trkpt lat="46.10478914989244" lon="-123.86002406883559"><ele>26.6</ele></trkpt>
    <trkpt lat="46.10478824396328" lon="-123.86060386350505"><ele>26.9</ele></trkpt>
    <trkpt lat="46.104787439368465" lon="-123.86111880418461"><ele>27.0</ele></trkpt>
    <trkpt lat="46.10478663477365" lon="-123.8616337448642"><ele>27.3</ele></trkpt>
    <trkpt lat="46.10478633279726" lon="-123.86182700975402"><ele>27.4</ele></trkpt>
    <trkpt lat="46.10478603082087" lon="-123.86202027464384"><ele>27.4</ele></trkpt>
    <trkpt lat="46.10478583017884" lon="-123.86214868554379"><ele>27.3</ele></trkpt>
    <trkpt lat="46.104785226226056" lon="-123.86253521532342"><ele>27.1</ele></trkpt>
    <trkpt lat="46.10478502355734" lon="-123.86266492330316"><ele>27.1</ele></trkpt>
    <trkpt lat="46.10478492424967" lon="-123.86272848021324"><ele>27.2</ele></trkpt>
    <trkpt lat="46.104784721580955" lon="-123.86285818819297"><ele>27.3</ele></trkpt>
    <trkpt lat="46.104784320296886" lon="-123.86311500999287"><ele>27.7</ele></trkpt>
    <trkpt lat="46.10478381767847" lon="-123.86343668578264"><ele>28.1</ele></trkpt>
    <trkpt lat="46.10478341842109" lon="-123.86369221050273"><ele>28.3</ele></trkpt>
    <trkpt lat="46.10478301916372" lon="-123.86394773522284"><ele>28.6</ele></trkpt>
    <trkpt lat="46.1047827212407" lon="-123.86413840595304"><ele>28.9</ele></trkpt>
    <trkpt lat="46.10478192272595" lon="-123.86464945539323"><ele>29.9</ele></trkpt>
    <trkpt lat="46.10478172208393" lon="-123.86477786629318"><ele>30.0</ele></trkpt>
    <trkpt lat="46.104781523468574" lon="-123.86490498011332"><ele>30.2</ele></trkpt>
    <trkpt lat="46.1047811242112" lon="-123.86516050483343"><ele>30.4</ele></trkpt>
    <trkpt lat="46.104780824261496" lon="-123.86535247264344"><ele>30.5</ele></trkpt>
    <trkpt lat="46.10478052633849" lon="-123.86554314337367"><ele>30.6</ele></trkpt>
    <trkpt lat="46.10478002777344" lon="-123.86586222500382"><ele>30.6</ele></trkpt>
    <trkpt lat="46.104780000000005" lon="-123.86588"><ele>30.6</ele></trkpt>
    <trkpt lat="46.104800000000004" lon="-123.86618000000001"><ele>30.7</ele></trkpt>
    <trkpt lat="46.104800000000004" lon="-123.86617000000001"><ele>30.7</ele></trkpt>
    <trkpt lat="46.1048363319025" lon="-123.86640979055645"><ele>30.8</ele></trkpt>
    <trkpt lat="46.104850000000006" lon="-123.86650000000002"><ele>30.9</ele></trkpt>
    <trkpt lat="46.10488133710861" lon="-123.86658878847437"><ele>30.9</ele></trkpt>
    <trkpt lat="46.104910000000004" lon="-123.86667000000001"><ele>30.9</ele></trkpt>
    <trkpt lat="46.10484757089015" lon="-123.86662459701103"><ele>30.9</ele></trkpt>
    <trkpt lat="46.104800000000004" lon="-123.86659000000002"><ele>30.9</ele></trkpt>
    <trkpt lat="46.10467472058468" lon="-123.86642865529846"><ele>30.9</ele></trkpt>
    <trkpt lat="46.104376211418355" lon="-123.86604421167516"><ele>30.6</ele></trkpt>
  </trkseg></trk>
</gpx>
