<?xml version="1.0" encoding="UTF-8"?>
<gpx version="1.1" creator="h2c-tracker" xmlns="http://www.topografix.com/GPX/1/1">
  <metadata><name>Hood to Coast 2026 — Leg 33 (7.72 mi)</name><desc>Derived from the official Hood to Coast Strava route (simplified, 952 points, ~7.74 mi). Verify against the official leg map PDF.</desc></metadata>
  <wpt lat="46.06980971298048" lon="-123.78770739815963"><name>Exchange 32 — Youngs River Falls</name></wpt>
  <wpt lat="46.147566226764155" lon="-123.8460216976478"><name>Exchange 33 — Lewis &amp; Clark School</name></wpt>
  <trk><name>HTC Leg 33</name><trkseg>
    <trkpt lat="46.06980971298048" lon="-123.78770739815963"><ele>16.1</ele></trkpt>
    <trkpt lat="46.06989" lon="-123.78776"><ele>16.7</ele></trkpt>
    <trkpt lat="46.06989169883575" lon="-123.78776054362746"><ele>16.7</ele></trkpt>
    <trkpt lat="46.07002251285073" lon="-123.78780240411226"><ele>17.5</ele></trkpt>
    <trkpt lat="46.070066410171194" lon="-123.7878164512548"><ele>17.8</ele></trkpt>
    <trkpt lat="46.07011030749166" lon="-123.78783049839734"><ele>18.1</ele></trkpt>
    <trkpt lat="46.07014" lon="-123.78784000000002"><ele>18.2</ele></trkpt>
    <trkpt lat="46.07015443626736" lon="-123.78783737522413"><ele>18.3</ele></trkpt>
    <trkpt lat="46.07024276919491" lon="-123.78782131469184"><ele>18.7</ele></trkpt>
    <trkpt lat="46.07025" lon="-123.78782000000001"><ele>18.7</ele></trkpt>
    <trkpt lat="46.07033091023521" lon="-123.78779572692945"><ele>19.0</ele></trkpt>
    <trkpt lat="46.070418955668956" lon="-123.78776931329932"><ele>19.2</ele></trkpt>
    <trkpt lat="46.07050612064836" lon="-123.78774316380552"><ele>19.4</ele></trkpt>
    <trkpt lat="46.07059416608211" lon="-123.78771675017538"><ele>19.5</ele></trkpt>
    <trkpt lat="46.07065" lon="-123.78770000000002"><ele>19.5</ele></trkpt>
    <trkpt lat="46.070809629115054" lon="-123.78762976318939"><ele>19.6</ele></trkpt>
    <trkpt lat="46.0709" lon="-123.78759000000001"><ele>19.7</ele></trkpt>
    <trkpt lat="46.07093682719574" lon="-123.78756601950046"><ele>19.7</ele></trkpt>
    <trkpt lat="46.071017964873" lon="-123.7875131856641"><ele>19.7</ele></trkpt>
    <trkpt lat="46.07109992212277" lon="-123.78745981815263"><ele>19.6</ele></trkpt>
    <trkpt lat="46.071261377904804" lon="-123.78735468415502"><ele>19.5</ele></trkpt>
    <trkpt lat="46.07133" lon="-123.78731"><ele>19.3</ele></trkpt>
    <trkpt lat="46.071342125326225" lon="-123.7873039373369"><ele>19.3</ele></trkpt>
    <trkpt lat="46.07143000000001" lon="-123.78726"><ele>19.1</ele></trkpt>
    <trkpt lat="46.07146918902086" lon="-123.78726"><ele>19.0</ele></trkpt>
    <trkpt lat="46.0716013894086" lon="-123.78726"><ele>18.6</ele></trkpt>
    <trkpt lat="46.071690000000004" lon="-123.78726"><ele>18.3</ele></trkpt>
    <trkpt lat="46.07169041146399" lon="-123.78725986284533"><ele>18.3</ele></trkpt>
    <trkpt lat="46.071810000000006" lon="-123.78722"><ele>17.9</ele></trkpt>
    <trkpt lat="46.07186179841064" lon="-123.78720057559602"><ele>17.7</ele></trkpt>
    <trkpt lat="46.07194796314784" lon="-123.78716826381957"><ele>17.3</ele></trkpt>
    <trkpt lat="46.072050000000004" lon="-123.78713"><ele>16.9</ele></trkpt>
    <trkpt lat="46.07211462150125" lon="-123.78708818608743"><ele>16.6</ele></trkpt>
    <trkpt lat="46.07219502554031" lon="-123.78703615994452"><ele>16.2</ele></trkpt>
    <trkpt lat="46.0723156315989" lon="-123.78695812073013"><ele>15.8</ele></trkpt>
    <trkpt lat="46.072390000000006" lon="-123.78691"><ele>15.6</ele></trkpt>
    <trkpt lat="46.07251" lon="-123.78686"><ele>15.2</ele></trkpt>
    <trkpt lat="46.07256795471481" lon="-123.78686193182384"><ele>15.0</ele></trkpt>
    <trkpt lat="46.07279092705114" lon="-123.78686936423505"><ele>14.2</ele></trkpt>
    <trkpt lat="46.072810000000004" lon="-123.78687000000001"><ele>14.1</ele></trkpt>
    <trkpt lat="46.07296743651474" lon="-123.78691019655696"><ele>13.5</ele></trkpt>
    <trkpt lat="46.073280000000004" lon="-123.78699000000002"><ele>12.1</ele></trkpt>
    <trkpt lat="46.07336455177784" lon="-123.7869924157651"><ele>11.8</ele></trkpt>
    <trkpt lat="46.07358753992576" lon="-123.78699878685502"><ele>10.9</ele></trkpt>
    <trkpt lat="46.07363" lon="-123.787"><ele>10.7</ele></trkpt>
    <trkpt lat="46.073766010862855" lon="-123.78698341330941"><ele>10.1</ele></trkpt>
    <trkpt lat="46.074040000000004" lon="-123.78695"><ele>9.0</ele></trkpt>
    <trkpt lat="46.07457" lon="-123.78674000000001"><ele>6.7</ele></trkpt>
    <trkpt lat="46.07459339653802" lon="-123.7867380502885"><ele>6.6</ele></trkpt>
    <trkpt lat="46.074683178873045" lon="-123.78673056842725"><ele>6.3</ele></trkpt>
    <trkpt lat="46.074690000000004" lon="-123.78673"><ele>6.3</ele></trkpt>
    <trkpt lat="46.074813485415234" lon="-123.78676799551238"><ele>5.9</ele></trkpt>
    <trkpt lat="46.07482" lon="-123.78677"><ele>5.9</ele></trkpt>
    <trkpt lat="46.07489999611029" lon="-123.78680333171263"><ele>5.7</ele></trkpt>
    <trkpt lat="46.074940000000005" lon="-123.78682"><ele>5.7</ele></trkpt>
    <trkpt lat="46.07498533029414" lon="-123.78684399839102"><ele>5.6</ele></trkpt>
    <trkpt lat="46.07523774315835" lon="-123.7869776287309"><ele>5.3</ele></trkpt>
    <trkpt lat="46.07528000000001" lon="-123.787"><ele>5.3</ele></trkpt>
    <trkpt lat="46.07532255542983" lon="-123.78701621159232"><ele>5.3</ele></trkpt>
    <trkpt lat="46.07549" lon="-123.78708"><ele>5.2</ele></trkpt>
    <trkpt lat="46.07558442506166" lon="-123.78710248215755"><ele>5.2</ele></trkpt>
    <trkpt lat="46.075700000000005" lon="-123.78713"><ele>5.2</ele></trkpt>
    <trkpt lat="46.07580463474876" lon="-123.7870992250739"><ele>5.3</ele></trkpt>
    <trkpt lat="46.07587" lon="-123.78708"><ele>5.3</ele></trkpt>
    <trkpt lat="46.07603" lon="-123.787"><ele>5.3</ele></trkpt>
    <trkpt lat="46.07622425772839" lon="-123.78687512003177"><ele>5.3</ele></trkpt>
    <trkpt lat="46.07631000000001" lon="-123.78682"><ele>5.2</ele></trkpt>
    <trkpt lat="46.07661" lon="-123.78674000000001"><ele>5.2</ele></trkpt>
    <trkpt lat="46.0766138735354" lon="-123.7867409114201"><ele>5.2</ele></trkpt>
    <trkpt lat="46.076950000000004" lon="-123.78682"><ele>5.1</ele></trkpt>
    <trkpt lat="46.076967638146066" lon="-123.78682678390234"><ele>5.1</ele></trkpt>
    <trkpt lat="46.07708" lon="-123.78687000000001"><ele>5.1</ele></trkpt>
    <trkpt lat="46.07737" lon="-123.78708"><ele>5.0</ele></trkpt>
    <trkpt lat="46.07742146951125" lon="-123.78709072281484"><ele>5.0</ele></trkpt>
    <trkpt lat="46.07759859455742" lon="-123.78712762386613"><ele>5.1</ele></trkpt>
    <trkpt lat="46.07761000000001" lon="-123.78713"><ele>5.1</ele></trkpt>
    <trkpt lat="46.07782240733836" lon="-123.78713"><ele>5.2</ele></trkpt>
    <trkpt lat="46.077830000000006" lon="-123.78713"><ele>5.2</ele></trkpt>
    <trkpt lat="46.07804295336259" lon="-123.78707504429354"><ele>5.2</ele></trkpt>
    <trkpt lat="46.078131478348546" lon="-123.78705219913587"><ele>5.3</ele></trkpt>
    <trkpt lat="46.078140000000005" lon="-123.78705000000001"><ele>5.3</ele></trkpt>
    <trkpt lat="46.07821670019737" lon="-123.7870153612012"><ele>5.4</ele></trkpt>
    <trkpt lat="46.07825961000698" lon="-123.78699598257751"><ele>5.5</ele></trkpt>
    <trkpt lat="46.078302519816575" lon="-123.78697660395382"><ele>5.6</ele></trkpt>
    <trkpt lat="46.078345429626175" lon="-123.78695722533013"><ele>5.8</ele></trkpt>
    <trkpt lat="46.078388339435776" lon="-123.78693784670644"><ele>5.9</ele></trkpt>
    <trkpt lat="46.07843039104918" lon="-123.78691885565522"><ele>6.2</ele></trkpt>
    <trkpt lat="46.078450000000004" lon="-123.78691"><ele>6.3</ele></trkpt>
    <trkpt lat="46.07847223714346" lon="-123.78689546032928"><ele>6.4</ele></trkpt>
    <trkpt lat="46.07851318806292" lon="-123.78686868472809"><ele>6.7</ele></trkpt>
    <trkpt lat="46.0785541389824" lon="-123.7868419091269"><ele>7.1</ele></trkpt>
    <trkpt lat="46.07871" lon="-123.78674000000001"><ele>8.4</ele></trkpt>
    <trkpt lat="46.07871671664028" lon="-123.78673422056535"><ele>8.5</ele></trkpt>
    <trkpt lat="46.078793939105914" lon="-123.78666777332748"><ele>9.2</ele></trkpt>
    <trkpt lat="46.07887116157155" lon="-123.78660132608962"><ele>9.7</ele></trkpt>
    <trkpt lat="46.07902483427815" lon="-123.78646909608625"><ele>10.7</ele></trkpt>
    <trkpt lat="46.079101284519126" lon="-123.78640331332076"><ele>11.3</ele></trkpt>
    <trkpt lat="46.07914" lon="-123.78637"><ele>11.6</ele></trkpt>
    <trkpt lat="46.0792272567285" lon="-123.78633934223053"><ele>12.2</ele></trkpt>
    <trkpt lat="46.07944481968607" lon="-123.78626290119139"><ele>13.8</ele></trkpt>
    <trkpt lat="46.079510000000006" lon="-123.78624"><ele>14.2</ele></trkpt>
    <trkpt lat="46.07953283267524" lon="-123.78623896215113"><ele>14.4</ele></trkpt>
    <trkpt lat="46.07957777645893" lon="-123.78623691925188"><ele>14.6</ele></trkpt>
    <trkpt lat="46.079621821366956" lon="-123.7862349172106"><ele>14.8</ele></trkpt>
    <trkpt lat="46.07966676515064" lon="-123.78623287431134"><ele>14.9</ele></trkpt>
    <trkpt lat="46.07971170893433" lon="-123.78623083141208"><ele>15.0</ele></trkpt>
    <trkpt lat="46.079730000000005" lon="-123.78623"><ele>15.0</ele></trkpt>
    <trkpt lat="46.079756078591714" lon="-123.78623802418207"><ele>15.1</ele></trkpt>
    <trkpt lat="46.07980005424118" lon="-123.78625155515115"><ele>15.1</ele></trkpt>
    <trkpt lat="46.079843150377656" lon="-123.78626481550083"><ele>15.1</ele></trkpt>
    <trkpt lat="46.079860000000004" lon="-123.78627000000002"><ele>15.1</ele></trkpt>
    <trkpt lat="46.07988507481778" lon="-123.7862837911498"><ele>15.0</ele></trkpt>
    <trkpt lat="46.0799270873072" lon="-123.78630689801898"><ele>14.9</ele></trkpt>
    <trkpt lat="46.079969099796614" lon="-123.78633000488816"><ele>14.8</ele></trkpt>
    <trkpt lat="46.08001111228603" lon="-123.78635311175734"><ele>14.6</ele></trkpt>
    <trkpt lat="46.080053965025236" lon="-123.7863766807639"><ele>14.3</ele></trkpt>
    <trkpt lat="46.08006" lon="-123.78638000000001"><ele>14.3</ele></trkpt>
    <trkpt lat="46.08018827506011" lon="-123.78654628248532"><ele>13.4</ele></trkpt>
    <trkpt lat="46.080287916489084" lon="-123.78667544730067"><ele>12.8</ele></trkpt>
    <trkpt lat="46.080330000000004" lon="-123.78673"><ele>12.5</ele></trkpt>
    <trkpt lat="46.080403980767926" lon="-123.78676699038397"><ele>12.2</ele></trkpt>
    <trkpt lat="46.08041" lon="-123.78677"><ele>12.2</ele></trkpt>
    <trkpt lat="46.080492661940795" lon="-123.78677"><ele>11.9</ele></trkpt>
    <trkpt lat="46.08057" lon="-123.78677"><ele>11.7</ele></trkpt>
    <trkpt lat="46.080581898858625" lon="-123.7867640505707"><ele>11.7</ele></trkpt>
    <trkpt lat="46.080650000000006" lon="-123.78673"><ele>11.5</ele></trkpt>
    <trkpt lat="46.08072000000001" lon="-123.78664"><ele>11.3</ele></trkpt>
    <trkpt lat="46.08090533258452" lon="-123.78625168410863"><ele>10.5</ele></trkpt>
    <trkpt lat="46.08093" lon="-123.78620000000001"><ele>10.4</ele></trkpt>
    <trkpt lat="46.08099050800598" lon="-123.7861012764113"><ele>10.3</ele></trkpt>
    <trkpt lat="46.081019686755425" lon="-123.78605366897801"><ele>10.2</ele></trkpt>
    <trkpt lat="46.081079235223676" lon="-123.78595651095085"><ele>10.2</ele></trkpt>
    <trkpt lat="46.081120000000006" lon="-123.78589000000001"><ele>10.2</ele></trkpt>
    <trkpt lat="46.08118293158173" lon="-123.78583572151078"><ele>10.2</ele></trkpt>
    <trkpt lat="46.08129792298698" lon="-123.78573654142374"><ele>10.3</ele></trkpt>
    <trkpt lat="46.08141368614662" lon="-123.78563669569856"><ele>10.4</ele></trkpt>
    <trkpt lat="46.08152867755186" lon="-123.78553751561154"><ele>10.7</ele></trkpt>
    <trkpt lat="46.08160585299162" lon="-123.78547095179474"><ele>10.9</ele></trkpt>
    <trkpt lat="46.08168225667699" lon="-123.7854050536161"><ele>11.1</ele></trkpt>
    <trkpt lat="46.08175943211675" lon="-123.78533848979932"><ele>11.4</ele></trkpt>
    <trkpt lat="46.081920000000004" lon="-123.7852"><ele>12.0</ele></trkpt>
    <trkpt lat="46.08195287590972" lon="-123.78517609024749"><ele>12.2</ele></trkpt>
    <trkpt lat="46.08207331718291" lon="-123.78508849659426"><ele>12.6</ele></trkpt>
    <trkpt lat="46.08214" lon="-123.78504000000001"><ele>12.8</ele></trkpt>
    <trkpt lat="46.08215355388651" lon="-123.78503322305676"><ele>12.8</ele></trkpt>
    <trkpt lat="46.08228100496465" lon="-123.7849694975177"><ele>13.1</ele></trkpt>
    <trkpt lat="46.082300000000004" lon="-123.78496000000001"><ele>13.1</ele></trkpt>
    <trkpt lat="46.082453271604656" lon="-123.78489978615532"><ele>13.4</ele></trkpt>
    <trkpt lat="46.08254004009129" lon="-123.78486569853558"><ele>13.6</ele></trkpt>
    <trkpt lat="46.08258000000001" lon="-123.78485"><ele>13.7</ele></trkpt>
    <trkpt lat="46.08280451996977" lon="-123.78480603804788"><ele>14.2</ele></trkpt>
    <trkpt lat="46.08298274824684" lon="-123.78477114020343"><ele>14.8</ele></trkpt>
    <trkpt lat="46.08307097124399" lon="-123.78475386577041"><ele>15.2</ele></trkpt>
    <trkpt lat="46.08324830837967" lon="-123.78471914241517"><ele>15.9</ele></trkpt>
    <trkpt lat="46.0834719848674" lon="-123.78467534562037"><ele>16.9</ele></trkpt>
    <trkpt lat="46.08364932200309" lon="-123.78464062226516"><ele>17.6</ele></trkpt>
    <trkpt lat="46.08378299321089" lon="-123.7846144488818"><ele>18.1</ele></trkpt>
    <trkpt lat="46.084010000000006" lon="-123.78457000000002"><ele>19.0</ele></trkpt>
    <trkpt lat="46.08424" lon="-123.78453"><ele>19.8</ele></trkpt>
    <trkpt lat="46.084272969899004" lon="-123.78452999999999"><ele>19.9</ele></trkpt>
    <trkpt lat="46.08442" lon="-123.78453"><ele>20.5</ele></trkpt>
    <trkpt lat="46.08449648832024" lon="-123.78454147324804"><ele>20.9</ele></trkpt>
    <trkpt lat="46.08458593775106" lon="-123.78455489066266"><ele>21.3</ele></trkpt>
    <trkpt lat="46.084675387181875" lon="-123.7845683080773"><ele>21.7</ele></trkpt>
    <trkpt lat="46.08482" lon="-123.78459000000001"><ele>22.4</ele></trkpt>
    <trkpt lat="46.084853290384366" lon="-123.78460289627503"><ele>22.6</ele></trkpt>
    <trkpt lat="46.085156403302705" lon="-123.78472031839655"><ele>24.2</ele></trkpt>
    <trkpt lat="46.085243255141776" lon="-123.7847539637036"><ele>24.6</ele></trkpt>
    <trkpt lat="46.08533010698085" lon="-123.7847876090106"><ele>25.0</ele></trkpt>
    <trkpt lat="46.08541609030152" lon="-123.78482091786455"><ele>25.4</ele></trkpt>
    <trkpt lat="46.085502942140586" lon="-123.78485456317159"><ele>25.7</ele></trkpt>
    <trkpt lat="46.08558979397965" lon="-123.7848882084786"><ele>25.8</ele></trkpt>
    <trkpt lat="46.08563321989919" lon="-123.78490503113213"><ele>25.9</ele></trkpt>
    <trkpt lat="46.08572007173826" lon="-123.78493867643915"><ele>25.9</ele></trkpt>
    <trkpt lat="46.08576349765779" lon="-123.78495549909267"><ele>25.9</ele></trkpt>
    <trkpt lat="46.08580692357732" lon="-123.78497232174618"><ele>25.9</ele></trkpt>
    <trkpt lat="46.085892906897996" lon="-123.78500563060014"><ele>25.8</ele></trkpt>
    <trkpt lat="46.085930000000005" lon="-123.78502000000002"><ele>25.7</ele></trkpt>
    <trkpt lat="46.08602542265807" lon="-123.78499936807394"><ele>25.5</ele></trkpt>
    <trkpt lat="46.086158829277416" lon="-123.7849705233995"><ele>25.2</ele></trkpt>
    <trkpt lat="46.0863" lon="-123.78494"><ele>24.9</ele></trkpt>
    <trkpt lat="46.0863342167959" lon="-123.78492289160206"><ele>24.8</ele></trkpt>
    <trkpt lat="46.086400000000005" lon="-123.78489"><ele>24.6</ele></trkpt>
    <trkpt lat="46.08656205233511" lon="-123.78472058164968"><ele>24.0</ele></trkpt>
    <trkpt lat="46.08662" lon="-123.78466000000002"><ele>23.8</ele></trkpt>
    <trkpt lat="46.0866649803305" lon="-123.78459574238502"><ele>23.6</ele></trkpt>
    <trkpt lat="46.086728225949756" lon="-123.78450539150036"><ele>23.3</ele></trkpt>
    <trkpt lat="46.08679211041366" lon="-123.78441412798051"><ele>22.9</ele></trkpt>
    <trkpt lat="46.086830000000006" lon="-123.78436"><ele>22.6</ele></trkpt>
    <trkpt lat="46.08693" lon="-123.78430000000002"><ele>22.0</ele></trkpt>
    <trkpt lat="46.086947207651754" lon="-123.78429139617414"><ele>21.9</ele></trkpt>
    <trkpt lat="46.08701000000001" lon="-123.78426"><ele>21.5</ele></trkpt>
    <trkpt lat="46.087120000000006" lon="-123.78427"><ele>20.8</ele></trkpt>
    <trkpt lat="46.087202452458484" lon="-123.78432954899779"><ele>20.2</ele></trkpt>
    <trkpt lat="46.08728286111189" lon="-123.78438762191415"><ele>19.7</ele></trkpt>
    <trkpt lat="46.087300000000006" lon="-123.7844"><ele>19.6</ele></trkpt>
    <trkpt lat="46.08736993763412" lon="-123.78441554169648"><ele>19.3</ele></trkpt>
    <trkpt lat="46.087480000000006" lon="-123.78444"><ele>18.8</ele></trkpt>
    <trkpt lat="46.08754715605171" lon="-123.78442880732472"><ele>18.5</ele></trkpt>
    <trkpt lat="46.08763649341698" lon="-123.78441391776384"><ele>18.3</ele></trkpt>
    <trkpt lat="46.087720000000004" lon="-123.7844"><ele>18.1</ele></trkpt>
    <trkpt lat="46.08772551194657" lon="-123.7843970909171"><ele>18.1</ele></trkpt>
    <trkpt lat="46.08780996421424" lon="-123.78435251888695"><ele>17.9</ele></trkpt>
    <trkpt lat="46.08789357195923" lon="-123.7843083925771"><ele>17.8</ele></trkpt>
    <trkpt lat="46.08797802422689" lon="-123.78426382054693"><ele>17.8</ele></trkpt>
    <trkpt lat="46.088080000000005" lon="-123.78421000000002"><ele>17.7</ele></trkpt>
    <trkpt lat="46.08810586686786" lon="-123.78420310216858"><ele>17.7</ele></trkpt>
    <trkpt lat="46.08823" lon="-123.78417"><ele>17.7</ele></trkpt>
    <trkpt lat="46.088440000000006" lon="-123.78417"><ele>17.6</ele></trkpt>
    <trkpt lat="46.08846049471906" lon="-123.78418024735953"><ele>17.6</ele></trkpt>
    <trkpt lat="46.08850297893427" lon="-123.78420148946714"><ele>17.6</ele></trkpt>
    <trkpt lat="46.08858794736472" lon="-123.78424397368235"><ele>17.7</ele></trkpt>
    <trkpt lat="46.088640000000005" lon="-123.78427"><ele>17.7</ele></trkpt>
    <trkpt lat="46.088730000000005" lon="-123.78430000000002"><ele>17.8</ele></trkpt>
    <trkpt lat="46.08888721211552" lon="-123.78422139394225"><ele>17.9</ele></trkpt>
    <trkpt lat="46.088890000000006" lon="-123.78422"><ele>17.9</ele></trkpt>
    <trkpt lat="46.08895927998867" lon="-123.78414416649889"><ele>17.9</ele></trkpt>
    <trkpt lat="46.08910182415569" lon="-123.78398813842418"><ele>18.0</ele></trkpt>
    <trkpt lat="46.08931599855739" lon="-123.78375370428179"><ele>18.1</ele></trkpt>
    <trkpt lat="46.08963000000001" lon="-123.78341"><ele>18.2</ele></trkpt>
    <trkpt lat="46.08966536575125" lon="-123.78335015026713"><ele>18.2</ele></trkpt>
    <trkpt lat="46.089760000000005" lon="-123.78319"><ele>18.2</ele></trkpt>
    <trkpt lat="46.089779852354226" lon="-123.78315029529158"><ele>18.2</ele></trkpt>
    <trkpt lat="46.08988451328675" lon="-123.78294097342652"><ele>18.1</ele></trkpt>
    <trkpt lat="46.089940000000006" lon="-123.78283"><ele>18.0</ele></trkpt>
    <trkpt lat="46.089965447845856" lon="-123.78278546626977"><ele>17.9</ele></trkpt>
    <trkpt lat="46.09006" lon="-123.78262000000001"><ele>17.8</ele></trkpt>
    <trkpt lat="46.090085609394094" lon="-123.78259671873265"><ele>17.8</ele></trkpt>
    <trkpt lat="46.09017" lon="-123.78252"><ele>17.7</ele></trkpt>
    <trkpt lat="46.09020392298564" lon="-123.7825068077278"><ele>17.6</ele></trkpt>
    <trkpt lat="46.090289884348365" lon="-123.78247337830898"><ele>17.5</ele></trkpt>
    <trkpt lat="46.09035" lon="-123.78245000000001"><ele>17.3</ele></trkpt>
    <trkpt lat="46.090377445483135" lon="-123.78244494425311"><ele>17.3</ele></trkpt>
    <trkpt lat="46.090688778627396" lon="-123.78238759341075"><ele>16.5</ele></trkpt>
    <trkpt lat="46.09073" lon="-123.78238"><ele>16.4</ele></trkpt>
    <trkpt lat="46.09077837583708" lon="-123.78238"><ele>16.3</ele></trkpt>
    <trkpt lat="46.09086830807364" lon="-123.78238"><ele>16.2</ele></trkpt>
    <trkpt lat="46.09087" lon="-123.78238"><ele>16.2</ele></trkpt>
    <trkpt lat="46.090954024770895" lon="-123.78241437376991"><ele>16.1</ele></trkpt>
    <trkpt lat="46.091040542404365" lon="-123.78244976734725"><ele>16.0</ele></trkpt>
    <trkpt lat="46.09109" lon="-123.78247"><ele>16.0</ele></trkpt>
    <trkpt lat="46.09112350477664" lon="-123.78249741299906"><ele>16.0</ele></trkpt>
    <trkpt lat="46.091240049272805" lon="-123.78259276758683"><ele>16.1</ele></trkpt>
    <trkpt lat="46.0913573759468" lon="-123.78268876213829"><ele>16.2</ele></trkpt>
    <trkpt lat="46.09142000000001" lon="-123.78274"><ele>16.3</ele></trkpt>
    <trkpt lat="46.091525288854804" lon="-123.78289793328221"><ele>16.5</ele></trkpt>
    <trkpt lat="46.09154" lon="-123.78292"><ele>16.5</ele></trkpt>
    <trkpt lat="46.09158018006976" lon="-123.78300036013952"><ele>16.5</ele></trkpt>
    <trkpt lat="46.09160647733078" lon="-123.78305295466157"><ele>16.5</ele></trkpt>
    <trkpt lat="46.09163" lon="-123.7831"><ele>16.5</ele></trkpt>
    <trkpt lat="46.091656132695526" lon="-123.78316097628957"><ele>16.5</ele></trkpt>
    <trkpt lat="46.09170293715184" lon="-123.78327018668762"><ele>16.4</ele></trkpt>
    <trkpt lat="46.09172657576613" lon="-123.7833253434543"><ele>16.3</ele></trkpt>
    <trkpt lat="46.09177385299472" lon="-123.78343565698768"><ele>16.2</ele></trkpt>
    <trkpt lat="46.091797491609015" lon="-123.78349081375438"><ele>16.1</ele></trkpt>
    <trkpt lat="46.0918447688376" lon="-123.78360112728774"><ele>15.8</ele></trkpt>
    <trkpt lat="46.09189157329391" lon="-123.78371033768579"><ele>15.4</ele></trkpt>
    <trkpt lat="46.091938850522496" lon="-123.78382065121917"><ele>15.0</ele></trkpt>
    <trkpt lat="46.091986127751085" lon="-123.78393096475254"><ele>14.5</ele></trkpt>
    <trkpt lat="46.092032932207395" lon="-123.78404017515058"><ele>13.9</ele></trkpt>
    <trkpt lat="46.09208020943599" lon="-123.78415048868396"><ele>13.3</ele></trkpt>
    <trkpt lat="46.09219792973517" lon="-123.78442516938208"><ele>11.7</ele></trkpt>
    <trkpt lat="46.09224520696377" lon="-123.78453548291544"><ele>11.1</ele></trkpt>
    <trkpt lat="46.092362927262954" lon="-123.78481016361356"><ele>9.8</ele></trkpt>
    <trkpt lat="46.092380000000006" lon="-123.78485"><ele>9.7</ele></trkpt>
    <trkpt lat="46.09247132991069" lon="-123.78498582396975"><ele>9.5</ele></trkpt>
    <trkpt lat="46.0925301764892" lon="-123.78507333939419"><ele>9.2</ele></trkpt>
    <trkpt lat="46.0925890230677" lon="-123.78516085481863"><ele>9.0</ele></trkpt>
    <trkpt lat="46.092647869646214" lon="-123.7852483702431"><ele>8.8</ele></trkpt>
    <trkpt lat="46.09270671622472" lon="-123.78533588566754"><ele>8.7</ele></trkpt>
    <trkpt lat="46.09276869294038" lon="-123.78542805616776"><ele>8.5</ele></trkpt>
    <trkpt lat="46.09277" lon="-123.78543"><ele>8.5</ele></trkpt>
    <trkpt lat="46.092804614472655" lon="-123.78546700167766"><ele>8.4</ele></trkpt>
    <trkpt lat="46.092949105931154" lon="-123.78562145806433"><ele>8.2</ele></trkpt>
    <trkpt lat="46.09305675206773" lon="-123.7857365280724"><ele>8.0</ele></trkpt>
    <trkpt lat="46.09306" lon="-123.78574"><ele>8.0</ele></trkpt>
    <trkpt lat="46.09321877460371" lon="-123.78584584973584"><ele>7.9</ele></trkpt>
    <trkpt lat="46.09339000000001" lon="-123.78596000000002"><ele>7.7</ele></trkpt>
    <trkpt lat="46.09351184236802" lon="-123.78600168291538"><ele>7.7</ele></trkpt>
    <trkpt lat="46.093643097452464" lon="-123.7860465859706"><ele>7.7</ele></trkpt>
    <trkpt lat="46.093770000000006" lon="-123.78609000000002"><ele>7.7</ele></trkpt>
    <trkpt lat="46.09381685468509" lon="-123.78610828475517"><ele>7.7</ele></trkpt>
    <trkpt lat="46.09394706895782" lon="-123.78615910008111"><ele>7.7</ele></trkpt>
    <trkpt lat="46.09398960562024" lon="-123.78617569975425"><ele>7.8</ele></trkpt>
    <trkpt lat="46.094033010377814" lon="-123.78619263819624"><ele>7.9</ele></trkpt>
    <trkpt lat="46.09407641513539" lon="-123.78620957663821"><ele>8.0</ele></trkpt>
    <trkpt lat="46.09411981989297" lon="-123.78622651508019"><ele>8.2</ele></trkpt>
    <trkpt lat="46.09416322465054" lon="-123.78624345352218"><ele>8.3</ele></trkpt>
    <trkpt lat="46.09418" lon="-123.78625000000001"><ele>8.4</ele></trkpt>
    <trkpt lat="46.09420300396893" lon="-123.786271958334"><ele>8.6</ele></trkpt>
    <trkpt lat="46.09427724496395" lon="-123.78634282473834"><ele>9.1</ele></trkpt>
    <trkpt lat="46.094352235868" lon="-123.78641440696492"><ele>9.7</ele></trkpt>
    <trkpt lat="46.0944" lon="-123.78646"><ele>10.1</ele></trkpt>
    <trkpt lat="46.09451849932377" lon="-123.78662897125797"><ele>11.2</ele></trkpt>
    <trkpt lat="46.09461442080007" lon="-123.78676574817788"><ele>12.1</ele></trkpt>
    <trkpt lat="46.094741676625304" lon="-123.7869472055583"><ele>13.1</ele></trkpt>
    <trkpt lat="46.094900906275974" lon="-123.78717425524538"><ele>14.4</ele></trkpt>
    <trkpt lat="46.09494" lon="-123.78723000000001"><ele>14.7</ele></trkpt>
    <trkpt lat="46.0949751510623" lon="-123.7873335003501"><ele>15.1</ele></trkpt>
    <trkpt lat="46.09509342083421" lon="-123.78768173912295"><ele>16.7</ele></trkpt>
    <trkpt lat="46.09512" lon="-123.78776"><ele>17.1</ele></trkpt>
    <trkpt lat="46.09521390314826" lon="-123.78809805133375"><ele>18.7</ele></trkpt>
    <trkpt lat="46.095220000000005" lon="-123.78812"><ele>18.8</ele></trkpt>
    <trkpt lat="46.095242048409496" lon="-123.78822116329061"><ele>19.3</ele></trkpt>
    <trkpt lat="46.095295707830196" lon="-123.78846736533855"><ele>20.3</ele></trkpt>
    <trkpt lat="46.09532267236322" lon="-123.78859108496061"><ele>20.8</ele></trkpt>
    <trkpt lat="46.09536311916274" lon="-123.78877666439372"><ele>21.5</ele></trkpt>
    <trkpt lat="46.09541677858344" lon="-123.78902286644166"><ele>22.4</ele></trkpt>
    <trkpt lat="46.095443743116455" lon="-123.78914658606371"><ele>22.8</ele></trkpt>
    <trkpt lat="46.09547043800414" lon="-123.78926906848956"><ele>23.1</ele></trkpt>
    <trkpt lat="46.09548392027065" lon="-123.78933092830059"><ele>23.3</ele></trkpt>
    <trkpt lat="46.09552436707017" lon="-123.78951650773371"><ele>23.7</ele></trkpt>
    <trkpt lat="46.095551061957856" lon="-123.78963899015956"><ele>23.8</ele></trkpt>
    <trkpt lat="46.095560000000006" lon="-123.78968"><ele>23.9</ele></trkpt>
    <trkpt lat="46.095567000055496" lon="-123.78969938476907"><ele>23.9</ele></trkpt>
    <trkpt lat="46.09560853700714" lon="-123.7898144101736"><ele>24.0</ele></trkpt>
    <trkpt lat="46.095690000000005" lon="-123.79004"><ele>24.1</ele></trkpt>
    <trkpt lat="46.09579094188089" lon="-123.790257614964"><ele>24.2</ele></trkpt>
    <trkpt lat="46.09601544800069" lon="-123.79074161517032"><ele>24.5</ele></trkpt>
    <trkpt lat="46.09606544936368" lon="-123.7908494103165"><ele>24.5</ele></trkpt>
    <trkpt lat="46.09611495071303" lon="-123.79095612751121"><ele>24.5</ele></trkpt>
    <trkpt lat="46.09621495343899" lon="-123.79117171780354"><ele>24.3</ele></trkpt>
    <trkpt lat="46.09626445478834" lon="-123.79127843499825"><ele>24.3</ele></trkpt>
    <trkpt lat="46.09631445615133" lon="-123.79138623014444"><ele>24.2</ele></trkpt>
    <trkpt lat="46.09641395886367" lon="-123.79160074248531"><ele>24.2</ele></trkpt>
    <trkpt lat="46.09646" lon="-123.7917"><ele>24.1</ele></trkpt>
    <trkpt lat="46.096464507129056" lon="-123.79170795375718"><ele>24.1</ele></trkpt>
    <trkpt lat="46.09654929779833" lon="-123.79185758435"><ele>24.0</ele></trkpt>
    <trkpt lat="46.096630000000005" lon="-123.79200000000002"><ele>23.9</ele></trkpt>
    <trkpt lat="46.096740000000004" lon="-123.79214"><ele>23.8</ele></trkpt>
    <trkpt lat="46.096848823316975" lon="-123.79223398377374"><ele>23.7</ele></trkpt>
    <trkpt lat="46.09696" lon="-123.79233"><ele>23.5</ele></trkpt>
    <trkpt lat="46.09711882366858" lon="-123.79245956667702"><ele>23.3</ele></trkpt>
    <trkpt lat="46.09727380914042" lon="-123.7925860021935"><ele>23.2</ele></trkpt>
    <trkpt lat="46.09734" lon="-123.79264"><ele>23.1</ele></trkpt>
    <trkpt lat="46.09739323783947" lon="-123.79266957657748"><ele>23.1</ele></trkpt>
    <trkpt lat="46.097476318913564" lon="-123.79271573272976"><ele>23.0</ele></trkpt>
    <trkpt lat="46.09760052092334" lon="-123.7927847338463"><ele>23.0</ele></trkpt>
    <trkpt lat="46.09776668307156" lon="-123.79287704615088"><ele>23.1</ele></trkpt>
    <trkpt lat="46.09788" lon="-123.79294000000002"><ele>23.2</ele></trkpt>
    <trkpt lat="46.09803" lon="-123.79305000000001"><ele>23.3</ele></trkpt>
    <trkpt lat="46.0981186078989" lon="-123.79314517144698"><ele>23.4</ele></trkpt>
    <trkpt lat="46.098226075268094" lon="-123.79326059936204"><ele>23.5</ele></trkpt>
    <trkpt lat="46.098297479761726" lon="-123.79333729307741"><ele>23.7</ele></trkpt>
    <trkpt lat="46.0983" lon="-123.79334000000001"><ele>23.7</ele></trkpt>
    <trkpt lat="46.09844425960698" lon="-123.79357760405856"><ele>24.2</ele></trkpt>
    <trkpt lat="46.098470000000006" lon="-123.79362"><ele>24.3</ele></trkpt>
    <trkpt lat="46.0984992192038" lon="-123.7936784384076"><ele>24.4</ele></trkpt>
    <trkpt lat="46.09852551863921" lon="-123.7937310372784"><ele>24.5</ele></trkpt>
    <trkpt lat="46.098560000000006" lon="-123.7938"><ele>24.5</ele></trkpt>
    <trkpt lat="46.098572641485205" lon="-123.79383792445562"><ele>24.6</ele></trkpt>
    <trkpt lat="46.09861082542622" lon="-123.79395247627863"><ele>24.6</ele></trkpt>
    <trkpt lat="46.09864939899927" lon="-123.79406819699781"><ele>24.5</ele></trkpt>
    <trkpt lat="46.098710000000004" lon="-123.79425"><ele>24.4</ele></trkpt>
    <trkpt lat="46.09873519163243" lon="-123.79436156294359"><ele>24.4</ele></trkpt>
    <trkpt lat="46.098762481197866" lon="-123.79448241673339"><ele>24.3</ele></trkpt>
    <trkpt lat="46.098780000000005" lon="-123.79456"><ele>24.3</ele></trkpt>
    <trkpt lat="46.098782783968275" lon="-123.79460663146853"><ele>24.3</ele></trkpt>
    <trkpt lat="46.09879412413525" lon="-123.79479657926545"><ele>24.4</ele></trkpt>
    <trkpt lat="46.098805541446225" lon="-123.79498781922425"><ele>24.5</ele></trkpt>
    <trkpt lat="46.098813101557546" lon="-123.79511445108885"><ele>24.7</ele></trkpt>
    <trkpt lat="46.09882" lon="-123.79523"><ele>24.8</ele></trkpt>
    <trkpt lat="46.09882015235332" lon="-123.79524112179237"><ele>24.8</ele></trkpt>
    <trkpt lat="46.09882191087827" lon="-123.79536949411354"><ele>25.2</ele></trkpt>
    <trkpt lat="46.09882366940322" lon="-123.7954978664347"><ele>25.5</ele></trkpt>
    <trkpt lat="46.09882542792816" lon="-123.79562623875587"><ele>26.0</ele></trkpt>
    <trkpt lat="46.09882896274094" lon="-123.79588428008833"><ele>26.9</ele></trkpt>
    <trkpt lat="46.09883070350301" lon="-123.7960113557194"><ele>27.3</ele></trkpt>
    <trkpt lat="46.09883247979083" lon="-123.79614102473067"><ele>27.6</ele></trkpt>
    <trkpt lat="46.09883335017187" lon="-123.7962045625462"><ele>27.8</ele></trkpt>
    <trkpt lat="46.09883512645969" lon="-123.79633423155748"><ele>28.0</ele></trkpt>
    <trkpt lat="46.09883688498464" lon="-123.79646260387865"><ele>28.1</ele></trkpt>
    <trkpt lat="46.09883775536568" lon="-123.79652614169417"><ele>28.1</ele></trkpt>
    <trkpt lat="46.098838643509595" lon="-123.79659097619981"><ele>28.1</ele></trkpt>
    <trkpt lat="46.098839513890624" lon="-123.79665451401536"><ele>28.1</ele></trkpt>
    <trkpt lat="46.098841290178456" lon="-123.79678418302663"><ele>28.0</ele></trkpt>
    <trkpt lat="46.098842160559485" lon="-123.79684772084215"><ele>27.9</ele></trkpt>
    <trkpt lat="46.0988430487034" lon="-123.7969125553478"><ele>27.8</ele></trkpt>
    <trkpt lat="46.098844807228346" lon="-123.79704092766897"><ele>27.5</ele></trkpt>
    <trkpt lat="46.09884656575329" lon="-123.79716929999013"><ele>27.2</ele></trkpt>
    <trkpt lat="46.098850000000006" lon="-123.79742000000002"><ele>26.4</ele></trkpt>
    <trkpt lat="46.09887394253069" lon="-123.79768187142935"><ele>25.6</ele></trkpt>
    <trkpt lat="46.09889134146492" lon="-123.79787217227256"><ele>24.9</ele></trkpt>
    <trkpt lat="46.09893213491209" lon="-123.79831835060088"><ele>23.2</ele></trkpt>
    <trkpt lat="46.098955411864644" lon="-123.79857294226952"><ele>22.2</ele></trkpt>
    <trkpt lat="46.098996205311806" lon="-123.79901912059783"><ele>20.7</ele></trkpt>
    <trkpt lat="46.099007961348455" lon="-123.79914770224865"><ele>20.2</ele></trkpt>
    <trkpt lat="46.09901000000001" lon="-123.79917"><ele>20.1</ele></trkpt>
    <trkpt lat="46.0990451515854" lon="-123.79933169729284"><ele>19.4</ele></trkpt>
    <trkpt lat="46.09906" lon="-123.7994"><ele>19.1</ele></trkpt>
    <trkpt lat="46.099111266213" lon="-123.79956981933056"><ele>18.2</ele></trkpt>
    <trkpt lat="46.09916439615938" lon="-123.79974581227793"><ele>17.4</ele></trkpt>
    <trkpt lat="46.09922" lon="-123.79993"><ele>16.5</ele></trkpt>
    <trkpt lat="46.099243778305556" lon="-123.80004443309548"><ele>15.9</ele></trkpt>
    <trkpt lat="46.09926933564365" lon="-123.80016742778506"><ele>15.4</ele></trkpt>
    <trkpt lat="46.09928198523524" lon="-123.80022830394454"><ele>15.2</ele></trkpt>
    <trkpt lat="46.099307542573314" lon="-123.80035129863408"><ele>14.9</ele></trkpt>
    <trkpt lat="46.099371306841086" lon="-123.8006581641727"><ele>14.1</ele></trkpt>
    <trkpt lat="46.099380000000004" lon="-123.8007"><ele>14.0</ele></trkpt>
    <trkpt lat="46.0994059202246" lon="-123.8007760326588"><ele>13.8</ele></trkpt>
    <trkpt lat="46.099444805040925" lon="-123.80089009478672"><ele>13.5</ele></trkpt>
    <trkpt lat="46.09946464423294" lon="-123.80094828974994"><ele>13.3</ele></trkpt>
    <trkpt lat="46.09953" lon="-123.80114"><ele>12.6</ele></trkpt>
    <trkpt lat="46.09957832166839" lon="-123.80122082897259"><ele>12.2</ele></trkpt>
    <trkpt lat="46.099722782439095" lon="-123.80146247244357"><ele>11.1</ele></trkpt>
    <trkpt lat="46.099809693797084" lon="-123.80160785144238"><ele>10.5</ele></trkpt>
    <trkpt lat="46.099926554339234" lon="-123.80180332725834"><ele>9.8</ele></trkpt>
    <trkpt lat="46.09998527822976" lon="-123.80190155631159"><ele>9.4</ele></trkpt>
    <trkpt lat="46.10004341488138" lon="-123.80199880307431"><ele>9.2</ele></trkpt>
    <trkpt lat="46.100080000000005" lon="-123.80206000000001"><ele>9.0</ele></trkpt>
    <trkpt lat="46.1001567516727" lon="-123.8022001552284"><ele>8.7</ele></trkpt>
    <trkpt lat="46.100267671123184" lon="-123.8024027037902"><ele>8.2</ele></trkpt>
    <trkpt lat="46.10031" lon="-123.80248000000002"><ele>8.0</ele></trkpt>
    <trkpt lat="46.100342224515245" lon="-123.80256257532034"><ele>7.8</ele></trkpt>
    <trkpt lat="46.10040838671827" lon="-123.80273211596557"><ele>7.5</ele></trkpt>
    <trkpt lat="46.10047" lon="-123.80289"><ele>7.2</ele></trkpt>
    <trkpt lat="46.10057587502517" lon="-123.80311289478982"><ele>6.8</ele></trkpt>
    <trkpt lat="46.100626699970505" lon="-123.80321989467473"><ele>6.6</ele></trkpt>
    <trkpt lat="46.100660000000005" lon="-123.80329"><ele>6.5</ele></trkpt>
    <trkpt lat="46.10067954782509" lon="-123.80332302908377"><ele>6.5</ele></trkpt>
    <trkpt lat="46.10105788227272" lon="-123.80396228384012"><ele>6.2</ele></trkpt>
    <trkpt lat="46.1011448758417" lon="-123.8041092729739"><ele>6.0</ele></trkpt>
    <trkpt lat="46.10123186941067" lon="-123.8042562621077"><ele>5.8</ele></trkpt>
    <trkpt lat="46.101240000000004" lon="-123.80427000000002"><ele>5.8</ele></trkpt>
    <trkpt lat="46.1013672898024" lon="-123.80442666437219"><ele>5.4</ele></trkpt>
    <trkpt lat="46.10143569790203" lon="-123.80451085895636"><ele>5.2</ele></trkpt>
    <trkpt lat="46.1015" lon="-123.80459"><ele>5.1</ele></trkpt>
    <trkpt lat="46.10150375994732" lon="-123.80459356205537"><ele>5.1</ele></trkpt>
    <trkpt lat="46.101578925585194" lon="-123.80466477160702"><ele>5.0</ele></trkpt>
    <trkpt lat="46.10165409122307" lon="-123.80473598115869"><ele>5.0</ele></trkpt>
    <trkpt lat="46.101690000000005" lon="-123.80477"><ele>5.0</ele></trkpt>
    <trkpt lat="46.10176870736721" lon="-123.8048359752931"><ele>5.0</ele></trkpt>
    <trkpt lat="46.10192421382382" lon="-123.8049663262935"><ele>5.2</ele></trkpt>
    <trkpt lat="46.102040066134" lon="-123.8050634377888"><ele>5.3</ele></trkpt>
    <trkpt lat="46.10237" lon="-123.80534000000002"><ele>5.5</ele></trkpt>
    <trkpt lat="46.10250268464123" lon="-123.80552954948747"><ele>5.6</ele></trkpt>
    <trkpt lat="46.10251" lon="-123.80554000000001"><ele>5.6</ele></trkpt>
    <trkpt lat="46.10254962915311" lon="-123.80563510996745"><ele>5.7</ele></trkpt>
    <trkpt lat="46.102560000000004" lon="-123.80566"><ele>5.7</ele></trkpt>
    <trkpt lat="46.10261922472556" lon="-123.80586554463574"><ele>5.9</ele></trkpt>
    <trkpt lat="46.102652700307885" lon="-123.80598172459796"><ele>6.0</ele></trkpt>
    <trkpt lat="46.102669265544506" lon="-123.80603921571328"><ele>6.1</ele></trkpt>
    <trkpt lat="46.10268652099931" lon="-123.80609910229172"><ele>6.0</ele></trkpt>
    <trkpt lat="46.102703086235934" lon="-123.80615659340705"><ele>6.0</ele></trkpt>
    <trkpt lat="46.10273" lon="-123.80625"><ele>5.9</ele></trkpt>
    <trkpt lat="46.10273829454081" lon="-123.80627156580613"><ele>5.9</ele></trkpt>
    <trkpt lat="46.10278" lon="-123.80638"><ele>5.6</ele></trkpt>
    <trkpt lat="46.1028108349613" lon="-123.80643139160219"><ele>5.4</ele></trkpt>
    <trkpt lat="46.10284" lon="-123.80648000000001"><ele>5.2</ele></trkpt>
    <trkpt lat="46.10297769144998" lon="-123.80664374118376"><ele>4.5</ele></trkpt>
    <trkpt lat="46.10304638452601" lon="-123.80672543024716"><ele>4.2</ele></trkpt>
    <trkpt lat="46.1031143837326" lon="-123.8068062941685"><ele>4.0</ele></trkpt>
    <trkpt lat="46.10318377067809" lon="-123.80688880837394"><ele>3.9</ele></trkpt>
    <trkpt lat="46.103210000000004" lon="-123.80692"><ele>3.9</ele></trkpt>
    <trkpt lat="46.10325436507145" lon="-123.80696697478153"><ele>3.9</ele></trkpt>
    <trkpt lat="46.10336238075962" lon="-123.80708134433371"><ele>3.9</ele></trkpt>
    <trkpt lat="46.10343414957256" lon="-123.80715733484152"><ele>3.9</ele></trkpt>
    <trkpt lat="46.103505918385494" lon="-123.80723332534936"><ele>4.0</ele></trkpt>
    <trkpt lat="46.10357768719844" lon="-123.80730931585717"><ele>4.2</ele></trkpt>
    <trkpt lat="46.10361320913616" lon="-123.80734692732064"><ele>4.3</ele></trkpt>
    <trkpt lat="46.103649456011375" lon="-123.80738530636498"><ele>4.5</ele></trkpt>
    <trkpt lat="46.103684977949094" lon="-123.80742291782846"><ele>4.7</ele></trkpt>
    <trkpt lat="46.10372" lon="-123.80746"><ele>4.9</ele></trkpt>
    <trkpt lat="46.103721461791395" lon="-123.80746059800556"><ele>5.0</ele></trkpt>
    <trkpt lat="46.10380711573515" lon="-123.80749563825529"><ele>5.5</ele></trkpt>
    <trkpt lat="46.10394" lon="-123.80755"><ele>6.3</ele></trkpt>
    <trkpt lat="46.10416" lon="-123.80759"><ele>7.6</ele></trkpt>
    <trkpt lat="46.10420021163225" lon="-123.80758553204086"><ele>7.9</ele></trkpt>
    <trkpt lat="46.104245044905035" lon="-123.80758055056613"><ele>8.1</ele></trkpt>
    <trkpt lat="46.10425" lon="-123.80758000000002"><ele>8.1</ele></trkpt>
    <trkpt lat="46.1042859604665" lon="-123.80755787048216"><ele>8.3</ele></trkpt>
    <trkpt lat="46.10432731918518" lon="-123.80753241896298"><ele>8.5</ele></trkpt>
    <trkpt lat="46.104368677903864" lon="-123.80750696744377"><ele>8.6</ele></trkpt>
    <trkpt lat="46.104380000000006" lon="-123.8075"><ele>8.7</ele></trkpt>
    <trkpt lat="46.10444737436568" lon="-123.8074470629984"><ele>8.8</ele></trkpt>
    <trkpt lat="46.10452476866991" lon="-123.80738625318793"><ele>9.0</ele></trkpt>
    <trkpt lat="46.10466" lon="-123.80728"><ele>9.2</ele></trkpt>
    <trkpt lat="46.10480348231171" lon="-123.80718434512553"><ele>9.4</ele></trkpt>
    <trkpt lat="46.104870000000005" lon="-123.80714"><ele>9.5</ele></trkpt>
    <trkpt lat="46.10488534845674" lon="-123.80713488384775"><ele>9.5</ele></trkpt>
    <trkpt lat="46.10499" lon="-123.8071"><ele>9.6</ele></trkpt>
    <trkpt lat="46.10510562186152" lon="-123.8071"><ele>9.7</ele></trkpt>
    <trkpt lat="46.10511" lon="-123.8071"><ele>9.7</ele></trkpt>
    <trkpt lat="46.10519148412102" lon="-123.80713310292415"><ele>9.7</ele></trkpt>
    <trkpt lat="46.10536288068296" lon="-123.80720273277745"><ele>9.7</ele></trkpt>
    <trkpt lat="46.105430000000005" lon="-123.80723"><ele>9.7</ele></trkpt>
    <trkpt lat="46.10553194691079" lon="-123.80728286136114"><ele>9.8</ele></trkpt>
    <trkpt lat="46.10561573005076" lon="-123.80732630447076"><ele>9.7</ele></trkpt>
    <trkpt lat="46.105700000000006" lon="-123.80737"><ele>9.7</ele></trkpt>
    <trkpt lat="46.105781582113764" lon="-123.80741953199765"><ele>9.6</ele></trkpt>
    <trkpt lat="46.1058636410184" lon="-123.80746935347545"><ele>9.5</ele></trkpt>
    <trkpt lat="46.10594569992304" lon="-123.80751917495328"><ele>9.3</ele></trkpt>
    <trkpt lat="46.10598" lon="-123.80754"><ele>9.2</ele></trkpt>
    <trkpt lat="46.1060225838412" lon="-123.8075825838412"><ele>9.1</ele></trkpt>
    <trkpt lat="46.10605879794788" lon="-123.8076187979479"><ele>9.0</ele></trkpt>
    <trkpt lat="46.106132704288065" lon="-123.80769270428807"><ele>8.6</ele></trkpt>
    <trkpt lat="46.10614" lon="-123.80770000000001"><ele>8.6</ele></trkpt>
    <trkpt lat="46.10618916553733" lon="-123.80779130742647"><ele>8.2</ele></trkpt>
    <trkpt lat="46.10627080614363" lon="-123.80794292569531"><ele>7.6</ele></trkpt>
    <trkpt lat="46.106280000000005" lon="-123.80796000000001"><ele>7.5</ele></trkpt>
    <trkpt lat="46.106304220915945" lon="-123.80806092048311"><ele>7.1</ele></trkpt>
    <trkpt lat="46.10634" lon="-123.80821000000002"><ele>6.5</ele></trkpt>
    <trkpt lat="46.10637946129222" lon="-123.80843159033326"><ele>5.6</ele></trkpt>
    <trkpt lat="46.10641302106812" lon="-123.80862004138254"><ele>4.9</ele></trkpt>
    <trkpt lat="46.10643517052022" lon="-123.80874441907508"><ele>4.5</ele></trkpt>
    <trkpt lat="46.10644635711219" lon="-123.80880723609151"><ele>4.4</ele></trkpt>
    <trkpt lat="46.10646850656428" lon="-123.80893161378405"><ele>4.1</ele></trkpt>
    <trkpt lat="46.10647" lon="-123.80894"><ele>4.1</ele></trkpt>
    <trkpt lat="46.10648973964937" lon="-123.80898845186664"><ele>4.0</ele></trkpt>
    <trkpt lat="46.10653530156901" lon="-123.80910028566939"><ele>3.8</ele></trkpt>
    <trkpt lat="46.10660318882927" lon="-123.80926691803549"><ele>3.5</ele></trkpt>
    <trkpt lat="46.106648295129716" lon="-123.80937763350022"><ele>3.4</ele></trkpt>
    <trkpt lat="46.10669" lon="-123.80948000000001"><ele>3.3</ele></trkpt>
    <trkpt lat="46.10670637822661" lon="-123.80955206419708"><ele>3.3</ele></trkpt>
    <trkpt lat="46.10674" lon="-123.8097"><ele>3.2</ele></trkpt>
    <trkpt lat="46.10675162700574" lon="-123.80980106551142"><ele>3.1</ele></trkpt>
    <trkpt lat="46.106766201240234" lon="-123.80992774924206"><ele>3.1</ele></trkpt>
    <trkpt lat="46.106780922689225" lon="-123.81005571260633"><ele>3.1</ele></trkpt>
    <trkpt lat="46.10679549692372" lon="-123.81018239633696"><ele>3.1</ele></trkpt>
    <trkpt lat="46.1068395140562" lon="-123.81056500679617"><ele>3.3</ele></trkpt>
    <trkpt lat="46.106861449015184" lon="-123.81075567220893"><ele>3.3</ele></trkpt>
    <trkpt lat="46.10687" lon="-123.81083000000001"><ele>3.3</ele></trkpt>
    <trkpt lat="46.10688911035926" lon="-123.81094466215558"><ele>3.3</ele></trkpt>
    <trkpt lat="46.106941450353084" lon="-123.81125870211851"><ele>3.3</ele></trkpt>
    <trkpt lat="46.10701460022396" lon="-123.81169760134381"><ele>3.4</ele></trkpt>
    <trkpt lat="46.10703" lon="-123.81179000000002"><ele>3.5</ele></trkpt>
    <trkpt lat="46.10705566644048" lon="-123.81188239918573"><ele>3.5</ele></trkpt>
    <trkpt lat="46.10708" lon="-123.81197000000002"><ele>3.6</ele></trkpt>
    <trkpt lat="46.10718000000001" lon="-123.81218000000001"><ele>3.8</ele></trkpt>
    <trkpt lat="46.10729085706777" lon="-123.81234628560165"><ele>4.0</ele></trkpt>
    <trkpt lat="46.107353190933445" lon="-123.81243978640016"><ele>4.1</ele></trkpt>
    <trkpt lat="46.10736000000001" lon="-123.81245000000001"><ele>4.1</ele></trkpt>
    <trkpt lat="46.10742858502901" lon="-123.81250715419085"><ele>4.2</ele></trkpt>
    <trkpt lat="46.10754000000001" lon="-123.8126"><ele>4.3</ele></trkpt>
    <trkpt lat="46.107712170706776" lon="-123.81269838326101"><ele>4.3</ele></trkpt>
    <trkpt lat="46.10779494444011" lon="-123.81274568253721"><ele>4.3</ele></trkpt>
    <trkpt lat="46.107960000000006" lon="-123.81284000000001"><ele>4.3</ele></trkpt>
    <trkpt lat="46.10811824093832" lon="-123.81296492705657"><ele>4.3</ele></trkpt>
    <trkpt lat="46.10815" lon="-123.81299000000001"><ele>4.3</ele></trkpt>
    <trkpt lat="46.10819256274943" lon="-123.81303729194381"><ele>4.3</ele></trkpt>
    <trkpt lat="46.10833" lon="-123.81319"><ele>4.4</ele></trkpt>
    <trkpt lat="46.10843095482086" lon="-123.8133288128787"><ele>4.5</ele></trkpt>
    <trkpt lat="46.10849" lon="-123.81341"><ele>4.5</ele></trkpt>
    <trkpt lat="46.10854995972317" lon="-123.81352069487353"><ele>4.6</ele></trkpt>
    <trkpt lat="46.108632458523665" lon="-123.81367300035139"><ele>4.6</ele></trkpt>
    <trkpt lat="46.10877032564664" lon="-123.81392752427072"><ele>4.6</ele></trkpt>
    <trkpt lat="46.10885282444713" lon="-123.81407982974855"><ele>4.6</ele></trkpt>
    <trkpt lat="46.108990691570106" lon="-123.8143343536679"><ele>4.3</ele></trkpt>
    <trkpt lat="46.109140000000004" lon="-123.81461000000002"><ele>4.1</ele></trkpt>
    <trkpt lat="46.10919196354224" lon="-123.81468052195018"><ele>4.0</ele></trkpt>
    <trkpt lat="46.109280000000005" lon="-123.8148"><ele>3.9</ele></trkpt>
    <trkpt lat="46.10939339444993" lon="-123.81493520107492"><ele>3.7</ele></trkpt>
    <trkpt lat="46.109462711033906" lon="-123.8150178477712"><ele>3.6</ele></trkpt>
    <trkpt lat="46.10953133445204" lon="-123.81509966800051"><ele>3.5</ele></trkpt>
    <trkpt lat="46.10954" lon="-123.81511"><ele>3.5</ele></trkpt>
    <trkpt lat="46.10960721527954" lon="-123.81516901829424"><ele>3.5</ele></trkpt>
    <trkpt lat="46.10979772564852" lon="-123.8153362956914"><ele>3.5</ele></trkpt>
    <trkpt lat="46.109950000000005" lon="-123.81547"><ele>3.4</ele></trkpt>
    <trkpt lat="46.11007457441402" lon="-123.8155472361367"><ele>3.4</ele></trkpt>
    <trkpt lat="46.11027947963781" lon="-123.81567427737544"><ele>3.4</ele></trkpt>
    <trkpt lat="46.11045000000001" lon="-123.81578"><ele>3.5</ele></trkpt>
    <trkpt lat="46.110523105508484" lon="-123.81583194338761"><ele>3.5</ele></trkpt>
    <trkpt lat="46.11072318119945" lon="-123.8159741024312"><ele>3.6</ele></trkpt>
    <trkpt lat="46.11083000000001" lon="-123.81605"><ele>3.7</ele></trkpt>
    <trkpt lat="46.11084134840066" lon="-123.81605951262996"><ele>3.7</ele></trkpt>
    <trkpt lat="46.11126589879958" lon="-123.81641538575849"><ele>3.6</ele></trkpt>
    <trkpt lat="46.11141985663656" lon="-123.81654443865123"><ele>3.7</ele></trkpt>
    <trkpt lat="46.11151" lon="-123.81662000000001"><ele>3.7</ele></trkpt>
    <trkpt lat="46.11153467095384" lon="-123.81664154804831"><ele>3.8</ele></trkpt>
    <trkpt lat="46.111649295595804" lon="-123.81674166324191"><ele>3.9</ele></trkpt>
    <trkpt lat="46.11172545559282" lon="-123.81680818273298"><ele>4.0</ele></trkpt>
    <trkpt lat="46.11180161558984" lon="-123.81687470222406"><ele>4.2</ele></trkpt>
    <trkpt lat="46.112029326287974" lon="-123.81707358878317"><ele>4.8</ele></trkpt>
    <trkpt lat="46.11214318163705" lon="-123.81717303206275"><ele>5.0</ele></trkpt>
    <trkpt lat="46.11222011092697" lon="-123.81724022346788"><ele>5.2</ele></trkpt>
    <trkpt lat="46.11233396627604" lon="-123.81733966674744"><ele>5.3</ele></trkpt>
    <trkpt lat="46.11241089556595" lon="-123.81740685815254"><ele>5.3</ele></trkpt>
    <trkpt lat="46.112487055562966" lon="-123.81747337764361"><ele>5.3</ele></trkpt>
    <trkpt lat="46.11256321555997" lon="-123.81753989713467"><ele>5.2</ele></trkpt>
    <trkpt lat="46.11279246484392" lon="-123.81774012752192"><ele>4.9</ele></trkpt>
    <trkpt lat="46.112868624840935" lon="-123.81780664701297"><ele>4.8</ele></trkpt>
    <trkpt lat="46.11294478483795" lon="-123.81787316650403"><ele>4.7</ele></trkpt>
    <trkpt lat="46.113287120178065" lon="-123.8181721682568"><ele>4.6</ele></trkpt>
    <trkpt lat="46.11336328017508" lon="-123.81823868774785"><ele>4.6</ele></trkpt>
    <trkpt lat="46.11355406481407" lon="-123.81840532243254"><ele>4.7</ele></trkpt>
    <trkpt lat="46.11370638480809" lon="-123.81853836141467"><ele>4.7</ele></trkpt>
    <trkpt lat="46.113819470864264" lon="-123.81863713278018"><ele>4.7</ele></trkpt>
    <trkpt lat="46.11388" lon="-123.81869"><ele>4.7</ele></trkpt>
    <trkpt lat="46.113938584183266" lon="-123.81872766126068"><ele>4.7</ele></trkpt>
    <trkpt lat="46.114160000000005" lon="-123.81887"><ele>4.5</ele></trkpt>
    <trkpt lat="46.11418435285065" lon="-123.8188758782743"><ele>4.5</ele></trkpt>
    <trkpt lat="46.114447789073765" lon="-123.81893946632816"><ele>4.3</ele></trkpt>
    <trkpt lat="46.114740000000005" lon="-123.81901"><ele>4.0</ele></trkpt>
    <trkpt lat="46.11475445560595" lon="-123.81901516271643"><ele>4.0</ele></trkpt>
    <trkpt lat="46.11488000000001" lon="-123.81906000000001"><ele>4.0</ele></trkpt>
    <trkpt lat="46.11492486527266" lon="-123.81908744085281"><ele>3.9</ele></trkpt>
    <trkpt lat="46.115170775305664" lon="-123.81923784629161"><ele>3.8</ele></trkpt>
    <trkpt lat="46.11549865534967" lon="-123.81943838687666"><ele>3.7</ele></trkpt>
    <trkpt lat="46.115826535393666" lon="-123.81963892746171"><ele>3.6</ele></trkpt>
    <trkpt lat="46.11599047541567" lon="-123.81973919775425"><ele>3.5</ele></trkpt>
    <trkpt lat="46.116236385448666" lon="-123.81988960319302"><ele>3.5</ele></trkpt>
    <trkpt lat="46.11639866951084" lon="-123.8199888606543"><ele>3.6</ele></trkpt>
    <trkpt lat="46.11680603562613" lon="-123.82023801713876"><ele>3.8</ele></trkpt>
    <trkpt lat="46.11705028969931" lon="-123.82038740974633"><ele>3.9</ele></trkpt>
    <trkpt lat="46.11721257376149" lon="-123.8204866672076"><ele>4.0</ele></trkpt>
    <trkpt lat="46.117294543772495" lon="-123.82053680235387"><ele>4.0</ele></trkpt>
    <trkpt lat="46.11749739885022" lon="-123.82066087418048"><ele>3.9</ele></trkpt>
    <trkpt lat="46.117782223938946" lon="-123.82083508115335"><ele>3.9</ele></trkpt>
    <trkpt lat="46.11810844802313" lon="-123.82103460890718"><ele>3.9</ele></trkpt>
    <trkpt lat="46.11843467210732" lon="-123.82123413666099"><ele>3.8</ele></trkpt>
    <trkpt lat="46.118639183144865" lon="-123.82135922131884"><ele>3.8</ele></trkpt>
    <trkpt lat="46.11888343721805" lon="-123.82150861392638"><ele>3.9</ele></trkpt>
    <trkpt lat="46.11896457924914" lon="-123.82155824265703"><ele>3.9</ele></trkpt>
    <trkpt lat="46.11908712027569" lon="-123.82163319216862"><ele>4.0</ele></trkpt>
    <trkpt lat="46.11918000000001" lon="-123.82169"><ele>4.2</ele></trkpt>
    <trkpt lat="46.119254185962156" lon="-123.82172514071891"><ele>4.4</ele></trkpt>
    <trkpt lat="46.11937" lon="-123.82178"><ele>4.6</ele></trkpt>
    <trkpt lat="46.11951575130737" lon="-123.82179457513074"><ele>4.9</ele></trkpt>
    <trkpt lat="46.1196045711034" lon="-123.82180345711035"><ele>5.0</ele></trkpt>
    <trkpt lat="46.11969339089944" lon="-123.82181233908994"><ele>5.0</ele></trkpt>
    <trkpt lat="46.11978221069547" lon="-123.82182122106956"><ele>5.0</ele></trkpt>
    <trkpt lat="46.119870000000006" lon="-123.82183"><ele>4.9</ele></trkpt>
    <trkpt lat="46.11987192795388" lon="-123.82182981342382"><ele>4.8</ele></trkpt>
    <trkpt lat="46.119959863931506" lon="-123.8218213034905"><ele>4.7</ele></trkpt>
    <trkpt lat="46.12013842780445" lon="-123.8218040231157"><ele>4.3</ele></trkpt>
    <trkpt lat="46.12022815839387" lon="-123.82179533951029"><ele>4.1</ele></trkpt>
    <trkpt lat="46.120493760938544" lon="-123.8217696360382"><ele>3.8</ele></trkpt>
    <trkpt lat="46.12074410928303" lon="-123.82174540877907"><ele>3.6</ele></trkpt>
    <trkpt lat="46.1208" lon="-123.82174"><ele>3.6</ele></trkpt>
    <trkpt lat="46.120910358320195" lon="-123.82174"><ele>3.6</ele></trkpt>
    <trkpt lat="46.12106000000001" lon="-123.82174"><ele>3.6</ele></trkpt>
    <trkpt lat="46.12118" lon="-123.82175000000001"><ele>3.6</ele></trkpt>
    <trkpt lat="46.121330219839365" lon="-123.82181299541651"><ele>3.6</ele></trkpt>
    <trkpt lat="46.12149" lon="-123.82188000000001"><ele>3.6</ele></trkpt>
    <trkpt lat="46.121529848305194" lon="-123.82191271129531"><ele>3.6</ele></trkpt>
    <trkpt lat="46.121801863925995" lon="-123.82213600770045"><ele>3.7</ele></trkpt>
    <trkpt lat="46.12195663143439" lon="-123.82226305565509"><ele>3.7</ele></trkpt>
    <trkpt lat="46.12211139894277" lon="-123.82239010360973"><ele>3.7</ele></trkpt>
    <trkpt lat="46.12234355020535" lon="-123.8225806755417"><ele>3.6</ele></trkpt>
    <trkpt lat="46.12246001666368" lon="-123.82267628233586"><ele>3.5</ele></trkpt>
    <trkpt lat="46.122692949580355" lon="-123.82286749592417"><ele>3.6</ele></trkpt>
    <trkpt lat="46.123000921288956" lon="-123.82312030852079"><ele>3.8</ele></trkpt>
    <trkpt lat="46.123115042785045" lon="-123.82321399034593"><ele>4.0</ele></trkpt>
    <trkpt lat="46.12319086323107" lon="-123.82327623101058"><ele>4.1</ele></trkpt>
    <trkpt lat="46.12326746533118" lon="-123.82333911333157"><ele>4.2</ele></trkpt>
    <trkpt lat="46.12345662561922" lon="-123.82349439416502"><ele>4.7</ele></trkpt>
    <trkpt lat="46.12350000000001" lon="-123.82353"><ele>4.8</ele></trkpt>
    <trkpt lat="46.12353333481848" lon="-123.82355424350435"><ele>4.8</ele></trkpt>
    <trkpt lat="46.12361123211626" lon="-123.82361089608456"><ele>4.9</ele></trkpt>
    <trkpt lat="46.12372847959537" lon="-123.82369616697846"><ele>5.0</ele></trkpt>
    <trkpt lat="46.123845727074496" lon="-123.82378143787236"><ele>5.0</ele></trkpt>
    <trkpt lat="46.123923624372274" lon="-123.82383809045257"><ele>4.9</ele></trkpt>
    <trkpt lat="46.123940000000005" lon="-123.82385000000001"><ele>4.8</ele></trkpt>
    <trkpt lat="46.124151790521275" lon="-123.82402296225905"><ele>4.5</ele></trkpt>
    <trkpt lat="46.124305188986824" lon="-123.82414823767257"><ele>4.3</ele></trkpt>
    <trkpt lat="46.124420237835984" lon="-123.82424219423274"><ele>4.1</ele></trkpt>
    <trkpt lat="46.124496154423525" lon="-123.82430419277921"><ele>4.1</ele></trkpt>
    <trkpt lat="46.124611203272686" lon="-123.82439814933936"><ele>4.0</ele></trkpt>
    <trkpt lat="46.124802951354624" lon="-123.82455474360629"><ele>4.0</ele></trkpt>
    <trkpt lat="46.12491017375146" lon="-123.82464230856371"><ele>4.0</ele></trkpt>
    <trkpt lat="46.12498217711284" lon="-123.82470111130883"><ele>4.0</ele></trkpt>
    <trkpt lat="46.12505496311945" lon="-123.82476055321422"><ele>4.0</ele></trkpt>
    <trkpt lat="46.12514" lon="-123.82483"><ele>4.1</ele></trkpt>
    <trkpt lat="46.12524332114745" lon="-123.82488068584594"><ele>4.3</ele></trkpt>
    <trkpt lat="46.12548257948592" lon="-123.82499805786102"><ele>4.6</ele></trkpt>
    <trkpt lat="46.12556261608313" lon="-123.8250373210974"><ele>4.7</ele></trkpt>
    <trkpt lat="46.12567000000001" lon="-123.82509000000002"><ele>4.8</ele></trkpt>
    <trkpt lat="46.125724433922585" lon="-123.82509850530042"><ele>4.8</ele></trkpt>
    <trkpt lat="46.12599" lon="-123.82514"><ele>5.4</ele></trkpt>
    <trkpt lat="46.12639545019678" lon="-123.82515448036418"><ele>6.2</ele></trkpt>
    <trkpt lat="46.12653030724539" lon="-123.82515929668735"><ele>6.4</ele></trkpt>
    <trkpt lat="46.12662021194447" lon="-123.82516250756946"><ele>6.5</ele></trkpt>
    <trkpt lat="46.126665164294" lon="-123.82516411301052"><ele>6.5</ele></trkpt>
    <trkpt lat="46.12675506899308" lon="-123.82516732389263"><ele>6.5</ele></trkpt>
    <trkpt lat="46.126830000000005" lon="-123.82517000000001"><ele>6.4</ele></trkpt>
    <trkpt lat="46.12684406838568" lon="-123.82517078704257"><ele>6.4</ele></trkpt>
    <trkpt lat="46.12688900074333" lon="-123.82517330074089"><ele>6.3</ele></trkpt>
    <trkpt lat="46.12697886545865" lon="-123.82517832813755"><ele>6.1</ele></trkpt>
    <trkpt lat="46.12706873017396" lon="-123.82518335553421"><ele>5.8</ele></trkpt>
    <trkpt lat="46.12724756095743" lon="-123.82519336005356"><ele>5.1</ele></trkpt>
    <trkpt lat="46.12742189850513" lon="-123.82520311320309"><ele>4.5</ele></trkpt>
    <trkpt lat="46.127508168631834" lon="-123.82520793950388"><ele>4.3</ele></trkpt>
    <trkpt lat="46.12768340482669" lon="-123.82521774292738"><ele>3.9</ele></trkpt>
    <trkpt lat="46.12777057360054" lon="-123.82522261950214"><ele>3.7</ele></trkpt>
    <trkpt lat="46.12781370866389" lon="-123.82522503265254"><ele>3.7</ele></trkpt>
    <trkpt lat="46.127900877437746" lon="-123.82522990922729"><ele>3.6</ele></trkpt>
    <trkpt lat="46.1280320799221" lon="-123.82523724922642"><ele>3.5</ele></trkpt>
    <trkpt lat="46.128260000000004" lon="-123.82525000000001"><ele>3.5</ele></trkpt>
    <trkpt lat="46.12855417315229" lon="-123.82526721495212"><ele>3.6</ele></trkpt>
    <trkpt lat="46.12881296526417" lon="-123.82528235941307"><ele>3.6</ele></trkpt>
    <trkpt lat="46.129330549487925" lon="-123.82531264833494"><ele>3.7</ele></trkpt>
    <trkpt lat="46.12963696653706" lon="-123.82533057979737"><ele>3.7</ele></trkpt>
    <trkpt lat="46.13012669466545" lon="-123.82535923858629"><ele>3.8</ele></trkpt>
    <trkpt lat="46.13021655303763" lon="-123.82536449707965"><ele>3.9</ele></trkpt>
    <trkpt lat="46.130483432403" lon="-123.825380114805"><ele>4.1</ele></trkpt>
    <trkpt lat="46.13079524095447" lon="-123.82539836177702"><ele>4.2</ele></trkpt>
    <trkpt lat="46.130884200742926" lon="-123.82540356768547"><ele>4.2</ele></trkpt>
    <trkpt lat="46.131284969082856" lon="-123.82542702056597"><ele>4.6</ele></trkpt>
    <trkpt lat="46.13141706088996" lon="-123.82543475055124"><ele>4.8</ele></trkpt>
    <trkpt lat="46.131550949864504" lon="-123.82544258570637"><ele>5.0</ele></trkpt>
    <trkpt lat="46.13164080823669" lon="-123.82544784419974"><ele>5.2</ele></trkpt>
    <trkpt lat="46.131729768025146" lon="-123.8254530501082"><ele>5.3</ele></trkpt>
    <trkpt lat="46.13177379862752" lon="-123.82545562676995"><ele>5.3</ele></trkpt>
    <trkpt lat="46.131861859832256" lon="-123.82546078009347"><ele>5.2</ele></trkpt>
    <trkpt lat="46.131951718204434" lon="-123.82546603858685"><ele>5.1</ele></trkpt>
    <trkpt lat="46.13204157657661" lon="-123.82547129708021"><ele>5.0</ele></trkpt>
    <trkpt lat="46.13226262817218" lon="-123.82548423297393"><ele>4.4</ele></trkpt>
    <trkpt lat="46.13235248654436" lon="-123.82548949146732"><ele>4.2</ele></trkpt>
    <trkpt lat="46.13239651714673" lon="-123.82549206812908"><ele>4.1</ele></trkpt>
    <trkpt lat="46.13248547693518" lon="-123.82549727403753"><ele>4.0</ele></trkpt>
    <trkpt lat="46.132575335307365" lon="-123.8255025325309"><ele>3.9</ele></trkpt>
    <trkpt lat="46.13261936590973" lon="-123.82550510919266"><ele>3.9</ele></trkpt>
    <trkpt lat="46.132753254884285" lon="-123.82551294434779"><ele>3.9</ele></trkpt>
    <trkpt lat="46.13293027587748" lon="-123.82552330357976"><ele>4.1</ele></trkpt>
    <trkpt lat="46.13306506343575" lon="-123.82553119131983"><ele>4.2</ele></trkpt>
    <trkpt lat="46.13333194280113" lon="-123.82554680904516"><ele>4.7</ele></trkpt>
    <trkpt lat="46.133420902589585" lon="-123.82555201495362"><ele>4.8</ele></trkpt>
    <trkpt lat="46.13346493319196" lon="-123.82555459161537"><ele>4.8</ele></trkpt>
    <trkpt lat="46.13355389298041" lon="-123.82555979752381"><ele>4.8</ele></trkpt>
    <trkpt lat="46.13364285276887" lon="-123.82556500343227"><ele>4.8</ele></trkpt>
    <trkpt lat="46.13390973213425" lon="-123.8255806211576"><ele>4.8</ele></trkpt>
    <trkpt lat="46.13407" lon="-123.82559"><ele>4.6</ele></trkpt>
    <trkpt lat="46.13412802574985" lon="-123.82559515784443"><ele>4.5</ele></trkpt>
    <trkpt lat="46.13434704529392" lon="-123.82561462624835"><ele>4.2</ele></trkpt>
    <trkpt lat="46.134434114538905" lon="-123.82562236573679"><ele>4.1</ele></trkpt>
    <trkpt lat="46.13452" lon="-123.82563"><ele>4.0</ele></trkpt>
    <trkpt lat="46.13452117899122" lon="-123.8256301861565"><ele>4.0</ele></trkpt>
    <trkpt lat="46.13460878971512" lon="-123.82564401942871"><ele>4.0</ele></trkpt>
    <trkpt lat="46.134826028550876" lon="-123.82567832029751"><ele>3.9</ele></trkpt>
    <trkpt lat="46.1349" lon="-123.82569000000001"><ele>3.9</ele></trkpt>
    <trkpt lat="46.13521071630325" lon="-123.82579730923877"><ele>4.0</ele></trkpt>
    <trkpt lat="46.13542237550421" lon="-123.82587040803497"><ele>4.1</ele></trkpt>
    <trkpt lat="46.13559117809011" lon="-123.82592870583525"><ele>4.2</ele></trkpt>
    <trkpt lat="46.135676016695456" lon="-123.82595800576595"><ele>4.3</ele></trkpt>
    <trkpt lat="46.13584481928136" lon="-123.82601630356625"><ele>4.3</ele></trkpt>
    <trkpt lat="46.136212161696264" lon="-123.82614316924563"><ele>4.5</ele></trkpt>
    <trkpt lat="46.136374841908584" lon="-123.82619935261792"><ele>4.5</ele></trkpt>
    <trkpt lat="46.136460555138726" lon="-123.82622895460977"><ele>4.4</ele></trkpt>
    <trkpt lat="46.13667483821409" lon="-123.8263029595894"><ele>4.4</ele></trkpt>
    <trkpt lat="46.13684000000001" lon="-123.82636000000001"><ele>4.3</ele></trkpt>
    <trkpt lat="46.13693184974115" lon="-123.82639253011666"><ele>4.3</ele></trkpt>
    <trkpt lat="46.13710303733328" lon="-123.82645315905555"><ele>4.2</ele></trkpt>
    <trkpt lat="46.13731702182344" lon="-123.82652894522914"><ele>4.0</ele></trkpt>
    <trkpt lat="46.13740261561951" lon="-123.82655925969858"><ele>3.9</ele></trkpt>
    <trkpt lat="46.13753100631361" lon="-123.82660473140274"><ele>3.9</ele></trkpt>
    <trkpt lat="46.1380052658163" lon="-123.82677269830992"><ele>3.9</ele></trkpt>
    <trkpt lat="46.138135403322565" lon="-123.82681878867675"><ele>3.9</ele></trkpt>
    <trkpt lat="46.138352008030964" lon="-123.82689550284431"><ele>4.1</ele></trkpt>
    <trkpt lat="46.13865507994153" lon="-123.82700284081263"><ele>4.2</ele></trkpt>
    <trkpt lat="46.13895815185208" lon="-123.82711017878096"><ele>4.4</ele></trkpt>
    <trkpt lat="46.13917475656049" lon="-123.82718689294852"><ele>4.5</ele></trkpt>
    <trkpt lat="46.139261223762645" lon="-123.82721751674927"><ele>4.6</ele></trkpt>
    <trkpt lat="46.13934681755871" lon="-123.82724783121871"><ele>4.7</ele></trkpt>
    <trkpt lat="46.13952149877517" lon="-123.82730969748287"><ele>4.9</ele></trkpt>
    <trkpt lat="46.13960709257123" lon="-123.82734001195232"><ele>5.1</ele></trkpt>
    <trkpt lat="46.13969443317946" lon="-123.8273709450844"><ele>5.3</ele></trkpt>
    <trkpt lat="46.139720000000004" lon="-123.82738"><ele>5.3</ele></trkpt>
    <trkpt lat="46.13987123870336" lon="-123.82739779278863"><ele>5.6</ele></trkpt>
    <trkpt lat="46.14004244138447" lon="-123.82741793428053"><ele>5.9</ele></trkpt>
    <trkpt lat="46.140060000000005" lon="-123.82742"><ele>6.0</ele></trkpt>
    <trkpt lat="46.140170000000005" lon="-123.82742"><ele>6.1</ele></trkpt>
    <trkpt lat="46.140213429265415" lon="-123.82740850401798"><ele>6.1</ele></trkpt>
    <trkpt lat="46.140381496961375" lon="-123.82736401551023"><ele>6.3</ele></trkpt>
    <trkpt lat="46.140510000000006" lon="-123.82733"><ele>6.3</ele></trkpt>
    <trkpt lat="46.14057582964992" lon="-123.82730481300351"><ele>6.3</ele></trkpt>
    <trkpt lat="46.140705354450105" lon="-123.82725525568867"><ele>6.2</ele></trkpt>
    <trkpt lat="46.14079141455224" lon="-123.82722232834524"><ele>6.0</ele></trkpt>
    <trkpt lat="46.14092180864639" lon="-123.82717243843095"><ele>5.8</ele></trkpt>
    <trkpt lat="46.14105133344657" lon="-123.82712288111608"><ele>5.4</ele></trkpt>
    <trkpt lat="46.14126517976097" lon="-123.82704106165667"><ele>4.8</ele></trkpt>
    <trkpt lat="46.14135297845103" lon="-123.82700746911439"><ele>4.6</ele></trkpt>
    <trkpt lat="46.14139557385512" lon="-123.82699117174239"><ele>4.5</ele></trkpt>
    <trkpt lat="46.14143903855317" lon="-123.82697454177097"><ele>4.4</ele></trkpt>
    <trkpt lat="46.14152509865531" lon="-123.82694161442754"><ele>4.3</ele></trkpt>
    <trkpt lat="46.14166" lon="-123.82689"><ele>4.2</ele></trkpt>
    <trkpt lat="46.14178343876347" lon="-123.82684371046372"><ele>4.1</ele></trkpt>
    <trkpt lat="46.14204369458061" lon="-123.82674611453228"><ele>3.9</ele></trkpt>
    <trkpt lat="46.14206" lon="-123.82674000000002"><ele>3.8</ele></trkpt>
    <trkpt lat="46.14213301249892" lon="-123.82673528951622"><ele>3.7</ele></trkpt>
    <trkpt lat="46.14231269753718" lon="-123.8267236969331"><ele>3.4</ele></trkpt>
    <trkpt lat="46.14237000000001" lon="-123.82672000000001"><ele>3.3</ele></trkpt>
    <trkpt lat="46.14240071338725" lon="-123.82673116850445"><ele>3.3</ele></trkpt>
    <trkpt lat="46.14248879234094" lon="-123.82676319721489"><ele>3.2</ele></trkpt>
    <trkpt lat="46.1425742550881" lon="-123.8267942745775"><ele>3.2</ele></trkpt>
    <trkpt lat="46.142590000000006" lon="-123.8268"><ele>3.1</ele></trkpt>
    <trkpt lat="46.14269" lon="-123.82689"><ele>3.1</ele></trkpt>
    <trkpt lat="46.142690640318015" lon="-123.82689072035777"><ele>3.1</ele></trkpt>
    <trkpt lat="46.142770000000006" lon="-123.82698"><ele>3.2</ele></trkpt>
    <trkpt lat="46.14292348878906" lon="-123.82728129280815"><ele>3.3</ele></trkpt>
    <trkpt lat="46.143003398863435" lon="-123.82743815332452"><ele>3.3</ele></trkpt>
    <trkpt lat="46.143040000000006" lon="-123.82751"><ele>3.3</ele></trkpt>
    <trkpt lat="46.14313267781879" lon="-123.82761349023099"><ele>3.3</ele></trkpt>
    <trkpt lat="46.14338162886948" lon="-123.82789148557092"><ele>3.2</ele></trkpt>
    <trkpt lat="46.14359359290692" lon="-123.82812817874606"><ele>3.2</ele></trkpt>
    <trkpt lat="46.143640000000005" lon="-123.82818"><ele>3.2</ele></trkpt>
    <trkpt lat="46.14377557007745" lon="-123.82831865121557"><ele>3.2</ele></trkpt>
    <trkpt lat="46.14408" lon="-123.82863"><ele>3.2</ele></trkpt>
    <trkpt lat="46.14414027221626" lon="-123.82869381764074"><ele>3.2</ele></trkpt>
    <trkpt lat="46.144212784755545" lon="-123.82877059562352"><ele>3.2</ele></trkpt>
    <trkpt lat="46.144420000000004" lon="-123.82899"><ele>3.0</ele></trkpt>
    <trkpt lat="46.14450717130164" lon="-123.82905537847623"><ele>3.0</ele></trkpt>
    <trkpt lat="46.144540000000006" lon="-123.82908"><ele>3.0</ele></trkpt>
    <trkpt lat="46.14462433985661" lon="-123.82912060807911"><ele>3.0</ele></trkpt>
    <trkpt lat="46.14510549213446" lon="-123.82935227399068"><ele>1.7</ele></trkpt>
    <trkpt lat="46.14531535642587" lon="-123.82945331976062"><ele>1.8</ele></trkpt>
    <trkpt lat="46.14535" lon="-123.82947000000001"><ele>1.8</ele></trkpt>
    <trkpt lat="46.14557266296188" lon="-123.82953997978802"><ele>1.9</ele></trkpt>
    <trkpt lat="46.145700000000005" lon="-123.82958"><ele>2.0</ele></trkpt>
    <trkpt lat="46.14574541129102" lon="-123.829590091398"><ele>2.0</ele></trkpt>
    <trkpt lat="46.145876072149015" lon="-123.82961912714423"><ele>2.0</ele></trkpt>
    <trkpt lat="46.145880000000005" lon="-123.82962"><ele>2.0</ele></trkpt>
    <trkpt lat="46.1461836169083" lon="-123.82965332380702"><ele>2.1</ele></trkpt>
    <trkpt lat="46.14661942940218" lon="-123.8297011568856"><ele>2.1</ele></trkpt>
    <trkpt lat="46.1467" lon="-123.82971"><ele>2.1</ele></trkpt>
    <trkpt lat="46.146860000000004" lon="-123.82975"><ele>2.0</ele></trkpt>
    <trkpt lat="46.14695456873415" lon="-123.82980910545885"><ele>2.0</ele></trkpt>
    <trkpt lat="46.147020000000005" lon="-123.82985000000001"><ele>2.0</ele></trkpt>
    <trkpt lat="46.14710525354878" lon="-123.8299267281939"><ele>1.9</ele></trkpt>
    <trkpt lat="46.14712" lon="-123.82994000000001"><ele>1.9</ele></trkpt>
    <trkpt lat="46.14739" lon="-123.83030000000001"><ele>2.0</ele></trkpt>
    <trkpt lat="46.14742520550131" lon="-123.83036401000238"><ele>2.0</ele></trkpt>
    <trkpt lat="46.14756276103988" lon="-123.8306141109816"><ele>2.0</ele></trkpt>
    <trkpt lat="46.14783731294818" lon="-123.83111329626942"><ele>1.9</ele></trkpt>
    <trkpt lat="46.14803414038549" lon="-123.83147116433724"><ele>1.9</ele></trkpt>
    <trkpt lat="46.148050000000005" lon="-123.8315"><ele>1.9</ele></trkpt>
    <trkpt lat="46.148120540516345" lon="-123.8316085238713"><ele>1.9</ele></trkpt>
    <trkpt lat="46.14831" lon="-123.8319"><ele>2.1</ele></trkpt>
    <trkpt lat="46.14847" lon="-123.83204"><ele>2.2</ele></trkpt>
    <trkpt lat="46.14855406649001" lon="-123.83209934105179"><ele>2.3</ele></trkpt>
    <trkpt lat="46.14864" lon="-123.83216000000002"><ele>2.3</ele></trkpt>
    <trkpt lat="46.14876593779011" lon="-123.83217679170536"><ele>2.3</ele></trkpt>
    <trkpt lat="46.148790000000005" lon="-123.83218000000001"><ele>2.3</ele></trkpt>
    <trkpt lat="46.149121966080735" lon="-123.83217886700997"><ele>2.4</ele></trkpt>
    <trkpt lat="46.149300031411386" lon="-123.83217825927846"><ele>2.4</ele></trkpt>
    <trkpt lat="46.1494322314296" lon="-123.83217780808386"><ele>2.4</ele></trkpt>
    <trkpt lat="46.14952126409492" lon="-123.83217750421812"><ele>2.4</ele></trkpt>
    <trkpt lat="46.14965346411313" lon="-123.83217705302351"><ele>2.4</ele></trkpt>
    <trkpt lat="46.14974249677846" lon="-123.83217674915775"><ele>2.5</ele></trkpt>
    <trkpt lat="46.14983063012393" lon="-123.83217644836137"><ele>2.6</ele></trkpt>
    <trkpt lat="46.14996372946199" lon="-123.83217599409741"><ele>2.7</ele></trkpt>
    <trkpt lat="46.15005186280746" lon="-123.83217569330101"><ele>2.9</ele></trkpt>
    <trkpt lat="46.15013999615294" lon="-123.83217539250461"><ele>3.1</ele></trkpt>
    <trkpt lat="46.15040529550921" lon="-123.83217448704605"><ele>4.1</ele></trkpt>
    <trkpt lat="46.15058156220016" lon="-123.83217388545324"><ele>4.7</ele></trkpt>
    <trkpt lat="46.15067059486548" lon="-123.83217358158748"><ele>4.9</ele></trkpt>
    <trkpt lat="46.150846861556424" lon="-123.8321729799947"><ele>5.4</ele></trkpt>
    <trkpt lat="46.151024027567225" lon="-123.83217237533255"><ele>6.0</ele></trkpt>
    <trkpt lat="46.15133339359624" lon="-123.83217131947578"><ele>6.8</ele></trkpt>
    <trkpt lat="46.15146559361445" lon="-123.83217086828118"><ele>7.2</ele></trkpt>
    <trkpt lat="46.151720000000005" lon="-123.83217"><ele>7.9</ele></trkpt>
    <trkpt lat="46.15182" lon="-123.83218000000001"><ele>8.2</ele></trkpt>
    <trkpt lat="46.15190206201588" lon="-123.83224382601236"><ele>8.5</ele></trkpt>
    <trkpt lat="46.15191" lon="-123.83225000000002"><ele>8.5</ele></trkpt>
    <trkpt lat="46.15198" lon="-123.83233000000001"><ele>8.7</ele></trkpt>
    <trkpt lat="46.15203" lon="-123.83244"><ele>9.0</ele></trkpt>
    <trkpt lat="46.15205" lon="-123.83261000000002"><ele>9.3</ele></trkpt>
    <trkpt lat="46.15205" lon="-123.83262"><ele>9.3</ele></trkpt>
    <trkpt lat="46.15205261051061" lon="-123.83281056727417"><ele>9.7</ele></trkpt>
    <trkpt lat="46.152056148738644" lon="-123.83306885792055"><ele>10.2</ele></trkpt>
    <trkpt lat="46.15205792674268" lon="-123.83319865221523"><ele>10.4</ele></trkpt>
    <trkpt lat="46.15205968696668" lon="-123.83332714856695"><ele>10.6</ele></trkpt>
    <trkpt lat="46.152060000000006" lon="-123.83335000000001"><ele>10.6</ele></trkpt>
    <trkpt lat="46.15205982231984" lon="-123.83345696346072"><ele>10.8</ele></trkpt>
    <trkpt lat="46.152059285359634" lon="-123.8337802135062"><ele>11.2</ele></trkpt>
    <trkpt lat="46.15205906971296" lon="-123.83391003280157"><ele>11.3</ele></trkpt>
    <trkpt lat="46.15205874839942" lon="-123.83410346355167"><ele>11.4</ele></trkpt>
    <trkpt lat="46.15205853275275" lon="-123.83423328284704"><ele>11.5</ele></trkpt>
    <trkpt lat="46.15205831926255" lon="-123.83436180394946"><ele>11.4</ele></trkpt>
    <trkpt lat="46.15205810361588" lon="-123.83449162324483"><ele>11.4</ele></trkpt>
    <trkpt lat="46.15205788796921" lon="-123.8346214425402"><ele>11.3</ele></trkpt>
    <trkpt lat="46.152057674478996" lon="-123.83474996364262"><ele>11.2</ele></trkpt>
    <trkpt lat="46.15205724534213" lon="-123.8350083040404"><ele>10.8</ele></trkpt>
    <trkpt lat="46.15205682914406" lon="-123.83525885528047"><ele>10.5</ele></trkpt>
    <trkpt lat="46.15205620592518" lon="-123.8356340330441"><ele>10.0</ele></trkpt>
    <trkpt lat="46.152055686216706" lon="-123.83594689754594"><ele>9.5</ele></trkpt>
    <trkpt lat="46.15205547703944" lon="-123.83607282226245"><ele>9.3</ele></trkpt>
    <trkpt lat="46.152055270018636" lon="-123.83619744878601"><ele>9.1</ele></trkpt>
    <trkpt lat="46.15205506731077" lon="-123.83631947892366"><ele>8.8</ele></trkpt>
    <trkpt lat="46.15205475031016" lon="-123.83651031328785"><ele>8.4</ele></trkpt>
    <trkpt lat="46.152053999859746" lon="-123.83696208443575"><ele>7.0</ele></trkpt>
    <trkpt lat="46.15205378636954" lon="-123.83709060553817"><ele>6.6</ele></trkpt>
    <trkpt lat="46.15205357072287" lon="-123.83722042483353"><ele>6.2</ele></trkpt>
    <trkpt lat="46.15205335723267" lon="-123.83734894593596"><ele>5.9</ele></trkpt>
    <trkpt lat="46.152053141585995" lon="-123.83747876523134"><ele>5.6</ele></trkpt>
    <trkpt lat="46.1520529280958" lon="-123.83760728633374"><ele>5.3</ele></trkpt>
    <trkpt lat="46.15205271244912" lon="-123.83773710562912"><ele>5.1</ele></trkpt>
    <trkpt lat="46.15205249895892" lon="-123.83786562673153"><ele>4.9</ele></trkpt>
    <trkpt lat="46.15205217764539" lon="-123.83805905748163"><ele>4.7</ele></trkpt>
    <trkpt lat="46.15205196415518" lon="-123.83818757858404"><ele>4.6</ele></trkpt>
    <trkpt lat="46.15205185633184" lon="-123.83825248823173"><ele>4.6</ele></trkpt>
    <trkpt lat="46.15205164068517" lon="-123.8383823075271"><ele>4.7</ele></trkpt>
    <trkpt lat="46.15205153501831" lon="-123.83844591898185"><ele>4.8</ele></trkpt>
    <trkpt lat="46.15205142719497" lon="-123.83851082862952"><ele>4.9</ele></trkpt>
    <trkpt lat="46.15205131937164" lon="-123.83857573827721"><ele>5.0</ele></trkpt>
    <trkpt lat="46.15205121370477" lon="-123.83863934973195"><ele>5.2</ele></trkpt>
    <trkpt lat="46.15205110588143" lon="-123.83870425937963"><ele>5.4</ele></trkpt>
    <trkpt lat="46.152050998058094" lon="-123.83876916902732"><ele>5.7</ele></trkpt>
    <trkpt lat="46.15205089239123" lon="-123.83883278048204"><ele>5.9</ele></trkpt>
    <trkpt lat="46.1520507845679" lon="-123.83889769012973"><ele>6.2</ele></trkpt>
    <trkpt lat="46.152050568921226" lon="-123.8390275094251"><ele>6.9</ele></trkpt>
    <trkpt lat="46.15205003411748" lon="-123.83934946127764"><ele>8.6</ele></trkpt>
    <trkpt lat="46.15205" lon="-123.83937000000002"><ele>8.7</ele></trkpt>
    <trkpt lat="46.151970000000006" lon="-123.83938"><ele>9.3</ele></trkpt>
    <trkpt lat="46.15185251985277" lon="-123.83945832009817"><ele>10.3</ele></trkpt>
    <trkpt lat="46.15185" lon="-123.83946000000002"><ele>10.4</ele></trkpt>
    <trkpt lat="46.1517341930805" lon="-123.83954908224578"><ele>11.3</ele></trkpt>
    <trkpt lat="46.151720000000005" lon="-123.83956"><ele>11.4</ele></trkpt>
    <trkpt lat="46.15148910252354" lon="-123.83982938038922"><ele>13.5</ele></trkpt>
    <trkpt lat="46.15117645233209" lon="-123.8401941389459"><ele>16.3</ele></trkpt>
    <trkpt lat="46.15106" lon="-123.84033000000001"><ele>17.3</ele></trkpt>
    <trkpt lat="46.150940000000006" lon="-123.8405"><ele>18.5</ele></trkpt>
    <trkpt lat="46.15081000000001" lon="-123.84076"><ele>20.1</ele></trkpt>
    <trkpt lat="46.1506844514722" lon="-123.84109669832458"><ele>21.9</ele></trkpt>
    <trkpt lat="46.150600056051864" lon="-123.84132303149728"><ele>23.1</ele></trkpt>
    <trkpt lat="46.15059" lon="-123.84135"><ele>23.3</ele></trkpt>
    <trkpt lat="46.15049988983103" lon="-123.84152571482949"><ele>24.5</ele></trkpt>
    <trkpt lat="46.15039" lon="-123.84174000000002"><ele>26.0</ele></trkpt>
    <trkpt lat="46.15033725519776" lon="-123.8418155533654"><ele>26.5</ele></trkpt>
    <trkpt lat="46.15027597313136" lon="-123.84190333578482"><ele>27.2</ele></trkpt>
    <trkpt lat="46.15018405003177" lon="-123.84203500941399"><ele>28.1</ele></trkpt>
    <trkpt lat="46.150122767965364" lon="-123.84212279183342"><ele>28.7</ele></trkpt>
    <trkpt lat="46.15006212425383" lon="-123.84220965985264"><ele>29.2</ele></trkpt>
    <trkpt lat="46.150020000000005" lon="-123.84227000000001"><ele>29.5</ele></trkpt>
    <trkpt lat="46.15000221109662" lon="-123.84229929937031"><ele>29.6</ele></trkpt>
    <trkpt lat="46.1499138925949" lon="-123.84244476513783"><ele>30.0</ele></trkpt>
    <trkpt lat="46.1498552111743" lon="-123.8425414168894"><ele>30.2</ele></trkpt>
    <trkpt lat="46.14985" lon="-123.84255000000002"><ele>30.2</ele></trkpt>
    <trkpt lat="46.14980474120912" lon="-123.84264874645285"><ele>30.4</ele></trkpt>
    <trkpt lat="46.14975561610069" lon="-123.8427559285076"><ele>30.4</ele></trkpt>
    <trkpt lat="46.14970649099226" lon="-123.84286311056235"><ele>30.4</ele></trkpt>
    <trkpt lat="46.14965736588384" lon="-123.84297029261711"><ele>30.3</ele></trkpt>
    <trkpt lat="46.14960824077541" lon="-123.84307747467186"><ele>30.2</ele></trkpt>
    <trkpt lat="46.149485179897724" lon="-123.84334597113224"><ele>29.8</ele></trkpt>
    <trkpt lat="46.149437047215734" lon="-123.84345098789296"><ele>29.7</ele></trkpt>
    <trkpt lat="46.14933978942531" lon="-123.84366318670843"><ele>29.4</ele></trkpt>
    <trkpt lat="46.149291656743316" lon="-123.84376820346915"><ele>29.3</ele></trkpt>
    <trkpt lat="46.1492430278481" lon="-123.84387430287688"><ele>29.1</ele></trkpt>
    <trkpt lat="46.14919439895289" lon="-123.84398040228461"><ele>28.9</ele></trkpt>
    <trkpt lat="46.149190000000004" lon="-123.84399"><ele>28.8</ele></trkpt>
    <trkpt lat="46.14902000000001" lon="-123.84426"><ele>28.1</ele></trkpt>
    <trkpt lat="46.14901855958453" lon="-123.84426171697525"><ele>28.1</ele></trkpt>
    <trkpt lat="46.148950602709085" lon="-123.84434272157078"><ele>27.9</ele></trkpt>
    <trkpt lat="46.148814688958204" lon="-123.84450473076184"><ele>27.4</ele></trkpt>
    <trkpt lat="46.148678081769816" lon="-123.84466756653039"><ele>26.8</ele></trkpt>
    <trkpt lat="46.14847421114348" lon="-123.84491058031699"><ele>25.9</ele></trkpt>
    <trkpt lat="46.14827034051716" lon="-123.84515359410356"><ele>24.9</ele></trkpt>
    <trkpt lat="46.14820238364171" lon="-123.84523459869908"><ele>24.6</ele></trkpt>
    <trkpt lat="46.1480324914531" lon="-123.84543711018792"><ele>23.9</ele></trkpt>
    <trkpt lat="46.147827927389265" lon="-123.84568095055201"><ele>22.9</ele></trkpt>
    <trkpt lat="46.14777" lon="-123.84575000000001"><ele>22.7</ele></trkpt>
    <trkpt lat="46.14772807558514" lon="-123.84580589921983"><ele>22.5</ele></trkpt>
    <trkpt lat="46.147566226764155" lon="-123.8460216976478"><ele>21.9</ele></trkpt>
  </trkseg></trk>
</gpx>
