<?xml version="1.0" encoding="UTF-8"?>
<gpx version="1.1" creator="h2c-tracker" xmlns="http://www.topografix.com/GPX/1/1">
  <metadata><name>Hood to Coast 2026 — Leg 17 (5.32 mi)</name><desc>Derived from the official Hood to Coast Strava route (simplified, 363 points, ~5.35 mi). Verify against the official leg map PDF.</desc></metadata>
  <wpt lat="45.74928868805978" lon="-122.87427160531465"><name>Exchange 16 — Scappoose High School</name></wpt>
  <wpt lat="45.819094592155984" lon="-122.85074435618814"><name>Exchange 17 — Warren Baptist Church</name></wpt>
  <trk><name>HTC Leg 17</name><trkseg>
    <trkpt lat="45.74928868805978" lon="-122.87427160531465"><ele>19.9</ele></trkpt>
    <trkpt lat="45.74939964123195" lon="-122.87468683915594"><ele>20.0</ele></trkpt>
    <trkpt lat="45.74946267549789" lon="-122.87492274012087"><ele>20.0</ele></trkpt>
    <trkpt lat="45.749666893655366" lon="-122.87568701110416"><ele>20.0</ele></trkpt>
    <trkpt lat="45.74979264058383" lon="-122.87615760945765"><ele>20.1</ele></trkpt>
    <trkpt lat="45.74982000000001" lon="-122.87626000000002"><ele>20.1</ele></trkpt>
    <trkpt lat="45.74985967839934" lon="-122.87652187743561"><ele>20.1</ele></trkpt>
    <trkpt lat="45.74987" lon="-122.87659000000001"><ele>20.0</ele></trkpt>
    <trkpt lat="45.74986119350676" lon="-122.87694666297631"><ele>20.0</ele></trkpt>
    <trkpt lat="45.74985365629736" lon="-122.87725191995672"><ele>19.9</ele></trkpt>
    <trkpt lat="45.74985" lon="-122.87740000000001"><ele>19.9</ele></trkpt>
    <trkpt lat="45.74989041916161" lon="-122.87740361381776"><ele>19.8</ele></trkpt>
    <trkpt lat="45.75040652619558" lon="-122.87744975818806"><ele>19.8</ele></trkpt>
    <trkpt lat="45.75075388866888" lon="-122.87748081535555"><ele>19.7</ele></trkpt>
    <trkpt lat="45.751237682914635" lon="-122.877524070687"><ele>19.7</ele></trkpt>
    <trkpt lat="45.751459384544894" lon="-122.87754389270347"><ele>19.8</ele></trkpt>
    <trkpt lat="45.75168018859768" lon="-122.87756363446886"><ele>19.8</ele></trkpt>
    <trkpt lat="45.7521648804209" lon="-122.8776069700514"><ele>19.9</ele></trkpt>
    <trkpt lat="45.75290627939492" lon="-122.87767325744247"><ele>19.8</ele></trkpt>
    <trkpt lat="45.75383347690117" lon="-122.87775615680687"><ele>19.8</ele></trkpt>
    <trkpt lat="45.75451473818602" lon="-122.87781706737564"><ele>19.7</ele></trkpt>
    <trkpt lat="45.75495096082691" lon="-122.87785606939994"><ele>19.6</ele></trkpt>
    <trkpt lat="45.75530011845511" lon="-122.87788728706958"><ele>19.5</ele></trkpt>
    <trkpt lat="45.755561313493175" lon="-122.87791064013352"><ele>19.4</ele></trkpt>
    <trkpt lat="45.75573544351855" lon="-122.8779262088428"><ele>19.3</ele></trkpt>
    <trkpt lat="45.75582340610869" lon="-122.87793407344853"><ele>19.2</ele></trkpt>
    <trkpt lat="45.75591136869883" lon="-122.87794193805424"><ele>19.1</ele></trkpt>
    <trkpt lat="45.75604331258403" lon="-122.87795373496283"><ele>19.0</ele></trkpt>
    <trkpt lat="45.75626321905938" lon="-122.87797339647713"><ele>18.9</ele></trkpt>
    <trkpt lat="45.75635118164952" lon="-122.87798126108284"><ele>18.8</ele></trkpt>
    <trkpt lat="45.756571088124865" lon="-122.87800092259715"><ele>18.6</ele></trkpt>
    <trkpt lat="45.756923836062874" lon="-122.8780324612711"><ele>18.3</ele></trkpt>
    <trkpt lat="45.75712" lon="-122.87805000000002"><ele>18.2</ele></trkpt>
    <trkpt lat="45.75736353989948" lon="-122.87807416322764"><ele>18.0</ele></trkpt>
    <trkpt lat="45.75762730949222" lon="-122.87810033357887"><ele>18.0</ele></trkpt>
    <trkpt lat="45.75793324633279" lon="-122.87813068762571"><ele>18.2</ele></trkpt>
    <trkpt lat="45.758079485936925" lon="-122.87814519703814"><ele>17.9</ele></trkpt>
    <trkpt lat="45.75815754020417" lon="-122.87815294132575"><ele>17.7</ele></trkpt>
    <trkpt lat="45.75822482836559" lon="-122.87815961743578"><ele>17.6</ele></trkpt>
    <trkpt lat="45.75882503876541" lon="-122.87821916833704"><ele>16.6</ele></trkpt>
    <trkpt lat="45.759178525906705" lon="-122.8782542401683"><ele>16.1</ele></trkpt>
    <trkpt lat="45.75935616665284" lon="-122.87827186509872"><ele>15.9</ele></trkpt>
    <trkpt lat="45.75948984580019" lon="-122.87828512830396"><ele>15.8</ele></trkpt>
    <trkpt lat="45.759622627772046" lon="-122.87829830249437"><ele>15.7</ele></trkpt>
    <trkpt lat="45.75997611491334" lon="-122.8783333743256"><ele>15.4</ele></trkpt>
    <trkpt lat="45.7601088968852" lon="-122.87834654851603"><ele>15.3</ele></trkpt>
    <trkpt lat="45.760285640455855" lon="-122.87836408443167"><ele>15.3</ele></trkpt>
    <trkpt lat="45.76041752525223" lon="-122.87837716960728"><ele>15.3</ele></trkpt>
    <trkpt lat="45.760551204399576" lon="-122.8783904328125"><ele>15.3</ele></trkpt>
    <trkpt lat="45.76072794797022" lon="-122.87840796872813"><ele>15.3</ele></trkpt>
    <trkpt lat="45.760905588716355" lon="-122.87842559365856"><ele>15.2</ele></trkpt>
    <trkpt lat="45.76095" lon="-122.87843000000001"><ele>15.2</ele></trkpt>
    <trkpt lat="45.76112644832176" lon="-122.87844393013067"><ele>15.2</ele></trkpt>
    <trkpt lat="45.761259346612526" lon="-122.878454422101"><ele>15.2</ele></trkpt>
    <trkpt lat="45.76148024512284" lon="-122.87847186145707"><ele>15.2</ele></trkpt>
    <trkpt lat="45.76205314451139" lon="-122.87851709035618"><ele>15.1</ele></trkpt>
    <trkpt lat="45.762494043570605" lon="-122.87855189817664"><ele>14.9</ele></trkpt>
    <trkpt lat="45.76271494208093" lon="-122.87856933753272"><ele>14.9</ele></trkpt>
    <trkpt lat="45.76285" lon="-122.87858000000001"><ele>14.9</ele></trkpt>
    <trkpt lat="45.76288343038804" lon="-122.87861621625373"><ele>14.9</ele></trkpt>
    <trkpt lat="45.76302405407993" lon="-122.87876855858659"><ele>14.9</ele></trkpt>
    <trkpt lat="45.763090000000005" lon="-122.87884000000001"><ele>14.9</ele></trkpt>
    <trkpt lat="45.76314000000001" lon="-122.87879000000001"><ele>14.9</ele></trkpt>
    <trkpt lat="45.76330560165403" lon="-122.87879974127378"><ele>14.8</ele></trkpt>
    <trkpt lat="45.763310000000004" lon="-122.87880000000001"><ele>14.8</ele></trkpt>
    <trkpt lat="45.763360000000006" lon="-122.87887"><ele>14.8</ele></trkpt>
    <trkpt lat="45.76339383279199" lon="-122.87880910097442"><ele>14.8</ele></trkpt>
    <trkpt lat="45.76341" lon="-122.87878"><ele>14.8</ele></trkpt>
    <trkpt lat="45.76352561471676" lon="-122.87865475072351"><ele>14.8</ele></trkpt>
    <trkpt lat="45.76353" lon="-122.87865000000001"><ele>14.8</ele></trkpt>
    <trkpt lat="45.76386449127628" lon="-122.87868430679757"><ele>15.0</ele></trkpt>
    <trkpt lat="45.764072602040756" lon="-122.87870565149137"><ele>15.1</ele></trkpt>
    <trkpt lat="45.76453636611504" lon="-122.87875321703746"><ele>15.5</ele></trkpt>
    <trkpt lat="45.76466822940116" lon="-122.87876674147707"><ele>15.7</ele></trkpt>
    <trkpt lat="45.764700000000005" lon="-122.87877000000002"><ele>15.7</ele></trkpt>
    <trkpt lat="45.76506412090376" lon="-122.87880068109365"><ele>16.4</ele></trkpt>
    <trkpt lat="45.765584829179" lon="-122.87884455635374"><ele>17.2</ele></trkpt>
    <trkpt lat="45.76575720157356" lon="-122.87885908057775"><ele>17.5</ele></trkpt>
    <trkpt lat="45.766041795579156" lon="-122.8788830606768"><ele>17.5</ele></trkpt>
    <trkpt lat="45.76637127822919" lon="-122.87891082312585"><ele>17.2</ele></trkpt>
    <trkpt lat="45.766588539268156" lon="-122.87892912969986"><ele>17.1</ele></trkpt>
    <trkpt lat="45.76685068895156" lon="-122.87895121862393"><ele>17.1</ele></trkpt>
    <trkpt lat="45.766938670694614" lon="-122.87895863202993"><ele>17.0</ele></trkpt>
    <trkpt lat="45.76741897918987" lon="-122.87899910317499"><ele>16.7</ele></trkpt>
    <trkpt lat="45.767768212843436" lon="-122.87902852985805"><ele>16.4</ele></trkpt>
    <trkpt lat="45.76798906497397" lon="-122.87904713902009"><ele>16.2</ele></trkpt>
    <trkpt lat="45.768740500881506" lon="-122.87911045555919"><ele>15.8</ele></trkpt>
    <trkpt lat="45.76905023252799" lon="-122.87913655377423"><ele>15.6</ele></trkpt>
    <trkpt lat="45.76913821427104" lon="-122.87914396718026"><ele>15.5</ele></trkpt>
    <trkpt lat="45.76922709378699" lon="-122.87915145623327"><ele>15.5</ele></trkpt>
    <trkpt lat="45.76940305727311" lon="-122.8791662830453"><ele>15.6</ele></trkpt>
    <trkpt lat="45.76949193678905" lon="-122.87917377209828"><ele>15.5</ele></trkpt>
    <trkpt lat="45.769580816304995" lon="-122.8791812611513"><ele>15.4</ele></trkpt>
    <trkpt lat="45.76989054795147" lon="-122.87920735936636"><ele>15.3</ele></trkpt>
    <trkpt lat="45.77024516824237" lon="-122.87923723993141"><ele>15.2</ele></trkpt>
    <trkpt lat="45.77059978853326" lon="-122.87926712049646"><ele>15.2</ele></trkpt>
    <trkpt lat="45.770990000000005" lon="-122.87930000000001"><ele>15.2</ele></trkpt>
    <trkpt lat="45.7711764800212" lon="-122.87930000000001"><ele>15.2</ele></trkpt>
    <trkpt lat="45.77127" lon="-122.87930000000001"><ele>15.2</ele></trkpt>
    <trkpt lat="45.77160508484625" lon="-122.87925811439422"><ele>15.2</ele></trkpt>
    <trkpt lat="45.7717323059628" lon="-122.87924221175466"><ele>15.3</ele></trkpt>
    <trkpt lat="45.771910000000005" lon="-122.87922"><ele>15.4</ele></trkpt>
    <trkpt lat="45.771983713618376" lon="-122.87919837733861"><ele>15.5</ele></trkpt>
    <trkpt lat="45.77245596686516" lon="-122.87905984971955"><ele>15.6</ele></trkpt>
    <trkpt lat="45.77266" lon="-122.879"><ele>15.6</ele></trkpt>
    <trkpt lat="45.772756527776025" lon="-122.87895687056817"><ele>15.6</ele></trkpt>
    <trkpt lat="45.773009812551535" lon="-122.87884370077485"><ele>15.5</ele></trkpt>
    <trkpt lat="45.77313" lon="-122.87879000000001"><ele>15.6</ele></trkpt>
    <trkpt lat="45.77338634653294" lon="-122.87866128439249"><ele>15.6</ele></trkpt>
    <trkpt lat="45.773845535893486" lon="-122.87843071822556"><ele>15.7</ele></trkpt>
    <trkpt lat="45.774011896549055" lon="-122.8783471859359"><ele>15.7</ele></trkpt>
    <trkpt lat="45.77438620802411" lon="-122.8781592382841"><ele>15.9</ele></trkpt>
    <trkpt lat="45.77459415884358" lon="-122.878054822922"><ele>16.1</ele></trkpt>
    <trkpt lat="45.774760519499154" lon="-122.87797129063232"><ele>16.2</ele></trkpt>
    <trkpt lat="45.775272333148706" lon="-122.877714300986"><ele>16.3</ele></trkpt>
    <trkpt lat="45.77548367908359" lon="-122.87760818088329"><ele>16.4</ele></trkpt>
    <trkpt lat="45.77569502501848" lon="-122.87750206078059"><ele>16.5</ele></trkpt>
    <trkpt lat="45.77590637095338" lon="-122.87739594067787"><ele>16.6</ele></trkpt>
    <trkpt lat="45.77607442916666" lon="-122.8773115560179"><ele>16.6</ele></trkpt>
    <trkpt lat="45.776369804208194" lon="-122.87716324358519"><ele>16.7</ele></trkpt>
    <trkpt lat="45.77658115014309" lon="-122.87705712348247"><ele>16.8</ele></trkpt>
    <trkpt lat="45.777129461283394" lon="-122.87678180787464"><ele>17.0</ele></trkpt>
    <trkpt lat="45.77741804609409" lon="-122.87663690492316"><ele>17.0</ele></trkpt>
    <trkpt lat="45.77774906984753" lon="-122.8764706927141"><ele>17.0</ele></trkpt>
    <trkpt lat="45.778203166534944" lon="-122.87624268365806"><ele>17.1</ele></trkpt>
    <trkpt lat="45.77836782963281" lon="-122.87616000373868"><ele>17.1</ele></trkpt>
    <trkpt lat="45.77853419028838" lon="-122.87607647144901"><ele>17.0</ele></trkpt>
    <trkpt lat="45.77865896078007" lon="-122.87601382223176"><ele>17.0</ele></trkpt>
    <trkpt lat="45.77899253087008" lon="-122.87584633146722"><ele>17.1</ele></trkpt>
    <trkpt lat="45.7792013304684" lon="-122.87574148991997"><ele>17.1</ele></trkpt>
    <trkpt lat="45.77936769112398" lon="-122.87565795763028"><ele>17.2</ele></trkpt>
    <trkpt lat="45.77965967105009" lon="-122.8755113499382"><ele>17.2</ele></trkpt>
    <trkpt lat="45.77991006081231" lon="-122.87538562531853"><ele>17.1</ele></trkpt>
    <trkpt lat="45.780117162852925" lon="-122.87528163614157"><ele>17.1</ele></trkpt>
    <trkpt lat="45.78020204073842" lon="-122.87523901762643"><ele>17.0</ele></trkpt>
    <trkpt lat="45.78022000000001" lon="-122.87523000000002"><ele>16.9</ele></trkpt>
    <trkpt lat="45.780285981830595" lon="-122.87519646227398"><ele>16.9</ele></trkpt>
    <trkpt lat="45.780496198574355" lon="-122.87508961177438"><ele>16.7</ele></trkpt>
    <trkpt lat="45.780748797726126" lon="-122.87496121883535"><ele>16.6</ele></trkpt>
    <trkpt lat="45.781042931637764" lon="-122.8748117143057"><ele>16.3</ele></trkpt>
    <trkpt lat="45.781169231213646" lon="-122.87474751783618"><ele>16.1</ele></trkpt>
    <trkpt lat="45.781295530789535" lon="-122.87468332136667"><ele>15.9</ele></trkpt>
    <trkpt lat="45.78163119946102" lon="-122.87451270524635"><ele>15.3</ele></trkpt>
    <trkpt lat="45.78175580374058" lon="-122.87444937047441"><ele>15.2</ele></trkpt>
    <trkpt lat="45.782088929467584" lon="-122.87428004690047"><ele>14.7</ele></trkpt>
    <trkpt lat="45.782379672786575" lon="-122.87413226576595"><ele>14.1</ele></trkpt>
    <trkpt lat="45.78262972899387" lon="-122.87400516537329"><ele>13.7</ele></trkpt>
    <trkpt lat="45.783045076592416" lon="-122.87379404946685"><ele>12.8</ele></trkpt>
    <trkpt lat="45.78350026365451" lon="-122.87356268366733"><ele>12.0</ele></trkpt>
    <trkpt lat="45.783582485526054" lon="-122.87352089133483"><ele>11.8</ele></trkpt>
    <trkpt lat="45.78374692926916" lon="-122.87343730666983"><ele>11.7</ele></trkpt>
    <trkpt lat="45.783829998788875" lon="-122.87339508348853"><ele>11.6</ele></trkpt>
    <trkpt lat="45.78395290777212" lon="-122.87333261041418"><ele>11.6</ele></trkpt>
    <trkpt lat="45.78403512964367" lon="-122.8732908180817"><ele>11.6</ele></trkpt>
    <trkpt lat="45.78411819916338" lon="-122.8732485949004"><ele>11.7</ele></trkpt>
    <trkpt lat="45.784323330018175" lon="-122.87314432949353"><ele>11.9</ele></trkpt>
    <trkpt lat="45.784406399537886" lon="-122.87310210631225"><ele>12.0</ele></trkpt>
    <trkpt lat="45.784531851465616" lon="-122.87303834069152"><ele>12.1</ele></trkpt>
    <trkpt lat="45.78457338622547" lon="-122.87301722910088"><ele>12.2</ele></trkpt>
    <trkpt lat="45.78465645574518" lon="-122.87297500591959"><ele>12.4</ele></trkpt>
    <trkpt lat="45.78478190767291" lon="-122.87291124029886"><ele>12.8</ele></trkpt>
    <trkpt lat="45.78490735960063" lon="-122.87284747467814"><ele>13.2</ele></trkpt>
    <trkpt lat="45.78503281152835" lon="-122.87278370905743"><ele>13.6</ele></trkpt>
    <trkpt lat="45.785408319663375" lon="-122.87259284304403"><ele>15.1</ele></trkpt>
    <trkpt lat="45.7857838277984" lon="-122.87240197703065"><ele>16.5</ele></trkpt>
    <trkpt lat="45.78586689731811" lon="-122.87235975384937"><ele>16.7</ele></trkpt>
    <trkpt lat="45.78603388400569" lon="-122.87227487663802"><ele>17.2</ele></trkpt>
    <trkpt lat="45.78624240545312" lon="-122.872168887836"><ele>17.8</ele></trkpt>
    <trkpt lat="45.78636785738085" lon="-122.87210512221527"><ele>18.2</ele></trkpt>
    <trkpt lat="45.786534844068434" lon="-122.8720202450039"><ele>18.5</ele></trkpt>
    <trkpt lat="45.786701830756016" lon="-122.87193536779253"><ele>18.8</ele></trkpt>
    <trkpt lat="45.78720363846693" lon="-122.87168030530964"><ele>19.6</ele></trkpt>
    <trkpt lat="45.78745538997053" lon="-122.8715523432194"><ele>19.9</ele></trkpt>
    <trkpt lat="45.78774867623401" lon="-122.87140326953852"><ele>20.2</ele></trkpt>
    <trkpt lat="45.78787412816173" lon="-122.87133950391781"><ele>20.4</ele></trkpt>
    <trkpt lat="45.78804196249747" lon="-122.87125419585765"><ele>20.5</ele></trkpt>
    <trkpt lat="45.78816910972152" lon="-122.87118956853934"><ele>20.6</ele></trkpt>
    <trkpt lat="45.788335248760944" lon="-122.87110512217677"><ele>20.6</ele></trkpt>
    <trkpt lat="45.78846154833683" lon="-122.87104092570726"><ele>20.6</ele></trkpt>
    <trkpt lat="45.788797217008316" lon="-122.87087030958693"><ele>20.5</ele></trkpt>
    <trkpt lat="45.78896505134406" lon="-122.87078500152678"><ele>20.4</ele></trkpt>
    <trkpt lat="45.78909050327179" lon="-122.87072123590606"><ele>20.3</ele></trkpt>
    <trkpt lat="45.78927" lon="-122.87063"><ele>20.1</ele></trkpt>
    <trkpt lat="45.78942567896601" lon="-122.8705486451855"><ele>20.0</ele></trkpt>
    <trkpt lat="45.78967663578293" lon="-122.87041750001022"><ele>19.6</ele></trkpt>
    <trkpt lat="45.789885343977474" lon="-122.87030843314726"><ele>19.2</ele></trkpt>
    <trkpt lat="45.79009405217202" lon="-122.87019936628431"><ele>18.7</ele></trkpt>
    <trkpt lat="45.79038641263887" lon="-122.87004658436292"><ele>18.0</ele></trkpt>
    <trkpt lat="45.79072271167299" lon="-122.8698708409967"><ele>17.2</ele></trkpt>
    <trkpt lat="45.790820000000004" lon="-122.86982"><ele>17.0</ele></trkpt>
    <trkpt lat="45.79101405319747" lon="-122.8697070763879"><ele>16.5</ele></trkpt>
    <trkpt lat="45.79126238835018" lon="-122.86956256497136"><ele>15.9</ele></trkpt>
    <trkpt lat="45.791530723649394" lon="-122.86940641505147"><ele>15.5</ele></trkpt>
    <trkpt lat="45.79164489115249" lon="-122.86933997859488"><ele>15.4</ele></trkpt>
    <trkpt lat="45.7917273917569" lon="-122.8692919697686"><ele>15.2</ele></trkpt>
    <trkpt lat="45.79185155933326" lon="-122.86921971406032"><ele>14.9</ele></trkpt>
    <trkpt lat="45.7919757269096" lon="-122.86914745835205"><ele>14.6</ele></trkpt>
    <trkpt lat="45.792058227514026" lon="-122.86909944952575"><ele>14.4</ele></trkpt>
    <trkpt lat="45.792182395090364" lon="-122.86902719381746"><ele>14.2</ele></trkpt>
    <trkpt lat="45.79226489569479" lon="-122.86897918499118"><ele>14.1</ele></trkpt>
    <trkpt lat="45.79234739629922" lon="-122.86893117616488"><ele>14.0</ele></trkpt>
    <trkpt lat="45.79247156387556" lon="-122.8688589204566"><ele>14.0</ele></trkpt>
    <trkpt lat="45.792554897819414" lon="-122.86881042669265"><ele>14.0</ele></trkpt>
    <trkpt lat="45.792719899028256" lon="-122.86871440904005"><ele>14.0</ele></trkpt>
    <trkpt lat="45.79292656720902" lon="-122.8685941445055"><ele>14.1</ele></trkpt>
    <trkpt lat="45.7931332353898" lon="-122.86847387997092"><ele>14.3</ele></trkpt>
    <trkpt lat="45.79328490316762" lon="-122.86838562132056"><ele>14.3</ele></trkpt>
    <trkpt lat="45.79340573738621" lon="-122.86831530536284"><ele>14.3</ele></trkpt>
    <trkpt lat="45.793648239162835" lon="-122.86817418850976"><ele>14.6</ele></trkpt>
    <trkpt lat="45.79380990701392" lon="-122.86808011060774"><ele>14.7</ele></trkpt>
    <trkpt lat="45.79397407488332" lon="-122.86798457789276"><ele>15.1</ele></trkpt>
    <trkpt lat="45.79413740941328" lon="-122.86788953011543"><ele>15.5</ele></trkpt>
    <trkpt lat="45.79430157728269" lon="-122.86779399740047"><ele>15.8</ele></trkpt>
    <trkpt lat="45.79450657878458" lon="-122.8676747027412"><ele>16.3</ele></trkpt>
    <trkpt lat="45.79503908268583" lon="-122.8673648275896"><ele>17.3</ele></trkpt>
    <trkpt lat="45.79536741842463" lon="-122.86717376215968"><ele>17.8</ele></trkpt>
    <trkpt lat="45.79565158717319" lon="-122.86700839842464"><ele>18.2</ele></trkpt>
    <trkpt lat="45.79585408865677" lon="-122.86689055857826"><ele>18.6</ele></trkpt>
    <trkpt lat="45.796130000000005" lon="-122.86673"><ele>18.9</ele></trkpt>
    <trkpt lat="45.7961365668368" lon="-122.86672608108127"><ele>18.9</ele></trkpt>
    <trkpt lat="45.796420535867405" lon="-122.86655661569205"><ele>19.0</ele></trkpt>
    <trkpt lat="45.79670367457919" lon="-122.86638764581565"><ele>19.1</ele></trkpt>
    <trkpt lat="45.79710803983622" lon="-122.8661463310655"><ele>19.2</ele></trkpt>
    <trkpt lat="45.79722843606265" lon="-122.86607448170454"><ele>19.3</ele></trkpt>
    <trkpt lat="45.797348832289074" lon="-122.86600263234362"><ele>19.3</ele></trkpt>
    <trkpt lat="45.797548939120574" lon="-122.86588321375064"><ele>19.3</ele></trkpt>
    <trkpt lat="45.79774904595208" lon="-122.86576379515765"><ele>19.3</ele></trkpt>
    <trkpt lat="45.79791510971267" lon="-122.86566469259084"><ele>19.4</ele></trkpt>
    <trkpt lat="45.797990000000006" lon="-122.86562"><ele>19.4</ele></trkpt>
    <trkpt lat="45.79832836370598" lon="-122.86541375926492"><ele>19.4</ele></trkpt>
    <trkpt lat="45.798535285948795" lon="-122.86528763523123"><ele>19.4</ele></trkpt>
    <trkpt lat="45.79861805484592" lon="-122.86523718561776"><ele>19.4</ele></trkpt>
    <trkpt lat="45.799040000000005" lon="-122.86498000000002"><ele>19.1</ele></trkpt>
    <trkpt lat="45.799191325561786" lon="-122.86486558311184"><ele>19.0</ele></trkpt>
    <trkpt lat="45.79945" lon="-122.86467"><ele>18.9</ele></trkpt>
    <trkpt lat="45.79947020604303" lon="-122.86465350527101"><ele>18.8</ele></trkpt>
    <trkpt lat="45.79994000000001" lon="-122.86427"><ele>18.3</ele></trkpt>
    <trkpt lat="45.79997568693038" lon="-122.86423765871935"><ele>18.3</ele></trkpt>
    <trkpt lat="45.80017564304631" lon="-122.8640564484893"><ele>18.1</ele></trkpt>
    <trkpt lat="45.80026" lon="-122.86398000000001"><ele>18.1</ele></trkpt>
    <trkpt lat="45.80028806813333" lon="-122.86395193186668"><ele>18.0</ele></trkpt>
    <trkpt lat="45.80076685943481" lon="-122.8634731405652"><ele>17.6</ele></trkpt>
    <trkpt lat="45.800830000000005" lon="-122.86341000000002"><ele>17.5</ele></trkpt>
    <trkpt lat="45.80094494009289" lon="-122.86327863989388"><ele>17.4</ele></trkpt>
    <trkpt lat="45.80119041658002" lon="-122.86299809533713"><ele>17.1</ele></trkpt>
    <trkpt lat="45.80154139872065" lon="-122.86259697289071"><ele>16.8</ele></trkpt>
    <trkpt lat="45.80175170665662" lon="-122.86235662096388"><ele>16.6</ele></trkpt>
    <trkpt lat="45.801876203327744" lon="-122.86221433905402"><ele>16.5</ele></trkpt>
    <trkpt lat="45.80196904830282" lon="-122.86210823051108"><ele>16.5</ele></trkpt>
    <trkpt lat="45.80221452478995" lon="-122.86182768595435"><ele>16.5</ele></trkpt>
    <trkpt lat="45.80235449562359" lon="-122.86166771928734"><ele>16.5</ele></trkpt>
    <trkpt lat="45.802510000000005" lon="-122.86149"><ele>16.7</ele></trkpt>
    <trkpt lat="45.80260339435689" lon="-122.86139588165585"><ele>16.7</ele></trkpt>
    <trkpt lat="45.802895537846155" lon="-122.86110147348838"><ele>17.0</ele></trkpt>
    <trkpt lat="45.803134698133334" lon="-122.8608604592455"><ele>17.2</ele></trkpt>
    <trkpt lat="45.80353795917141" lon="-122.86045407215286"><ele>17.6</ele></trkpt>
    <trkpt lat="45.80371972098966" lon="-122.86027090132826"><ele>17.8</ele></trkpt>
    <trkpt lat="45.8038" lon="-122.86019000000002"><ele>17.9</ele></trkpt>
    <trkpt lat="45.80390492083049" lon="-122.8601000678596"><ele>18.0</ele></trkpt>
    <trkpt lat="45.80432257487654" lon="-122.85974207867727"><ele>18.3</ele></trkpt>
    <trkpt lat="45.80443" lon="-122.85965000000002"><ele>18.3</ele></trkpt>
    <trkpt lat="45.804436285788256" lon="-122.85964539280295"><ele>18.3</ele></trkpt>
    <trkpt lat="45.80475101697149" lon="-122.85941470915161"><ele>18.3</ele></trkpt>
    <trkpt lat="45.804870342534585" lon="-122.85932724893775"><ele>18.3</ele></trkpt>
    <trkpt lat="45.80494962596242" lon="-122.85926913778891"><ele>18.3</ele></trkpt>
    <trkpt lat="45.80514903579608" lon="-122.85912297944495"><ele>18.2</ele></trkpt>
    <trkpt lat="45.80534764478701" lon="-122.85897740808225"><ele>18.2</ele></trkpt>
    <trkpt lat="45.80577849816252" lon="-122.85866161214226"><ele>17.9</ele></trkpt>
    <trkpt lat="45.805967497040996" lon="-122.85852308455519"><ele>17.9</ele></trkpt>
    <trkpt lat="45.80619" lon="-122.85836"><ele>17.8</ele></trkpt>
    <trkpt lat="45.80619415226608" lon="-122.8583570162108"><ele>17.8</ele></trkpt>
    <trkpt lat="45.806312352657066" lon="-122.85827207824141"><ele>17.7</ele></trkpt>
    <trkpt lat="45.806510157393" lon="-122.85812993714976"><ele>17.7</ele></trkpt>
    <trkpt lat="45.8067867623896" lon="-122.85793117074519"><ele>17.7</ele></trkpt>
    <trkpt lat="45.807222576076086" lon="-122.85761799809609"><ele>17.7</ele></trkpt>
    <trkpt lat="45.80746138911094" lon="-122.85744638872933"><ele>17.6</ele></trkpt>
    <trkpt lat="45.80770020214578" lon="-122.85727477936258"><ele>17.6</ele></trkpt>
    <trkpt lat="45.8078996150503" lon="-122.8571314826523"><ele>17.5</ele></trkpt>
    <trkpt lat="45.80818000000001" lon="-122.85693"><ele>17.5</ele></trkpt>
    <trkpt lat="45.80825725245882" lon="-122.85687384230854"><ele>17.5</ele></trkpt>
    <trkpt lat="45.80841288198649" lon="-122.85676070940467"><ele>17.5</ele></trkpt>
    <trkpt lat="45.80864552406394" lon="-122.85659159320815"><ele>17.4</ele></trkpt>
    <trkpt lat="45.80887816614138" lon="-122.85642247701163"><ele>17.3</ele></trkpt>
    <trkpt lat="45.80915492999215" lon="-122.8562212870537"><ele>17.1</ele></trkpt>
    <trkpt lat="45.80943249605696" lon="-122.85601951393647"><ele>16.9</ele></trkpt>
    <trkpt lat="45.809709259907706" lon="-122.85581832397853"><ele>16.7</ele></trkpt>
    <trkpt lat="45.809867296077556" lon="-122.85570344159676"><ele>16.7</ele></trkpt>
    <trkpt lat="45.810144862142366" lon="-122.85550166847955"><ele>16.5</ele></trkpt>
    <trkpt lat="45.81026358982327" lon="-122.85541536090338"><ele>16.4</ele></trkpt>
    <trkpt lat="45.81046093448207" lon="-122.85527190371599"><ele>16.3</ele></trkpt>
    <trkpt lat="45.81081711752478" lon="-122.85501298098752"><ele>16.3</ele></trkpt>
    <trkpt lat="45.81089" lon="-122.85496"><ele>16.3</ele></trkpt>
    <trkpt lat="45.811175014351186" lon="-122.85475897538515"><ele>16.2</ele></trkpt>
    <trkpt lat="45.81145345244276" lon="-122.85456258909835"><ele>16.2</ele></trkpt>
    <trkpt lat="45.81153335206905" lon="-122.85450623477257"><ele>16.1</ele></trkpt>
    <trkpt lat="45.81157370541565" lon="-122.85447777299186"><ele>16.0</ele></trkpt>
    <trkpt lat="45.8116931513216" lon="-122.854393526121"><ele>16.0</ele></trkpt>
    <trkpt lat="45.81189330392077" lon="-122.85425235568874"><ele>15.9</ele></trkpt>
    <trkpt lat="45.81205310317333" lon="-122.85413964703719"><ele>15.9</ele></trkpt>
    <trkpt lat="45.81229199498523" lon="-122.85397115329546"><ele>15.9</ele></trkpt>
    <trkpt lat="45.81261320762421" lon="-122.85374459752111"><ele>15.8</ele></trkpt>
    <trkpt lat="45.812960000000004" lon="-122.85350000000001"><ele>15.7</ele></trkpt>
    <trkpt lat="45.81313219941619" lon="-122.85337580943609"><ele>15.7</ele></trkpt>
    <trkpt lat="45.81352994369653" lon="-122.85308895546427"><ele>15.8</ele></trkpt>
    <trkpt lat="45.81380876645468" lon="-122.85288786793254"><ele>15.9</ele></trkpt>
    <trkpt lat="45.81408678568902" lon="-122.85268735990375"><ele>16.0</ele></trkpt>
    <trkpt lat="45.814245883401156" lon="-122.85257261831504"><ele>16.1</ele></trkpt>
    <trkpt lat="45.81436319787577" lon="-122.85248801088092"><ele>16.3</ele></trkpt>
    <trkpt lat="45.81444194320804" lon="-122.85243121958953"><ele>16.2</ele></trkpt>
    <trkpt lat="45.81452068854031" lon="-122.85237442829815"><ele>16.4</ele></trkpt>
    <trkpt lat="45.814560864730254" lon="-122.8523454531495"><ele>16.5</ele></trkpt>
    <trkpt lat="45.81460023739638" lon="-122.85231705750378"><ele>16.6</ele></trkpt>
    <trkpt lat="45.81467898272866" lon="-122.8522602662124"><ele>17.0</ele></trkpt>
    <trkpt lat="45.81487664958313" lon="-122.85211770848096"><ele>18.1</ele></trkpt>
    <trkpt lat="45.8149553949154" lon="-122.85206091718956"><ele>18.2</ele></trkpt>
    <trkpt lat="45.814995571105335" lon="-122.8520319420409"><ele>18.3</ele></trkpt>
    <trkpt lat="45.81503494377147" lon="-122.85200354639522"><ele>18.4</ele></trkpt>
    <trkpt lat="45.815075119961406" lon="-122.85197457124654"><ele>18.5</ele></trkpt>
    <trkpt lat="45.81515466881748" lon="-122.85191720045219"><ele>18.9</ele></trkpt>
    <trkpt lat="45.81535313919575" lon="-122.85177406321776"><ele>19.9</ele></trkpt>
    <trkpt lat="45.81555160957403" lon="-122.85163092598336"><ele>20.8</ele></trkpt>
    <trkpt lat="45.81602890271044" lon="-122.85128670121719"><ele>23.2</ele></trkpt>
    <trkpt lat="45.81614461013746" lon="-122.85120325278902"><ele>23.4</ele></trkpt>
    <trkpt lat="45.81625790699307" lon="-122.85112154286978"><ele>24.1</ele></trkpt>
    <trkpt lat="45.81652467689423" lon="-122.85092914788262"><ele>25.8</ele></trkpt>
    <trkpt lat="45.816589762321925" lon="-122.85088220814178"><ele>25.9</ele></trkpt>
    <trkpt lat="45.816687792225366" lon="-122.85081150877903"><ele>26.1</ele></trkpt>
    <trkpt lat="45.81676493051005" lon="-122.8507558764936"><ele>26.3</ele></trkpt>
    <trkpt lat="45.81684287231852" lon="-122.85069966470519"><ele>26.5</ele></trkpt>
    <trkpt lat="45.81692001060319" lon="-122.85064403241975"><ele>26.6</ele></trkpt>
    <trkpt lat="45.81695857974553" lon="-122.85061621627702"><ele>26.6</ele></trkpt>
    <trkpt lat="45.817036521554" lon="-122.85056000448861"><ele>26.6</ele></trkpt>
    <trkpt lat="45.817191601647146" lon="-122.85044816041476"><ele>26.5</ele></trkpt>
    <trkpt lat="45.81726954345562" lon="-122.85039194862634"><ele>26.5</ele></trkpt>
    <trkpt lat="45.81734668174029" lon="-122.8503363163409"><ele>26.6</ele></trkpt>
    <trkpt lat="45.81746319269111" lon="-122.85025228840976"><ele>26.8</ele></trkpt>
    <trkpt lat="45.81761425516525" lon="-122.85014334185077"><ele>27.0</ele></trkpt>
    <trkpt lat="45.81768978640233" lon="-122.85008886857128"><ele>27.2</ele></trkpt>
    <trkpt lat="45.8177661211632" lon="-122.8500338157888"><ele>27.4</ele></trkpt>
    <trkpt lat="45.817803886781746" lon="-122.85000657914907"><ele>27.5</ele></trkpt>
    <trkpt lat="45.81784165240028" lon="-122.84997934250931"><ele>27.7</ele></trkpt>
    <trkpt lat="45.817917183637356" lon="-122.84992486922982"><ele>28.1</ele></trkpt>
    <trkpt lat="45.818179132395734" lon="-122.84973595126051"><ele>30.0</ele></trkpt>
    <trkpt lat="45.81825386010901" lon="-122.84968205748399"><ele>30.5</ele></trkpt>
    <trkpt lat="45.81832939134608" lon="-122.8496275842045"><ele>31.0</ele></trkpt>
    <trkpt lat="45.81840974372596" lon="-122.84956963390717"><ele>31.2</ele></trkpt>
    <trkpt lat="45.81848768553443" lon="-122.84951342211875"><ele>31.7</ele></trkpt>
    <trkpt lat="45.8185656273429" lon="-122.84945721033033"><ele>32.1</ele></trkpt>
    <trkpt lat="45.81868213829371" lon="-122.84937318239919"><ele>32.7</ele></trkpt>
    <trkpt lat="45.81879945276832" lon="-122.84928857496509"><ele>33.1</ele></trkpt>
    <trkpt lat="45.818916767242925" lon="-122.84920396753098"><ele>33.6</ele></trkpt>
    <trkpt lat="45.81895" lon="-122.84918"><ele>33.6</ele></trkpt>
    <trkpt lat="45.818969456017484" lon="-122.84924615045946"><ele>33.8</ele></trkpt>
    <trkpt lat="45.818986240133555" lon="-122.84930321645408"><ele>33.9</ele></trkpt>
    <trkpt lat="45.819" lon="-122.84935000000002"><ele>33.9</ele></trkpt>
    <trkpt lat="45.81904482454925" lon="-122.84947166663368"><ele>34.0</ele></trkpt>
    <trkpt lat="45.81907" lon="-122.84954"><ele>34.0</ele></trkpt>
    <trkpt lat="45.81908969546897" lon="-122.8497172592207"><ele>34.0</ele></trkpt>
    <trkpt lat="45.81909" lon="-122.84972"><ele>34.0</ele></trkpt>
    <trkpt lat="45.81909" lon="-122.84984626577857"><ele>34.0</ele></trkpt>
    <trkpt lat="45.81909" lon="-122.85015000000001"><ele>33.9</ele></trkpt>
    <trkpt lat="45.81909212969883" lon="-122.85042564387713"><ele>33.8</ele></trkpt>
    <trkpt lat="45.819094592155984" lon="-122.85074435618814"><ele>33.6</ele></trkpt>
  </trkseg></trk>
</gpx>
