<?xml version="1.0" encoding="UTF-8"?>
<gpx version="1.1" creator="h2c-tracker" xmlns="http://www.topografix.com/GPX/1/1">
  <metadata><name>Hood to Coast 2026 — Leg 32 (4.2 mi)</name><desc>Derived from the official Hood to Coast Strava route (simplified, 566 points, ~4.25 mi). Verify against the official leg map PDF.</desc></metadata>
  <wpt lat="46.09775741728959" lon="-123.74939637140086"><name>Exchange 31 — Coastline Christian Fellowship Church</name></wpt>
  <wpt lat="46.06980971298048" lon="-123.78770739815963"><name>Exchange 32 — Youngs River Falls</name></wpt>
  <trk><name>HTC Leg 32</name><trkseg>
    <trkpt lat="46.09775741728959" lon="-123.74939637140086"><ele>17.1</ele></trkpt>
    <trkpt lat="46.09777418284658" lon="-123.749523789634"><ele>16.6</ele></trkpt>
    <trkpt lat="46.097799163526496" lon="-123.74971364280134"><ele>15.8</ele></trkpt>
    <trkpt lat="46.09780000000001" lon="-123.74972000000001"><ele>15.8</ele></trkpt>
    <trkpt lat="46.09787789701701" lon="-123.75008302949433"><ele>14.0</ele></trkpt>
    <trkpt lat="46.0979177745712" lon="-123.75026887394503"><ele>13.2</ele></trkpt>
    <trkpt lat="46.097970678793104" lon="-123.75051542758294"><ele>12.1</ele></trkpt>
    <trkpt lat="46.09798370546081" lon="-123.75057613677019"><ele>11.9</ele></trkpt>
    <trkpt lat="46.098010290496944" lon="-123.75070003307064"><ele>11.4</ele></trkpt>
    <trkpt lat="46.098049902200785" lon="-123.75088463855835"><ele>10.9</ele></trkpt>
    <trkpt lat="46.09808951390462" lon="-123.75106924404604"><ele>10.5</ele></trkpt>
    <trkpt lat="46.09815571064458" lon="-123.75137774583419"><ele>9.9</ele></trkpt>
    <trkpt lat="46.098235199902625" lon="-123.75174819577259"><ele>9.2</ele></trkpt>
    <trkpt lat="46.098330000000004" lon="-123.75219000000001"><ele>8.4</ele></trkpt>
    <trkpt lat="46.09833921688266" lon="-123.7522406928546"><ele>8.4</ele></trkpt>
    <trkpt lat="46.09835" lon="-123.7523"><ele>8.3</ele></trkpt>
    <trkpt lat="46.09837686224675" lon="-123.75242611597203"><ele>8.1</ele></trkpt>
    <trkpt lat="46.09840326888369" lon="-123.75255009289461"><ele>7.9</ele></trkpt>
    <trkpt lat="46.09846875734331" lon="-123.75285755566264"><ele>7.6</ele></trkpt>
    <trkpt lat="46.09849489991388" lon="-123.752980292816"><ele>7.5</ele></trkpt>
    <trkpt lat="46.09858679501044" lon="-123.75341173250663"><ele>6.8</ele></trkpt>
    <trkpt lat="46.09865228347006" lon="-123.75371919527467"><ele>6.4</ele></trkpt>
    <trkpt lat="46.09867869010701" lon="-123.75384317219726"><ele>6.3</ele></trkpt>
    <trkpt lat="46.09870483267757" lon="-123.75396590935063"><ele>6.2</ele></trkpt>
    <trkpt lat="46.09874417856662" lon="-123.75415063496528"><ele>6.2</ele></trkpt>
    <trkpt lat="46.09880966702624" lon="-123.75445809773332"><ele>6.1</ele></trkpt>
    <trkpt lat="46.098862216233755" lon="-123.75470481180929"><ele>6.0</ele></trkpt>
    <trkpt lat="46.098940000000006" lon="-123.75507"><ele>6.0</ele></trkpt>
    <trkpt lat="46.09913957062518" lon="-123.75599703774274"><ele>5.9</ele></trkpt>
    <trkpt lat="46.099250000000005" lon="-123.75651"><ele>6.1</ele></trkpt>
    <trkpt lat="46.09913402310815" lon="-123.75654568519751"><ele>6.1</ele></trkpt>
    <trkpt lat="46.099120000000006" lon="-123.75655"><ele>6.1</ele></trkpt>
    <trkpt lat="46.099030000000006" lon="-123.75655"><ele>6.2</ele></trkpt>
    <trkpt lat="46.09882482968319" lon="-123.7563350596681"><ele>6.3</ele></trkpt>
    <trkpt lat="46.09882" lon="-123.75633"><ele>6.3</ele></trkpt>
    <trkpt lat="46.09869963344386" lon="-123.75615261770673"><ele>6.5</ele></trkpt>
    <trkpt lat="46.09863000000001" lon="-123.75605000000002"><ele>6.5</ele></trkpt>
    <trkpt lat="46.098529428650636" lon="-123.75585514301062"><ele>6.6</ele></trkpt>
    <trkpt lat="46.09844942036929" lon="-123.75570012696551"><ele>6.8</ele></trkpt>
    <trkpt lat="46.098310000000005" lon="-123.75543"><ele>7.1</ele></trkpt>
    <trkpt lat="46.098284252250956" lon="-123.75539689575123"><ele>7.2</ele></trkpt>
    <trkpt lat="46.098240000000004" lon="-123.75534"><ele>7.2</ele></trkpt>
    <trkpt lat="46.09817376550035" lon="-123.75528740201497"><ele>7.3</ele></trkpt>
    <trkpt lat="46.09809656304571" lon="-123.75522609418334"><ele>7.3</ele></trkpt>
    <trkpt lat="46.097978396023294" lon="-123.75513225566556"><ele>7.3</ele></trkpt>
    <trkpt lat="46.0979" lon="-123.75507"><ele>7.4</ele></trkpt>
    <trkpt lat="46.09773466646119" lon="-123.7549568770524"><ele>7.5</ele></trkpt>
    <trkpt lat="46.097710000000006" lon="-123.75494"><ele>7.5</ele></trkpt>
    <trkpt lat="46.09763" lon="-123.75489"><ele>7.5</ele></trkpt>
    <trkpt lat="46.09753441525423" lon="-123.75486750947158"><ele>7.6</ele></trkpt>
    <trkpt lat="46.097460000000005" lon="-123.75485"><ele>7.7</ele></trkpt>
    <trkpt lat="46.09740875101227" lon="-123.75485577453384"><ele>7.7</ele></trkpt>
    <trkpt lat="46.09731998862911" lon="-123.75486577592912"><ele>7.8</ele></trkpt>
    <trkpt lat="46.09727605573241" lon="-123.75487072611467"><ele>7.8</ele></trkpt>
    <trkpt lat="46.09723212283569" lon="-123.7548756763002"><ele>7.8</ele></trkpt>
    <trkpt lat="46.09714336045254" lon="-123.75488567769551"><ele>7.7</ele></trkpt>
    <trkpt lat="46.09705549465912" lon="-123.7548955780666"><ele>7.5</ele></trkpt>
    <trkpt lat="46.09696673227596" lon="-123.75490557946188"><ele>7.4</ele></trkpt>
    <trkpt lat="46.096790104099384" lon="-123.75492548122826"><ele>7.0</ele></trkpt>
    <trkpt lat="46.09675000000001" lon="-123.75493000000002"><ele>6.9</ele></trkpt>
    <trkpt lat="46.09670216206469" lon="-123.75494395273115"><ele>6.8</ele></trkpt>
    <trkpt lat="46.096658969849344" lon="-123.75495655046063"><ele>6.7</ele></trkpt>
    <trkpt lat="46.09657170394487" lon="-123.7549820030161"><ele>6.7</ele></trkpt>
    <trkpt lat="46.09644212729883" lon="-123.75501979620452"><ele>6.6</ele></trkpt>
    <trkpt lat="46.09635486139435" lon="-123.75504524875998"><ele>6.6</ele></trkpt>
    <trkpt lat="46.096270000000004" lon="-123.75507"><ele>6.7</ele></trkpt>
    <trkpt lat="46.09626781545671" lon="-123.75507160966347"><ele>6.7</ele></trkpt>
    <trkpt lat="46.096189333554676" lon="-123.7551294384334"><ele>6.9</ele></trkpt>
    <trkpt lat="46.09608" lon="-123.75521"><ele>7.1</ele></trkpt>
    <trkpt lat="46.09600173496987" lon="-123.75529825631058"><ele>7.3</ele></trkpt>
    <trkpt lat="46.095897594769085" lon="-123.75541569100508"><ele>7.5</ele></trkpt>
    <trkpt lat="46.09582816796857" lon="-123.75549398080142"><ele>7.5</ele></trkpt>
    <trkpt lat="46.095688605930796" lon="-123.75565135926955"><ele>7.5</ele></trkpt>
    <trkpt lat="46.095619179130274" lon="-123.75572964906587"><ele>7.4</ele></trkpt>
    <trkpt lat="46.09561" lon="-123.75574000000002"><ele>7.4</ele></trkpt>
    <trkpt lat="46.09548" lon="-123.75583"><ele>7.2</ele></trkpt>
    <trkpt lat="46.09537607714475" lon="-123.75587948707394"><ele>7.0</ele></trkpt>
    <trkpt lat="46.095270000000006" lon="-123.75593"><ele>6.8</ele></trkpt>
    <trkpt lat="46.095150000000004" lon="-123.75597"><ele>6.6</ele></trkpt>
    <trkpt lat="46.0951195954725" lon="-123.7559716002383"><ele>6.6</ele></trkpt>
    <trkpt lat="46.095031520524074" lon="-123.75597623576189"><ele>6.5</ele></trkpt>
    <trkpt lat="46.09498748304986" lon="-123.7559785535237"><ele>6.4</ele></trkpt>
    <trkpt lat="46.09496" lon="-123.75598000000001"><ele>6.4</ele></trkpt>
    <trkpt lat="46.0948994538394" lon="-123.75597534260305"><ele>6.4</ele></trkpt>
    <trkpt lat="46.09476654309666" lon="-123.75596511869975"><ele>6.5</ele></trkpt>
    <trkpt lat="46.0947" lon="-123.75596000000002"><ele>6.5</ele></trkpt>
    <trkpt lat="46.09459318707343" lon="-123.75592439569115"><ele>6.6</ele></trkpt>
    <trkpt lat="46.09458" lon="-123.75592"><ele>6.6</ele></trkpt>
    <trkpt lat="46.09450954943714" lon="-123.75588086079843"><ele>6.7</ele></trkpt>
    <trkpt lat="46.09449" lon="-123.75587000000002"><ele>6.7</ele></trkpt>
    <trkpt lat="46.09432057919578" lon="-123.75571841296465"><ele>7.0</ele></trkpt>
    <trkpt lat="46.094300000000004" lon="-123.7557"><ele>7.0</ele></trkpt>
    <trkpt lat="46.094173393428036" lon="-123.75557625999194"><ele>7.2</ele></trkpt>
    <trkpt lat="46.09410043850386" lon="-123.75550495687736"><ele>7.4</ele></trkpt>
    <trkpt lat="46.09402673914169" lon="-123.75543292617998"><ele>7.6</ele></trkpt>
    <trkpt lat="46.09399026167959" lon="-123.7553972746227"><ele>7.8</ele></trkpt>
    <trkpt lat="46.09395378421752" lon="-123.75536162306543"><ele>8.0</ele></trkpt>
    <trkpt lat="46.09388082929334" lon="-123.75529031995084"><ele>8.5</ele></trkpt>
    <trkpt lat="46.09380787436917" lon="-123.75521901683629"><ele>9.0</ele></trkpt>
    <trkpt lat="46.09366196452082" lon="-123.75507641060713"><ele>9.3</ele></trkpt>
    <trkpt lat="46.09358826515863" lon="-123.75500437990976"><ele>9.4</ele></trkpt>
    <trkpt lat="46.09351382135846" lon="-123.7549316216296"><ele>9.4</ele></trkpt>
    <trkpt lat="46.09336642263411" lon="-123.75478756023486"><ele>9.5</ele></trkpt>
    <trkpt lat="46.09325550137184" lon="-123.75467915039738"><ele>9.5</ele></trkpt>
    <trkpt lat="46.09277459442269" lon="-123.75420913190747"><ele>9.4</ele></trkpt>
    <trkpt lat="46.09258922936025" lon="-123.75402796378984"><ele>9.4</ele></trkpt>
    <trkpt lat="46.092515529998074" lon="-123.75395593309247"><ele>9.4</ele></trkpt>
    <trkpt lat="46.0924418306359" lon="-123.75388390239509"><ele>9.3</ele></trkpt>
    <trkpt lat="46.092330909373636" lon="-123.75377549255764"><ele>8.9</ele></trkpt>
    <trkpt lat="46.09218351064928" lon="-123.75363143116289"><ele>8.2</ele></trkpt>
    <trkpt lat="46.09214628874919" lon="-123.7535950520228"><ele>8.1</ele></trkpt>
    <trkpt lat="46.0921098112871" lon="-123.7535594004655"><ele>8.0</ele></trkpt>
    <trkpt lat="46.092072589387016" lon="-123.75352302132542"><ele>7.9</ele></trkpt>
    <trkpt lat="46.09203536748693" lon="-123.75348664218534"><ele>7.8</ele></trkpt>
    <trkpt lat="46.09199889002484" lon="-123.75345099062805"><ele>7.8</ele></trkpt>
    <trkpt lat="46.09196166812475" lon="-123.75341461148797"><ele>7.8</ele></trkpt>
    <trkpt lat="46.091925190662664" lon="-123.75337895993067"><ele>7.8</ele></trkpt>
    <trkpt lat="46.09188796876258" lon="-123.75334258079059"><ele>7.9</ele></trkpt>
    <trkpt lat="46.09185074686249" lon="-123.7533062016505"><ele>8.0</ele></trkpt>
    <trkpt lat="46.0918142694004" lon="-123.75327055009322"><ele>8.1</ele></trkpt>
    <trkpt lat="46.09174057003822" lon="-123.75319851939585"><ele>8.3</ele></trkpt>
    <trkpt lat="46.09165" lon="-123.75311"><ele>8.7</ele></trkpt>
    <trkpt lat="46.091440000000006" lon="-123.75288"><ele>9.4</ele></trkpt>
    <trkpt lat="46.09138820488208" lon="-123.75280411412956"><ele>9.6</ele></trkpt>
    <trkpt lat="46.09110685651821" lon="-123.75239190606156"><ele>10.9</ele></trkpt>
    <trkpt lat="46.091044404751344" lon="-123.75230040696127"><ele>11.2</ele></trkpt>
    <trkpt lat="46.091010000000004" lon="-123.75225"><ele>11.4</ele></trkpt>
    <trkpt lat="46.09095000000001" lon="-123.75219000000001"><ele>11.7</ele></trkpt>
    <trkpt lat="46.09084916627619" lon="-123.75218253083528"><ele>12.1</ele></trkpt>
    <trkpt lat="46.0907153437105" lon="-123.75217261805264"><ele>12.5</ele></trkpt>
    <trkpt lat="46.090410000000006" lon="-123.75215000000001"><ele>13.5</ele></trkpt>
    <trkpt lat="46.09017976293666" lon="-123.75215348844034"><ele>14.3</ele></trkpt>
    <trkpt lat="46.08975" lon="-123.75216"><ele>15.8</ele></trkpt>
    <trkpt lat="46.089690000000004" lon="-123.75216"><ele>16.0</ele></trkpt>
    <trkpt lat="46.08968971730622" lon="-123.7521602826938"><ele>16.0</ele></trkpt>
    <trkpt lat="46.08964" lon="-123.75221"><ele>16.2</ele></trkpt>
    <trkpt lat="46.08962022924054" lon="-123.7522396561392"><ele>16.3</ele></trkpt>
    <trkpt lat="46.08958844426862" lon="-123.75228733359707"><ele>16.4</ele></trkpt>
    <trkpt lat="46.089557905766185" lon="-123.75233314135073"><ele>16.5</ele></trkpt>
    <trkpt lat="46.08952" lon="-123.75239"><ele>16.6</ele></trkpt>
    <trkpt lat="46.089501833405635" lon="-123.75243201024946"><ele>16.6</ele></trkpt>
    <trkpt lat="46.08945472653316" lon="-123.75254094489208"><ele>16.7</ele></trkpt>
    <trkpt lat="46.08943093518343" lon="-123.75259596238834"><ele>16.6</ele></trkpt>
    <trkpt lat="46.08940761966069" lon="-123.75264987953469"><ele>16.6</ele></trkpt>
    <trkpt lat="46.089360000000006" lon="-123.75276000000001"><ele>16.5</ele></trkpt>
    <trkpt lat="46.08930911602016" lon="-123.75300593923592"><ele>16.2</ele></trkpt>
    <trkpt lat="46.0893" lon="-123.75305000000002"><ele>16.1</ele></trkpt>
    <trkpt lat="46.08928" lon="-123.75322000000001"><ele>15.8</ele></trkpt>
    <trkpt lat="46.089287331085735" lon="-123.75332263520028"><ele>15.7</ele></trkpt>
    <trkpt lat="46.0893" lon="-123.75350000000002"><ele>15.4</ele></trkpt>
    <trkpt lat="46.08933498518099" lon="-123.75363410986044"><ele>15.2</ele></trkpt>
    <trkpt lat="46.089360000000006" lon="-123.75373"><ele>15.1</ele></trkpt>
    <trkpt lat="46.08944712570468" lon="-123.75398467513675"><ele>14.8</ele></trkpt>
    <trkpt lat="46.089565285991114" lon="-123.75433006674324"><ele>14.4</ele></trkpt>
    <trkpt lat="46.089620000000004" lon="-123.75449"><ele>14.2</ele></trkpt>
    <trkpt lat="46.08972062578991" lon="-123.75472116735519"><ele>14.0</ele></trkpt>
    <trkpt lat="46.08976795673248" lon="-123.75482990060164"><ele>13.9</ele></trkpt>
    <trkpt lat="46.08988652313408" lon="-123.75510228287561"><ele>13.7</ele></trkpt>
    <trkpt lat="46.08998118501924" lon="-123.75531974936852"><ele>13.6</ele></trkpt>
    <trkpt lat="46.08999" lon="-123.75534"><ele>13.5</ele></trkpt>
    <trkpt lat="46.09008" lon="-123.75566"><ele>13.5</ele></trkpt>
    <trkpt lat="46.0901073339193" lon="-123.75580149322931"><ele>13.5</ele></trkpt>
    <trkpt lat="46.09020362032495" lon="-123.75629991697622"><ele>13.6</ele></trkpt>
    <trkpt lat="46.090250000000005" lon="-123.75654000000002"><ele>13.6</ele></trkpt>
    <trkpt lat="46.09025260511205" lon="-123.75654798901029"><ele>13.6</ele></trkpt>
    <trkpt lat="46.090290488689014" lon="-123.756664165313"><ele>13.5</ele></trkpt>
    <trkpt lat="46.09030962180871" lon="-123.75672284021336"><ele>13.5</ele></trkpt>
    <trkpt lat="46.090367021167744" lon="-123.75689886491442"><ele>13.4</ele></trkpt>
    <trkpt lat="46.0904" lon="-123.757"><ele>13.2</ele></trkpt>
    <trkpt lat="46.090411801617066" lon="-123.75707966091517"><ele>13.1</ele></trkpt>
    <trkpt lat="46.0904305887895" lon="-123.75720647432912"><ele>12.9</ele></trkpt>
    <trkpt lat="46.09044" lon="-123.75727"><ele>12.8</ele></trkpt>
    <trkpt lat="46.09042310672018" lon="-123.75752677785329"><ele>12.4</ele></trkpt>
    <trkpt lat="46.09040620547297" lon="-123.75778367681082"><ele>12.0</ele></trkpt>
    <trkpt lat="46.090390000000006" lon="-123.75803"><ele>11.6</ele></trkpt>
    <trkpt lat="46.09039023595098" lon="-123.7580406177939"><ele>11.6</ele></trkpt>
    <trkpt lat="46.09039452741407" lon="-123.758233733633"><ele>11.4</ele></trkpt>
    <trkpt lat="46.09039740759064" lon="-123.7583633415787"><ele>11.3</ele></trkpt>
    <trkpt lat="46.0904" lon="-123.75848"><ele>11.3</ele></trkpt>
    <trkpt lat="46.09038760350208" lon="-123.75855437898754"><ele>11.3</ele></trkpt>
    <trkpt lat="46.09038" lon="-123.75860000000002"><ele>11.3</ele></trkpt>
    <trkpt lat="46.09029" lon="-123.75883"><ele>11.2</ele></trkpt>
    <trkpt lat="46.09024279554427" lon="-123.7588654033418"><ele>11.2</ele></trkpt>
    <trkpt lat="46.090050000000005" lon="-123.75901"><ele>11.2</ele></trkpt>
    <trkpt lat="46.08989750490985" lon="-123.75916249509015"><ele>11.2</ele></trkpt>
    <trkpt lat="46.089870000000005" lon="-123.75919"><ele>11.2</ele></trkpt>
    <trkpt lat="46.08981000000001" lon="-123.75929000000001"><ele>11.1</ele></trkpt>
    <trkpt lat="46.08972573616602" lon="-123.75953342885376"><ele>11.1</ele></trkpt>
    <trkpt lat="46.08972000000001" lon="-123.75955"><ele>11.0</ele></trkpt>
    <trkpt lat="46.08970330547349" lon="-123.75965851442233"><ele>11.0</ele></trkpt>
    <trkpt lat="46.08968" lon="-123.75981000000002"><ele>10.8</ele></trkpt>
    <trkpt lat="46.08966067026747" lon="-123.76010477842115"><ele>10.5</ele></trkpt>
    <trkpt lat="46.08964382417699" lon="-123.76036168130103"><ele>10.2</ele></trkpt>
    <trkpt lat="46.089635358804884" lon="-123.7604907782256"><ele>10.1</ele></trkpt>
    <trkpt lat="46.08963112611883" lon="-123.76055532668789"><ele>10.1</ele></trkpt>
    <trkpt lat="46.08962274540045" lon="-123.76068313264321"><ele>10.2</ele></trkpt>
    <trkpt lat="46.0896100473423" lon="-123.76087677803005"><ele>10.4</ele></trkpt>
    <trkpt lat="46.089605814656245" lon="-123.76094132649234"><ele>10.5</ele></trkpt>
    <trkpt lat="46.089600000000004" lon="-123.76103"><ele>10.7</ele></trkpt>
    <trkpt lat="46.089600000000004" lon="-123.76107060367355"><ele>10.8</ele></trkpt>
    <trkpt lat="46.089600000000004" lon="-123.7613"><ele>11.3</ele></trkpt>
    <trkpt lat="46.0896026783671" lon="-123.76132839069125"><ele>11.4</ele></trkpt>
    <trkpt lat="46.08962692164076" lon="-123.76158536939195"><ele>12.0</ele></trkpt>
    <trkpt lat="46.089639043277586" lon="-123.76171385874231"><ele>12.3</ele></trkpt>
    <trkpt lat="46.089645104096" lon="-123.76177810341748"><ele>12.4</ele></trkpt>
    <trkpt lat="46.089650000000006" lon="-123.76183"><ele>12.6</ele></trkpt>
    <trkpt lat="46.08966577895233" lon="-123.76190387418588"><ele>12.9</ele></trkpt>
    <trkpt lat="46.08969198446906" lon="-123.76202656365061"><ele>13.3</ele></trkpt>
    <trkpt lat="46.089718454688" lon="-123.76215049240287"><ele>13.9</ele></trkpt>
    <trkpt lat="46.089784630235314" lon="-123.76246031428352"><ele>15.4</ele></trkpt>
    <trkpt lat="46.08981110045425" lon="-123.76258424303577"><ele>16.0</ele></trkpt>
    <trkpt lat="46.089863776189915" lon="-123.76283086125277"><ele>17.0</ele></trkpt>
    <trkpt lat="46.089870000000005" lon="-123.76286"><ele>17.1</ele></trkpt>
    <trkpt lat="46.08988333074291" lon="-123.76295598134891"><ele>17.5</ele></trkpt>
    <trkpt lat="46.08989216051128" lon="-123.76301955568124"><ele>17.7</ele></trkpt>
    <trkpt lat="46.089918649816425" lon="-123.76321027867824"><ele>18.2</ele></trkpt>
    <trkpt lat="46.089920000000006" lon="-123.76322"><ele>18.2</ele></trkpt>
    <trkpt lat="46.08993401399275" lon="-123.76340218190565"><ele>18.8</ele></trkpt>
    <trkpt lat="46.089938971035515" lon="-123.76346662346165"><ele>18.9</ele></trkpt>
    <trkpt lat="46.08994382893743" lon="-123.76352977618653"><ele>19.1</ele></trkpt>
    <trkpt lat="46.0899487859802" lon="-123.76359421774255"><ele>19.2</ele></trkpt>
    <trkpt lat="46.089953743022974" lon="-123.76365865929857"><ele>19.2</ele></trkpt>
    <trkpt lat="46.089958700065736" lon="-123.76372310085458"><ele>19.3</ele></trkpt>
    <trkpt lat="46.089968515010426" lon="-123.76385069513546"><ele>19.3</ele></trkpt>
    <trkpt lat="46.089978429095964" lon="-123.76397957824747"><ele>19.3</ele></trkpt>
    <trkpt lat="46.0899883431815" lon="-123.76410846135951"><ele>19.2</ele></trkpt>
    <trkpt lat="46.090003115168955" lon="-123.7643004971964"><ele>19.0</ele></trkpt>
    <trkpt lat="46.0900130292545" lon="-123.76442938030841"><ele>18.8</ele></trkpt>
    <trkpt lat="46.09002" lon="-123.76452"><ele>18.7</ele></trkpt>
    <trkpt lat="46.090025454095695" lon="-123.76455636063797"><ele>18.6</ele></trkpt>
    <trkpt lat="46.0900727926244" lon="-123.76487195082932"><ele>18.0</ele></trkpt>
    <trkpt lat="46.09008" lon="-123.76492"><ele>18.0</ele></trkpt>
    <trkpt lat="46.09010076148999" lon="-123.76499474136395"><ele>17.9</ele></trkpt>
    <trkpt lat="46.090133530837626" lon="-123.76511271101543"><ele>17.8</ele></trkpt>
    <trkpt lat="46.09015024989253" lon="-123.76517289961313"><ele>17.8</ele></trkpt>
    <trkpt lat="46.09018368800237" lon="-123.76529327680853"><ele>17.8</ele></trkpt>
    <trkpt lat="46.09021712611221" lon="-123.76541365400392"><ele>17.9</ele></trkpt>
    <trkpt lat="46.090230000000005" lon="-123.76546"><ele>18.0</ele></trkpt>
    <trkpt lat="46.09025651132127" lon="-123.76552998988815"><ele>18.1</ele></trkpt>
    <trkpt lat="46.09048000000001" lon="-123.76612000000002"><ele>19.0</ele></trkpt>
    <trkpt lat="46.09052116605611" lon="-123.76620439041501"><ele>19.2</ele></trkpt>
    <trkpt lat="46.09059825748761" lon="-123.7663624278496"><ele>19.5</ele></trkpt>
    <trkpt lat="46.090680000000006" lon="-123.76653"><ele>19.9</ele></trkpt>
    <trkpt lat="46.09074231706275" lon="-123.7666892547159"><ele>20.3</ele></trkpt>
    <trkpt lat="46.090770000000006" lon="-123.76676"><ele>20.4</ele></trkpt>
    <trkpt lat="46.090777081546406" lon="-123.76680603005163"><ele>20.5</ele></trkpt>
    <trkpt lat="46.090790000000005" lon="-123.76689"><ele>20.5</ele></trkpt>
    <trkpt lat="46.090785209525556" lon="-123.76693311427"><ele>20.6</ele></trkpt>
    <trkpt lat="46.09077098259587" lon="-123.7670611566372"><ele>20.7</ele></trkpt>
    <trkpt lat="46.090756897935485" lon="-123.76718791858073"><ele>20.7</ele></trkpt>
    <trkpt lat="46.09074267100579" lon="-123.76731596094791"><ele>20.8</ele></trkpt>
    <trkpt lat="46.09072147288056" lon="-123.76750674407502"><ele>20.7</ele></trkpt>
    <trkpt lat="46.09070724595087" lon="-123.7676347864422"><ele>20.7</ele></trkpt>
    <trkpt lat="46.09069" lon="-123.76779"><ele>20.8</ele></trkpt>
    <trkpt lat="46.09069" lon="-123.76807000000001"><ele>20.8</ele></trkpt>
    <trkpt lat="46.09070727948807" lon="-123.76814487778162"><ele>20.9</ele></trkpt>
    <trkpt lat="46.09075000000001" lon="-123.76833"><ele>20.9</ele></trkpt>
    <trkpt lat="46.09083863205892" lon="-123.76855350693118"><ele>20.9</ele></trkpt>
    <trkpt lat="46.09088282627583" lon="-123.7686649532173"><ele>20.9</ele></trkpt>
    <trkpt lat="46.09092746689897" lon="-123.76877752522348"><ele>20.9</ele></trkpt>
    <trkpt lat="46.09098" lon="-123.76891"><ele>21.1</ele></trkpt>
    <trkpt lat="46.09099174558749" lon="-123.76894691470353"><ele>21.1</ele></trkpt>
    <trkpt lat="46.09102924750542" lon="-123.76906477787416"><ele>21.2</ele></trkpt>
    <trkpt lat="46.09105" lon="-123.76913"><ele>21.3</ele></trkpt>
    <trkpt lat="46.09105783510199" lon="-123.76918680448942"><ele>21.4</ele></trkpt>
    <trkpt lat="46.09110151660976" lon="-123.76950349542076"><ele>21.8</ele></trkpt>
    <trkpt lat="46.091153794076895" lon="-123.76988250705747"><ele>22.4</ele></trkpt>
    <trkpt lat="46.091206773254996" lon="-123.77026660609869"><ele>22.9</ele></trkpt>
    <trkpt lat="46.091210000000004" lon="-123.77029000000002"><ele>22.9</ele></trkpt>
    <trkpt lat="46.09121905121529" lon="-123.77043934505232"><ele>23.2</ele></trkpt>
    <trkpt lat="46.09123" lon="-123.77062000000001"><ele>23.6</ele></trkpt>
    <trkpt lat="46.091220335142474" lon="-123.77078430257805"><ele>23.9</ele></trkpt>
    <trkpt lat="46.09122000000001" lon="-123.77079"><ele>23.9</ele></trkpt>
    <trkpt lat="46.0911603909999" lon="-123.77116354973401"><ele>25.0</ele></trkpt>
    <trkpt lat="46.09115030796801" lon="-123.77122673673384"><ele>25.2</ele></trkpt>
    <trkpt lat="46.09113014190423" lon="-123.77135311073351"><ele>25.5</ele></trkpt>
    <trkpt lat="46.09111017750109" lon="-123.7714782209932"><ele>25.7</ele></trkpt>
    <trkpt lat="46.09109001143731" lon="-123.77160459499288"><ele>25.9</ele></trkpt>
    <trkpt lat="46.09107992840542" lon="-123.7716677819927"><ele>26.0</ele></trkpt>
    <trkpt lat="46.09107" lon="-123.77173"><ele>26.0</ele></trkpt>
    <trkpt lat="46.09107" lon="-123.77179583233722"><ele>26.0</ele></trkpt>
    <trkpt lat="46.09107" lon="-123.7718606703629"><ele>26.0</ele></trkpt>
    <trkpt lat="46.09107" lon="-123.77199034641421"><ele>26.0</ele></trkpt>
    <trkpt lat="46.09107" lon="-123.77244161907288"><ele>25.7</ele></trkpt>
    <trkpt lat="46.09107" lon="-123.77257129512421"><ele>25.6</ele></trkpt>
    <trkpt lat="46.09107" lon="-123.7728"><ele>25.6</ele></trkpt>
    <trkpt lat="46.09104401919173" lon="-123.77295588484967"><ele>25.5</ele></trkpt>
    <trkpt lat="46.09102300484705" lon="-123.7730819709177"><ele>25.4</ele></trkpt>
    <trkpt lat="46.091010000000004" lon="-123.77316"><ele>25.4</ele></trkpt>
    <trkpt lat="46.09091" lon="-123.77338"><ele>25.1</ele></trkpt>
    <trkpt lat="46.09088447565679" lon="-123.77340490179827"><ele>25.1</ele></trkpt>
    <trkpt lat="46.09080999089249" lon="-123.77347756986097"><ele>25.0</ele></trkpt>
    <trkpt lat="46.0907355061282" lon="-123.77355023792371"><ele>24.9</ele></trkpt>
    <trkpt lat="46.09058728144725" lon="-123.77369484736855"><ele>24.8</ele></trkpt>
    <trkpt lat="46.090500000000006" lon="-123.77378000000002"><ele>24.7</ele></trkpt>
    <trkpt lat="46.090478759963176" lon="-123.7738095513556"><ele>24.7</ele></trkpt>
    <trkpt lat="46.09034997257785" lon="-123.77398873380474"><ele>24.6</ele></trkpt>
    <trkpt lat="46.09028525529879" lon="-123.77407877523648"><ele>24.6</ele></trkpt>
    <trkpt lat="46.090270000000004" lon="-123.7741"><ele>24.6</ele></trkpt>
    <trkpt lat="46.0902344105737" lon="-123.77418478657445"><ele>24.6</ele></trkpt>
    <trkpt lat="46.090164561444496" lon="-123.77435119185284"><ele>24.7</ele></trkpt>
    <trkpt lat="46.090141278401425" lon="-123.77440666027897"><ele>24.8</ele></trkpt>
    <trkpt lat="46.09009517797615" lon="-123.77451648776272"><ele>25.0</ele></trkpt>
    <trkpt lat="46.090071894933075" lon="-123.77457195618885"><ele>25.1</ele></trkpt>
    <trkpt lat="46.09002532884695" lon="-123.7746828930411"><ele>25.4</ele></trkpt>
    <trkpt lat="46.089955479717744" lon="-123.77484929831951"><ele>25.9</ele></trkpt>
    <trkpt lat="46.08993" lon="-123.77491"><ele>26.2</ele></trkpt>
    <trkpt lat="46.089870000000005" lon="-123.775"><ele>26.5</ele></trkpt>
    <trkpt lat="46.08977206674957" lon="-123.77512806655827"><ele>27.1</ele></trkpt>
    <trkpt lat="46.089740000000006" lon="-123.77517000000002"><ele>27.2</ele></trkpt>
    <trkpt lat="46.089695932323465" lon="-123.77519203383828"><ele>27.4</ele></trkpt>
    <trkpt lat="46.08965344801399" lon="-123.77521327599302"><ele>27.5</ele></trkpt>
    <trkpt lat="46.089620000000004" lon="-123.77523000000001"><ele>27.6</ele></trkpt>
    <trkpt lat="46.08956687093153" lon="-123.7752477096895"><ele>27.7</ele></trkpt>
    <trkpt lat="46.08947924960841" lon="-123.77527691679721"><ele>27.8</ele></trkpt>
    <trkpt lat="46.0893916282853" lon="-123.77530612390491"><ele>27.9</ele></trkpt>
    <trkpt lat="46.089380000000006" lon="-123.77531"><ele>27.9</ele></trkpt>
    <trkpt lat="46.08926" lon="-123.77531"><ele>27.8</ele></trkpt>
    <trkpt lat="46.08925796323004" lon="-123.77530951760713"><ele>27.8</ele></trkpt>
    <trkpt lat="46.08908047720937" lon="-123.77526748144433"><ele>27.6</ele></trkpt>
    <trkpt lat="46.08888" lon="-123.77522"><ele>27.5</ele></trkpt>
    <trkpt lat="46.08879" lon="-123.77522"><ele>27.4</ele></trkpt>
    <trkpt lat="46.08876848164533" lon="-123.77522268979433"><ele>27.4</ele></trkpt>
    <trkpt lat="46.08867888546773" lon="-123.77523388931655"><ele>27.4</ele></trkpt>
    <trkpt lat="46.08863408737892" lon="-123.77523948907765"><ele>27.4</ele></trkpt>
    <trkpt lat="46.088544491201304" lon="-123.77525068859985"><ele>27.5</ele></trkpt>
    <trkpt lat="46.088499693112496" lon="-123.77525628836095"><ele>27.5</ele></trkpt>
    <trkpt lat="46.08847" lon="-123.77526000000002"><ele>27.6</ele></trkpt>
    <trkpt lat="46.0884551121317" lon="-123.775264135519"><ele>27.6</ele></trkpt>
    <trkpt lat="46.08841095793822" lon="-123.77527640057275"><ele>27.7</ele></trkpt>
    <trkpt lat="46.088322649551266" lon="-123.77530093068022"><ele>28.0</ele></trkpt>
    <trkpt lat="46.08829" lon="-123.77531"><ele>28.1</ele></trkpt>
    <trkpt lat="46.08818838771441" lon="-123.77531390816483"><ele>28.5</ele></trkpt>
    <trkpt lat="46.08803" lon="-123.77532000000001"><ele>29.1</ele></trkpt>
    <trkpt lat="46.0878292172949" lon="-123.77529951196888"><ele>29.9</ele></trkpt>
    <trkpt lat="46.0877395094303" lon="-123.77529035810514"><ele>30.2</ele></trkpt>
    <trkpt lat="46.08764980156569" lon="-123.7752812042414"><ele>30.5</ele></trkpt>
    <trkpt lat="46.087560093701086" lon="-123.77527205037767"><ele>30.8</ele></trkpt>
    <trkpt lat="46.087540000000004" lon="-123.77527"><ele>30.8</ele></trkpt>
    <trkpt lat="46.087470728639914" lon="-123.77525777564234"><ele>31.0</ele></trkpt>
    <trkpt lat="46.08742609558338" lon="-123.77524989922061"><ele>31.0</ele></trkpt>
    <trkpt lat="46.087247563357245" lon="-123.77521839353363"><ele>31.3</ele></trkpt>
    <trkpt lat="46.08715829724418" lon="-123.77520264069015"><ele>31.4</ele></trkpt>
    <trkpt lat="46.08706903113111" lon="-123.77518688784667"><ele>31.5</ele></trkpt>
    <trkpt lat="46.087030000000006" lon="-123.77518"><ele>31.5</ele></trkpt>
    <trkpt lat="46.08689246716212" lon="-123.77514513251998"><ele>31.5</ele></trkpt>
    <trkpt lat="46.0866710336333" lon="-123.77508899444226"><ele>31.5</ele></trkpt>
    <trkpt lat="46.08649388681025" lon="-123.77504408398006"><ele>31.6</ele></trkpt>
    <trkpt lat="46.08632" lon="-123.775"><ele>31.8</ele></trkpt>
    <trkpt lat="46.08631579065223" lon="-123.775"><ele>31.8</ele></trkpt>
    <trkpt lat="46.086200000000005" lon="-123.775"><ele>31.9</ele></trkpt>
    <trkpt lat="46.08613638728094" lon="-123.77501106308158"><ele>32.0</ele></trkpt>
    <trkpt lat="46.08597" lon="-123.77504"><ele>32.1</ele></trkpt>
    <trkpt lat="46.0857" lon="-123.77512000000002"><ele>32.4</ele></trkpt>
    <trkpt lat="46.085693792875546" lon="-123.77512239417658"><ele>32.4</ele></trkpt>
    <trkpt lat="46.08552177631758" lon="-123.77518874342039"><ele>32.5</ele></trkpt>
    <trkpt lat="46.0854348992681" lon="-123.77522225313948"><ele>32.6</ele></trkpt>
    <trkpt lat="46.08539146074337" lon="-123.775239007999"><ele>32.5</ele></trkpt>
    <trkpt lat="46.085303714923384" lon="-123.77527285281528"><ele>32.5</ele></trkpt>
    <trkpt lat="46.085216837873915" lon="-123.77530636253437"><ele>32.3</ele></trkpt>
    <trkpt lat="46.08512996082443" lon="-123.77533987225345"><ele>32.1</ele></trkpt>
    <trkpt lat="46.085" lon="-123.77539000000002"><ele>31.8</ele></trkpt>
    <trkpt lat="46.084910852805656" lon="-123.77541073190567"><ele>31.6</ele></trkpt>
    <trkpt lat="46.0847332834954" lon="-123.7754520270941"><ele>31.2</ele></trkpt>
    <trkpt lat="46.08457000000001" lon="-123.77549"><ele>30.7</ele></trkpt>
    <trkpt lat="46.08451078013354" lon="-123.77549731109464"><ele>30.5</ele></trkpt>
    <trkpt lat="46.08419716499143" lon="-123.77553602901341"><ele>29.7</ele></trkpt>
    <trkpt lat="46.0840179563388" lon="-123.77555815353843"><ele>29.3</ele></trkpt>
    <trkpt lat="46.083884445892586" lon="-123.77557463630957"><ele>29.0</ele></trkpt>
    <trkpt lat="46.08379484156627" lon="-123.77558569857207"><ele>28.8</ele></trkpt>
    <trkpt lat="46.083760000000005" lon="-123.77559000000001"><ele>28.8</ele></trkpt>
    <trkpt lat="46.083510000000004" lon="-123.77559000000001"><ele>28.4</ele></trkpt>
    <trkpt lat="46.08334556771744" lon="-123.77557666765277"><ele>28.1</ele></trkpt>
    <trkpt lat="46.0831659870113" lon="-123.77556210705498"><ele>27.9</ele></trkpt>
    <trkpt lat="46.08280682559902" lon="-123.77553298585939"><ele>27.5</ele></trkpt>
    <trkpt lat="46.082770000000004" lon="-123.77553"><ele>27.5</ele></trkpt>
    <trkpt lat="46.082584203973894" lon="-123.77548912487426"><ele>27.3</ele></trkpt>
    <trkpt lat="46.08249530088001" lon="-123.7754695661936"><ele>27.2</ele></trkpt>
    <trkpt lat="46.08240639778613" lon="-123.77545000751296"><ele>27.1</ele></trkpt>
    <trkpt lat="46.082228591598366" lon="-123.77541089015165"><ele>27.1</ele></trkpt>
    <trkpt lat="46.08187297922285" lon="-123.77533265542904"><ele>27.0</ele></trkpt>
    <trkpt lat="46.081770000000006" lon="-123.77531"><ele>26.9</ele></trkpt>
    <trkpt lat="46.081478122159886" lon="-123.77520682457745"><ele>26.9</ele></trkpt>
    <trkpt lat="46.081254519132784" lon="-123.7751277835074"><ele>31.4</ele></trkpt>
    <trkpt lat="46.08107982926788" lon="-123.77506603267145"><ele>31.4</ele></trkpt>
    <trkpt lat="46.08099335778474" lon="-123.77503546600764"><ele>31.5</ele></trkpt>
    <trkpt lat="46.08090601285228" lon="-123.77500459058965"><ele>31.6</ele></trkpt>
    <trkpt lat="46.08081866791982" lon="-123.77497371517165"><ele>31.7</ele></trkpt>
    <trkpt lat="46.08068939741979" lon="-123.77492801955304"><ele>32.1</ele></trkpt>
    <trkpt lat="46.08060205248733" lon="-123.77489714413505"><ele>32.3</ele></trkpt>
    <trkpt lat="46.08051470755487" lon="-123.77486626871706"><ele>32.6</ele></trkpt>
    <trkpt lat="46.08008060324055" lon="-123.77471281788968"><ele>34.2</ele></trkpt>
    <trkpt lat="46.07999325830809" lon="-123.7746819424717"><ele>34.5</ele></trkpt>
    <trkpt lat="46.07995045929119" lon="-123.77466681351689"><ele>34.6</ele></trkpt>
    <trkpt lat="46.07986311435874" lon="-123.77463593809891"><ele>34.9</ele></trkpt>
    <trkpt lat="46.07977576942628" lon="-123.77460506268092"><ele>35.0</ele></trkpt>
    <trkpt lat="46.079620000000006" lon="-123.77455"><ele>35.1</ele></trkpt>
    <trkpt lat="46.07960062909666" lon="-123.77454701986103"><ele>35.1</ele></trkpt>
    <trkpt lat="46.07951209886893" lon="-123.774533399826"><ele>35.1</ele></trkpt>
    <trkpt lat="46.07937885640498" lon="-123.77451290098539"><ele>35.1</ele></trkpt>
    <trkpt lat="46.07936" lon="-123.77451"><ele>35.1</ele></trkpt>
    <trkpt lat="46.07919939375289" lon="-123.77449596644443"><ele>35.0</ele></trkpt>
    <trkpt lat="46.079066537865884" lon="-123.77448435767761"><ele>34.8</ele></trkpt>
    <trkpt lat="46.07884211913786" lon="-123.7744647482742"><ele>34.6</ele></trkpt>
    <trkpt lat="46.07857461201405" lon="-123.77444137386533"><ele>34.3</ele></trkpt>
    <trkpt lat="46.078351090960936" lon="-123.7744218428995"><ele>34.1</ele></trkpt>
    <trkpt lat="46.078171555978514" lon="-123.77440615537677"><ele>34.0</ele></trkpt>
    <trkpt lat="46.07790404885471" lon="-123.7743827809679"><ele>33.7</ele></trkpt>
    <trkpt lat="46.0776805278016" lon="-123.7743632500021"><ele>33.6</ele></trkpt>
    <trkpt lat="46.0773" lon="-123.77433"><ele>33.2</ele></trkpt>
    <trkpt lat="46.07714433071112" lon="-123.77433"><ele>33.1</ele></trkpt>
    <trkpt lat="46.077090000000005" lon="-123.77433"><ele>33.0</ele></trkpt>
    <trkpt lat="46.07705597869606" lon="-123.77434512057953"><ele>33.0</ele></trkpt>
    <trkpt lat="46.076910000000005" lon="-123.77441"><ele>32.7</ele></trkpt>
    <trkpt lat="46.07688698050154" lon="-123.7744280545086"><ele>32.7</ele></trkpt>
    <trkpt lat="46.076650779845124" lon="-123.77461330992541"><ele>32.3</ele></trkpt>
    <trkpt lat="46.07645407762624" lon="-123.77476758617553"><ele>32.0</ele></trkpt>
    <trkpt lat="46.07640000000001" lon="-123.77481000000002"><ele>31.9</ele></trkpt>
    <trkpt lat="46.07612" lon="-123.77495"><ele>31.4</ele></trkpt>
    <trkpt lat="46.07603354805664" lon="-123.77498572758884"><ele>31.3</ele></trkpt>
    <trkpt lat="46.07594796283209" lon="-123.77502109699286"><ele>31.1</ele></trkpt>
    <trkpt lat="46.07590560246843" lon="-123.77503860306152"><ele>31.0</ele></trkpt>
    <trkpt lat="46.075776792382996" lon="-123.77509183580091"><ele>30.7</ele></trkpt>
    <trkpt lat="46.075690342661225" lon="-123.77512756247165"><ele>30.4</ele></trkpt>
    <trkpt lat="46.07564625330313" lon="-123.77514578307373"><ele>30.2</ele></trkpt>
    <trkpt lat="46.075560668078566" lon="-123.77518115247773"><ele>29.8</ele></trkpt>
    <trkpt lat="46.0754742183568" lon="-123.77521687914847"><ele>29.4</ele></trkpt>
    <trkpt lat="46.07538863313225" lon="-123.7752522485525"><ele>28.9</ele></trkpt>
    <trkpt lat="46.075302183410486" lon="-123.77528797522322"><ele>28.4</ele></trkpt>
    <trkpt lat="46.07513101296138" lon="-123.77535871403127"><ele>27.3</ele></trkpt>
    <trkpt lat="46.07491488865696" lon="-123.77544803070809"><ele>25.9</ele></trkpt>
    <trkpt lat="46.074828438935185" lon="-123.77548375737882"><ele>25.3</ele></trkpt>
    <trkpt lat="46.07465640398887" lon="-123.7755548534536"><ele>24.1</ele></trkpt>
    <trkpt lat="46.07448436904256" lon="-123.77562594952835"><ele>22.9</ele></trkpt>
    <trkpt lat="46.074355558957116" lon="-123.77567918226774"><ele>22.1</ele></trkpt>
    <trkpt lat="46.074160000000006" lon="-123.77576"><ele>20.9</ele></trkpt>
    <trkpt lat="46.074095470804764" lon="-123.77576293314524"><ele>20.5</ele></trkpt>
    <trkpt lat="46.07394" lon="-123.77577000000001"><ele>19.5</ele></trkpt>
    <trkpt lat="46.073915820927866" lon="-123.77576628014276"><ele>19.3</ele></trkpt>
    <trkpt lat="46.07378257861836" lon="-123.77574578132592"><ele>18.4</ele></trkpt>
    <trkpt lat="46.07368" lon="-123.77573000000001"><ele>17.7</ele></trkpt>
    <trkpt lat="46.07360384895646" lon="-123.77574324365975"><ele>17.2</ele></trkpt>
    <trkpt lat="46.073515457047804" lon="-123.7757586161656"><ele>16.6</ele></trkpt>
    <trkpt lat="46.07345" lon="-123.77577000000001"><ele>16.1</ele></trkpt>
    <trkpt lat="46.0734273248731" lon="-123.77578133756346"><ele>15.9</ele></trkpt>
    <trkpt lat="46.07327" lon="-123.77586000000001"><ele>14.5</ele></trkpt>
    <trkpt lat="46.07316" lon="-123.77595000000001"><ele>13.5</ele></trkpt>
    <trkpt lat="46.073144493929405" lon="-123.77596597595155"><ele>13.3</ele></trkpt>
    <trkpt lat="46.07288841886263" lon="-123.77622981086881"><ele>11.0</ele></trkpt>
    <trkpt lat="46.07283" lon="-123.77629"><ele>10.4</ele></trkpt>
    <trkpt lat="46.0727326761327" lon="-123.77645684091536"><ele>9.2</ele></trkpt>
    <trkpt lat="46.072678270942504" lon="-123.77655010695572"><ele>8.9</ele></trkpt>
    <trkpt lat="46.072651647126015" lon="-123.77659574778397"><ele>8.8</ele></trkpt>
    <trkpt lat="46.07262" lon="-123.77665"><ele>8.7</ele></trkpt>
    <trkpt lat="46.07260033223809" lon="-123.77669236133337"><ele>8.6</ele></trkpt>
    <trkpt lat="46.07257682346513" lon="-123.77674299561357"><ele>8.6</ele></trkpt>
    <trkpt lat="46.07255331469217" lon="-123.7767936298938"><ele>8.6</ele></trkpt>
    <trkpt lat="46.07250679733291" lon="-123.77689382112912"><ele>8.7</ele></trkpt>
    <trkpt lat="46.07249" lon="-123.77693000000001"><ele>8.7</ele></trkpt>
    <trkpt lat="46.07243084748066" lon="-123.77703844628547"><ele>8.9</ele></trkpt>
    <trkpt lat="46.07237000000001" lon="-123.77715"><ele>9.1</ele></trkpt>
    <trkpt lat="46.07235097399283" lon="-123.77717853901076"><ele>9.2</ele></trkpt>
    <trkpt lat="46.072292399497" lon="-123.7772664007545"><ele>9.5</ele></trkpt>
    <trkpt lat="46.07226373538203" lon="-123.77730939692697"><ele>9.7</ele></trkpt>
    <trkpt lat="46.07220578401914" lon="-123.77739632397132"><ele>10.1</ele></trkpt>
    <trkpt lat="46.07211" lon="-123.77754000000002"><ele>10.9</ele></trkpt>
    <trkpt lat="46.07205417480188" lon="-123.77760394075558"><ele>11.3</ele></trkpt>
    <trkpt lat="46.07195278502296" lon="-123.77772007001776"><ele>12.0</ele></trkpt>
    <trkpt lat="46.07188519183701" lon="-123.77779748952591"><ele>12.6</ele></trkpt>
    <trkpt lat="46.07178380205809" lon="-123.77791361878812"><ele>13.4</ele></trkpt>
    <trkpt lat="46.07147963272132" lon="-123.77826200657472"><ele>16.2</ele></trkpt>
    <trkpt lat="46.0713782429424" lon="-123.77837813583693"><ele>17.0</ele></trkpt>
    <trkpt lat="46.07127685316348" lon="-123.77849426509913"><ele>17.7</ele></trkpt>
    <trkpt lat="46.071143074982956" lon="-123.77864749120897"><ele>17.5</ele></trkpt>
    <trkpt lat="46.07105506302208" lon="-123.77874829786018"><ele>20.1</ele></trkpt>
    <trkpt lat="46.07092621351137" lon="-123.77889587879757"><ele>20.3</ele></trkpt>
    <trkpt lat="46.07066358582013" lon="-123.77919668584481"><ele>20.7</ele></trkpt>
    <trkpt lat="46.070593880347126" lon="-123.77927652471257"><ele>20.8</ele></trkpt>
    <trkpt lat="46.07055867556277" lon="-123.77931684737305"><ele>20.9</ele></trkpt>
    <trkpt lat="46.070523470778426" lon="-123.77935717003353"><ele>21.0</ele></trkpt>
    <trkpt lat="46.070453061209726" lon="-123.77943781535451"><ele>21.3</ele></trkpt>
    <trkpt lat="46.07020803591067" lon="-123.77971846107151"><ele>22.5</ele></trkpt>
    <trkpt lat="46.069840000000006" lon="-123.78014000000002"><ele>24.0</ele></trkpt>
    <trkpt lat="46.06982286473733" lon="-123.78016533038831"><ele>24.0</ele></trkpt>
    <trkpt lat="46.06972994564316" lon="-123.78030268904926"><ele>24.4</ele></trkpt>
    <trkpt lat="46.06957298771381" lon="-123.78053471381438"><ele>25.0</ele></trkpt>
    <trkpt lat="46.06951083237379" lon="-123.78062659562137"><ele>25.3</ele></trkpt>
    <trkpt lat="46.06944867703376" lon="-123.78071847742837"><ele>25.4</ele></trkpt>
    <trkpt lat="46.06938589386203" lon="-123.7808112873344"><ele>25.5</ele></trkpt>
    <trkpt lat="46.06938" lon="-123.78082"><ele>25.5</ele></trkpt>
    <trkpt lat="46.06931" lon="-123.78096000000001"><ele>25.7</ele></trkpt>
    <trkpt lat="46.069289839160895" lon="-123.78102720279702"><ele>25.7</ele></trkpt>
    <trkpt lat="46.06925414573261" lon="-123.78114618089131"><ele>25.8</ele></trkpt>
    <trkpt lat="46.06922" lon="-123.78126"><ele>25.9</ele></trkpt>
    <trkpt lat="46.069217828457454" lon="-123.78133166090392"><ele>25.9</ele></trkpt>
    <trkpt lat="46.06921005838373" lon="-123.78158807333713"><ele>25.9</ele></trkpt>
    <trkpt lat="46.069210000000005" lon="-123.78159000000001"><ele>25.9</ele></trkpt>
    <trkpt lat="46.069219846094974" lon="-123.78171690522406"><ele>25.9</ele></trkpt>
    <trkpt lat="46.06924973052648" lon="-123.78210208234131"><ele>25.8</ele></trkpt>
    <trkpt lat="46.06926472271621" lon="-123.78229531500884"><ele>25.8</ele></trkpt>
    <trkpt lat="46.069299504596366" lon="-123.7827436147975"><ele>25.9</ele></trkpt>
    <trkpt lat="46.069300000000005" lon="-123.78275000000001"><ele>25.9</ele></trkpt>
    <trkpt lat="46.06933340747223" lon="-123.78293040034998"><ele>25.9</ele></trkpt>
    <trkpt lat="46.06935000000001" lon="-123.78302000000001"><ele>26.0</ele></trkpt>
    <trkpt lat="46.06936205252537" lon="-123.78305254181849"><ele>26.0</ele></trkpt>
    <trkpt lat="46.06944675705246" lon="-123.78328124404163"><ele>26.3</ele></trkpt>
    <trkpt lat="46.06945" lon="-123.78329000000001"><ele>26.3</ele></trkpt>
    <trkpt lat="46.069520000000004" lon="-123.78341"><ele>26.6</ele></trkpt>
    <trkpt lat="46.06953530245201" lon="-123.78342457376382"><ele>26.6</ele></trkpt>
    <trkpt lat="46.06968536757247" lon="-123.78356749292617"><ele>27.0</ele></trkpt>
    <trkpt lat="46.0697604001327" lon="-123.78363895250735"><ele>27.2</ele></trkpt>
    <trkpt lat="46.06979716608721" lon="-123.78367396770211"><ele>27.2</ele></trkpt>
    <trkpt lat="46.06983468236733" lon="-123.7837096974927"><ele>27.3</ele></trkpt>
    <trkpt lat="46.069872198647445" lon="-123.78374542728329"><ele>27.3</ele></trkpt>
    <trkpt lat="46.06994" lon="-123.78381000000002"><ele>27.2</ele></trkpt>
    <trkpt lat="46.06994686436405" lon="-123.78381762707117"><ele>27.2</ele></trkpt>
    <trkpt lat="46.07001737821518" lon="-123.78389597579464"><ele>27.0</ele></trkpt>
    <trkpt lat="46.07003" lon="-123.78391"><ele>26.9</ele></trkpt>
    <trkpt lat="46.0700469727724" lon="-123.7839439455448"><ele>26.9</ele></trkpt>
    <trkpt lat="46.07007326328451" lon="-123.78399652656903"><ele>26.7</ele></trkpt>
    <trkpt lat="46.070100000000004" lon="-123.78405000000001"><ele>26.5</ele></trkpt>
    <trkpt lat="46.070117252897376" lon="-123.78410865985106"><ele>26.3</ele></trkpt>
    <trkpt lat="46.070150000000005" lon="-123.78422"><ele>25.9</ele></trkpt>
    <trkpt lat="46.070161702379906" lon="-123.78429021427941"><ele>25.6</ele></trkpt>
    <trkpt lat="46.07018" lon="-123.7844"><ele>25.0</ele></trkpt>
    <trkpt lat="46.070177963041886" lon="-123.78448147832461"><ele>24.6</ele></trkpt>
    <trkpt lat="46.07017475685578" lon="-123.78460972576912"><ele>23.9</ele></trkpt>
    <trkpt lat="46.070170000000005" lon="-123.7848"><ele>22.9</ele></trkpt>
    <trkpt lat="46.07016878535667" lon="-123.78480364393"><ele>22.8</ele></trkpt>
    <trkpt lat="46.070130227965976" lon="-123.7849193161021"><ele>22.1</ele></trkpt>
    <trkpt lat="46.07011000000001" lon="-123.78498"><ele>21.7</ele></trkpt>
    <trkpt lat="46.070083978551764" lon="-123.78502974688635"><ele>21.3</ele></trkpt>
    <trkpt lat="46.069976238591096" lon="-123.78523572034057"><ele>19.6</ele></trkpt>
    <trkpt lat="46.069922097907344" lon="-123.78533922458891"><ele>18.8</ele></trkpt>
    <trkpt lat="46.069814357946676" lon="-123.78554519804314"><ele>17.0</ele></trkpt>
    <trkpt lat="46.069760217262925" lon="-123.78564870229148"><ele>16.1</ele></trkpt>
    <trkpt lat="46.069733146921045" lon="-123.78570045441566"><ele>15.7</ele></trkpt>
    <trkpt lat="46.069679547644135" lon="-123.78580292362153"><ele>15.0</ele></trkpt>
    <trkpt lat="46.06962540696038" lon="-123.78590642786989"><ele>14.4</ele></trkpt>
    <trkpt lat="46.069598336618505" lon="-123.78595817999405"><ele>14.1</ele></trkpt>
    <trkpt lat="46.06954473734159" lon="-123.78606064919992"><ele>13.6</ele></trkpt>
    <trkpt lat="46.06949113806468" lon="-123.78616311840578"><ele>13.3</ele></trkpt>
    <trkpt lat="46.069436997380926" lon="-123.78626662265413"><ele>12.9</ele></trkpt>
    <trkpt lat="46.069430000000004" lon="-123.78628"><ele>12.9</ele></trkpt>
    <trkpt lat="46.069408867002004" lon="-123.78638868398971"><ele>12.6</ele></trkpt>
    <trkpt lat="46.069396732139865" lon="-123.78645109185217"><ele>12.5</ele></trkpt>
    <trkpt lat="46.06938459727772" lon="-123.7865134997146"><ele>12.4</ele></trkpt>
    <trkpt lat="46.069372462415586" lon="-123.78657590757703"><ele>12.4</ele></trkpt>
    <trkpt lat="46.06936032755344" lon="-123.78663831543946"><ele>12.4</ele></trkpt>
    <trkpt lat="46.06936" lon="-123.78664"><ele>12.4</ele></trkpt>
    <trkpt lat="46.06936" lon="-123.78670306304977"><ele>12.4</ele></trkpt>
    <trkpt lat="46.06936" lon="-123.78676657931803"><ele>12.4</ele></trkpt>
    <trkpt lat="46.06936" lon="-123.78681000000002"><ele>12.4</ele></trkpt>
    <trkpt lat="46.06936234696388" lon="-123.78683112267485"><ele>12.4</ele></trkpt>
    <trkpt lat="46.06937656852345" lon="-123.78695911671106"><ele>12.6</ele></trkpt>
    <trkpt lat="46.069390000000006" lon="-123.78708"><ele>12.9</ele></trkpt>
    <trkpt lat="46.06939190251943" lon="-123.78708665881797"><ele>12.9</ele></trkpt>
    <trkpt lat="46.06940868281743" lon="-123.787145389861"><ele>13.0</ele></trkpt>
    <trkpt lat="46.069430000000004" lon="-123.78722"><ele>13.3</ele></trkpt>
    <trkpt lat="46.069449471416675" lon="-123.7872600882108"><ele>13.4</ele></trkpt>
    <trkpt lat="46.06947526008586" lon="-123.78731318252972"><ele>13.6</ele></trkpt>
    <trkpt lat="46.069526321650855" lon="-123.78741830928118"><ele>14.1</ele></trkpt>
    <trkpt lat="46.06957789898924" lon="-123.78752449791904"><ele>14.6</ele></trkpt>
    <trkpt lat="46.0696" lon="-123.78757000000002"><ele>14.8</ele></trkpt>
    <trkpt lat="46.0696877248377" lon="-123.78762747489367"><ele>15.3</ele></trkpt>
    <trkpt lat="46.06980971298048" lon="-123.78770739815963"><ele>16.1</ele></trkpt>
  </trkseg></trk>
</gpx>
