<?xml version="1.0" encoding="UTF-8"?>
<gpx version="1.1" creator="h2c-tracker" xmlns="http://www.topografix.com/GPX/1/1">
  <metadata><name>Hood to Coast 2026 — Leg 31 (3.96 mi)</name><desc>Derived from the official Hood to Coast Strava route (simplified, 458 points, ~3.96 mi). Verify against the official leg map PDF.</desc></metadata>
  <wpt lat="46.06583481293467" lon="-123.69273367617295"><name>Exchange 30 — Astoria - HWY 202</name></wpt>
  <wpt lat="46.09775741728959" lon="-123.74939637140086"><name>Exchange 31 — Coastline Christian Fellowship Church</name></wpt>
  <trk><name>HTC Leg 31</name><trkseg>
    <trkpt lat="46.06583481293467" lon="-123.69273367617295"><ele>79.5</ele></trkpt>
    <trkpt lat="46.06590745710655" lon="-123.6928056010956"><ele>79.3</ele></trkpt>
    <trkpt lat="46.06598010127843" lon="-123.69287752601824"><ele>79.2</ele></trkpt>
    <trkpt lat="46.06627216050006" lon="-123.69316669356442"><ele>78.3</ele></trkpt>
    <trkpt lat="46.06634480467194" lon="-123.69323861848707"><ele>78.1</ele></trkpt>
    <trkpt lat="46.06641744884383" lon="-123.69331054340972"><ele>77.9</ele></trkpt>
    <trkpt lat="46.06656347845465" lon="-123.69345512718282"><ele>77.7</ele></trkpt>
    <trkpt lat="46.06673000000001" lon="-123.69362000000001"><ele>77.5</ele></trkpt>
    <trkpt lat="46.06678250849576" lon="-123.69367088364004"><ele>77.4</ele></trkpt>
    <trkpt lat="46.066966105859656" lon="-123.69384879965229"><ele>77.2</ele></trkpt>
    <trkpt lat="46.067039246272905" lon="-123.69391967676283"><ele>77.1</ele></trkpt>
    <trkpt lat="46.06748256673693" lon="-123.69434927884116"><ele>76.3</ele></trkpt>
    <trkpt lat="46.06777960637443" lon="-123.69463712669835"><ele>75.7</ele></trkpt>
    <trkpt lat="46.06792737986243" lon="-123.69478032739113"><ele>75.4</ele></trkpt>
    <trkpt lat="46.068101274926605" lon="-123.69494884133768"><ele>75.2</ele></trkpt>
    <trkpt lat="46.068310247535905" lon="-123.69515134736787"><ele>75.0</ele></trkpt>
    <trkpt lat="46.06856026833632" lon="-123.69539363136826"><ele>74.7</ele></trkpt>
    <trkpt lat="46.06873864138497" lon="-123.69556648472974"><ele>74.5</ele></trkpt>
    <trkpt lat="46.06888492221148" lon="-123.69570823895087"><ele>74.4</ele></trkpt>
    <trkpt lat="46.06899463283136" lon="-123.69581455461673"><ele>74.2</ele></trkpt>
    <trkpt lat="46.06917748386451" lon="-123.69599174739312"><ele>73.9</ele></trkpt>
    <trkpt lat="46.06932376469101" lon="-123.69613350161426"><ele>73.6</ele></trkpt>
    <trkpt lat="46.06950661572415" lon="-123.69631069439066"><ele>73.3</ele></trkpt>
    <trkpt lat="46.06979992370792" lon="-123.69659492606874"><ele>72.7</ele></trkpt>
    <trkpt lat="46.07001934494768" lon="-123.69680755740046"><ele>72.2</ele></trkpt>
    <trkpt lat="46.070238766187444" lon="-123.69702018873214"><ele>71.7</ele></trkpt>
    <trkpt lat="46.07038504701396" lon="-123.69716194295327"><ele>71.4</ele></trkpt>
    <trkpt lat="46.07053282050197" lon="-123.69730514364605"><ele>71.1</ele></trkpt>
    <trkpt lat="46.07068059398997" lon="-123.69744834433882"><ele>70.8</ele></trkpt>
    <trkpt lat="46.071011964841865" lon="-123.69776946104383"><ele>70.0</ele></trkpt>
    <trkpt lat="46.071271687941994" lon="-123.69802114710991"><ele>69.6</ele></trkpt>
    <trkpt lat="46.07153066471138" lon="-123.69827210994018"><ele>69.1</ele></trkpt>
    <trkpt lat="46.07175232494338" lon="-123.69848691097934"><ele>68.7</ele></trkpt>
    <trkpt lat="46.07190009843139" lon="-123.69863011167212"><ele>68.3</ele></trkpt>
    <trkpt lat="46.07208444212603" lon="-123.69880875092018"><ele>67.9</ele></trkpt>
    <trkpt lat="46.072306102358034" lon="-123.69902355195934"><ele>67.4</ele></trkpt>
    <trkpt lat="46.072454622176785" lon="-123.69916747588793"><ele>67.1</ele></trkpt>
    <trkpt lat="46.072602395664795" lon="-123.69931067658071"><ele>66.8</ele></trkpt>
    <trkpt lat="46.0727501691528" lon="-123.69945387727348"><ele>66.4</ele></trkpt>
    <trkpt lat="46.07287" lon="-123.69957000000001"><ele>66.2</ele></trkpt>
    <trkpt lat="46.07302000000001" lon="-123.69974"><ele>65.9</ele></trkpt>
    <trkpt lat="46.07332832759017" lon="-123.70004832759017"><ele>65.3</ele></trkpt>
    <trkpt lat="46.073330000000006" lon="-123.70005"><ele>65.3</ele></trkpt>
    <trkpt lat="46.07361737344367" lon="-123.70021421339638"><ele>65.0</ele></trkpt>
    <trkpt lat="46.07368" lon="-123.70025000000001"><ele>64.9</ele></trkpt>
    <trkpt lat="46.07404491595989" lon="-123.70039099025725"><ele>64.4</ele></trkpt>
    <trkpt lat="46.07412" lon="-123.70042000000001"><ele>64.4</ele></trkpt>
    <trkpt lat="46.07413021632896" lon="-123.70042695579845"><ele>64.4</ele></trkpt>
    <trkpt lat="46.07437091740505" lon="-123.70059083738218"><ele>64.2</ele></trkpt>
    <trkpt lat="46.07449208112241" lon="-123.70067333182803"><ele>64.3</ele></trkpt>
    <trkpt lat="46.07459" lon="-123.70074000000001"><ele>64.2</ele></trkpt>
    <trkpt lat="46.0746100074985" lon="-123.70075886845775"><ele>64.2</ele></trkpt>
    <trkpt lat="46.074683760552986" lon="-123.70082842269974"><ele>64.3</ele></trkpt>
    <trkpt lat="46.074757513607466" lon="-123.70089797694169"><ele>64.4</ele></trkpt>
    <trkpt lat="46.07490577229861" lon="-123.7010377951628"><ele>64.6</ele></trkpt>
    <trkpt lat="46.07497952535309" lon="-123.7011073494048"><ele>64.7</ele></trkpt>
    <trkpt lat="46.07509015493482" lon="-123.70121168076774"><ele>64.8</ele></trkpt>
    <trkpt lat="46.0751639079893" lon="-123.70128123500973"><ele>64.9</ele></trkpt>
    <trkpt lat="46.07523841362597" lon="-123.70135149898886"><ele>64.9</ele></trkpt>
    <trkpt lat="46.07531216668045" lon="-123.70142105323083"><ele>64.8</ele></trkpt>
    <trkpt lat="46.07538591973493" lon="-123.7014906074728"><ele>64.6</ele></trkpt>
    <trkpt lat="46.07545967278941" lon="-123.70156016171477"><ele>64.5</ele></trkpt>
    <trkpt lat="46.075534178426075" lon="-123.7016304256939"><ele>64.3</ele></trkpt>
    <trkpt lat="46.07560943664494" lon="-123.70170139941021"><ele>64.0</ele></trkpt>
    <trkpt lat="46.0757968296099" lon="-123.70187812396381"><ele>63.0</ele></trkpt>
    <trkpt lat="46.07587208782875" lon="-123.70194909768009"><ele>62.7</ele></trkpt>
    <trkpt lat="46.075908964355996" lon="-123.70198387480109"><ele>62.5</ele></trkpt>
    <trkpt lat="46.07602185168428" lon="-123.70209033537553"><ele>62.3</ele></trkpt>
    <trkpt lat="46.07609710990314" lon="-123.70216130909184"><ele>62.2</ele></trkpt>
    <trkpt lat="46.076171615539806" lon="-123.70223157307097"><ele>62.1</ele></trkpt>
    <trkpt lat="46.07628450286809" lon="-123.70233803364542"><ele>62.0</ele></trkpt>
    <trkpt lat="46.07635900850477" lon="-123.70240829762456"><ele>61.9</ele></trkpt>
    <trkpt lat="46.07643426672362" lon="-123.70247927134085"><ele>61.9</ele></trkpt>
    <trkpt lat="46.07647189583305" lon="-123.702514758199"><ele>62.0</ele></trkpt>
    <trkpt lat="46.07665928879801" lon="-123.70269148275258"><ele>62.2</ele></trkpt>
    <trkpt lat="46.07673454701687" lon="-123.70276245646889"><ele>62.2</ele></trkpt>
    <trkpt lat="46.07684668176296" lon="-123.70286820730618"><ele>62.2</ele></trkpt>
    <trkpt lat="46.076921939981816" lon="-123.70293918102247"><ele>62.2</ele></trkpt>
    <trkpt lat="46.07699644561849" lon="-123.70300944500161"><ele>62.1</ele></trkpt>
    <trkpt lat="46.07707170383735" lon="-123.70308041871792"><ele>61.9</ele></trkpt>
    <trkpt lat="46.077146962056204" lon="-123.70315139243421"><ele>61.6</ele></trkpt>
    <trkpt lat="46.07729672591174" lon="-123.70329263012964"><ele>61.0</ele></trkpt>
    <trkpt lat="46.07737198413059" lon="-123.70336360384593"><ele>60.8</ele></trkpt>
    <trkpt lat="46.07740886065783" lon="-123.70339838096692"><ele>60.7</ele></trkpt>
    <trkpt lat="46.0774841188767" lon="-123.70346935468322"><ele>60.6</ele></trkpt>
    <trkpt lat="46.077559377095554" lon="-123.70354032839953"><ele>60.5</ele></trkpt>
    <trkpt lat="46.07763388273222" lon="-123.70361059237865"><ele>60.5</ele></trkpt>
    <trkpt lat="46.07770914095108" lon="-123.70368156609496"><ele>60.5</ele></trkpt>
    <trkpt lat="46.07781826536842" lon="-123.70378447798359"><ele>60.7</ele></trkpt>
    <trkpt lat="46.07796501889519" lon="-123.70392287673039"><ele>61.1</ele></trkpt>
    <trkpt lat="46.078111019839774" lon="-123.70406056574"><ele>61.4</ele></trkpt>
    <trkpt lat="46.07822089683931" lon="-123.70416418736579"><ele>61.5</ele></trkpt>
    <trkpt lat="46.078366897783894" lon="-123.70430187637541"><ele>61.6</ele></trkpt>
    <trkpt lat="46.078513651310665" lon="-123.7044402751222"><ele>61.7</ele></trkpt>
    <trkpt lat="46.0786235283102" lon="-123.70454389674799"><ele>61.7</ele></trkpt>
    <trkpt lat="46.078630000000004" lon="-123.70455000000001"><ele>61.7</ele></trkpt>
    <trkpt lat="46.07884158774469" lon="-123.70475250115443"><ele>61.5</ele></trkpt>
    <trkpt lat="46.078987690824874" lon="-123.70489232986921"><ele>61.3</ele></trkpt>
    <trkpt lat="46.079173503972996" lon="-123.7050701633116"><ele>61.1</ele></trkpt>
    <trkpt lat="46.0792484286295" lon="-123.70514187034482"><ele>61.1</ele></trkpt>
    <trkpt lat="46.079323353286" lon="-123.705213577378"><ele>61.1</ele></trkpt>
    <trkpt lat="46.07947245335244" lon="-123.70535627437411"><ele>61.3</ele></trkpt>
    <trkpt lat="46.079584091090624" lon="-123.70546311785361"><ele>61.4</ele></trkpt>
    <trkpt lat="46.079659015747126" lon="-123.70553482488683"><ele>61.4</ele></trkpt>
    <trkpt lat="46.07973319115706" lon="-123.70560581484972"><ele>61.3</ele></trkpt>
    <trkpt lat="46.079845578141814" lon="-123.70571337539953"><ele>61.2</ele></trkpt>
    <trkpt lat="46.07991975355175" lon="-123.7057843653624"><ele>61.0</ele></trkpt>
    <trkpt lat="46.079994678208244" lon="-123.70585607239562"><ele>60.9</ele></trkpt>
    <trkpt lat="46.080218702931184" lon="-123.70607047642496"><ele>60.3</ele></trkpt>
    <trkpt lat="46.08026" lon="-123.70611000000001"><ele>60.2</ele></trkpt>
    <trkpt lat="46.080290756471896" lon="-123.70614768360521"><ele>60.1</ele></trkpt>
    <trkpt lat="46.08035928407826" lon="-123.70623164535716"><ele>59.9</ele></trkpt>
    <trkpt lat="46.08042712640856" lon="-123.70631476749158"><ele>59.8</ele></trkpt>
    <trkpt lat="46.080529917818104" lon="-123.70644071011948"><ele>59.7</ele></trkpt>
    <trkpt lat="46.08063202395158" lon="-123.70656581312988"><ele>59.6</ele></trkpt>
    <trkpt lat="46.080700551557946" lon="-123.70664977488181"><ele>59.6</ele></trkpt>
    <trkpt lat="46.080871185297795" lon="-123.70685883964416"><ele>59.6</ele></trkpt>
    <trkpt lat="46.080939712904154" lon="-123.70694280139608"><ele>59.6</ele></trkpt>
    <trkpt lat="46.0810425043137" lon="-123.70706874402399"><ele>59.4</ele></trkpt>
    <trkpt lat="46.081110346643996" lon="-123.70715186615843"><ele>59.3</ele></trkpt>
    <trkpt lat="46.08145229939974" lon="-123.7075708353006"><ele>58.3</ele></trkpt>
    <trkpt lat="46.08165651166671" lon="-123.70782104132138"><ele>57.6</ele></trkpt>
    <trkpt lat="46.081759303076254" lon="-123.70794698394928"><ele>57.3</ele></trkpt>
    <trkpt lat="46.08196488589534" lon="-123.70819886920509"><ele>56.4</ele></trkpt>
    <trkpt lat="46.082101255832" lon="-123.70836595309147"><ele>56.0</ele></trkpt>
    <trkpt lat="46.08230615337503" lon="-123.70861699872975"><ele>55.1</ele></trkpt>
    <trkpt lat="46.082408944784575" lon="-123.70874294135768"><ele>54.6</ele></trkpt>
    <trkpt lat="46.082480000000004" lon="-123.70883"><ele>54.3</ele></trkpt>
    <trkpt lat="46.082694557519744" lon="-123.70905784869353"><ele>53.3</ele></trkpt>
    <trkpt lat="46.082766966955845" lon="-123.70913474366992"><ele>53.0</ele></trkpt>
    <trkpt lat="46.08287485701564" lon="-123.70924931718476"><ele>52.3</ele></trkpt>
    <trkpt lat="46.08294726645174" lon="-123.70932621216113"><ele>51.8</ele></trkpt>
    <trkpt lat="46.0830558806059" lon="-123.70944155462573"><ele>51.0</ele></trkpt>
    <trkpt lat="46.083127565947635" lon="-123.70951768065237"><ele>50.5</ele></trkpt>
    <trkpt lat="46.083236904196156" lon="-123.70963379206671"><ele>49.8</ele></trkpt>
    <trkpt lat="46.08338172306836" lon="-123.70978758201949"><ele>49.1</ele></trkpt>
    <trkpt lat="46.08348961312815" lon="-123.70990215553432"><ele>48.4</ele></trkpt>
    <trkpt lat="46.08356202256425" lon="-123.7099790505107"><ele>47.9</ele></trkpt>
    <trkpt lat="46.08361000000001" lon="-123.71003"><ele>47.5</ele></trkpt>
    <trkpt lat="46.08363588205043" lon="-123.71005283710332"><ele>47.3</ele></trkpt>
    <trkpt lat="46.083780000000004" lon="-123.71018000000001"><ele>46.0</ele></trkpt>
    <trkpt lat="46.08378950832331" lon="-123.7101876797996"><ele>46.0</ele></trkpt>
    <trkpt lat="46.083946426497064" lon="-123.71031442140148"><ele>44.7</ele></trkpt>
    <trkpt lat="46.08404" lon="-123.71039"><ele>44.0</ele></trkpt>
    <trkpt lat="46.08414952400208" lon="-123.71044798329523"><ele>43.2</ele></trkpt>
    <trkpt lat="46.084233944721085" lon="-123.71049267661704"><ele>42.5</ele></trkpt>
    <trkpt lat="46.08448720687811" lon="-123.71062675658253"><ele>40.5</ele></trkpt>
    <trkpt lat="46.08461383795661" lon="-123.71069379656527"><ele>39.5</ele></trkpt>
    <trkpt lat="46.08489" lon="-123.71084"><ele>37.4</ele></trkpt>
    <trkpt lat="46.08498666358921" lon="-123.71089612724536"><ele>36.7</ele></trkpt>
    <trkpt lat="46.08518103504748" lon="-123.7110089880921"><ele>35.3</ele></trkpt>
    <trkpt lat="46.0852" lon="-123.71102"><ele>35.2</ele></trkpt>
    <trkpt lat="46.0852905271358" lon="-123.71109543927983"><ele>34.4</ele></trkpt>
    <trkpt lat="46.085362938856306" lon="-123.71115578238027"><ele>33.8</ele></trkpt>
    <trkpt lat="46.0855" lon="-123.71127000000001"><ele>32.5</ele></trkpt>
    <trkpt lat="46.085609402859035" lon="-123.71139025272936"><ele>31.4</ele></trkpt>
    <trkpt lat="46.08574815067078" lon="-123.71154276065468"><ele>30.3</ele></trkpt>
    <trkpt lat="46.08581752457665" lon="-123.71161901461733"><ele>29.8</ele></trkpt>
    <trkpt lat="46.085886898482514" lon="-123.71169526857996"><ele>29.5</ele></trkpt>
    <trkpt lat="46.0859219430329" lon="-123.71173378862295"><ele>29.3</ele></trkpt>
    <trkpt lat="46.085991316938774" lon="-123.7118100425856"><ele>29.0</ele></trkpt>
    <trkpt lat="46.08606069084463" lon="-123.71188629654824"><ele>28.8</ele></trkpt>
    <trkpt lat="46.08616439410599" lon="-123.71200028443056"><ele>28.6</ele></trkpt>
    <trkpt lat="46.086234483206766" lon="-123.71207732451654"><ele>28.5</ele></trkpt>
    <trkpt lat="46.08633890166302" lon="-123.71219209852217"><ele>28.4</ele></trkpt>
    <trkpt lat="46.08640756037399" lon="-123.7122675663615"><ele>28.4</ele></trkpt>
    <trkpt lat="46.08647764947476" lon="-123.71234460644749"><ele>28.5</ele></trkpt>
    <trkpt lat="46.086721530937666" lon="-123.71261267450174"><ele>28.4</ele></trkpt>
    <trkpt lat="46.08682666458883" lon="-123.7127282346307"><ele>28.5</ele></trkpt>
    <trkpt lat="46.0873358833618" lon="-123.71328795443901"><ele>28.5</ele></trkpt>
    <trkpt lat="46.08740597246258" lon="-123.71336499452498"><ele>28.6</ele></trkpt>
    <trkpt lat="46.08747606156336" lon="-123.71344203461096"><ele>28.6</ele></trkpt>
    <trkpt lat="46.0876162397649" lon="-123.71359611478292"><ele>28.8</ele></trkpt>
    <trkpt lat="46.087720658221166" lon="-123.71371088878854"><ele>28.9</ele></trkpt>
    <trkpt lat="46.08779074732194" lon="-123.71378792887452"><ele>28.9</ele></trkpt>
    <trkpt lat="46.0878958809731" lon="-123.71390348900348"><ele>28.8</ele></trkpt>
    <trkpt lat="46.087920000000004" lon="-123.71393"><ele>28.7</ele></trkpt>
    <trkpt lat="46.08796711082227" lon="-123.7139712219695"><ele>28.5</ele></trkpt>
    <trkpt lat="46.088004014484945" lon="-123.71400351267431"><ele>28.4</ele></trkpt>
    <trkpt lat="46.088077052983984" lon="-123.71406742136098"><ele>28.1</ele></trkpt>
    <trkpt lat="46.088080000000005" lon="-123.71407"><ele>28.0</ele></trkpt>
    <trkpt lat="46.0881574629974" lon="-123.7141087314987"><ele>27.6</ele></trkpt>
    <trkpt lat="46.088260000000005" lon="-123.71416"><ele>27.0</ele></trkpt>
    <trkpt lat="46.088280730422184" lon="-123.71416460676049"><ele>26.9</ele></trkpt>
    <trkpt lat="46.08840783281169" lon="-123.71419285173594"><ele>26.0</ele></trkpt>
    <trkpt lat="46.088440000000006" lon="-123.7142"><ele>25.8</ele></trkpt>
    <trkpt lat="46.08859" lon="-123.7142"><ele>24.7</ele></trkpt>
    <trkpt lat="46.08862044697483" lon="-123.71421159884756"><ele>24.5</ele></trkpt>
    <trkpt lat="46.08870391770293" lon="-123.71424339722017"><ele>23.9</ele></trkpt>
    <trkpt lat="46.08878912740453" lon="-123.71427585805888"><ele>23.4</ele></trkpt>
    <trkpt lat="46.088800000000006" lon="-123.71428000000002"><ele>23.4</ele></trkpt>
    <trkpt lat="46.0888736139922" lon="-123.71431200608359"><ele>22.9</ele></trkpt>
    <trkpt lat="46.08895799481674" lon="-123.71434869339859"><ele>22.5</ele></trkpt>
    <trkpt lat="46.089000185229004" lon="-123.7143670370561"><ele>22.3</ele></trkpt>
    <trkpt lat="46.08903" lon="-123.71438"><ele>22.2</ele></trkpt>
    <trkpt lat="46.08908155837562" lon="-123.71441502078343"><ele>22.0</ele></trkpt>
    <trkpt lat="46.08916128813365" lon="-123.71446917684551"><ele>21.8</ele></trkpt>
    <trkpt lat="46.08924183146064" lon="-123.71452388552044"><ele>21.6</ele></trkpt>
    <trkpt lat="46.08932074764972" lon="-123.71457748896964"><ele>21.6</ele></trkpt>
    <trkpt lat="46.08944115585574" lon="-123.71465927567559"><ele>21.5</ele></trkpt>
    <trkpt lat="46.089560000000006" lon="-123.71474"><ele>21.5</ele></trkpt>
    <trkpt lat="46.08973" lon="-123.71491"><ele>21.4</ele></trkpt>
    <trkpt lat="46.089838174748444" lon="-123.71513618356492"><ele>21.4</ele></trkpt>
    <trkpt lat="46.08984" lon="-123.71514"><ele>21.4</ele></trkpt>
    <trkpt lat="46.08987171826742" lon="-123.71525497871937"><ele>21.4</ele></trkpt>
    <trkpt lat="46.08990429246438" lon="-123.71537306018337"><ele>21.5</ele></trkpt>
    <trkpt lat="46.08993686666135" lon="-123.71549114164736"><ele>21.7</ele></trkpt>
    <trkpt lat="46.089969440858304" lon="-123.71560922311134"><ele>21.8</ele></trkpt>
    <trkpt lat="46.09" lon="-123.71572"><ele>21.9</ele></trkpt>
    <trkpt lat="46.09001011690436" lon="-123.71578857012952"><ele>22.0</ele></trkpt>
    <trkpt lat="46.090028456045346" lon="-123.71591286875174"><ele>22.1</ele></trkpt>
    <trkpt lat="46.09004679518633" lon="-123.71603716737397"><ele>22.4</ele></trkpt>
    <trkpt lat="46.090065134327304" lon="-123.71616146599618"><ele>22.7</ele></trkpt>
    <trkpt lat="46.090110982179766" lon="-123.71647221255174"><ele>23.6</ele></trkpt>
    <trkpt lat="46.09011996461617" lon="-123.71653309350955"><ele>23.7</ele></trkpt>
    <trkpt lat="46.090129134186654" lon="-123.71659524282069"><ele>23.8</ele></trkpt>
    <trkpt lat="46.09013830375716" lon="-123.71665739213178"><ele>23.9</ele></trkpt>
    <trkpt lat="46.09014747332764" lon="-123.7167195414429"><ele>23.9</ele></trkpt>
    <trkpt lat="46.09015664289814" lon="-123.716781690754"><ele>23.8</ele></trkpt>
    <trkpt lat="46.090165812468626" lon="-123.71684384006512"><ele>23.7</ele></trkpt>
    <trkpt lat="46.090174982039116" lon="-123.71690598937622"><ele>23.6</ele></trkpt>
    <trkpt lat="46.090180000000004" lon="-123.71694000000001"><ele>23.5</ele></trkpt>
    <trkpt lat="46.09021296932955" lon="-123.71701912639091"><ele>23.2</ele></trkpt>
    <trkpt lat="46.09032783017537" lon="-123.71729479242089"><ele>22.4</ele></trkpt>
    <trkpt lat="46.09038" lon="-123.71742"><ele>22.0</ele></trkpt>
    <trkpt lat="46.090406118633894" lon="-123.71745047173954"><ele>21.9</ele></trkpt>
    <trkpt lat="46.09051029019509" lon="-123.71757200522761"><ele>21.4</ele></trkpt>
    <trkpt lat="46.09057950485655" lon="-123.71765275566597"><ele>21.1</ele></trkpt>
    <trkpt lat="46.09068437555574" lon="-123.71777510481503"><ele>20.7</ele></trkpt>
    <trkpt lat="46.09078854711693" lon="-123.71789663830307"><ele>20.4</ele></trkpt>
    <trkpt lat="46.090927675577845" lon="-123.71805895484081"><ele>20.1</ele></trkpt>
    <trkpt lat="46.09113531956224" lon="-123.71830120615596"><ele>19.7</ele></trkpt>
    <trkpt lat="46.09120593249969" lon="-123.71838358791632"><ele>19.5</ele></trkpt>
    <trkpt lat="46.091484189421536" lon="-123.7187082209918"><ele>18.7</ele></trkpt>
    <trkpt lat="46.091553404082994" lon="-123.71878897143017"><ele>18.5</ele></trkpt>
    <trkpt lat="46.09158" lon="-123.71882000000001"><ele>18.5</ele></trkpt>
    <trkpt lat="46.091617809362035" lon="-123.71887901949196"><ele>18.4</ele></trkpt>
    <trkpt lat="46.09167883257014" lon="-123.71897427523145"><ele>18.3</ele></trkpt>
    <trkpt lat="46.09176975715021" lon="-123.71911620628326"><ele>18.2</ele></trkpt>
    <trkpt lat="46.09199" lon="-123.71946000000001"><ele>18.2</ele></trkpt>
    <trkpt lat="46.09201144269987" lon="-123.71949512166358"><ele>18.2</ele></trkpt>
    <trkpt lat="46.09207086798347" lon="-123.71959245617984"><ele>18.2</ele></trkpt>
    <trkpt lat="46.09215644039186" lon="-123.71973261788324"><ele>17.9</ele></trkpt>
    <trkpt lat="46.09218496452799" lon="-123.71977933845102"><ele>17.8</ele></trkpt>
    <trkpt lat="46.09224201280024" lon="-123.71987277958661"><ele>17.5</ele></trkpt>
    <trkpt lat="46.092299061072495" lon="-123.7199662207222"><ele>17.2</ele></trkpt>
    <trkpt lat="46.09241315761701" lon="-123.7201531029934"><ele>16.5</ele></trkpt>
    <trkpt lat="46.09247020588927" lon="-123.72024654412898"><ele>16.2</ele></trkpt>
    <trkpt lat="46.092527254161524" lon="-123.72033998526457"><ele>16.0</ele></trkpt>
    <trkpt lat="46.09257" lon="-123.72041000000002"><ele>15.8</ele></trkpt>
    <trkpt lat="46.092612754239624" lon="-123.72048023910796"><ele>15.6</ele></trkpt>
    <trkpt lat="46.0926697061624" lon="-123.72057380298108"><ele>15.5</ele></trkpt>
    <trkpt lat="46.092710000000004" lon="-123.72064"><ele>15.4</ele></trkpt>
    <trkpt lat="46.09272362565778" lon="-123.72067065773001"><ele>15.3</ele></trkpt>
    <trkpt lat="46.09277021008825" lon="-123.72077547269853"><ele>15.3</ele></trkpt>
    <trkpt lat="46.092830000000006" lon="-123.72091"><ele>15.2</ele></trkpt>
    <trkpt lat="46.09288906592662" lon="-123.72111303912274"><ele>15.1</ele></trkpt>
    <trkpt lat="46.09299" lon="-123.72146000000001"><ele>15.1</ele></trkpt>
    <trkpt lat="46.092990582222804" lon="-123.72146361591007"><ele>15.1</ele></trkpt>
    <trkpt lat="46.09307092436836" lon="-123.72196258291932"><ele>14.8</ele></trkpt>
    <trkpt lat="46.09322204896115" lon="-123.72290114617975"><ele>14.4</ele></trkpt>
    <trkpt lat="46.09325215184101" lon="-123.72308810090726"><ele>14.3</ele></trkpt>
    <trkpt lat="46.0932824581187" lon="-123.72327631884241"><ele>14.2</ele></trkpt>
    <trkpt lat="46.09330239110671" lon="-123.72340011318899"><ele>14.2</ele></trkpt>
    <trkpt lat="46.0933326973844" lon="-123.72358833112412"><ele>14.3</ele></trkpt>
    <trkpt lat="46.09335283377025" lon="-123.72371338867835"><ele>14.5</ele></trkpt>
    <trkpt lat="46.09337000000001" lon="-123.72382"><ele>14.6</ele></trkpt>
    <trkpt lat="46.093371633900006" lon="-123.72383878985003"><ele>14.6</ele></trkpt>
    <trkpt lat="46.09338808177759" lon="-123.72402794044217"><ele>15.0</ele></trkpt>
    <trkpt lat="46.09339000000001" lon="-123.72405"><ele>15.0</ele></trkpt>
    <trkpt lat="46.09337908756744" lon="-123.72415366810937"><ele>15.2</ele></trkpt>
    <trkpt lat="46.09337247448121" lon="-123.72421649242864"><ele>15.2</ele></trkpt>
    <trkpt lat="46.09337000000001" lon="-123.72424000000001"><ele>15.2</ele></trkpt>
    <trkpt lat="46.09336206550459" lon="-123.724278085578"><ele>15.2</ele></trkpt>
    <trkpt lat="46.093349386956646" lon="-123.72433894260813"><ele>15.2</ele></trkpt>
    <trkpt lat="46.0933367084087" lon="-123.72439979963825"><ele>15.1</ele></trkpt>
    <trkpt lat="46.09332402986077" lon="-123.72446065666837"><ele>14.9</ele></trkpt>
    <trkpt lat="46.09331109256694" lon="-123.7245227556787"><ele>14.7</ele></trkpt>
    <trkpt lat="46.093270000000004" lon="-123.72472"><ele>14.1</ele></trkpt>
    <trkpt lat="46.093267401328404" lon="-123.72476677608867"><ele>13.9</ele></trkpt>
    <trkpt lat="46.09326029163911" lon="-123.72489475049606"><ele>13.5</ele></trkpt>
    <trkpt lat="46.09326" lon="-123.7249"><ele>13.5</ele></trkpt>
    <trkpt lat="46.093273365236755" lon="-123.7250202871308"><ele>13.2</ele></trkpt>
    <trkpt lat="46.09328000000001" lon="-123.72508"><ele>13.0</ele></trkpt>
    <trkpt lat="46.09328095536671" lon="-123.72508274282697"><ele>13.0</ele></trkpt>
    <trkpt lat="46.09332091632677" lon="-123.72519746945424"><ele>12.8</ele></trkpt>
    <trkpt lat="46.093360473640764" lon="-123.7253110372267"><ele>12.6</ele></trkpt>
    <trkpt lat="46.09340003095477" lon="-123.72542460499915"><ele>12.4</ele></trkpt>
    <trkpt lat="46.093439588268765" lon="-123.7255381727716"><ele>12.3</ele></trkpt>
    <trkpt lat="46.09349892423977" lon="-123.72570852443027"><ele>12.3</ele></trkpt>
    <trkpt lat="46.09353888519983" lon="-123.72582325105756"><ele>12.3</ele></trkpt>
    <trkpt lat="46.093578442513824" lon="-123.72593681883001"><ele>12.3</ele></trkpt>
    <trkpt lat="46.093590000000006" lon="-123.72597"><ele>12.4</ele></trkpt>
    <trkpt lat="46.09363722776894" lon="-123.72617608480991"><ele>12.5</ele></trkpt>
    <trkpt lat="46.09372047099396" lon="-123.72653932797363"><ele>12.7</ele></trkpt>
    <trkpt lat="46.09374812467549" lon="-123.72665999858397"><ele>12.7</ele></trkpt>
    <trkpt lat="46.0937896051978" lon="-123.72684100449946"><ele>12.7</ele></trkpt>
    <trkpt lat="46.09384491256086" lon="-123.7270823457201"><ele>12.6</ele></trkpt>
    <trkpt lat="46.09388667526358" lon="-123.72726458296836"><ele>12.5</ele></trkpt>
    <trkpt lat="46.09391432894512" lon="-123.72738525357869"><ele>12.5</ele></trkpt>
    <trkpt lat="46.093920000000004" lon="-123.72741"><ele>12.6</ele></trkpt>
    <trkpt lat="46.09392659208454" lon="-123.72744625646493"><ele>12.6</ele></trkpt>
    <trkpt lat="46.09394894375106" lon="-123.72756919063082"><ele>12.7</ele></trkpt>
    <trkpt lat="46.093971523495824" lon="-123.72769337922699"><ele>13.0</ele></trkpt>
    <trkpt lat="46.094" lon="-123.72785"><ele>13.4</ele></trkpt>
    <trkpt lat="46.09403915946568" lon="-123.7279952163519"><ele>13.8</ele></trkpt>
    <trkpt lat="46.09407142679561" lon="-123.72811487436707"><ele>14.0</ele></trkpt>
    <trkpt lat="46.094103368192904" lon="-123.72823332371536"><ele>14.2</ele></trkpt>
    <trkpt lat="46.09413530959021" lon="-123.72835177306368"><ele>14.4</ele></trkpt>
    <trkpt lat="46.09416725098751" lon="-123.728470222412"><ele>14.4</ele></trkpt>
    <trkpt lat="46.09418354761878" lon="-123.72853065575298"><ele>14.4</ele></trkpt>
    <trkpt lat="46.09419951831743" lon="-123.72858988042715"><ele>14.3</ele></trkpt>
    <trkpt lat="46.094231459714734" lon="-123.72870832977546"><ele>14.2</ele></trkpt>
    <trkpt lat="46.094240000000006" lon="-123.72874000000002"><ele>14.1</ele></trkpt>
    <trkpt lat="46.094284318081655" lon="-123.72888302653625"><ele>13.9</ele></trkpt>
    <trkpt lat="46.09444501128592" lon="-123.72940162733182"><ele>13.0</ele></trkpt>
    <trkpt lat="46.09455214008876" lon="-123.72974736119554"><ele>12.3</ele></trkpt>
    <trkpt lat="46.094677245985224" lon="-123.73015111204322"><ele>11.6</ele></trkpt>
    <trkpt lat="46.094680000000004" lon="-123.73016000000001"><ele>11.6</ele></trkpt>
    <trkpt lat="46.094703267093536" lon="-123.73027245761877"><ele>11.4</ele></trkpt>
    <trkpt lat="46.09474" lon="-123.73045"><ele>11.2</ele></trkpt>
    <trkpt lat="46.094740532094505" lon="-123.73045399070875"><ele>11.2</ele></trkpt>
    <trkpt lat="46.09476549311482" lon="-123.73064119836113"><ele>10.8</ele></trkpt>
    <trkpt lat="46.094790454135136" lon="-123.7308284060135"><ele>10.5</ele></trkpt>
    <trkpt lat="46.094800000000006" lon="-123.7309"><ele>10.3</ele></trkpt>
    <trkpt lat="46.094811117553" lon="-123.73114559685234"><ele>9.8</ele></trkpt>
    <trkpt lat="46.09481685843672" lon="-123.731272418193"><ele>9.5</ele></trkpt>
    <trkpt lat="46.09481972887859" lon="-123.73133582886332"><ele>9.5</ele></trkpt>
    <trkpt lat="46.09482546976233" lon="-123.731462650204"><ele>9.4</ele></trkpt>
    <trkpt lat="46.0948312692265" lon="-123.73159076563995"><ele>9.4</ele></trkpt>
    <trkpt lat="46.09484562143584" lon="-123.73190781899159"><ele>9.6</ele></trkpt>
    <trkpt lat="46.09486003222562" lon="-123.73222616643854"><ele>9.8</ele></trkpt>
    <trkpt lat="46.09487116251041" lon="-123.73247204454798"><ele>9.8</ele></trkpt>
    <trkpt lat="46.0948767276528" lon="-123.73259498360267"><ele>9.9</ele></trkpt>
    <trkpt lat="46.0948822927952" lon="-123.7327179226574"><ele>10.0</ele></trkpt>
    <trkpt lat="46.09488510465661" lon="-123.73278003923241"><ele>10.1</ele></trkpt>
    <trkpt lat="46.094890669799014" lon="-123.73290297828713"><ele>10.4</ele></trkpt>
    <trkpt lat="46.094899222544164" lon="-123.7330919162028"><ele>10.7</ele></trkpt>
    <trkpt lat="46.09490783386977" lon="-123.73328214821379"><ele>11.2</ele></trkpt>
    <trkpt lat="46.094910000000006" lon="-123.73333000000001"><ele>11.4</ele></trkpt>
    <trkpt lat="46.09495810182143" lon="-123.73365602345632"><ele>13.2</ele></trkpt>
    <trkpt lat="46.09499497034876" lon="-123.73390591014156"><ele>14.7</ele></trkpt>
    <trkpt lat="46.095000000000006" lon="-123.73394"><ele>14.9</ele></trkpt>
    <trkpt lat="46.0950220174975" lon="-123.73402660215682"><ele>15.4</ele></trkpt>
    <trkpt lat="46.0950523544317" lon="-123.73414592743131"><ele>16.2</ele></trkpt>
    <trkpt lat="46.09512850632775" lon="-123.73444545822247"><ele>18.2</ele></trkpt>
    <trkpt lat="46.09514367479484" lon="-123.73450512085972"><ele>18.6</ele></trkpt>
    <trkpt lat="46.095150000000004" lon="-123.73453"><ele>18.8</ele></trkpt>
    <trkpt lat="46.095168702108495" lon="-123.73462691092583"><ele>19.3</ele></trkpt>
    <trkpt lat="46.09519233075405" lon="-123.73474935027099"><ele>20.0</ele></trkpt>
    <trkpt lat="46.09521620050823" lon="-123.7348730389972"><ele>20.7</ele></trkpt>
    <trkpt lat="46.09526" lon="-123.73510000000002"><ele>21.9</ele></trkpt>
    <trkpt lat="46.09526260229664" lon="-123.7351182160765"><ele>22.0</ele></trkpt>
    <trkpt lat="46.095289276232364" lon="-123.7353049336266"><ele>23.0</ele></trkpt>
    <trkpt lat="46.09531613162344" lon="-123.7354929213641"><ele>24.0</ele></trkpt>
    <trkpt lat="46.09532" lon="-123.73552000000001"><ele>24.1</ele></trkpt>
    <trkpt lat="46.095330000000004" lon="-123.73587"><ele>25.5</ele></trkpt>
    <trkpt lat="46.09531035260798" lon="-123.7360026198962"><ele>26.0</ele></trkpt>
    <trkpt lat="46.095290000000006" lon="-123.73614"><ele>26.6</ele></trkpt>
    <trkpt lat="46.09523514613945" lon="-123.736301514145"><ele>27.3</ele></trkpt>
    <trkpt lat="46.0951959864855" lon="-123.7364168175705"><ele>27.7</ele></trkpt>
    <trkpt lat="46.095110000000005" lon="-123.73667"><ele>28.6</ele></trkpt>
    <trkpt lat="46.09509436776461" lon="-123.7367026855831"><ele>28.8</ele></trkpt>
    <trkpt lat="46.095000000000006" lon="-123.7369"><ele>29.6</ele></trkpt>
    <trkpt lat="46.094850456280646" lon="-123.73715950233657"><ele>30.7</ele></trkpt>
    <trkpt lat="46.094660000000005" lon="-123.73749000000001"><ele>32.3</ele></trkpt>
    <trkpt lat="46.09457125995298" lon="-123.7377357416687"><ele>33.3</ele></trkpt>
    <trkpt lat="46.094530000000006" lon="-123.73785000000001"><ele>33.7</ele></trkpt>
    <trkpt lat="46.09445129587863" lon="-123.73814907566123"><ele>34.8</ele></trkpt>
    <trkpt lat="46.09443" lon="-123.73823000000002"><ele>35.1</ele></trkpt>
    <trkpt lat="46.09430266099204" lon="-123.73846711401484"><ele>36.2</ele></trkpt>
    <trkpt lat="46.0942475971191" lon="-123.73856964674377"><ele>36.6</ele></trkpt>
    <trkpt lat="46.094220065182625" lon="-123.73862091310824"><ele>36.8</ele></trkpt>
    <trkpt lat="46.09416555194841" lon="-123.73872242050987"><ele>37.2</ele></trkpt>
    <trkpt lat="46.09411048807546" lon="-123.7388249532388"><ele>37.4</ele></trkpt>
    <trkpt lat="46.09408295613899" lon="-123.73887621960327"><ele>37.5</ele></trkpt>
    <trkpt lat="46.09402844290477" lon="-123.73897772700492"><ele>37.7</ele></trkpt>
    <trkpt lat="46.0940009109683" lon="-123.7390289933694"><ele>37.8</ele></trkpt>
    <trkpt lat="46.093945847095355" lon="-123.73913152609832"><ele>37.8</ele></trkpt>
    <trkpt lat="46.09386380192466" lon="-123.73928429986444"><ele>37.9</ele></trkpt>
    <trkpt lat="46.09385" lon="-123.73931"><ele>37.9</ele></trkpt>
    <trkpt lat="46.093782234292476" lon="-123.73951329712258"><ele>38.0</ele></trkpt>
    <trkpt lat="46.09375000000001" lon="-123.73961000000001"><ele>38.0</ele></trkpt>
    <trkpt lat="46.093692312414234" lon="-123.73987783521969"><ele>38.0</ele></trkpt>
    <trkpt lat="46.09365230049852" lon="-123.74006360482835"><ele>38.0</ele></trkpt>
    <trkpt lat="46.093610000000005" lon="-123.74026"><ele>37.8</ele></trkpt>
    <trkpt lat="46.09358520081794" lon="-123.7404385541109"><ele>37.6</ele></trkpt>
    <trkpt lat="46.093560000000004" lon="-123.74062"><ele>37.5</ele></trkpt>
    <trkpt lat="46.09354889788003" lon="-123.74075692614633"><ele>37.5</ele></trkpt>
    <trkpt lat="46.093500000000006" lon="-123.74136000000001"><ele>37.2</ele></trkpt>
    <trkpt lat="46.093500000000006" lon="-123.74161260857863"><ele>37.1</ele></trkpt>
    <trkpt lat="46.093500000000006" lon="-123.74173"><ele>37.1</ele></trkpt>
    <trkpt lat="46.093527376236025" lon="-123.74186231847409"><ele>37.0</ele></trkpt>
    <trkpt lat="46.093560000000004" lon="-123.74202000000001"><ele>36.8</ele></trkpt>
    <trkpt lat="46.093599720838284" lon="-123.74209061482361"><ele>36.7</ele></trkpt>
    <trkpt lat="46.093650000000004" lon="-123.74218"><ele>36.5</ele></trkpt>
    <trkpt lat="46.09370061613133" lon="-123.74219946774281"><ele>36.4</ele></trkpt>
    <trkpt lat="46.09378" lon="-123.74223"><ele>36.2</ele></trkpt>
    <trkpt lat="46.093918453155204" lon="-123.74225966853328"><ele>35.8</ele></trkpt>
    <trkpt lat="46.093920000000004" lon="-123.74226000000002"><ele>35.8</ele></trkpt>
    <trkpt lat="46.094046288247974" lon="-123.74220695893587"><ele>35.5</ele></trkpt>
    <trkpt lat="46.09428632563811" lon="-123.74210614323201"><ele>34.8</ele></trkpt>
    <trkpt lat="46.09442000000001" lon="-123.74205"><ele>34.4</ele></trkpt>
    <trkpt lat="46.094569082183924" lon="-123.74200615229884"><ele>33.9</ele></trkpt>
    <trkpt lat="46.094590000000004" lon="-123.742"><ele>33.9</ele></trkpt>
    <trkpt lat="46.094744918704336" lon="-123.742"><ele>33.5</ele></trkpt>
    <trkpt lat="46.09489000000001" lon="-123.742"><ele>33.1</ele></trkpt>
    <trkpt lat="46.09492100145813" lon="-123.74201192363775"><ele>33.1</ele></trkpt>
    <trkpt lat="46.095020000000005" lon="-123.74205"><ele>32.8</ele></trkpt>
    <trkpt lat="46.0951176021682" lon="-123.7421476021682"><ele>32.5</ele></trkpt>
    <trkpt lat="46.095150000000004" lon="-123.74218"><ele>32.4</ele></trkpt>
    <trkpt lat="46.09526" lon="-123.74233000000001"><ele>32.0</ele></trkpt>
    <trkpt lat="46.095303326494914" lon="-123.74241415338436"><ele>31.9</ele></trkpt>
    <trkpt lat="46.095381060041206" lon="-123.74256513584928"><ele>31.6</ele></trkpt>
    <trkpt lat="46.095780000000005" lon="-123.74334"><ele>30.5</ele></trkpt>
    <trkpt lat="46.09588630115455" lon="-123.74350883124546"><ele>30.2</ele></trkpt>
    <trkpt lat="46.09595" lon="-123.74361"><ele>29.4</ele></trkpt>
    <trkpt lat="46.09624" lon="-123.74397"><ele>28.8</ele></trkpt>
    <trkpt lat="46.09658" lon="-123.74466000000001"><ele>28.1</ele></trkpt>
    <trkpt lat="46.09671" lon="-123.74486000000002"><ele>27.8</ele></trkpt>
    <trkpt lat="46.09684" lon="-123.745"><ele>27.6</ele></trkpt>
    <trkpt lat="46.097260000000006" lon="-123.74527"><ele>27.0</ele></trkpt>
    <trkpt lat="46.09736617730322" lon="-123.74538434478808"><ele>26.8</ele></trkpt>
    <trkpt lat="46.09737122130054" lon="-123.7453897767852"><ele>26.7</ele></trkpt>
    <trkpt lat="46.097390000000004" lon="-123.74541"><ele>25.3</ele></trkpt>
    <trkpt lat="46.09742603399957" lon="-123.74547125779927"><ele>25.3</ele></trkpt>
    <trkpt lat="46.09745163164141" lon="-123.7455147737904"><ele>25.2</ele></trkpt>
    <trkpt lat="46.09749" lon="-123.74558"><ele>25.1</ele></trkpt>
    <trkpt lat="46.09749990769113" lon="-123.74560476922781"><ele>25.1</ele></trkpt>
    <trkpt lat="46.097550000000005" lon="-123.74573000000001"><ele>24.8</ele></trkpt>
    <trkpt lat="46.09755626064298" lon="-123.74575504257193"><ele>24.7</ele></trkpt>
    <trkpt lat="46.09758645677695" lon="-123.7458758271078"><ele>24.1</ele></trkpt>
    <trkpt lat="46.09760170734966" lon="-123.74593682939863"><ele>23.8</ele></trkpt>
    <trkpt lat="46.09761695792237" lon="-123.74599783168946"><ele>23.5</ele></trkpt>
    <trkpt lat="46.09763220849507" lon="-123.7460588339803"><ele>23.3</ele></trkpt>
    <trkpt lat="46.09764715405633" lon="-123.74611861622532"><ele>23.1</ele></trkpt>
    <trkpt lat="46.097660000000005" lon="-123.74617"><ele>23.0</ele></trkpt>
    <trkpt lat="46.09767371999492" lon="-123.7463071999492"><ele>22.6</ele></trkpt>
    <trkpt lat="46.09770568256417" lon="-123.74662682564167"><ele>21.9</ele></trkpt>
    <trkpt lat="46.09771851893736" lon="-123.74675518937359"><ele>21.7</ele></trkpt>
    <trkpt lat="46.097730000000006" lon="-123.74687000000002"><ele>21.5</ele></trkpt>
    <trkpt lat="46.097730000000006" lon="-123.74688239640138"><ele>21.5</ele></trkpt>
    <trkpt lat="46.097730000000006" lon="-123.74701208811413"><ele>21.3</ele></trkpt>
    <trkpt lat="46.097730000000006" lon="-123.74733372356181"><ele>21.0</ele></trkpt>
    <trkpt lat="46.097730000000006" lon="-123.74746341527458"><ele>20.8</ele></trkpt>
    <trkpt lat="46.09773" lon="-123.74759181007022"><ele>20.5</ele></trkpt>
    <trkpt lat="46.097730000000006" lon="-123.74791474243503"><ele>19.8</ele></trkpt>
    <trkpt lat="46.097730000000006" lon="-123.74810798308705"><ele>19.5</ele></trkpt>
    <trkpt lat="46.097730000000006" lon="-123.74823767479982"><ele>19.3</ele></trkpt>
    <trkpt lat="46.097730000000006" lon="-123.74856060716462"><ele>19.0</ele></trkpt>
    <trkpt lat="46.097730000000006" lon="-123.74868900196026"><ele>18.9</ele></trkpt>
    <trkpt lat="46.097730000000006" lon="-123.74881869367304"><ele>18.7</ele></trkpt>
    <trkpt lat="46.097730000000006" lon="-123.74894"><ele>18.4</ele></trkpt>
    <trkpt lat="46.09773358740324" lon="-123.74901174806479"><ele>18.3</ele></trkpt>
    <trkpt lat="46.09773999052033" lon="-123.74913981040652"><ele>18.0</ele></trkpt>
    <trkpt lat="46.09774645831537" lon="-123.74926916630724"><ele>17.6</ele></trkpt>
    <trkpt lat="46.097750000000005" lon="-123.74934"><ele>17.3</ele></trkpt>
    <trkpt lat="46.09775741728959" lon="-123.74939637140086"><ele>17.1</ele></trkpt>
  </trkseg></trk>
</gpx>
