<?xml version="1.0" encoding="UTF-8"?>
<gpx version="1.1" creator="h2c-tracker" xmlns="http://www.topografix.com/GPX/1/1">
  <metadata><name>Hood to Coast 2026 — Leg 36 (5.03 mi)</name><desc>Derived from the official Hood to Coast Strava route (simplified, 475 points, ~5.10 mi). Verify against the official leg map PDF.</desc></metadata>
  <wpt lat="46.00760360882629" lon="-123.8674"><name>Exchange 35 — Lewis &amp; Clark Mainline (86645 Lewis &amp; Clark Rd)</name></wpt>
  <wpt lat="45.99324000000001" lon="-123.93004"><name>Exchange 36 — FINISH — Seaside beach (Broadway turnaround)</name></wpt>
  <trk><name>HTC Leg 36</name><trkseg>
    <trkpt lat="46.00760360882629" lon="-123.8674"><ele>100.3</ele></trkpt>
    <trkpt lat="46.007600000000004" lon="-123.8674"><ele>100.3</ele></trkpt>
    <trkpt lat="46.007558642708005" lon="-123.8674"><ele>100.3</ele></trkpt>
    <trkpt lat="46.00752000000001" lon="-123.8674"><ele>100.3</ele></trkpt>
    <trkpt lat="46.007470431008656" lon="-123.86741304447142"><ele>100.3</ele></trkpt>
    <trkpt lat="46.007381964407855" lon="-123.86743632515584"><ele>100.2</ele></trkpt>
    <trkpt lat="46.00733" lon="-123.86745"><ele>100.2</ele></trkpt>
    <trkpt lat="46.007295796281056" lon="-123.86746710185948"><ele>100.1</ele></trkpt>
    <trkpt lat="46.00721084128813" lon="-123.86750957935594"><ele>100.0</ele></trkpt>
    <trkpt lat="46.00719" lon="-123.86752000000001"><ele>99.9</ele></trkpt>
    <trkpt lat="46.00713499569161" lon="-123.8675750043084"><ele>99.7</ele></trkpt>
    <trkpt lat="46.00702420094599" lon="-123.86768579905402"><ele>99.3</ele></trkpt>
    <trkpt lat="46.006951076413884" lon="-123.86775892358611"><ele>99.1</ele></trkpt>
    <trkpt lat="46.00687721325015" lon="-123.86783278674989"><ele>98.9</ele></trkpt>
    <trkpt lat="46.0067302255543" lon="-123.8679797744457"><ele>98.8</ele></trkpt>
    <trkpt lat="46.00665710102219" lon="-123.86805289897782"><ele>98.7</ele></trkpt>
    <trkpt lat="46.00658323785844" lon="-123.86812676214156"><ele>98.5</ele></trkpt>
    <trkpt lat="46.00654704490822" lon="-123.8681629550918"><ele>98.4</ele></trkpt>
    <trkpt lat="46.00647392037611" lon="-123.8682360796239"><ele>98.2</ele></trkpt>
    <trkpt lat="46.006436988794235" lon="-123.86827301120576"><ele>98.1</ele></trkpt>
    <trkpt lat="46.006370000000004" lon="-123.86834"><ele>97.8</ele></trkpt>
    <trkpt lat="46.00636199168786" lon="-123.86834350363658"><ele>97.8</ele></trkpt>
    <trkpt lat="46.00621" lon="-123.86841000000001"><ele>97.2</ele></trkpt>
    <trkpt lat="46.006189999684885" lon="-123.86841303035078"><ele>97.1</ele></trkpt>
    <trkpt lat="46.00610056136816" lon="-123.86842658161089"><ele>96.8</ele></trkpt>
    <trkpt lat="46.00601201743461" lon="-123.86843999735842"><ele>96.6</ele></trkpt>
    <trkpt lat="46.005880000000005" lon="-123.86846000000001"><ele>96.2</ele></trkpt>
    <trkpt lat="46.00588159471462" lon="-123.86846208006257"><ele>96.2</ele></trkpt>
    <trkpt lat="46.00611000000001" lon="-123.86876000000001"><ele>95.7</ele></trkpt>
    <trkpt lat="46.006173976978864" lon="-123.86885874707608"><ele>95.5</ele></trkpt>
    <trkpt lat="46.00623531981738" lon="-123.86895342841377"><ele>95.4</ele></trkpt>
    <trkpt lat="46.006296662655885" lon="-123.86904810975147"><ele>95.4</ele></trkpt>
    <trkpt lat="46.00632672064676" lon="-123.86909450360697"><ele>95.4</ele></trkpt>
    <trkpt lat="46.0064487928954" lon="-123.86928291946899"><ele>95.5</ele></trkpt>
    <trkpt lat="46.006510135733905" lon="-123.86937760080669"><ele>95.6</ele></trkpt>
    <trkpt lat="46.00657" lon="-123.86947"><ele>95.6</ele></trkpt>
    <trkpt lat="46.00657110012257" lon="-123.86947090879691"><ele>95.6</ele></trkpt>
    <trkpt lat="46.00672632795782" lon="-123.86959914048691"><ele>95.6</ele></trkpt>
    <trkpt lat="46.00676532992648" lon="-123.86963135950448"><ele>95.6</ele></trkpt>
    <trkpt lat="46.006800000000005" lon="-123.86966000000001"><ele>95.7</ele></trkpt>
    <trkpt lat="46.00680487665415" lon="-123.86966155166269"><ele>95.7</ele></trkpt>
    <trkpt lat="46.0068918118709" lon="-123.86968921286802"><ele>95.9</ele></trkpt>
    <trkpt lat="46.006979625221156" lon="-123.86971715347946"><ele>96.4</ele></trkpt>
    <trkpt lat="46.007020000000004" lon="-123.86973"><ele>96.7</ele></trkpt>
    <trkpt lat="46.00726" lon="-123.86992000000001"><ele>98.7</ele></trkpt>
    <trkpt lat="46.00734102807239" lon="-123.87007279579366"><ele>99.6</ele></trkpt>
    <trkpt lat="46.00739560316031" lon="-123.87017570881659"><ele>100.3</ele></trkpt>
    <trkpt lat="46.00755878267318" lon="-123.87048341875513"><ele>102.0</ele></trkpt>
    <trkpt lat="46.00761000000001" lon="-123.87058"><ele>102.6</ele></trkpt>
    <trkpt lat="46.00786" lon="-123.87081"><ele>104.7</ele></trkpt>
    <trkpt lat="46.00787694296346" lon="-123.87083178381016"><ele>104.9</ele></trkpt>
    <trkpt lat="46.00794402188464" lon="-123.8709180281374"><ele>105.5</ele></trkpt>
    <trkpt lat="46.008" lon="-123.87099"><ele>106.0</ele></trkpt>
    <trkpt lat="46.00801159817573" lon="-123.87100124671586"><ele>106.1</ele></trkpt>
    <trkpt lat="46.008123485789795" lon="-123.87110974379615"><ele>106.9</ele></trkpt>
    <trkpt lat="46.00830921922914" lon="-123.87128984894947"><ele>108.1</ele></trkpt>
    <trkpt lat="46.00833" lon="-123.87131000000001"><ele>108.2</ele></trkpt>
    <trkpt lat="46.00865882708456" lon="-123.87139968011397"><ele>110.0</ele></trkpt>
    <trkpt lat="46.00883466541055" lon="-123.87144763602106"><ele>111.1</ele></trkpt>
    <trkpt lat="46.008990000000004" lon="-123.87149000000001"><ele>112.2</ele></trkpt>
    <trkpt lat="46.009280402615865" lon="-123.871507779752"><ele>114.0</ele></trkpt>
    <trkpt lat="46.009414280663286" lon="-123.87151597636715"><ele>114.8</ele></trkpt>
    <trkpt lat="46.00948" lon="-123.87152"><ele>115.1</ele></trkpt>
    <trkpt lat="46.009503193159766" lon="-123.87152970876456"><ele>115.2</ele></trkpt>
    <trkpt lat="46.00954637141357" lon="-123.87154778338244"><ele>115.4</ele></trkpt>
    <trkpt lat="46.00958954966737" lon="-123.87156585800031"><ele>115.6</ele></trkpt>
    <trkpt lat="46.00967590617496" lon="-123.87160200723602"><ele>115.9</ele></trkpt>
    <trkpt lat="46.00984775562509" lon="-123.87167394421516"><ele>116.4</ele></trkpt>
    <trkpt lat="46.009910000000005" lon="-123.8717"><ele>116.5</ele></trkpt>
    <trkpt lat="46.01010546581229" lon="-123.87161115190352"><ele>117.0</ele></trkpt>
    <trkpt lat="46.010130000000004" lon="-123.87160000000002"><ele>117.1</ele></trkpt>
    <trkpt lat="46.01023524388382" lon="-123.8716366065683"><ele>117.4</ele></trkpt>
    <trkpt lat="46.01036637031267" lon="-123.87168221576093"><ele>117.9</ele></trkpt>
    <trkpt lat="46.010540331374926" lon="-123.87174272395652"><ele>118.6</ele></trkpt>
    <trkpt lat="46.01059" lon="-123.87176000000001"><ele>118.8</ele></trkpt>
    <trkpt lat="46.01062852889145" lon="-123.87175299474701"><ele>119.0</ele></trkpt>
    <trkpt lat="46.01080697624017" lon="-123.87172054977452"><ele>119.5</ele></trkpt>
    <trkpt lat="46.010920000000006" lon="-123.8717"><ele>119.9</ele></trkpt>
    <trkpt lat="46.01102978317491" lon="-123.8717101651088"><ele>120.3</ele></trkpt>
    <trkpt lat="46.01111953003232" lon="-123.87171847500301"><ele>120.6</ele></trkpt>
    <trkpt lat="46.01143274656464" lon="-123.87174747653377"><ele>121.8</ele></trkpt>
    <trkpt lat="46.01146000000001" lon="-123.87175"><ele>121.9</ele></trkpt>
    <trkpt lat="46.01161103022749" lon="-123.87173019275707"><ele>122.5</ele></trkpt>
    <trkpt lat="46.01174447685396" lon="-123.87171269156013"><ele>123.3</ele></trkpt>
    <trkpt lat="46.01183403834825" lon="-123.8717009457904"><ele>123.9</ele></trkpt>
    <trkpt lat="46.01192359984253" lon="-123.87168920002065"><ele>124.6</ele></trkpt>
    <trkpt lat="46.01205704646901" lon="-123.87167169882373"><ele>125.6</ele></trkpt>
    <trkpt lat="46.01207" lon="-123.87167000000001"><ele>125.7</ele></trkpt>
    <trkpt lat="46.012145692828426" lon="-123.87168974595524"><ele>126.3</ele></trkpt>
    <trkpt lat="46.012233299532795" lon="-123.87171259987812"><ele>126.9</ele></trkpt>
    <trkpt lat="46.01227754534308" lon="-123.87172414226342"><ele>127.2</ele></trkpt>
    <trkpt lat="46.01236515204745" lon="-123.8717469961863"><ele>127.7</ele></trkpt>
    <trkpt lat="46.01245364366803" lon="-123.87177008095688"><ele>128.1</ele></trkpt>
    <trkpt lat="46.012530000000005" lon="-123.87179"><ele>128.5</ele></trkpt>
    <trkpt lat="46.01254151948026" lon="-123.87179634218576"><ele>128.5</ele></trkpt>
    <trkpt lat="46.0126246805599" lon="-123.87184212749928"><ele>128.8</ele></trkpt>
    <trkpt lat="46.01266668110518" lon="-123.87186525139498"><ele>128.9</ele></trkpt>
    <trkpt lat="46.01274984218482" lon="-123.8719110367085"><ele>129.1</ele></trkpt>
    <trkpt lat="46.012791842730095" lon="-123.87193416060421"><ele>129.1</ele></trkpt>
    <trkpt lat="46.01287584382064" lon="-123.87198040839564"><ele>129.2</ele></trkpt>
    <trkpt lat="46.012959004900274" lon="-123.87202619370913"><ele>129.1</ele></trkpt>
    <trkpt lat="46.013001005445545" lon="-123.87204931760485"><ele>129.1</ele></trkpt>
    <trkpt lat="46.013085006536095" lon="-123.87209556539628"><ele>128.9</ele></trkpt>
    <trkpt lat="46.01316816761573" lon="-123.8721413507098"><ele>128.7</ele></trkpt>
    <trkpt lat="46.01321016816101" lon="-123.87216447460551"><ele>128.5</ele></trkpt>
    <trkpt lat="46.01329416925155" lon="-123.87221072239693"><ele>128.2</ele></trkpt>
    <trkpt lat="46.013377330331195" lon="-123.87225650771043"><ele>127.8</ele></trkpt>
    <trkpt lat="46.01342" lon="-123.87228"><ele>127.5</ele></trkpt>
    <trkpt lat="46.01345688167002" lon="-123.87231520523046"><ele>127.3</ele></trkpt>
    <trkpt lat="46.013531089605976" lon="-123.87238604007842"><ele>126.7</ele></trkpt>
    <trkpt lat="46.01364352587257" lon="-123.87249336560564"><ele>125.7</ele></trkpt>
    <trkpt lat="46.01371773380853" lon="-123.87256420045361"><ele>125.0</ele></trkpt>
    <trkpt lat="46.01383017007513" lon="-123.8726715259808"><ele>123.9</ele></trkpt>
    <trkpt lat="46.01386" lon="-123.87270000000001"><ele>123.6</ele></trkpt>
    <trkpt lat="46.01404" lon="-123.87305"><ele>120.9</ele></trkpt>
    <trkpt lat="46.01406426591231" lon="-123.87313627879932"><ele>120.3</ele></trkpt>
    <trkpt lat="46.01414832191557" lon="-123.87343514458871"><ele>118.4</ele></trkpt>
    <trkpt lat="46.01421549920332" lon="-123.87367399716734"><ele>116.9</ele></trkpt>
    <trkpt lat="46.01422" lon="-123.87369000000001"><ele>116.8</ele></trkpt>
    <trkpt lat="46.014164153869864" lon="-123.87376642102019"><ele>116.2</ele></trkpt>
    <trkpt lat="46.01403442657066" lon="-123.87394394258752"><ele>114.8</ele></trkpt>
    <trkpt lat="46.01384" lon="-123.87421"><ele>112.9</ele></trkpt>
    <trkpt lat="46.013798562239295" lon="-123.87432602573"><ele>112.2</ele></trkpt>
    <trkpt lat="46.01379000000001" lon="-123.87435"><ele>112.1</ele></trkpt>
    <trkpt lat="46.01375809881337" lon="-123.87450950593316"><ele>111.2</ele></trkpt>
    <trkpt lat="46.013733460213125" lon="-123.87463269893439"><ele>110.5</ele></trkpt>
    <trkpt lat="46.01373" lon="-123.87465000000002"><ele>110.4</ele></trkpt>
    <trkpt lat="46.01372041749042" lon="-123.8750189266191"><ele>108.1</ele></trkpt>
    <trkpt lat="46.01371372881149" lon="-123.87527644075779"><ele>106.6</ele></trkpt>
    <trkpt lat="46.01371" lon="-123.87542"><ele>105.7</ele></trkpt>
    <trkpt lat="46.013703329018966" lon="-123.87546966174776"><ele>105.5</ele></trkpt>
    <trkpt lat="46.013660804188135" lon="-123.87578623548833"><ele>103.7</ele></trkpt>
    <trkpt lat="46.01362" lon="-123.87609"><ele>102.1</ele></trkpt>
    <trkpt lat="46.01359417159615" lon="-123.87615684998646"><ele>101.7</ele></trkpt>
    <trkpt lat="46.013450000000006" lon="-123.87653000000002"><ele>99.6</ele></trkpt>
    <trkpt lat="46.013290000000005" lon="-123.87673000000001"><ele>98.0</ele></trkpt>
    <trkpt lat="46.013265882473725" lon="-123.87675411752629"><ele>97.8</ele></trkpt>
    <trkpt lat="46.013200000000005" lon="-123.87682000000001"><ele>97.2</ele></trkpt>
    <trkpt lat="46.01311038617324" lon="-123.87687974255118"><ele>96.4</ele></trkpt>
    <trkpt lat="46.013020000000004" lon="-123.87694"><ele>95.6</ele></trkpt>
    <trkpt lat="46.01279" lon="-123.87698"><ele>93.7</ele></trkpt>
    <trkpt lat="46.01258438402853" lon="-123.87697817230247"><ele>92.1</ele></trkpt>
    <trkpt lat="46.012405422288" lon="-123.87697658153145"><ele>90.7</ele></trkpt>
    <trkpt lat="46.01227052650367" lon="-123.8769753824578"><ele>89.8</ele></trkpt>
    <trkpt lat="46.01218149528603" lon="-123.87697459106923"><ele>89.3</ele></trkpt>
    <trkpt lat="46.01209156476314" lon="-123.87697379168678"><ele>88.9</ele></trkpt>
    <trkpt lat="46.011957568284046" lon="-123.87697260060696"><ele>88.3</ele></trkpt>
    <trkpt lat="46.01186763776117" lon="-123.87697180122456"><ele>87.9</ele></trkpt>
    <trkpt lat="46.01168867602064" lon="-123.87697021045352"><ele>87.0</ele></trkpt>
    <trkpt lat="46.01146474901866" lon="-123.87696821999128"><ele>85.9</ele></trkpt>
    <trkpt lat="46.01119675606047" lon="-123.87696583783165"><ele>84.5</ele></trkpt>
    <trkpt lat="46.01106186027614" lon="-123.87696463875803"><ele>83.8</ele></trkpt>
    <trkpt lat="46.01074890205653" lon="-123.87696185690719"><ele>82.3</ele></trkpt>
    <trkpt lat="46.01061490557743" lon="-123.87696066582737"><ele>81.7</ele></trkpt>
    <trkpt lat="46.010540000000006" lon="-123.87696000000001"><ele>81.5</ele></trkpt>
    <trkpt lat="46.01034000000001" lon="-123.87699"><ele>80.7</ele></trkpt>
    <trkpt lat="46.010110000000005" lon="-123.87712"><ele>79.8</ele></trkpt>
    <trkpt lat="46.00998392342191" lon="-123.87723599045185"><ele>79.2</ele></trkpt>
    <trkpt lat="46.00986" lon="-123.87735"><ele>78.7</ele></trkpt>
    <trkpt lat="46.009812900929575" lon="-123.87743746970223"><ele>78.4</ele></trkpt>
    <trkpt lat="46.00973024720658" lon="-123.87759096947349"><ele>77.8</ele></trkpt>
    <trkpt lat="46.00972" lon="-123.87761"><ele>77.7</ele></trkpt>
    <trkpt lat="46.009620000000005" lon="-123.87787000000002"><ele>76.8</ele></trkpt>
    <trkpt lat="46.009568281489415" lon="-123.87804921065296"><ele>76.2</ele></trkpt>
    <trkpt lat="46.00953377383316" lon="-123.87816878369443"><ele>75.8</ele></trkpt>
    <trkpt lat="46.0094992661769" lon="-123.87828835673588"><ele>75.3</ele></trkpt>
    <trkpt lat="46.00946475852065" lon="-123.87840792977732"><ele>74.8</ele></trkpt>
    <trkpt lat="46.009430595940955" lon="-123.87852630708836"><ele>74.2</ele></trkpt>
    <trkpt lat="46.009361580628436" lon="-123.87876545317127"><ele>73.0</ele></trkpt>
    <trkpt lat="46.00925840273622" lon="-123.8791229765652"><ele>71.0</ele></trkpt>
    <trkpt lat="46.0092069863284" lon="-123.87930114039696"><ele>70.1</ele></trkpt>
    <trkpt lat="46.009190000000004" lon="-123.87936"><ele>69.8</ele></trkpt>
    <trkpt lat="46.00917606107198" lon="-123.87948893508423"><ele>69.2</ele></trkpt>
    <trkpt lat="46.0091622293659" lon="-123.87961687836552"><ele>68.6</ele></trkpt>
    <trkpt lat="46.009150000000005" lon="-123.87973000000001"><ele>68.2</ele></trkpt>
    <trkpt lat="46.009150000000005" lon="-123.87974370527758"><ele>68.1</ele></trkpt>
    <trkpt lat="46.009150000000005" lon="-123.8798731891405"><ele>67.7</ele></trkpt>
    <trkpt lat="46.009150000000005" lon="-123.87989"><ele>67.6</ele></trkpt>
    <trkpt lat="46.00917341806927" lon="-123.87999751022706"><ele>67.3</ele></trkpt>
    <trkpt lat="46.00924042908632" lon="-123.88030515171444"><ele>66.4</ele></trkpt>
    <trkpt lat="46.00926734114135" lon="-123.88042870251257"><ele>66.1</ele></trkpt>
    <trkpt lat="46.0092942531964" lon="-123.88055225331073"><ele>65.6</ele></trkpt>
    <trkpt lat="46.00933435215841" lon="-123.88073634399998"><ele>65.0</ele></trkpt>
    <trkpt lat="46.009549110357646" lon="-123.88172227936919"><ele>60.9</ele></trkpt>
    <trkpt lat="46.00959" lon="-123.88191"><ele>60.1</ele></trkpt>
    <trkpt lat="46.00959475749574" lon="-123.88210029982943"><ele>59.3</ele></trkpt>
    <trkpt lat="46.00959961003709" lon="-123.88229440148325"><ele>58.5</ele></trkpt>
    <trkpt lat="46.009600000000006" lon="-123.88231"><ele>58.4</ele></trkpt>
    <trkpt lat="46.0095755913418" lon="-123.88267988505135"><ele>56.7</ele></trkpt>
    <trkpt lat="46.0095670849707" lon="-123.88280878929021"><ele>56.1</ele></trkpt>
    <trkpt lat="46.00955866366332" lon="-123.88293640448668"><ele>55.6</ele></trkpt>
    <trkpt lat="46.00955441047777" lon="-123.88300085660612"><ele>55.4</ele></trkpt>
    <trkpt lat="46.00954590410668" lon="-123.88312976084498"><ele>55.0</ele></trkpt>
    <trkpt lat="46.009541650921136" lon="-123.88319421296441"><ele>54.9</ele></trkpt>
    <trkpt lat="46.00953314455004" lon="-123.88332311720328"><ele>54.6</ele></trkpt>
    <trkpt lat="46.00952472324266" lon="-123.88345073239975"><ele>54.4</ele></trkpt>
    <trkpt lat="46.00950345731493" lon="-123.88377299299691"><ele>53.9</ele></trkpt>
    <trkpt lat="46.00949503600754" lon="-123.88390060819339"><ele>53.7</ele></trkpt>
    <trkpt lat="46.009490782822" lon="-123.88396506031282"><ele>53.6</ele></trkpt>
    <trkpt lat="46.009486529636455" lon="-123.88402951243225"><ele>53.4</ele></trkpt>
    <trkpt lat="46.0094822764509" lon="-123.88409396455168"><ele>53.2</ele></trkpt>
    <trkpt lat="46.009473770079815" lon="-123.88422286879054"><ele>52.8</ele></trkpt>
    <trkpt lat="46.00947" lon="-123.88428"><ele>52.5</ele></trkpt>
    <trkpt lat="46.00947521496864" lon="-123.8843504020766"><ele>52.2</ele></trkpt>
    <trkpt lat="46.00948475233439" lon="-123.88447915651409"><ele>51.6</ele></trkpt>
    <trkpt lat="46.00949000000001" lon="-123.88455"><ele>51.2</ele></trkpt>
    <trkpt lat="46.00952003356748" lon="-123.88466512867535"><ele>50.6</ele></trkpt>
    <trkpt lat="46.009550000000004" lon="-123.88478"><ele>49.9</ele></trkpt>
    <trkpt lat="46.009551844862045" lon="-123.88478479664131"><ele>49.9</ele></trkpt>
    <trkpt lat="46.009617196330986" lon="-123.88495471046056"><ele>48.8</ele></trkpt>
    <trkpt lat="46.00965" lon="-123.88504"><ele>48.2</ele></trkpt>
    <trkpt lat="46.0097221366407" lon="-123.88516194527355"><ele>47.3</ele></trkpt>
    <trkpt lat="46.010070000000006" lon="-123.88575000000002"><ele>42.7</ele></trkpt>
    <trkpt lat="46.010103352875404" lon="-123.88579618090442"><ele>42.3</ele></trkpt>
    <trkpt lat="46.010168175096524" lon="-123.88588593474904"><ele>41.6</ele></trkpt>
    <trkpt lat="46.010200000000005" lon="-123.88593000000002"><ele>41.2</ele></trkpt>
    <trkpt lat="46.0102262215256" lon="-123.8859824430512"><ele>40.9</ele></trkpt>
    <trkpt lat="46.01027823967735" lon="-123.88608647935472"><ele>40.2</ele></trkpt>
    <trkpt lat="46.01033078326499" lon="-123.88619156652999"><ele>39.6</ele></trkpt>
    <trkpt lat="46.0103570550588" lon="-123.8862441101176"><ele>39.4</ele></trkpt>
    <trkpt lat="46.01039" lon="-123.88631000000001"><ele>39.1</ele></trkpt>
    <trkpt lat="46.01040170138303" lon="-123.88635388018636"><ele>38.9</ele></trkpt>
    <trkpt lat="46.01043361443283" lon="-123.88647355412309"><ele>38.5</ele></trkpt>
    <trkpt lat="46.010470000000005" lon="-123.88661"><ele>38.1</ele></trkpt>
    <trkpt lat="46.01049644244839" lon="-123.8868479820355"><ele>37.4</ele></trkpt>
    <trkpt lat="46.0105" lon="-123.88688"><ele>37.3</ele></trkpt>
    <trkpt lat="46.0105" lon="-123.88697576703615"><ele>36.9</ele></trkpt>
    <trkpt lat="46.0105" lon="-123.88710525405949"><ele>36.5</ele></trkpt>
    <trkpt lat="46.0105" lon="-123.88724"><ele>35.9</ele></trkpt>
    <trkpt lat="46.010482165454725" lon="-123.88735889696852"><ele>35.4</ele></trkpt>
    <trkpt lat="46.010470000000005" lon="-123.88744000000001"><ele>35.0</ele></trkpt>
    <trkpt lat="46.01043977055936" lon="-123.88754239004092"><ele>34.5</ele></trkpt>
    <trkpt lat="46.01040493986067" lon="-123.88766036498808"><ele>33.8</ele></trkpt>
    <trkpt lat="46.01035251790002" lon="-123.8878379232419"><ele>32.7</ele></trkpt>
    <trkpt lat="46.0102825046774" lon="-123.8880750648024"><ele>31.2</ele></trkpt>
    <trkpt lat="46.01017766075609" lon="-123.88843018131004"><ele>29.0</ele></trkpt>
    <trkpt lat="46.010160000000006" lon="-123.88849"><ele>28.6</ele></trkpt>
    <trkpt lat="46.01012147187022" lon="-123.88893692630555"><ele>25.9</ele></trkpt>
    <trkpt lat="46.01011039428092" lon="-123.88906542634138"><ele>25.2</ele></trkpt>
    <trkpt lat="46.01009942746752" lon="-123.88919264137684"><ele>24.5</ele></trkpt>
    <trkpt lat="46.010082921859464" lon="-123.88938410643021"><ele>23.6</ele></trkpt>
    <trkpt lat="46.01007184427018" lon="-123.88951260646604"><ele>23.1</ele></trkpt>
    <trkpt lat="46.01006641625142" lon="-123.88957557148359"><ele>22.8</ele></trkpt>
    <trkpt lat="46.01006087745677" lon="-123.88963982150149"><ele>22.6</ele></trkpt>
    <trkpt lat="46.01006" lon="-123.88965"><ele>22.5</ele></trkpt>
    <trkpt lat="46.010020448293766" lon="-123.8897532738996"><ele>22.2</ele></trkpt>
    <trkpt lat="46.00984761393551" lon="-123.89020456361284"><ele>20.7</ele></trkpt>
    <trkpt lat="46.009718205295414" lon="-123.89054246395088"><ele>19.6</ele></trkpt>
    <trkpt lat="46.00970561183715" lon="-123.89057534686968"><ele>19.8</ele></trkpt>
    <trkpt lat="46.0097" lon="-123.89059"><ele>19.7</ele></trkpt>
    <trkpt lat="46.009620000000005" lon="-123.89087"><ele>18.4</ele></trkpt>
    <trkpt lat="46.009615707621215" lon="-123.89093867806069"><ele>18.1</ele></trkpt>
    <trkpt lat="46.00960764738255" lon="-123.8910676418792"><ele>17.5</ele></trkpt>
    <trkpt lat="46.00959" lon="-123.89135000000002"><ele>16.2</ele></trkpt>
    <trkpt lat="46.00962865461999" lon="-123.89157640563133"><ele>15.1</ele></trkpt>
    <trkpt lat="46.00965012269088" lon="-123.8917021471894"><ele>14.6</ele></trkpt>
    <trkpt lat="46.009660000000004" lon="-123.89176"><ele>14.4</ele></trkpt>
    <trkpt lat="46.009682847063274" lon="-123.89182168707086"><ele>14.1</ele></trkpt>
    <trkpt lat="46.00970400539541" lon="-123.8918788145676"><ele>14.0</ele></trkpt>
    <trkpt lat="46.00974632205967" lon="-123.8919930695611"><ele>13.6</ele></trkpt>
    <trkpt lat="46.00976000000001" lon="-123.89203"><ele>13.5</ele></trkpt>
    <trkpt lat="46.00977020751738" lon="-123.89204582165193"><ele>13.5</ele></trkpt>
    <trkpt lat="46.009831414022244" lon="-123.89214069173447"><ele>13.2</ele></trkpt>
    <trkpt lat="46.009892620527104" lon="-123.892235561817"><ele>13.0</ele></trkpt>
    <trkpt lat="46.00996000000001" lon="-123.89234"><ele>12.8</ele></trkpt>
    <trkpt lat="46.01002371824818" lon="-123.8924116830292"><ele>12.6</ele></trkpt>
    <trkpt lat="46.010040000000004" lon="-123.89243"><ele>12.5</ele></trkpt>
    <trkpt lat="46.01014729226887" lon="-123.89248646961519"><ele>12.3</ele></trkpt>
    <trkpt lat="46.01023000000001" lon="-123.89253000000001"><ele>12.0</ele></trkpt>
    <trkpt lat="46.010231809663715" lon="-123.89253068939571"><ele>12.0</ele></trkpt>
    <trkpt lat="46.010317880873515" lon="-123.892563478428"><ele>11.7</ele></trkpt>
    <trkpt lat="46.01044" lon="-123.89261"><ele>11.2</ele></trkpt>
    <trkpt lat="46.01044845067815" lon="-123.89261211266954"><ele>11.2</ele></trkpt>
    <trkpt lat="46.010537057179725" lon="-123.89263426429494"><ele>10.8</ele></trkpt>
    <trkpt lat="46.010600000000004" lon="-123.89265"><ele>10.4</ele></trkpt>
    <trkpt lat="46.01075926854957" lon="-123.89261662944675"><ele>9.7</ele></trkpt>
    <trkpt lat="46.0108927609196" lon="-123.89258865961685"><ele>9.1</ele></trkpt>
    <trkpt lat="46.01115885571053" lon="-123.89253290642256"><ele>8.0</ele></trkpt>
    <trkpt lat="46.01155844287149" lon="-123.89244918339837"><ele>6.7</ele></trkpt>
    <trkpt lat="46.01165" lon="-123.89243"><ele>6.6</ele></trkpt>
    <trkpt lat="46.01172565184457" lon="-123.89243000000002"><ele>6.5</ele></trkpt>
    <trkpt lat="46.011770000000006" lon="-123.89243"><ele>6.4</ele></trkpt>
    <trkpt lat="46.01181138506754" lon="-123.89244619415686"><ele>6.3</ele></trkpt>
    <trkpt lat="46.01189643391686" lon="-123.89247947414137"><ele>6.1</ele></trkpt>
    <trkpt lat="46.012" lon="-123.89252"><ele>5.9</ele></trkpt>
    <trkpt lat="46.01205409460107" lon="-123.89257727663644"><ele>5.8</ele></trkpt>
    <trkpt lat="46.012170000000005" lon="-123.8927"><ele>5.6</ele></trkpt>
    <trkpt lat="46.01227998220155" lon="-123.89287282917387"><ele>5.4</ele></trkpt>
    <trkpt lat="46.01231000000001" lon="-123.89292"><ele>5.3</ele></trkpt>
    <trkpt lat="46.01236383252734" lon="-123.89315840119254"><ele>5.2</ele></trkpt>
    <trkpt lat="46.01238" lon="-123.89323000000002"><ele>5.1</ele></trkpt>
    <trkpt lat="46.01239" lon="-123.89337"><ele>5.0</ele></trkpt>
    <trkpt lat="46.01238788153144" lon="-123.89341025090285"><ele>5.0</ele></trkpt>
    <trkpt lat="46.01238" lon="-123.89356000000001"><ele>4.8</ele></trkpt>
    <trkpt lat="46.01234883371454" lon="-123.89372362299868"><ele>4.7</ele></trkpt>
    <trkpt lat="46.01234" lon="-123.89377"><ele>4.6</ele></trkpt>
    <trkpt lat="46.01229847329567" lon="-123.89390051249933"><ele>4.5</ele></trkpt>
    <trkpt lat="46.01227" lon="-123.89399000000002"><ele>4.4</ele></trkpt>
    <trkpt lat="46.012167137529566" lon="-123.8941545799527"><ele>4.3</ele></trkpt>
    <trkpt lat="46.01207" lon="-123.89431"><ele>4.2</ele></trkpt>
    <trkpt lat="46.0120456800357" lon="-123.89434180303027"><ele>4.2</ele></trkpt>
    <trkpt lat="46.011947816428815" lon="-123.89446977851618"><ele>4.1</ele></trkpt>
    <trkpt lat="46.01194" lon="-123.89448000000002"><ele>4.1</ele></trkpt>
    <trkpt lat="46.01187523154582" lon="-123.89454606382328"><ele>4.1</ele></trkpt>
    <trkpt lat="46.01180258087229" lon="-123.89462016751028"><ele>4.1</ele></trkpt>
    <trkpt lat="46.011621321111036" lon="-123.89480505246677"><ele>4.2</ele></trkpt>
    <trkpt lat="46.01151271202332" lon="-123.89491583373622"><ele>4.2</ele></trkpt>
    <trkpt lat="46.01144" lon="-123.89499"><ele>4.2</ele></trkpt>
    <trkpt lat="46.01138656952692" lon="-123.89509240840674"><ele>4.2</ele></trkpt>
    <trkpt lat="46.011320000000005" lon="-123.89522000000001"><ele>4.2</ele></trkpt>
    <trkpt lat="46.01127" lon="-123.89535000000001"><ele>4.1</ele></trkpt>
    <trkpt lat="46.011243926763555" lon="-123.89548471172168"><ele>4.1</ele></trkpt>
    <trkpt lat="46.011210000000005" lon="-123.89566"><ele>4.0</ele></trkpt>
    <trkpt lat="46.01121313172064" lon="-123.89579779570778"><ele>4.0</ele></trkpt>
    <trkpt lat="46.011217484919364" lon="-123.89598933645172"><ele>4.0</ele></trkpt>
    <trkpt lat="46.01122" lon="-123.8961"><ele>4.0</ele></trkpt>
    <trkpt lat="46.01123632716801" lon="-123.89623061734407"><ele>3.9</ele></trkpt>
    <trkpt lat="46.01127" lon="-123.8965"><ele>3.9</ele></trkpt>
    <trkpt lat="46.01129857201128" lon="-123.89658311857826"><ele>3.9</ele></trkpt>
    <trkpt lat="46.01135721453038" lon="-123.89675371499744"><ele>4.0</ele></trkpt>
    <trkpt lat="46.01138" lon="-123.89682"><ele>4.0</ele></trkpt>
    <trkpt lat="46.01152470320419" lon="-123.8970415767814"><ele>4.0</ele></trkpt>
    <trkpt lat="46.011700000000005" lon="-123.89731"><ele>4.1</ele></trkpt>
    <trkpt lat="46.011703918186974" lon="-123.89731783637394"><ele>4.1</ele></trkpt>
    <trkpt lat="46.011780633149556" lon="-123.89747126629909"><ele>4.0</ele></trkpt>
    <trkpt lat="46.011790000000005" lon="-123.89749"><ele>4.0</ele></trkpt>
    <trkpt lat="46.01183987674796" lon="-123.89763963024389"><ele>4.0</ele></trkpt>
    <trkpt lat="46.01185" lon="-123.89767"><ele>3.9</ele></trkpt>
    <trkpt lat="46.01190276716605" lon="-123.89787520564573"><ele>3.8</ele></trkpt>
    <trkpt lat="46.01194" lon="-123.89802000000002"><ele>3.8</ele></trkpt>
    <trkpt lat="46.01196088586062" lon="-123.89817873254064"><ele>3.8</ele></trkpt>
    <trkpt lat="46.01198532688648" lon="-123.8983644843372"><ele>3.7</ele></trkpt>
    <trkpt lat="46.011990000000004" lon="-123.89840000000001"><ele>3.7</ele></trkpt>
    <trkpt lat="46.01199624597674" lon="-123.89848900516851"><ele>3.7</ele></trkpt>
    <trkpt lat="46.01200944586682" lon="-123.89867710360221"><ele>3.8</ele></trkpt>
    <trkpt lat="46.01203" lon="-123.89897"><ele>3.9</ele></trkpt>
    <trkpt lat="46.012028315887214" lon="-123.89907441499268"><ele>3.9</ele></trkpt>
    <trkpt lat="46.012024557496275" lon="-123.89930743523128"><ele>4.0</ele></trkpt>
    <trkpt lat="46.0120226783008" lon="-123.89942394535056"><ele>4.1</ele></trkpt>
    <trkpt lat="46.01202000000001" lon="-123.89959"><ele>4.3</ele></trkpt>
    <trkpt lat="46.0120186774329" lon="-123.89959850221713"><ele>4.3</ele></trkpt>
    <trkpt lat="46.011992338444074" lon="-123.89976782428812"><ele>4.4</ele></trkpt>
    <trkpt lat="46.011950000000006" lon="-123.90004"><ele>4.7</ele></trkpt>
    <trkpt lat="46.01193035317732" lon="-123.90010196305619"><ele>4.7</ele></trkpt>
    <trkpt lat="46.01187507580462" lon="-123.90027629938545"><ele>4.8</ele></trkpt>
    <trkpt lat="46.01182000000001" lon="-123.90045"><ele>4.9</ele></trkpt>
    <trkpt lat="46.01174556504081" lon="-123.90061282647326"><ele>4.9</ele></trkpt>
    <trkpt lat="46.011660000000006" lon="-123.9008"><ele>5.0</ele></trkpt>
    <trkpt lat="46.011643187869055" lon="-123.90082139725759"><ele>5.0</ele></trkpt>
    <trkpt lat="46.01155000000001" lon="-123.90094"><ele>5.0</ele></trkpt>
    <trkpt lat="46.011379663918994" lon="-123.90105654573965"><ele>5.1</ele></trkpt>
    <trkpt lat="46.01136" lon="-123.90107"><ele>5.1</ele></trkpt>
    <trkpt lat="46.01129349709016" lon="-123.90109151564731"><ele>5.1</ele></trkpt>
    <trkpt lat="46.01098726898644" lon="-123.90119058944556"><ele>5.0</ele></trkpt>
    <trkpt lat="46.01068" lon="-123.90129"><ele>4.9</ele></trkpt>
    <trkpt lat="46.01063853002404" lon="-123.90131073498799"><ele>4.9</ele></trkpt>
    <trkpt lat="46.010580000000004" lon="-123.90134"><ele>4.9</ele></trkpt>
    <trkpt lat="46.0105" lon="-123.90141000000001"><ele>4.8</ele></trkpt>
    <trkpt lat="46.01039" lon="-123.90159000000001"><ele>4.8</ele></trkpt>
    <trkpt lat="46.01035" lon="-123.90179"><ele>4.7</ele></trkpt>
    <trkpt lat="46.01035153266774" lon="-123.90183023252816"><ele>4.7</ele></trkpt>
    <trkpt lat="46.01038103595569" lon="-123.90260469383676"><ele>4.6</ele></trkpt>
    <trkpt lat="46.01039" lon="-123.90284000000001"><ele>4.6</ele></trkpt>
    <trkpt lat="46.010389801319725" lon="-123.90286331181925"><ele>4.7</ele></trkpt>
    <trkpt lat="46.01038539836665" lon="-123.90337992497946"><ele>4.9</ele></trkpt>
    <trkpt lat="46.010384294869645" lon="-123.90350940196198"><ele>4.9</ele></trkpt>
    <trkpt lat="46.010380487804966" lon="-123.90395609755166"><ele>5.0</ele></trkpt>
    <trkpt lat="46.010377773202315" lon="-123.90427461092864"><ele>5.0</ele></trkpt>
    <trkpt lat="46.01037615106171" lon="-123.90446494209291"><ele>5.0</ele></trkpt>
    <trkpt lat="46.010374528921105" lon="-123.90465527325722"><ele>4.9</ele></trkpt>
    <trkpt lat="46.01037019217786" lon="-123.90516411779849"><ele>4.7</ele></trkpt>
    <trkpt lat="46.010368018288744" lon="-123.90541918745404"><ele>4.5</ele></trkpt>
    <trkpt lat="46.01036585543461" lon="-123.90567296233976"><ele>4.5</ele></trkpt>
    <trkpt lat="46.010360000000006" lon="-123.90636"><ele>4.4</ele></trkpt>
    <trkpt lat="46.01036121757197" lon="-123.90643427188967"><ele>4.4</ele></trkpt>
    <trkpt lat="46.01037" lon="-123.90697000000002"><ele>4.3</ele></trkpt>
    <trkpt lat="46.01037202643698" lon="-123.9070672689749"><ele>4.2</ele></trkpt>
    <trkpt lat="46.010374668936784" lon="-123.90719410896548"><ele>4.2</ele></trkpt>
    <trkpt lat="46.01038127518629" lon="-123.90751120894193"><ele>4.3</ele></trkpt>
    <trkpt lat="46.01038653322162" lon="-123.90776359463747"><ele>4.4</ele></trkpt>
    <trkpt lat="46.01038917572142" lon="-123.90789043462804"><ele>4.4</ele></trkpt>
    <trkpt lat="46.01039974572063" lon="-123.90839779459037"><ele>4.5</ele></trkpt>
    <trkpt lat="46.01040500375596" lon="-123.90865018028592"><ele>4.5</ele></trkpt>
    <trkpt lat="46.01040745750578" lon="-123.90876796027716"><ele>4.5</ele></trkpt>
    <trkpt lat="46.01040991125559" lon="-123.90888574026842"><ele>4.5</ele></trkpt>
    <trkpt lat="46.01042" lon="-123.90937000000001"><ele>4.8</ele></trkpt>
    <trkpt lat="46.0104218662356" lon="-123.90942412083247"><ele>4.8</ele></trkpt>
    <trkpt lat="46.010436538228106" lon="-123.9098496086151"><ele>5.0</ele></trkpt>
    <trkpt lat="46.01046873633932" lon="-123.91078335384023"><ele>5.2</ele></trkpt>
    <trkpt lat="46.010470000000005" lon="-123.91082000000002"><ele>5.2</ele></trkpt>
    <trkpt lat="46.01039672229743" lon="-123.91092991655387"><ele>5.1</ele></trkpt>
    <trkpt lat="46.01037" lon="-123.91097"><ele>5.1</ele></trkpt>
    <trkpt lat="46.01028466214355" lon="-123.91101876448943"><ele>5.1</ele></trkpt>
    <trkpt lat="46.01023000000001" lon="-123.91105000000002"><ele>5.2</ele></trkpt>
    <trkpt lat="46.009897114513365" lon="-123.91107377753477"><ele>5.3</ele></trkpt>
    <trkpt lat="46.00981" lon="-123.91108000000001"><ele>5.3</ele></trkpt>
    <trkpt lat="46.009276274993994" lon="-123.91116405118207"><ele>5.3</ele></trkpt>
    <trkpt lat="46.00900986576046" lon="-123.91120600539206"><ele>5.3</ele></trkpt>
    <trkpt lat="46.00883196160787" lon="-123.91123402179404"><ele>5.3</ele></trkpt>
    <trkpt lat="46.008692499056096" lon="-123.91125598440063"><ele>5.1</ele></trkpt>
    <trkpt lat="46.00854" lon="-123.91128"><ele>5.8</ele></trkpt>
    <trkpt lat="46.00708" lon="-123.91135000000001"><ele>5.5</ele></trkpt>
    <trkpt lat="46.00663" lon="-123.91141"><ele>5.4</ele></trkpt>
    <trkpt lat="46.006372120314836" lon="-123.9114782622696"><ele>5.4</ele></trkpt>
    <trkpt lat="46.00629000000001" lon="-123.9115"><ele>5.0</ele></trkpt>
    <trkpt lat="46.006267925191274" lon="-123.91150712832366"><ele>4.9</ele></trkpt>
    <trkpt lat="46.006021341994995" lon="-123.91158675414746"><ele>5.0</ele></trkpt>
    <trkpt lat="46.00585636818397" lon="-123.9116400269406"><ele>5.2</ele></trkpt>
    <trkpt lat="46.005610662507976" lon="-123.91171936939847"><ele>5.3</ele></trkpt>
    <trkpt lat="46.005407077805" lon="-123.91178511029216"><ele>5.5</ele></trkpt>
    <trkpt lat="46.00533" lon="-123.91181000000002"><ele>5.5</ele></trkpt>
    <trkpt lat="46.00523196614224" lon="-123.911817541066"><ele>5.5</ele></trkpt>
    <trkpt lat="46.00501014991809" lon="-123.91183460385247"><ele>5.6</ele></trkpt>
    <trkpt lat="46.00478833369394" lon="-123.91185166663892"><ele>5.5</ele></trkpt>
    <trkpt lat="46.00438960331529" lon="-123.91188233820652"><ele>5.4</ele></trkpt>
    <trkpt lat="46.00421179111942" lon="-123.91189601606774"><ele>5.3</ele></trkpt>
    <trkpt lat="46.004078880993205" lon="-123.91190623992361"><ele>5.4</ele></trkpt>
    <trkpt lat="46.00403000000001" lon="-123.91191"><ele>5.4</ele></trkpt>
    <trkpt lat="46.00385694689595" lon="-123.91190038593868"><ele>5.5</ele></trkpt>
    <trkpt lat="46.00367000000001" lon="-123.91189000000001"><ele>5.4</ele></trkpt>
    <trkpt lat="46.00363603889572" lon="-123.9118848737956"><ele>5.4</ele></trkpt>
    <trkpt lat="46.003326569712016" lon="-123.91183816146598"><ele>5.5</ele></trkpt>
    <trkpt lat="46.00319419561031" lon="-123.9118181804695"><ele>5.4</ele></trkpt>
    <trkpt lat="46.00314" lon="-123.91181000000002"><ele>5.4</ele></trkpt>
    <trkpt lat="46.002840000000006" lon="-123.91179000000001"><ele>5.5</ele></trkpt>
    <trkpt lat="46.001540000000006" lon="-123.91192000000001"><ele>6.3</ele></trkpt>
    <trkpt lat="46.001540000000006" lon="-123.91366000000001"><ele>7.0</ele></trkpt>
    <trkpt lat="46.00152121332006" lon="-123.91523338444568"><ele>7.6</ele></trkpt>
    <trkpt lat="46.001518910324776" lon="-123.91542626030092"><ele>5.7</ele></trkpt>
    <trkpt lat="46.00151586542496" lon="-123.91568127065983"><ele>5.7</ele></trkpt>
    <trkpt lat="46.0015136397114" lon="-123.91586767417091"><ele>5.7</ele></trkpt>
    <trkpt lat="46.001509914732445" lon="-123.91617964115821"><ele>5.6</ele></trkpt>
    <trkpt lat="46.00150694711436" lon="-123.91642817917298"><ele>5.6</ele></trkpt>
    <trkpt lat="46.00150099642184" lon="-123.91692654967136"><ele>5.7</ele></trkpt>
    <trkpt lat="46.00150000000001" lon="-123.91701"><ele>5.7</ele></trkpt>
    <trkpt lat="46.001525445022374" lon="-123.9172983769202"><ele>5.7</ele></trkpt>
    <trkpt lat="46.00153" lon="-123.91735000000001"><ele>5.7</ele></trkpt>
    <trkpt lat="46.001529341501396" lon="-123.91767859080363"><ele>5.6</ele></trkpt>
    <trkpt lat="46.001528581313394" lon="-123.91805792461973"><ele>5.6</ele></trkpt>
    <trkpt lat="46.00152756427004" lon="-123.91856542924742"><ele>5.6</ele></trkpt>
    <trkpt lat="46.00152667435712" lon="-123.91900949579666"><ele>5.6</ele></trkpt>
    <trkpt lat="46.001526298154864" lon="-123.91919722072271"><ele>5.6</ele></trkpt>
    <trkpt lat="46.00152566769177" lon="-123.91951182180571"><ele>5.6</ele></trkpt>
    <trkpt lat="46.00152479075134" lon="-123.91994941508162"><ele>5.6</ele></trkpt>
    <trkpt lat="46.00152429520216" lon="-123.92019669412215"><ele>5.6</ele></trkpt>
    <trkpt lat="46.00152256986078" lon="-123.92105763947269"><ele>5.6</ele></trkpt>
    <trkpt lat="46.00152208209509" lon="-123.92130103454924"><ele>5.5</ele></trkpt>
    <trkpt lat="46.001521231099645" lon="-123.92172568127853"><ele>5.6</ele></trkpt>
    <trkpt lat="46.00152051242361" lon="-123.92208430062004"><ele>5.5</ele></trkpt>
    <trkpt lat="46.001519674400654" lon="-123.92250247407601"><ele>5.5</ele></trkpt>
    <trkpt lat="46.00151877670423" lon="-123.92295042458923"><ele>5.6</ele></trkpt>
    <trkpt lat="46.00151828634405" lon="-123.92319511432044"><ele>5.5</ele></trkpt>
    <trkpt lat="46.001515712601716" lon="-123.92447941174561"><ele>5.6</ele></trkpt>
    <trkpt lat="46.00151510030011" lon="-123.92478495024596"><ele>5.6</ele></trkpt>
    <trkpt lat="46.001513758944476" lon="-123.92545428670645"><ele>5.7</ele></trkpt>
    <trkpt lat="46.0015132685843" lon="-123.92569897643767"><ele>5.7</ele></trkpt>
    <trkpt lat="46.001512638121206" lon="-123.92601357752065"><ele>5.8</ele></trkpt>
    <trkpt lat="46.00151175599177" lon="-123.9264537601059"><ele>6.0</ele></trkpt>
    <trkpt lat="46.00151101137076" lon="-123.92682532599403"><ele>6.1</ele></trkpt>
    <trkpt lat="46.00151" lon="-123.92733000000001"><ele>6.1</ele></trkpt>
    <trkpt lat="46.001520000000006" lon="-123.92732000000001"><ele>6.1</ele></trkpt>
    <trkpt lat="46.0015004950666" lon="-123.92732844147939"><ele>6.1</ele></trkpt>
    <trkpt lat="46.00146346162103" lon="-123.92734446906896"><ele>6.2</ele></trkpt>
    <trkpt lat="46.00140403585954" lon="-123.92737018775915"><ele>6.2</ele></trkpt>
    <trkpt lat="45.998470000000005" lon="-123.92864000000002"><ele>6.2</ele></trkpt>
    <trkpt lat="45.99837" lon="-123.92862000000001"><ele>6.2</ele></trkpt>
    <trkpt lat="45.99774" lon="-123.92880000000001"><ele>6.2</ele></trkpt>
    <trkpt lat="45.99716" lon="-123.92899000000001"><ele>6.2</ele></trkpt>
    <trkpt lat="45.99633" lon="-123.92920000000001"><ele>6.2</ele></trkpt>
    <trkpt lat="45.99570000000001" lon="-123.92939000000001"><ele>6.2</ele></trkpt>
    <trkpt lat="45.995070000000005" lon="-123.92954000000002"><ele>6.2</ele></trkpt>
    <trkpt lat="45.9938" lon="-123.92988000000001"><ele>6.2</ele></trkpt>
    <trkpt lat="45.99338" lon="-123.93"><ele>6.2</ele></trkpt>
    <trkpt lat="45.993280000000006" lon="-123.93010000000001"><ele>6.2</ele></trkpt>
    <trkpt lat="45.99324000000001" lon="-123.93004"><ele>6.2</ele></trkpt>
  </trkseg></trk>
</gpx>
