<?xml version="1.0" encoding="UTF-8"?>
<gpx version="1.1" creator="h2c-tracker" xmlns="http://www.topografix.com/GPX/1/1">
  <metadata><name>Hood to Coast 2026 — Leg 2 (6.05 mi)</name><desc>Derived from the official Hood to Coast Strava route (simplified, 637 points, ~6.10 mi). Verify against the official leg map PDF.</desc></metadata>
  <wpt lat="45.30468557416842" lon="-121.75928163360152"><name>Exchange 1 — HWY 26/Government Camp Loop</name></wpt>
  <wpt lat="45.30788951174709" lon="-121.85469104575137"><name>Exchange 2 — Rd 35 / HWY 26 (Government Camp)</name></wpt>
  <trk><name>HTC Leg 2</name><trkseg>
    <trkpt lat="45.30468557416842" lon="-121.75928163360152"><ele>1167.8</ele></trkpt>
    <trkpt lat="45.304699083391085" lon="-121.75933587212238"><ele>1167.8</ele></trkpt>
    <trkpt lat="45.304730000000006" lon="-121.75946"><ele>1167.5</ele></trkpt>
    <trkpt lat="45.30476" lon="-121.75945000000002"><ele>1167.4</ele></trkpt>
    <trkpt lat="45.304700000000004" lon="-121.75947000000001"><ele>1167.4</ele></trkpt>
    <trkpt lat="45.304729819050735" lon="-121.75961909525365"><ele>1167.3</ele></trkpt>
    <trkpt lat="45.304754170946794" lon="-121.75974085473395"><ele>1167.1</ele></trkpt>
    <trkpt lat="45.30477852284286" lon="-121.75986261421427"><ele>1166.8</ele></trkpt>
    <trkpt lat="45.30478" lon="-121.75987"><ele>1166.8</ele></trkpt>
    <trkpt lat="45.304808634940905" lon="-121.76011209540948"><ele>1166.3</ele></trkpt>
    <trkpt lat="45.30483085745266" lon="-121.76029997664517"><ele>1165.9</ele></trkpt>
    <trkpt lat="45.30488261055048" lon="-121.76073752556316"><ele>1164.9</ele></trkpt>
    <trkpt lat="45.30489" lon="-121.7608"><ele>1164.7</ele></trkpt>
    <trkpt lat="45.30488798197635" lon="-121.76092713548982"><ele>1164.3</ele></trkpt>
    <trkpt lat="45.30488394407797" lon="-121.76118152308766"><ele>1163.6</ele></trkpt>
    <trkpt lat="45.304880000000004" lon="-121.76143"><ele>1162.9</ele></trkpt>
    <trkpt lat="45.30487646302055" lon="-121.76149838160272"><ele>1162.7</ele></trkpt>
    <trkpt lat="45.30486340310138" lon="-121.7617508733735"><ele>1161.9</ele></trkpt>
    <trkpt lat="45.30485" lon="-121.76201"><ele>1161.0</ele></trkpt>
    <trkpt lat="45.304842697814856" lon="-121.7620663311425"><ele>1160.8</ele></trkpt>
    <trkpt lat="45.304802272344574" lon="-121.76237818477041"><ele>1159.5</ele></trkpt>
    <trkpt lat="45.30478613475765" lon="-121.76250267472672"><ele>1159.1</ele></trkpt>
    <trkpt lat="45.30478" lon="-121.76255"><ele>1158.9</ele></trkpt>
    <trkpt lat="45.304763820045004" lon="-121.76262501615498"><ele>1158.6</ele></trkpt>
    <trkpt lat="45.304724533474314" lon="-121.76280716298274"><ele>1158.0</ele></trkpt>
    <trkpt lat="45.30467" lon="-121.76306000000001"><ele>1157.1</ele></trkpt>
    <trkpt lat="45.30460977120964" lon="-121.7632848541507"><ele>1156.2</ele></trkpt>
    <trkpt lat="45.304520000000004" lon="-121.76362"><ele>1154.8</ele></trkpt>
    <trkpt lat="45.304492936001495" lon="-121.76369442599591"><ele>1154.5</ele></trkpt>
    <trkpt lat="45.30443139515296" lon="-121.76386366332937"><ele>1153.7</ele></trkpt>
    <trkpt lat="45.3044" lon="-121.76395000000001"><ele>1153.3</ele></trkpt>
    <trkpt lat="45.30427197342634" lon="-121.76424332670675"><ele>1151.8</ele></trkpt>
    <trkpt lat="45.30410790210726" lon="-121.76461923694413"><ele>1149.9</ele></trkpt>
    <trkpt lat="45.30401401158363" lon="-121.76483435320715"><ele>1148.8</ele></trkpt>
    <trkpt lat="45.303943830788185" lon="-121.76499514718151"><ele>1148.1</ele></trkpt>
    <trkpt lat="45.303802995002734" lon="-121.76531782157603"><ele>1146.7</ele></trkpt>
    <trkpt lat="45.30375604974092" lon="-121.76542537970755"><ele>1146.1</ele></trkpt>
    <trkpt lat="45.303709104479104" lon="-121.76553293783905"><ele>1145.6</ele></trkpt>
    <trkpt lat="45.303649830158626" lon="-121.76566874356064"><ele>1145.4</ele></trkpt>
    <trkpt lat="45.303610000000006" lon="-121.76576000000001"><ele>1144.9</ele></trkpt>
    <trkpt lat="45.303588697558084" lon="-121.76582205493953"><ele>1144.6</ele></trkpt>
    <trkpt lat="45.30346168272272" lon="-121.76619205467733"><ele>1142.8</ele></trkpt>
    <trkpt lat="45.30342854841784" lon="-121.76628857634806"><ele>1142.4</ele></trkpt>
    <trkpt lat="45.303380000000004" lon="-121.76643000000001"><ele>1141.9</ele></trkpt>
    <trkpt lat="45.303365537217104" lon="-121.76648363281996"><ele>1141.7</ele></trkpt>
    <trkpt lat="45.303292455645" lon="-121.76675464364982"><ele>1140.6</ele></trkpt>
    <trkpt lat="45.303233539663964" lon="-121.76697312374617"><ele>1139.8</ele></trkpt>
    <trkpt lat="45.30320746209859" lon="-121.76706982805109"><ele>1139.7</ele></trkpt>
    <trkpt lat="45.30317558951869" lon="-121.76718802220158"><ele>1139.3</ele></trkpt>
    <trkpt lat="45.30314339499353" lon="-121.76730741023236"><ele>1138.7</ele></trkpt>
    <trkpt lat="45.303140000000006" lon="-121.76732000000001"><ele>1138.6</ele></trkpt>
    <trkpt lat="45.30311783278407" lon="-121.76742861935813"><ele>1138.1</ele></trkpt>
    <trkpt lat="45.30305543210078" lon="-121.76773438270621"><ele>1136.5</ele></trkpt>
    <trkpt lat="45.3029930314175" lon="-121.76804014605432"><ele>1135.0</ele></trkpt>
    <trkpt lat="45.302955691249586" lon="-121.76822311287705"><ele>1134.1</ele></trkpt>
    <trkpt lat="45.302918100476525" lon="-121.76840730766506"><ele>1133.4</ele></trkpt>
    <trkpt lat="45.3028932905663" lon="-121.76852887622513"><ele>1132.9</ele></trkpt>
    <trkpt lat="45.30279354971512" lon="-121.76901760639598"><ele>1131.4</ele></trkpt>
    <trkpt lat="45.30274000000001" lon="-121.76928000000001"><ele>1130.8</ele></trkpt>
    <trkpt lat="45.30274089851293" lon="-121.7693161855659"><ele>1130.7</ele></trkpt>
    <trkpt lat="45.30274860865159" lon="-121.76962669387721"><ele>1130.0</ele></trkpt>
    <trkpt lat="45.30275936477094" lon="-121.77005987213869"><ele>1129.1</ele></trkpt>
    <trkpt lat="45.30276399719993" lon="-121.77024643268787"><ele>1128.7</ele></trkpt>
    <trkpt lat="45.30277348416067" lon="-121.77062849847013"><ele>1128.0</ele></trkpt>
    <trkpt lat="45.302778243505514" lon="-121.77082017026723"><ele>1127.6</ele></trkpt>
    <trkpt lat="45.30278934864349" lon="-121.7712674044605"><ele>1126.9</ele></trkpt>
    <trkpt lat="45.302798867333195" lon="-121.77165074805472"><ele>1126.4</ele></trkpt>
    <trkpt lat="45.30280994074221" lon="-121.77209670443601"><ele>1125.7</ele></trkpt>
    <trkpt lat="45.302821045880194" lon="-121.77254393862927"><ele>1125.0</ele></trkpt>
    <trkpt lat="45.302827391673326" lon="-121.77279950102542"><ele>1124.6</ele></trkpt>
    <trkpt lat="45.302835323914735" lon="-121.77311895402062"><ele>1124.0</ele></trkpt>
    <trkpt lat="45.30284325615615" lon="-121.77343840701579"><ele>1123.4</ele></trkpt>
    <trkpt lat="45.302846397323755" lon="-121.77356491040187"><ele>1123.1</ele></trkpt>
    <trkpt lat="45.30284953849136" lon="-121.77369141378797"><ele>1122.8</ele></trkpt>
    <trkpt lat="45.30285000000001" lon="-121.77371000000001"><ele>1122.7</ele></trkpt>
    <trkpt lat="45.302865682674046" lon="-121.77419978197393"><ele>1121.5</ele></trkpt>
    <trkpt lat="45.302869772511976" lon="-121.77432751075841"><ele>1121.1</ele></trkpt>
    <trkpt lat="45.302881960229" lon="-121.77470814253616"><ele>1119.9</ele></trkpt>
    <trkpt lat="45.302888054087504" lon="-121.77489845842501"><ele>1119.3</ele></trkpt>
    <trkpt lat="45.30290842148038" lon="-121.77553454777174"><ele>1116.9</ele></trkpt>
    <trkpt lat="45.302912470419926" lon="-121.77566099926835"><ele>1116.4</ele></trkpt>
    <trkpt lat="45.302922654116365" lon="-121.7759790439417"><ele>1115.1</ele></trkpt>
    <trkpt lat="45.30294289881411" lon="-121.77661130142486"><ele>1112.0</ele></trkpt>
    <trkpt lat="45.30295709055171" lon="-121.777054520307"><ele>1109.9</ele></trkpt>
    <trkpt lat="45.302980000000005" lon="-121.77777"><ele>1106.5</ele></trkpt>
    <trkpt lat="45.30298896382432" lon="-121.77794194244808"><ele>1105.7</ele></trkpt>
    <trkpt lat="45.303035297054436" lon="-121.77883069804415"><ele>1101.6</ele></trkpt>
    <trkpt lat="45.30305843043189" lon="-121.77927443828435"><ele>1099.5</ele></trkpt>
    <trkpt lat="45.30307830652344" lon="-121.77965569785856"><ele>1097.8</ele></trkpt>
    <trkpt lat="45.303090000000005" lon="-121.77988"><ele>1096.7</ele></trkpt>
    <trkpt lat="45.30310157835292" lon="-121.7799706970979"><ele>1096.2</ele></trkpt>
    <trkpt lat="45.30313353848292" lon="-121.78022105144944"><ele>1095.0</ele></trkpt>
    <trkpt lat="45.30314959884974" lon="-121.78034685765627"><ele>1094.5</ele></trkpt>
    <trkpt lat="45.30318155897973" lon="-121.78059721200782"><ele>1093.4</ele></trkpt>
    <trkpt lat="45.30321000000001" lon="-121.78082"><ele>1092.5</ele></trkpt>
    <trkpt lat="45.30327558110217" lon="-121.78115360821533"><ele>1091.0</ele></trkpt>
    <trkpt lat="45.30332375412769" lon="-121.78139866230168"><ele>1090.0</ele></trkpt>
    <trkpt lat="45.303384030928456" lon="-121.7817052877665"><ele>1088.7</ele></trkpt>
    <trkpt lat="45.30344" lon="-121.78199000000001"><ele>1087.7</ele></trkpt>
    <trkpt lat="45.303476608644004" lon="-121.78212997422708"><ele>1087.1</ele></trkpt>
    <trkpt lat="45.303586000473615" lon="-121.78254823710498"><ele>1085.5</ele></trkpt>
    <trkpt lat="45.30364837575754" lon="-121.78278673083766"><ele>1084.6</ele></trkpt>
    <trkpt lat="45.30375745414351" lon="-121.7832037952546"><ele>1083.1</ele></trkpt>
    <trkpt lat="45.30381982942744" lon="-121.78344228898726"><ele>1082.3</ele></trkpt>
    <trkpt lat="45.30389787689326" lon="-121.78374070576834"><ele>1081.4</ele></trkpt>
    <trkpt lat="45.303944579995296" lon="-121.78391927645261"><ele>1080.8</ele></trkpt>
    <trkpt lat="45.30411634710883" lon="-121.78457603306319"><ele>1078.4</ele></trkpt>
    <trkpt lat="45.304194081131016" lon="-121.78487325138329"><ele>1077.2</ele></trkpt>
    <trkpt lat="45.304272128596836" lon="-121.78517166816437"><ele>1076.1</ele></trkpt>
    <trkpt lat="45.3043968791647" lon="-121.78564865562971"><ele>1074.4</ele></trkpt>
    <trkpt lat="45.30447461318688" lon="-121.78594587394983"><ele>1073.3</ele></trkpt>
    <trkpt lat="45.30458431846012" lon="-121.78636533528869"><ele>1071.9</ele></trkpt>
    <trkpt lat="45.30463" lon="-121.78654000000002"><ele>1071.2</ele></trkpt>
    <trkpt lat="45.3046844903538" lon="-121.78671860727079"><ele>1070.6</ele></trkpt>
    <trkpt lat="45.30480939012207" lon="-121.78712800095565"><ele>1069.1</ele></trkpt>
    <trkpt lat="45.30481" lon="-121.78713"><ele>1069.1</ele></trkpt>
    <trkpt lat="45.30501" lon="-121.78771"><ele>1067.0</ele></trkpt>
    <trkpt lat="45.305049542205836" lon="-121.78781057474092"><ele>1066.6</ele></trkpt>
    <trkpt lat="45.305267194407065" lon="-121.7883641683832"><ele>1064.7</ele></trkpt>
    <trkpt lat="45.30539883888362" lon="-121.78869900324744"><ele>1063.4</ele></trkpt>
    <trkpt lat="45.30546422230697" lon="-121.78886530456337"><ele>1062.8</ele></trkpt>
    <trkpt lat="45.30547000000001" lon="-121.78888"><ele>1062.7</ele></trkpt>
    <trkpt lat="45.30559158195186" lon="-121.78912708590215"><ele>1061.7</ele></trkpt>
    <trkpt lat="45.30566891320118" lon="-121.78928424295722"><ele>1060.9</ele></trkpt>
    <trkpt lat="45.30574572890884" lon="-121.78944035229861"><ele>1060.3</ele></trkpt>
    <trkpt lat="45.305780000000006" lon="-121.78951"><ele>1060.0</ele></trkpt>
    <trkpt lat="45.305821119231915" lon="-121.7895978456318"><ele>1059.6</ele></trkpt>
    <trkpt lat="45.306169907756455" lon="-121.79034298475241"><ele>1056.3</ele></trkpt>
    <trkpt lat="45.306344302018715" lon="-121.79071555431273"><ele>1054.6</ele></trkpt>
    <trkpt lat="45.30641854414752" lon="-121.79087416249698"><ele>1053.8</ele></trkpt>
    <trkpt lat="45.30661785187582" lon="-121.79129995628017"><ele>1051.6</ele></trkpt>
    <trkpt lat="45.30666" lon="-121.79139"><ele>1051.1</ele></trkpt>
    <trkpt lat="45.306668180681726" lon="-121.79140590688114"><ele>1051.0</ele></trkpt>
    <trkpt lat="45.30680035868548" lon="-121.79166291966622"><ele>1049.6</ele></trkpt>
    <trkpt lat="45.30684" lon="-121.79174"><ele>1049.2</ele></trkpt>
    <trkpt lat="45.306949380960496" lon="-121.79190146713216"><ele>1048.1</ele></trkpt>
    <trkpt lat="45.307050000000004" lon="-121.79205"><ele>1047.1</ele></trkpt>
    <trkpt lat="45.307115264279794" lon="-121.79211526427979"><ele>1046.5</ele></trkpt>
    <trkpt lat="45.307320000000004" lon="-121.79232"><ele>1044.8</ele></trkpt>
    <trkpt lat="45.30737910580693" lon="-121.7923532470164"><ele>1044.3</ele></trkpt>
    <trkpt lat="45.30762998394823" lon="-121.79249436597088"><ele>1042.3</ele></trkpt>
    <trkpt lat="45.307640000000006" lon="-121.7925"><ele>1042.2</ele></trkpt>
    <trkpt lat="45.30771802734752" lon="-121.79251897962507"><ele>1041.7</ele></trkpt>
    <trkpt lat="45.30801" lon="-121.79259"><ele>1039.6</ele></trkpt>
    <trkpt lat="45.308027601089464" lon="-121.79258814725374"><ele>1039.4</ele></trkpt>
    <trkpt lat="45.30816213129675" lon="-121.79257398617929"><ele>1038.5</ele></trkpt>
    <trkpt lat="45.30839" lon="-121.79255"><ele>1037.0</ele></trkpt>
    <trkpt lat="45.30842862743972" lon="-121.7925292006094"><ele>1036.8</ele></trkpt>
    <trkpt lat="45.3086800972354" lon="-121.79239379379635"><ele>1035.1</ele></trkpt>
    <trkpt lat="45.308764200846" lon="-121.79234850723678"><ele>1034.5</ele></trkpt>
    <trkpt lat="45.308910000000004" lon="-121.79227000000002"><ele>1033.6</ele></trkpt>
    <trkpt lat="45.309039942170934" lon="-121.79214005782907"><ele>1032.7</ele></trkpt>
    <trkpt lat="45.309223111195635" lon="-121.79195688880438"><ele>1031.4</ele></trkpt>
    <trkpt lat="45.30937023491025" lon="-121.79180976508977"><ele>1030.3</ele></trkpt>
    <trkpt lat="45.30959092048217" lon="-121.79158907951783"><ele>1028.7</ele></trkpt>
    <trkpt lat="45.3098" lon="-121.79138"><ele>1027.2</ele></trkpt>
    <trkpt lat="45.309853672974945" lon="-121.79134779621504"><ele>1026.8</ele></trkpt>
    <trkpt lat="45.310100000000006" lon="-121.7912"><ele>1025.1</ele></trkpt>
    <trkpt lat="45.310430000000004" lon="-121.79106000000002"><ele>1022.9</ele></trkpt>
    <trkpt lat="45.31062612496779" lon="-121.79103758571799"><ele>1021.6</ele></trkpt>
    <trkpt lat="45.31078" lon="-121.79102"><ele>1020.5</ele></trkpt>
    <trkpt lat="45.311130000000006" lon="-121.79111"><ele>1018.1</ele></trkpt>
    <trkpt lat="45.31128067967039" lon="-121.79120040780224"><ele>1017.0</ele></trkpt>
    <trkpt lat="45.31143" lon="-121.79129"><ele>1015.9</ele></trkpt>
    <trkpt lat="45.311516997895595" lon="-121.79138034396851"><ele>1015.2</ele></trkpt>
    <trkpt lat="45.311690000000006" lon="-121.79156"><ele>1013.8</ele></trkpt>
    <trkpt lat="45.311696865525484" lon="-121.79156975627305"><ele>1013.7</ele></trkpt>
    <trkpt lat="45.31188" lon="-121.79183"><ele>1012.1</ele></trkpt>
    <trkpt lat="45.31199286370923" lon="-121.79204867343662"><ele>1010.8</ele></trkpt>
    <trkpt lat="45.31204" lon="-121.79214"><ele>1010.3</ele></trkpt>
    <trkpt lat="45.312160000000006" lon="-121.79247000000001"><ele>1008.6</ele></trkpt>
    <trkpt lat="45.31216477117493" lon="-121.792494537471"><ele>1008.5</ele></trkpt>
    <trkpt lat="45.31223000000001" lon="-121.79283000000001"><ele>1006.8</ele></trkpt>
    <trkpt lat="45.31224462375924" lon="-121.79299086135154"><ele>1006.0</ele></trkpt>
    <trkpt lat="45.312270000000005" lon="-121.79327"><ele>1004.5</ele></trkpt>
    <trkpt lat="45.31226477207567" lon="-121.79343467961674"><ele>1003.6</ele></trkpt>
    <trkpt lat="45.312250000000006" lon="-121.79390000000001"><ele>1001.2</ele></trkpt>
    <trkpt lat="45.31224687738169" lon="-121.79394551816704"><ele>1001.0</ele></trkpt>
    <trkpt lat="45.31220330744398" lon="-121.79458063379737"><ele>997.9</ele></trkpt>
    <trkpt lat="45.312181478817884" lon="-121.79489882800092"><ele>996.4</ele></trkpt>
    <trkpt lat="45.31215965019178" lon="-121.7952170222045"><ele>994.9</ele></trkpt>
    <trkpt lat="45.31211608025408" lon="-121.79585213783483"><ele>991.9</ele></trkpt>
    <trkpt lat="45.3120986173532" lon="-121.79610669319769"><ele>990.7</ele></trkpt>
    <trkpt lat="45.3120768760416" lon="-121.79642361462443"><ele>989.1</ele></trkpt>
    <trkpt lat="45.31199" lon="-121.79769"><ele>983.2</ele></trkpt>
    <trkpt lat="45.311968383145086" lon="-121.79788455169424"><ele>982.3</ele></trkpt>
    <trkpt lat="45.31191224336209" lon="-121.79838980974125"><ele>979.8</ele></trkpt>
    <trkpt lat="45.31189133129292" lon="-121.79857801836377"><ele>978.9</ele></trkpt>
    <trkpt lat="45.31186" lon="-121.79886"><ele>977.4</ele></trkpt>
    <trkpt lat="45.311798001405975" lon="-121.79926846132537"><ele>975.3</ele></trkpt>
    <trkpt lat="45.31173178351411" lon="-121.79970472037768"><ele>973.0</ele></trkpt>
    <trkpt lat="45.31170332310213" lon="-121.79989222426833"><ele>972.0</ele></trkpt>
    <trkpt lat="45.311690000000006" lon="-121.79998"><ele>971.6</ele></trkpt>
    <trkpt lat="45.31168332951204" lon="-121.80001688387465"><ele>971.4</ele></trkpt>
    <trkpt lat="45.31159373525132" lon="-121.80051228743389"><ele>969.0</ele></trkpt>
    <trkpt lat="45.31156013740356" lon="-121.80069806376859"><ele>968.1</ele></trkpt>
    <trkpt lat="45.31152" lon="-121.80092"><ele>967.0</ele></trkpt>
    <trkpt lat="45.31142211432364" lon="-121.80130455087145"><ele>964.9</ele></trkpt>
    <trkpt lat="45.31138000000001" lon="-121.80147000000001"><ele>964.1</ele></trkpt>
    <trkpt lat="45.3113367018988" lon="-121.80159989430362"><ele>963.4</ele></trkpt>
    <trkpt lat="45.31116" lon="-121.80213"><ele>960.4</ele></trkpt>
    <trkpt lat="45.31111918532052" lon="-121.8022297692165"><ele>959.9</ele></trkpt>
    <trkpt lat="45.31098" lon="-121.80257"><ele>958.0</ele></trkpt>
    <trkpt lat="45.310958188585374" lon="-121.80261416811463"><ele>957.7</ele></trkpt>
    <trkpt lat="45.310829502512746" lon="-121.80287475741171"><ele>956.2</ele></trkpt>
    <trkpt lat="45.31067445905174" lon="-121.80318872042024"><ele>954.5</ele></trkpt>
    <trkpt lat="45.31058" lon="-121.80338"><ele>953.4</ele></trkpt>
    <trkpt lat="45.3105390095933" lon="-121.80344319354367"><ele>953.0</ele></trkpt>
    <trkpt lat="45.310357310412414" lon="-121.8037233131142"><ele>951.0</ele></trkpt>
    <trkpt lat="45.310340000000004" lon="-121.80375000000001"><ele>950.8</ele></trkpt>
    <trkpt lat="45.310009745117966" lon="-121.8042236989217"><ele>947.2</ele></trkpt>
    <trkpt lat="45.30988311598812" lon="-121.8044053285827"><ele>945.9</ele></trkpt>
    <trkpt lat="45.30975648685828" lon="-121.80458695824369"><ele>944.6</ele></trkpt>
    <trkpt lat="45.30935" lon="-121.80517"><ele>940.7</ele></trkpt>
    <trkpt lat="45.309347219140164" lon="-121.8051750055477"><ele>940.6</ele></trkpt>
    <trkpt lat="45.30920785251083" lon="-121.80542586548052"><ele>939.0</ele></trkpt>
    <trkpt lat="45.30915" lon="-121.80553"><ele>938.4</ele></trkpt>
    <trkpt lat="45.309041414755555" lon="-121.80580146311112"><ele>936.8</ele></trkpt>
    <trkpt lat="45.30899" lon="-121.80593"><ele>936.1</ele></trkpt>
    <trkpt lat="45.30895817395872" lon="-121.80602792628088"><ele>935.6</ele></trkpt>
    <trkpt lat="45.3088642367176" lon="-121.80631696394585"><ele>934.1</ele></trkpt>
    <trkpt lat="45.30886" lon="-121.80633000000002"><ele>934.0</ele></trkpt>
    <trkpt lat="45.30883006449206" lon="-121.80649963454506"><ele>933.2</ele></trkpt>
    <trkpt lat="45.30880795808885" lon="-121.80662490416321"><ele>932.7</ele></trkpt>
    <trkpt lat="45.308753458144324" lon="-121.80693373718222"><ele>931.3</ele></trkpt>
    <trkpt lat="45.308710000000005" lon="-121.80718000000002"><ele>930.3</ele></trkpt>
    <trkpt lat="45.30868186883789" lon="-121.80743318045913"><ele>929.3</ele></trkpt>
    <trkpt lat="45.30863288965112" lon="-121.80787399313996"><ele>927.4</ele></trkpt>
    <trkpt lat="45.30861197876623" lon="-121.80806219110397"><ele>926.6</ele></trkpt>
    <trkpt lat="45.3085770337304" lon="-121.80837669642642"><ele>925.4</ele></trkpt>
    <trkpt lat="45.30856299957947" lon="-121.80850300378482"><ele>924.9</ele></trkpt>
    <trkpt lat="45.30856000000001" lon="-121.80853"><ele>924.8</ele></trkpt>
    <trkpt lat="45.308517293623126" lon="-121.80874887018153"><ele>923.8</ele></trkpt>
    <trkpt lat="45.30848" lon="-121.80894"><ele>922.9</ele></trkpt>
    <trkpt lat="45.30843353995793" lon="-121.8091103534876"><ele>922.1</ele></trkpt>
    <trkpt lat="45.30836" lon="-121.80938"><ele>920.7</ele></trkpt>
    <trkpt lat="45.30830706196039" lon="-121.80951931063056"><ele>920.0</ele></trkpt>
    <trkpt lat="45.30820018561543" lon="-121.80980056416995"><ele>918.4</ele></trkpt>
    <trkpt lat="45.308170000000004" lon="-121.80988"><ele>917.9</ele></trkpt>
    <trkpt lat="45.3080390200599" lon="-121.81018187757624"><ele>916.0</ele></trkpt>
    <trkpt lat="45.30796819233849" lon="-121.81034511861034"><ele>915.0</ele></trkpt>
    <trkpt lat="45.30777979059954" lon="-121.81077933976107"><ele>912.5</ele></trkpt>
    <trkpt lat="45.30763860734154" lon="-121.81110473355574"><ele>910.6</ele></trkpt>
    <trkpt lat="45.307521033323994" lon="-121.81137571367233"><ele>909.1</ele></trkpt>
    <trkpt lat="45.30726227604845" lon="-121.81197208758358"><ele>905.8</ele></trkpt>
    <trkpt lat="45.307073874309495" lon="-121.81240630873431"><ele>903.3</ele></trkpt>
    <trkpt lat="45.30695630029196" lon="-121.81267728885094"><ele>901.9</ele></trkpt>
    <trkpt lat="45.306885944755365" lon="-121.81283944161147"><ele>901.0</ele></trkpt>
    <trkpt lat="45.30669754301641" lon="-121.81327366276219"><ele>898.6</ele></trkpt>
    <trkpt lat="45.306509141277466" lon="-121.81370788391291"><ele>896.3</ele></trkpt>
    <trkpt lat="45.30622677476144" lon="-121.8143586715022"><ele>893.0</ele></trkpt>
    <trkpt lat="45.306070000000005" lon="-121.81472000000001"><ele>891.1</ele></trkpt>
    <trkpt lat="45.305936378137915" lon="-121.81500209059777"><ele>889.6</ele></trkpt>
    <trkpt lat="45.305800000000005" lon="-121.81529"><ele>888.0</ele></trkpt>
    <trkpt lat="45.305758657470676" lon="-121.81536983384976"><ele>887.5</ele></trkpt>
    <trkpt lat="45.305625885199376" lon="-121.81562622168398"><ele>885.9</ele></trkpt>
    <trkpt lat="45.305510000000005" lon="-121.81585000000001"><ele>884.6</ele></trkpt>
    <trkpt lat="45.30532201220871" lon="-121.81617596048217"><ele>882.5</ele></trkpt>
    <trkpt lat="45.30517945460264" lon="-121.81642314752389"><ele>880.9</ele></trkpt>
    <trkpt lat="45.30489547985134" lon="-121.816915544111"><ele>877.8</ele></trkpt>
    <trkpt lat="45.30481051551811" lon="-121.81706286758786"><ele>876.9</ele></trkpt>
    <trkpt lat="45.304582993578826" lon="-121.81745737810644"><ele>874.6</ele></trkpt>
    <trkpt lat="45.304299018827535" lon="-121.81794977469356"><ele>872.0</ele></trkpt>
    <trkpt lat="45.304100578639876" lon="-121.81829385905564"><ele>870.0</ele></trkpt>
    <trkpt lat="45.30395802103381" lon="-121.81854104609735"><ele>868.7</ele></trkpt>
    <trkpt lat="45.30381603365815" lon="-121.81878724439092"><ele>867.3</ele></trkpt>
    <trkpt lat="45.30353205890686" lon="-121.81927964097804"><ele>864.5</ele></trkpt>
    <trkpt lat="45.30347560609486" lon="-121.81937752704656"><ele>863.9</ele></trkpt>
    <trkpt lat="45.303361560009996" lon="-121.81957527667993"><ele>862.9</ele></trkpt>
    <trkpt lat="45.30333" lon="-121.81963"><ele>862.5</ele></trkpt>
    <trkpt lat="45.30320614573126" lon="-121.8198854494293"><ele>861.1</ele></trkpt>
    <trkpt lat="45.30317" lon="-121.81996000000001"><ele>860.7</ele></trkpt>
    <trkpt lat="45.303139502974346" lon="-121.82005149107698"><ele>860.3</ele></trkpt>
    <trkpt lat="45.30308211669211" lon="-121.82022364992369"><ele>859.5</ele></trkpt>
    <trkpt lat="45.303070000000005" lon="-121.82026"><ele>859.4</ele></trkpt>
    <trkpt lat="45.303000000000004" lon="-121.82058"><ele>858.0</ele></trkpt>
    <trkpt lat="45.30299923604251" lon="-121.82058687561745"><ele>858.0</ele></trkpt>
    <trkpt lat="45.302960000000006" lon="-121.82094000000001"><ele>856.6</ele></trkpt>
    <trkpt lat="45.30296492001" lon="-121.8211564804401"><ele>855.7</ele></trkpt>
    <trkpt lat="45.30296779538594" lon="-121.82128299698108"><ele>855.2</ele></trkpt>
    <trkpt lat="45.30297" lon="-121.82138"><ele>854.7</ele></trkpt>
    <trkpt lat="45.30301426278093" lon="-121.8216582231944"><ele>853.5</ele></trkpt>
    <trkpt lat="45.30304" lon="-121.82182000000002"><ele>852.7</ele></trkpt>
    <trkpt lat="45.303112436900655" lon="-121.82208077284234"><ele>851.4</ele></trkpt>
    <trkpt lat="45.303140000000006" lon="-121.82218"><ele>851.0</ele></trkpt>
    <trkpt lat="45.30320021535953" lon="-121.82230043071905"><ele>850.3</ele></trkpt>
    <trkpt lat="45.3032523219373" lon="-121.82240464387459"><ele>849.8</ele></trkpt>
    <trkpt lat="45.30330390744929" lon="-121.82250781489859"><ele>849.3</ele></trkpt>
    <trkpt lat="45.303408120604836" lon="-121.82271624120968"><ele>848.3</ele></trkpt>
    <trkpt lat="45.303430000000006" lon="-121.82276000000002"><ele>848.1</ele></trkpt>
    <trkpt lat="45.30346802758335" lon="-121.82280889260717"><ele>847.9</ele></trkpt>
    <trkpt lat="45.30364" lon="-121.82303000000002"><ele>846.5</ele></trkpt>
    <trkpt lat="45.30371265147973" lon="-121.82308406621749"><ele>846.0</ele></trkpt>
    <trkpt lat="45.303950887271434" lon="-121.82326135796944"><ele>844.5</ele></trkpt>
    <trkpt lat="45.304029768018516" lon="-121.82332005992076"><ele>844.0</ele></trkpt>
    <trkpt lat="45.30407" lon="-121.82335"><ele>843.8</ele></trkpt>
    <trkpt lat="45.3041552383564" lon="-121.82338874470746"><ele>843.4</ele></trkpt>
    <trkpt lat="45.30424004285192" lon="-121.82342729220542"><ele>842.9</ele></trkpt>
    <trkpt lat="45.30436853451181" lon="-121.82348569750536"><ele>842.1</ele></trkpt>
    <trkpt lat="45.30458183066722" lon="-121.82358265030328"><ele>840.7</ele></trkpt>
    <trkpt lat="45.30496559242475" lon="-121.8237570874658"><ele>838.5</ele></trkpt>
    <trkpt lat="45.305060000000005" lon="-121.8238"><ele>837.9</ele></trkpt>
    <trkpt lat="45.30521316642735" lon="-121.8239041531706"><ele>836.9</ele></trkpt>
    <trkpt lat="45.305310000000006" lon="-121.82397000000002"><ele>836.2</ele></trkpt>
    <trkpt lat="45.3054515347365" lon="-121.82408076631553"><ele>835.3</ele></trkpt>
    <trkpt lat="45.30554" lon="-121.82415"><ele>834.7</ele></trkpt>
    <trkpt lat="45.30556629271611" lon="-121.8241783961334"><ele>834.5</ele></trkpt>
    <trkpt lat="45.305709522233656" lon="-121.82433308401235"><ele>833.4</ele></trkpt>
    <trkpt lat="45.30579" lon="-121.82442"><ele>832.7</ele></trkpt>
    <trkpt lat="45.30584551006652" lon="-121.82449771409314"><ele>832.3</ele></trkpt>
    <trkpt lat="45.30597303242764" lon="-121.82467624539869"><ele>831.2</ele></trkpt>
    <trkpt lat="45.30599" lon="-121.8247"><ele>831.0</ele></trkpt>
    <trkpt lat="45.306140000000006" lon="-121.82505"><ele>829.2</ele></trkpt>
    <trkpt lat="45.30620202099986" lon="-121.82522175046114"><ele>828.3</ele></trkpt>
    <trkpt lat="45.30624309776023" lon="-121.82533550148985"><ele>827.8</ele></trkpt>
    <trkpt lat="45.306270000000005" lon="-121.82541"><ele>827.4</ele></trkpt>
    <trkpt lat="45.30632527403438" lon="-121.8256310961375"><ele>826.4</ele></trkpt>
    <trkpt lat="45.30637" lon="-121.82581"><ele>825.6</ele></trkpt>
    <trkpt lat="45.30638133412659" lon="-121.82593750892416"><ele>825.0</ele></trkpt>
    <trkpt lat="45.30640377420497" lon="-121.82618995980583"><ele>823.9</ele></trkpt>
    <trkpt lat="45.30641000000001" lon="-121.82626"><ele>823.6</ele></trkpt>
    <trkpt lat="45.30641130094753" lon="-121.82631724169121"><ele>823.3</ele></trkpt>
    <trkpt lat="45.30642" lon="-121.82670000000002"><ele>821.5</ele></trkpt>
    <trkpt lat="45.30639261857761" lon="-121.82720807750442"><ele>819.3</ele></trkpt>
    <trkpt lat="45.306368707515446" lon="-121.82765176054673"><ele>817.4</ele></trkpt>
    <trkpt lat="45.30636183652058" lon="-121.82777925567382"><ele>816.9</ele></trkpt>
    <trkpt lat="45.30633785674846" lon="-121.8282242136674"><ele>815.1</ele></trkpt>
    <trkpt lat="45.30633" lon="-121.82837"><ele>814.6</ele></trkpt>
    <trkpt lat="45.30634645223065" lon="-121.82873194907427"><ele>813.2</ele></trkpt>
    <trkpt lat="45.30635" lon="-121.82881"><ele>812.9</ele></trkpt>
    <trkpt lat="45.30638742773236" lon="-121.82910942185883"><ele>811.7</ele></trkpt>
    <trkpt lat="45.306400000000004" lon="-121.82921"><ele>811.3</ele></trkpt>
    <trkpt lat="45.306457430789" lon="-121.82947801034868"><ele>810.2</ele></trkpt>
    <trkpt lat="45.306490000000004" lon="-121.82963000000001"><ele>809.6</ele></trkpt>
    <trkpt lat="45.30650082603646" lon="-121.829659094973"><ele>809.5</ele></trkpt>
    <trkpt lat="45.30662657395642" lon="-121.82999704250787"><ele>807.8</ele></trkpt>
    <trkpt lat="45.306650000000005" lon="-121.83006"><ele>807.5</ele></trkpt>
    <trkpt lat="45.3066717059048" lon="-121.83010596544545"><ele>807.2</ele></trkpt>
    <trkpt lat="45.30677196832193" lon="-121.8303182858582"><ele>806.0</ele></trkpt>
    <trkpt lat="45.30682" lon="-121.83042"><ele>805.5</ele></trkpt>
    <trkpt lat="45.30691744218653" lon="-121.8305584704756"><ele>804.6</ele></trkpt>
    <trkpt lat="45.307010000000005" lon="-121.83069"><ele>803.7</ele></trkpt>
    <trkpt lat="45.30704730130316" lon="-121.83073319098261"><ele>803.4</ele></trkpt>
    <trkpt lat="45.3072" lon="-121.83091"><ele>802.1</ele></trkpt>
    <trkpt lat="45.30733461992044" lon="-121.83103788892441"><ele>801.1</ele></trkpt>
    <trkpt lat="45.3074" lon="-121.8311"><ele>800.6</ele></trkpt>
    <trkpt lat="45.30752577625463" lon="-121.83120344215334"><ele>799.7</ele></trkpt>
    <trkpt lat="45.307913458188594" lon="-121.83152228337006"><ele>796.6</ele></trkpt>
    <trkpt lat="45.307991305966496" lon="-121.83158630771078"><ele>796.1</ele></trkpt>
    <trkpt lat="45.308146223044524" lon="-121.83171371614878"><ele>795.0</ele></trkpt>
    <trkpt lat="45.30837898790046" lon="-121.83190514892749"><ele>793.5</ele></trkpt>
    <trkpt lat="45.30847000000001" lon="-121.83198000000002"><ele>792.9</ele></trkpt>
    <trkpt lat="45.308533329675505" lon="-121.83203394750137"><ele>792.5</ele></trkpt>
    <trkpt lat="45.30861047663072" lon="-121.83209966527804"><ele>792.0</ele></trkpt>
    <trkpt lat="45.30874" lon="-121.83221"><ele>791.0</ele></trkpt>
    <trkpt lat="45.30896950668364" lon="-121.83247775779759"><ele>789.1</ele></trkpt>
    <trkpt lat="45.308980000000005" lon="-121.83249"><ele>789.0</ele></trkpt>
    <trkpt lat="45.30919397892297" lon="-121.83278957049215"><ele>787.0</ele></trkpt>
    <trkpt lat="45.30923000000001" lon="-121.83284"><ele>786.7</ele></trkpt>
    <trkpt lat="45.309280316629454" lon="-121.83293625789982"><ele>786.1</ele></trkpt>
    <trkpt lat="45.30946" lon="-121.83328000000002"><ele>784.2</ele></trkpt>
    <trkpt lat="45.309564803107094" lon="-121.83350810088015"><ele>783.0</ele></trkpt>
    <trkpt lat="45.309630000000006" lon="-121.83365"><ele>782.3</ele></trkpt>
    <trkpt lat="45.3097284040373" lon="-121.8339592698315"><ele>780.9</ele></trkpt>
    <trkpt lat="45.30977" lon="-121.83409"><ele>780.3</ele></trkpt>
    <trkpt lat="45.309819301729135" lon="-121.83431834485071"><ele>779.2</ele></trkpt>
    <trkpt lat="45.309845695635985" lon="-121.83444059031406"><ele>778.7</ele></trkpt>
    <trkpt lat="45.30989821951063" lon="-121.83468385878608"><ele>777.5</ele></trkpt>
    <trkpt lat="45.309960000000004" lon="-121.83497000000001"><ele>776.4</ele></trkpt>
    <trkpt lat="45.30996142680263" lon="-121.83498640823022"><ele>776.3</ele></trkpt>
    <trkpt lat="45.31" lon="-121.83543000000002"><ele>774.6</ele></trkpt>
    <trkpt lat="45.31000271160114" lon="-121.83555202205106"><ele>774.2</ele></trkpt>
    <trkpt lat="45.31000552349312" lon="-121.83567855719002"><ele>773.7</ele></trkpt>
    <trkpt lat="45.310010000000005" lon="-121.83588"><ele>772.9</ele></trkpt>
    <trkpt lat="45.310003669001645" lon="-121.8359939579704"><ele>772.4</ele></trkpt>
    <trkpt lat="45.309990000000006" lon="-121.83624"><ele>771.5</ele></trkpt>
    <trkpt lat="45.30991498883252" lon="-121.83680546880109"><ele>769.2</ele></trkpt>
    <trkpt lat="45.30986" lon="-121.83722000000002"><ele>767.7</ele></trkpt>
    <trkpt lat="45.3098247287183" lon="-121.83742378962765"><ele>766.9</ele></trkpt>
    <trkpt lat="45.30976089978158" lon="-121.8377925790398"><ele>765.6</ele></trkpt>
    <trkpt lat="45.30972909276933" lon="-121.83797635288829"><ele>764.9</ele></trkpt>
    <trkpt lat="45.30970803136934" lon="-121.83809804097714"><ele>765.5</ele></trkpt>
    <trkpt lat="45.30968" lon="-121.83826"><ele>766.1</ele></trkpt>
    <trkpt lat="45.30973950603405" lon="-121.83827750177471"><ele>766.4</ele></trkpt>
    <trkpt lat="45.309783540021584" lon="-121.83829045294753"><ele>766.6</ele></trkpt>
    <trkpt lat="45.309826693329384" lon="-121.83830314509687"><ele>766.9</ele></trkpt>
    <trkpt lat="45.309850000000004" lon="-121.83831"><ele>767.0</ele></trkpt>
    <trkpt lat="45.30987095976643" lon="-121.83830580804673"><ele>767.2</ele></trkpt>
    <trkpt lat="45.309900000000006" lon="-121.8383"><ele>767.4</ele></trkpt>
    <trkpt lat="45.30995" lon="-121.83826"><ele>767.8</ele></trkpt>
    <trkpt lat="45.30995122387786" lon="-121.83825716978247"><ele>767.9</ele></trkpt>
    <trkpt lat="45.309974305755595" lon="-121.83820379294019"><ele>768.2</ele></trkpt>
    <trkpt lat="45.31002094056979" lon="-121.83809594993238"><ele>769.1</ele></trkpt>
    <trkpt lat="45.31013729207593" lon="-121.83782688707444"><ele>771.3</ele></trkpt>
    <trkpt lat="45.310183926890126" lon="-121.83771904406659"><ele>772.3</ele></trkpt>
    <trkpt lat="45.31027719651853" lon="-121.83750335805092"><ele>774.2</ele></trkpt>
    <trkpt lat="45.310300278396255" lon="-121.83744998120866"><ele>774.7</ele></trkpt>
    <trkpt lat="45.31037046614692" lon="-121.83728767203526"><ele>776.0</ele></trkpt>
    <trkpt lat="45.31039354802466" lon="-121.837234295193"><ele>776.0</ele></trkpt>
    <trkpt lat="45.31041710096112" lon="-121.83717982902742"><ele>775.9</ele></trkpt>
    <trkpt lat="45.31044018283886" lon="-121.83712645218516"><ele>775.9</ele></trkpt>
    <trkpt lat="45.31046373577532" lon="-121.83707198601958"><ele>775.9</ele></trkpt>
    <trkpt lat="45.310510370589526" lon="-121.83696414301176"><ele>776.0</ele></trkpt>
    <trkpt lat="45.31053392352598" lon="-121.83690967684618"><ele>776.1</ele></trkpt>
    <trkpt lat="45.310580558340185" lon="-121.83680183383835"><ele>776.2</ele></trkpt>
    <trkpt lat="45.3107963032382" lon="-121.83630292376169"><ele>777.0</ele></trkpt>
    <trkpt lat="45.3108542434619" lon="-121.83616893699438"><ele>777.3</ele></trkpt>
    <trkpt lat="45.31090134933483" lon="-121.83606000466324"><ele>777.5</ele></trkpt>
    <trkpt lat="45.31091000000001" lon="-121.83604000000001"><ele>777.5</ele></trkpt>
    <trkpt lat="45.31091000000001" lon="-121.83602"><ele>777.6</ele></trkpt>
    <trkpt lat="45.31094256485001" lon="-121.835949442825"><ele>777.7</ele></trkpt>
    <trkpt lat="45.310970000000005" lon="-121.83589"><ele>777.7</ele></trkpt>
    <trkpt lat="45.31100948402218" lon="-121.83589846086191"><ele>777.7</ele></trkpt>
    <trkpt lat="45.311110000000006" lon="-121.83592000000002"><ele>777.8</ele></trkpt>
    <trkpt lat="45.311188119574446" lon="-121.83591454979714"><ele>777.8</ele></trkpt>
    <trkpt lat="45.31127794375895" lon="-121.83590828299359"><ele>777.8</ele></trkpt>
    <trkpt lat="45.3113228558512" lon="-121.83590514959178"><ele>777.8</ele></trkpt>
    <trkpt lat="45.31136776794346" lon="-121.83590201619"><ele>777.7</ele></trkpt>
    <trkpt lat="45.311412680035716" lon="-121.83589888278823"><ele>777.6</ele></trkpt>
    <trkpt lat="45.31150250422022" lon="-121.83589261598465"><ele>777.3</ele></trkpt>
    <trkpt lat="45.31154" lon="-121.83589"><ele>777.2</ele></trkpt>
    <trkpt lat="45.31163372002542" lon="-121.83592748801017"><ele>776.8</ele></trkpt>
    <trkpt lat="45.311640000000004" lon="-121.83593"><ele>776.8</ele></trkpt>
    <trkpt lat="45.31170155975012" lon="-121.83601002767516"><ele>776.5</ele></trkpt>
    <trkpt lat="45.31174" lon="-121.83606"><ele>776.3</ele></trkpt>
    <trkpt lat="45.31176570708789" lon="-121.83609950113505"><ele>776.2</ele></trkpt>
    <trkpt lat="45.31188787196989" lon="-121.83628721790497"><ele>775.8</ele></trkpt>
    <trkpt lat="45.31194895441088" lon="-121.83638107628991"><ele>775.5</ele></trkpt>
    <trkpt lat="45.31201003685189" lon="-121.83647493467484"><ele>775.2</ele></trkpt>
    <trkpt lat="45.31215" lon="-121.83669"><ele>774.3</ele></trkpt>
    <trkpt lat="45.312160434029956" lon="-121.83671217231365"><ele>774.2</ele></trkpt>
    <trkpt lat="45.31223000000001" lon="-121.83686000000002"><ele>773.8</ele></trkpt>
    <trkpt lat="45.31230447916573" lon="-121.8369543402766"><ele>773.4</ele></trkpt>
    <trkpt lat="45.312380000000005" lon="-121.83705"><ele>773.0</ele></trkpt>
    <trkpt lat="45.31239750594043" lon="-121.83709104841203"><ele>772.9</ele></trkpt>
    <trkpt lat="45.312537405529575" lon="-121.83741908882797"><ele>772.0</ele></trkpt>
    <trkpt lat="45.31265398852053" lon="-121.83769245584124"><ele>771.3</ele></trkpt>
    <trkpt lat="45.312670000000004" lon="-121.83773000000001"><ele>771.1</ele></trkpt>
    <trkpt lat="45.31279000000001" lon="-121.83798000000002"><ele>770.3</ele></trkpt>
    <trkpt lat="45.31284283034542" lon="-121.83804750544137"><ele>770.0</ele></trkpt>
    <trkpt lat="45.31287627702794" lon="-121.83809024286904"><ele>769.8</ele></trkpt>
    <trkpt lat="45.31290972371046" lon="-121.83813298029669"><ele>769.5</ele></trkpt>
    <trkpt lat="45.312943170392984" lon="-121.83817571772435"><ele>769.2</ele></trkpt>
    <trkpt lat="45.31297000000001" lon="-121.83821"><ele>769.0</ele></trkpt>
    <trkpt lat="45.31297878458482" lon="-121.83821199649655"><ele>768.9</ele></trkpt>
    <trkpt lat="45.31302318716411" lon="-121.83822208799185"><ele>768.5</ele></trkpt>
    <trkpt lat="45.3130675897434" lon="-121.83823217948714"><ele>768.0</ele></trkpt>
    <trkpt lat="45.313190000000006" lon="-121.83826"><ele>766.7</ele></trkpt>
    <trkpt lat="45.3132009345184" lon="-121.83826"><ele>766.6</ele></trkpt>
    <trkpt lat="45.31324590063667" lon="-121.83826000000002"><ele>766.1</ele></trkpt>
    <trkpt lat="45.313280000000006" lon="-121.83826"><ele>765.8</ele></trkpt>
    <trkpt lat="45.31329008309856" lon="-121.83826576177061"><ele>765.7</ele></trkpt>
    <trkpt lat="45.31333180648369" lon="-121.83828960370496"><ele>765.4</ele></trkpt>
    <trkpt lat="45.31335000000001" lon="-121.8383"><ele>765.2</ele></trkpt>
    <trkpt lat="45.31338" lon="-121.83839"><ele>764.7</ele></trkpt>
    <trkpt lat="45.31337997130286" lon="-121.83839040176004"><ele>764.7</ele></trkpt>
    <trkpt lat="45.31337088344281" lon="-121.83851763180071"><ele>764.1</ele></trkpt>
    <trkpt lat="45.313370000000006" lon="-121.83853"><ele>764.1</ele></trkpt>
    <trkpt lat="45.313280000000006" lon="-121.83866"><ele>763.3</ele></trkpt>
    <trkpt lat="45.313241808595365" lon="-121.83868758268113"><ele>763.0</ele></trkpt>
    <trkpt lat="45.31316162538978" lon="-121.83874549277405"><ele>762.4</ele></trkpt>
    <trkpt lat="45.313100000000006" lon="-121.83879"><ele>761.9</ele></trkpt>
    <trkpt lat="45.3130799634597" lon="-121.83879801461613"><ele>761.7</ele></trkpt>
    <trkpt lat="45.31286353254353" lon="-121.83888458698259"><ele>759.8</ele></trkpt>
    <trkpt lat="45.312850000000005" lon="-121.83889"><ele>759.7</ele></trkpt>
    <trkpt lat="45.312740000000005" lon="-121.83888"><ele>758.7</ele></trkpt>
    <trkpt lat="45.31264179516687" lon="-121.83891068901036"><ele>757.9</ele></trkpt>
    <trkpt lat="45.312580000000004" lon="-121.83893"><ele>757.4</ele></trkpt>
    <trkpt lat="45.31255508400989" lon="-121.8389434961613"><ele>757.2</ele></trkpt>
    <trkpt lat="45.31251306329895" lon="-121.83896625737974"><ele>756.8</ele></trkpt>
    <trkpt lat="45.31247104258802" lon="-121.83898901859817"><ele>756.5</ele></trkpt>
    <trkpt lat="45.31238700116615" lon="-121.839034541035"><ele>756.0</ele></trkpt>
    <trkpt lat="45.312340000000006" lon="-121.83906"><ele>755.7</ele></trkpt>
    <trkpt lat="45.312311755257845" lon="-121.83909954263902"><ele>755.5</ele></trkpt>
    <trkpt lat="45.312119499974074" lon="-121.8393687000363"><ele>754.1</ele></trkpt>
    <trkpt lat="45.31204" lon="-121.83948000000001"><ele>753.4</ele></trkpt>
    <trkpt lat="45.31202130768307" lon="-121.83949986058676"><ele>753.3</ele></trkpt>
    <trkpt lat="45.31198528642886" lon="-121.83953813316936"><ele>753.0</ele></trkpt>
    <trkpt lat="45.31188" lon="-121.83965"><ele>752.1</ele></trkpt>
    <trkpt lat="45.3118657038143" lon="-121.83966039722597"><ele>752.0</ele></trkpt>
    <trkpt lat="45.31183687945807" lon="-121.83968136039415"><ele>751.8</ele></trkpt>
    <trkpt lat="45.311756811801885" lon="-121.83973959141682"><ele>751.2</ele></trkpt>
    <trkpt lat="45.3116767441457" lon="-121.83979782243952"><ele>750.8</ele></trkpt>
    <trkpt lat="45.31166" lon="-121.83981000000001"><ele>750.7</ele></trkpt>
    <trkpt lat="45.31165" lon="-121.83981000000001"><ele>750.7</ele></trkpt>
    <trkpt lat="45.31159384140915" lon="-121.83984431913888"><ele>750.5</ele></trkpt>
    <trkpt lat="45.311511216388496" lon="-121.83989481220704"><ele>750.2</ele></trkpt>
    <trkpt lat="45.31147000000001" lon="-121.83992"><ele>750.1</ele></trkpt>
    <trkpt lat="45.311426356872694" lon="-121.83993600248003"><ele>750.0</ele></trkpt>
    <trkpt lat="45.31125306043489" lon="-121.83999954450721"><ele>749.8</ele></trkpt>
    <trkpt lat="45.31120864777999" lon="-121.84001582914735"><ele>749.7</ele></trkpt>
    <trkpt lat="45.31116510596145" lon="-121.84003179448081"><ele>749.6</ele></trkpt>
    <trkpt lat="45.31112156414291" lon="-121.84004775981427"><ele>749.5</ele></trkpt>
    <trkpt lat="45.311034480505825" lon="-121.84007969048122"><ele>749.2</ele></trkpt>
    <trkpt lat="45.3109038550502" lon="-121.8401275864816"><ele>748.6</ele></trkpt>
    <trkpt lat="45.31087" lon="-121.84014"><ele>748.5</ele></trkpt>
    <trkpt lat="45.31074821135553" lon="-121.84025163959078"><ele>747.9</ele></trkpt>
    <trkpt lat="45.31067262422694" lon="-121.84032092779198"><ele>747.6</ele></trkpt>
    <trkpt lat="45.31063" lon="-121.84036"><ele>747.3</ele></trkpt>
    <trkpt lat="45.31056508031608" lon="-121.84043621006373"><ele>746.9</ele></trkpt>
    <trkpt lat="45.310426376596766" lon="-121.84059903616902"><ele>746.0</ele></trkpt>
    <trkpt lat="45.3104" lon="-121.84063"><ele>745.8</ele></trkpt>
    <trkpt lat="45.31039360151424" lon="-121.8406423047803"><ele>745.8</ele></trkpt>
    <trkpt lat="45.31036686762596" lon="-121.84069371610394"><ele>745.6</ele></trkpt>
    <trkpt lat="45.310259932072825" lon="-121.84089936139843"><ele>744.8</ele></trkpt>
    <trkpt lat="45.31020646429625" lon="-121.84100218404568"><ele>744.4</ele></trkpt>
    <trkpt lat="45.31015299651968" lon="-121.84110500669294"><ele>744.0</ele></trkpt>
    <trkpt lat="45.310140000000004" lon="-121.84113"><ele>743.9</ele></trkpt>
    <trkpt lat="45.310125111165426" lon="-121.84115512490835"><ele>743.8</ele></trkpt>
    <trkpt lat="45.310067161720845" lon="-121.84125291459608"><ele>743.2</ele></trkpt>
    <trkpt lat="45.310038186998554" lon="-121.84130180943994"><ele>742.9</ele></trkpt>
    <trkpt lat="45.30998" lon="-121.84140000000001"><ele>742.2</ele></trkpt>
    <trkpt lat="45.309965644925754" lon="-121.84152441064353"><ele>741.4</ele></trkpt>
    <trkpt lat="45.30995123016373" lon="-121.84164933858098"><ele>740.8</ele></trkpt>
    <trkpt lat="45.30995" lon="-121.84166"><ele>740.8</ele></trkpt>
    <trkpt lat="45.309933238956674" lon="-121.84170748962278"><ele>740.6</ele></trkpt>
    <trkpt lat="45.30989290075018" lon="-121.84182178120787"><ele>740.1</ele></trkpt>
    <trkpt lat="45.30989" lon="-121.84183000000002"><ele>740.0</ele></trkpt>
    <trkpt lat="45.30983040856424" lon="-121.84191126104878"><ele>739.7</ele></trkpt>
    <trkpt lat="45.30978" lon="-121.84198"><ele>739.4</ele></trkpt>
    <trkpt lat="45.309687656082886" lon="-121.84215699250781"><ele>738.8</ele></trkpt>
    <trkpt lat="45.30966" lon="-121.84221000000001"><ele>738.6</ele></trkpt>
    <trkpt lat="45.30957416075839" lon="-121.84250185342152"><ele>737.6</ele></trkpt>
    <trkpt lat="45.309560000000005" lon="-121.84255000000002"><ele>737.4</ele></trkpt>
    <trkpt lat="45.30951" lon="-121.84282"><ele>736.6</ele></trkpt>
    <trkpt lat="45.30951141440677" lon="-121.84287091864357"><ele>736.5</ele></trkpt>
    <trkpt lat="45.309520000000006" lon="-121.84318"><ele>735.5</ele></trkpt>
    <trkpt lat="45.30951738843617" lon="-121.8431882955557"><ele>735.5</ele></trkpt>
    <trkpt lat="45.30942589640349" lon="-121.84347891730658"><ele>734.5</ele></trkpt>
    <trkpt lat="45.30937114815903" lon="-121.84365282349485"><ele>733.9</ele></trkpt>
    <trkpt lat="45.30935" lon="-121.84372"><ele>733.6</ele></trkpt>
    <trkpt lat="45.309340166758076" lon="-121.84377244395691"><ele>733.5</ele></trkpt>
    <trkpt lat="45.30932858304593" lon="-121.84383422375501"><ele>733.3</ele></trkpt>
    <trkpt lat="45.30931699933379" lon="-121.84389600355314"><ele>733.2</ele></trkpt>
    <trkpt lat="45.309305647295886" lon="-121.84395654775528"><ele>733.2</ele></trkpt>
    <trkpt lat="45.30929406358374" lon="-121.84401832755341"><ele>733.2</ele></trkpt>
    <trkpt lat="45.309290000000004" lon="-121.84404"><ele>733.2</ele></trkpt>
    <trkpt lat="45.30927927611483" lon="-121.84407860598667"><ele>733.2</ele></trkpt>
    <trkpt lat="45.30926275746085" lon="-121.84413807314095"><ele>733.3</ele></trkpt>
    <trkpt lat="45.30924" lon="-121.84422"><ele>733.4</ele></trkpt>
    <trkpt lat="45.30920046869907" lon="-121.84430565115204"><ele>733.5</ele></trkpt>
    <trkpt lat="45.30917579737054" lon="-121.84435910569718"><ele>733.5</ele></trkpt>
    <trkpt lat="45.30915112604201" lon="-121.84441256024233"><ele>733.5</ele></trkpt>
    <trkpt lat="45.30912645471348" lon="-121.84446601478747"><ele>733.4</ele></trkpt>
    <trkpt lat="45.30912000000001" lon="-121.84448"><ele>733.4</ele></trkpt>
    <trkpt lat="45.30911032288127" lon="-121.84452515988741"><ele>733.3</ele></trkpt>
    <trkpt lat="45.30909721685829" lon="-121.84458632132797"><ele>733.2</ele></trkpt>
    <trkpt lat="45.30906" lon="-121.84476000000001"><ele>732.7</ele></trkpt>
    <trkpt lat="45.30905949615148" lon="-121.84476894331132"><ele>732.7</ele></trkpt>
    <trkpt lat="45.309048724330026" lon="-121.84496014314223"><ele>732.2</ele></trkpt>
    <trkpt lat="45.30903443371355" lon="-121.84521380158455"><ele>731.5</ele></trkpt>
    <trkpt lat="45.30902014309708" lon="-121.84546746002687"><ele>730.8</ele></trkpt>
    <trkpt lat="45.309020000000004" lon="-121.84547"><ele>730.8</ele></trkpt>
    <trkpt lat="45.309005930204826" lon="-121.8455280379051"><ele>730.6</ele></trkpt>
    <trkpt lat="45.30897662261408" lon="-121.84564893171694"><ele>730.1</ele></trkpt>
    <trkpt lat="45.308962261894614" lon="-121.84570816968474"><ele>729.9</ele></trkpt>
    <trkpt lat="45.30894760809924" lon="-121.84576861659068"><ele>729.6</ele></trkpt>
    <trkpt lat="45.30893295430386" lon="-121.84582906349658"><ele>729.2</ele></trkpt>
    <trkpt lat="45.30890364671311" lon="-121.84594995730842"><ele>728.5</ele></trkpt>
    <trkpt lat="45.30884532460752" lon="-121.846190535994"><ele>726.9</ele></trkpt>
    <trkpt lat="45.308816017016774" lon="-121.84631142980584"><ele>726.0</ele></trkpt>
    <trkpt lat="45.3088013632214" lon="-121.84637187671176"><ele>725.6</ele></trkpt>
    <trkpt lat="45.30878700250193" lon="-121.84643111467958"><ele>725.1</ele></trkpt>
    <trkpt lat="45.308780000000006" lon="-121.84646000000001"><ele>724.8</ele></trkpt>
    <trkpt lat="45.30875841033702" lon="-121.8466830931842"><ele>722.9</ele></trkpt>
    <trkpt lat="45.30875228063194" lon="-121.84674643346992"><ele>722.3</ele></trkpt>
    <trkpt lat="45.30875" lon="-121.84677"><ele>722.2</ele></trkpt>
    <trkpt lat="45.30875171147979" lon="-121.84680879354192"><ele>721.9</ele></trkpt>
    <trkpt lat="45.30875452670196" lon="-121.84687260524433"><ele>721.4</ele></trkpt>
    <trkpt lat="45.30875734192413" lon="-121.84693641694676"><ele>721.1</ele></trkpt>
    <trkpt lat="45.308760157146295" lon="-121.84700022864916"><ele>720.8</ele></trkpt>
    <trkpt lat="45.308762972368456" lon="-121.84706404035157"><ele>720.5</ele></trkpt>
    <trkpt lat="45.30876578759062" lon="-121.847127852054"><ele>720.3</ele></trkpt>
    <trkpt lat="45.30877699217484" lon="-121.84738182262959"><ele>719.6</ele></trkpt>
    <trkpt lat="45.308780000000006" lon="-121.84745000000001"><ele>719.4</ele></trkpt>
    <trkpt lat="45.30876813041729" lon="-121.84750578703877"><ele>719.2</ele></trkpt>
    <trkpt lat="45.30875510960107" lon="-121.847566984875"><ele>719.0</ele></trkpt>
    <trkpt lat="45.308742088784854" lon="-121.84762818271122"><ele>718.7</ele></trkpt>
    <trkpt lat="45.308690265936306" lon="-121.84787175009939"><ele>717.6</ele></trkpt>
    <trkpt lat="45.30868" lon="-121.84792000000002"><ele>717.4</ele></trkpt>
    <trkpt lat="45.308659102628944" lon="-121.84805824414704"><ele>716.8</ele></trkpt>
    <trkpt lat="45.30863094434165" lon="-121.84824452204757"><ele>716.2</ele></trkpt>
    <trkpt lat="45.30861204616227" lon="-121.84836954077274"><ele>715.8</ele></trkpt>
    <trkpt lat="45.308593147982876" lon="-121.84849455949791"><ele>715.5</ele></trkpt>
    <trkpt lat="45.3085555406059" lon="-121.84874334676101"><ele>715.0</ele></trkpt>
    <trkpt lat="45.308550000000004" lon="-121.84878"><ele>714.9</ele></trkpt>
    <trkpt lat="45.308530453586144" lon="-121.84886600422097"><ele>714.7</ele></trkpt>
    <trkpt lat="45.30851662653756" lon="-121.84892684323475"><ele>714.5</ele></trkpt>
    <trkpt lat="45.3085" lon="-121.849"><ele>714.2</ele></trkpt>
    <trkpt lat="45.30839943890892" lon="-121.84926992713922"><ele>713.2</ele></trkpt>
    <trkpt lat="45.308310000000006" lon="-121.84951000000001"><ele>712.4</ele></trkpt>
    <trkpt lat="45.30829951298106" lon="-121.84961836586248"><ele>712.1</ele></trkpt>
    <trkpt lat="45.30828" lon="-121.84982000000001"><ele>711.4</ele></trkpt>
    <trkpt lat="45.30824683172762" lon="-121.84999247501638"><ele>710.9</ele></trkpt>
    <trkpt lat="45.30823" lon="-121.85008"><ele>710.6</ele></trkpt>
    <trkpt lat="45.30821588831264" lon="-121.85011124730774"><ele>710.5</ele></trkpt>
    <trkpt lat="45.308191591777195" lon="-121.85016504677908"><ele>710.4</ele></trkpt>
    <trkpt lat="45.3081429987063" lon="-121.85027264572176"><ele>710.2</ele></trkpt>
    <trkpt lat="45.30809489156613" lon="-121.85037916867502"><ele>710.1</ele></trkpt>
    <trkpt lat="45.30804629849524" lon="-121.8504867676177"><ele>710.0</ele></trkpt>
    <trkpt lat="45.30799770542434" lon="-121.85059436656039"><ele>710.1</ele></trkpt>
    <trkpt lat="45.307950000000005" lon="-121.8507"><ele>710.2</ele></trkpt>
    <trkpt lat="45.30794493389125" lon="-121.85076459288668"><ele>710.3</ele></trkpt>
    <trkpt lat="45.307934966473745" lon="-121.85089167745983"><ele>710.3</ele></trkpt>
    <trkpt lat="45.30792998276499" lon="-121.8509552197464"><ele>710.3</ele></trkpt>
    <trkpt lat="45.30792011502167" lon="-121.8510810334738"><ele>710.1</ele></trkpt>
    <trkpt lat="45.30791513131292" lon="-121.85114457576037"><ele>710.0</ele></trkpt>
    <trkpt lat="45.30791014760417" lon="-121.85120811804694"><ele>709.8</ele></trkpt>
    <trkpt lat="45.30791000000001" lon="-121.85121000000001"><ele>709.8</ele></trkpt>
    <trkpt lat="45.30791474421224" lon="-121.85127167475903"><ele>709.6</ele></trkpt>
    <trkpt lat="45.30792432667521" lon="-121.8513962467777"><ele>709.2</ele></trkpt>
    <trkpt lat="45.30794" lon="-121.8516"><ele>708.5</ele></trkpt>
    <trkpt lat="45.30793384237617" lon="-121.85165131353199"><ele>708.3</ele></trkpt>
    <trkpt lat="45.307918867558556" lon="-121.85177610367867"><ele>707.8</ele></trkpt>
    <trkpt lat="45.307911304519365" lon="-121.8518391290053"><ele>707.5</ele></trkpt>
    <trkpt lat="45.30789617844098" lon="-121.85196517965855"><ele>706.9</ele></trkpt>
    <trkpt lat="45.307880000000004" lon="-121.85210000000001"><ele>706.2</ele></trkpt>
    <trkpt lat="45.30790165611475" lon="-121.85234363129095"><ele>705.0</ele></trkpt>
    <trkpt lat="45.30790729447324" lon="-121.85240706282386"><ele>704.7</ele></trkpt>
    <trkpt lat="45.307912820064544" lon="-121.8524692257261"><ele>704.4</ele></trkpt>
    <trkpt lat="45.307918458423025" lon="-121.85253265725899"><ele>704.2</ele></trkpt>
    <trkpt lat="45.30792" lon="-121.85255000000001"><ele>704.2</ele></trkpt>
    <trkpt lat="45.30792722936215" lon="-121.85259530400276"><ele>704.0</ele></trkpt>
    <trkpt lat="45.307947128756496" lon="-121.85272000687407"><ele>703.7</ele></trkpt>
    <trkpt lat="45.30798672855127" lon="-121.85296816558795"><ele>703.3</ele></trkpt>
    <trkpt lat="45.30800662794562" lon="-121.85309286845924"><ele>702.9</ele></trkpt>
    <trkpt lat="45.3080165776428" lon="-121.85315521989489"><ele>702.7</ele></trkpt>
    <trkpt lat="45.30802632834603" lon="-121.85321632430183"><ele>702.5</ele></trkpt>
    <trkpt lat="45.30807" lon="-121.85349000000001"><ele>701.4</ele></trkpt>
    <trkpt lat="45.3080653515106" lon="-121.85352718791526"><ele>701.3</ele></trkpt>
    <trkpt lat="45.30804961407038" lon="-121.85365308743702"><ele>700.9</ele></trkpt>
    <trkpt lat="45.30804048635505" lon="-121.85372610915965"><ele>700.7</ele></trkpt>
    <trkpt lat="45.30801939818515" lon="-121.85389481451882"><ele>700.2</ele></trkpt>
    <trkpt lat="45.30800000000001" lon="-121.85405000000002"><ele>699.7</ele></trkpt>
    <trkpt lat="45.307990000000004" lon="-121.85405000000002"><ele>699.7</ele></trkpt>
    <trkpt lat="45.30798713980277" lon="-121.8540682460858"><ele>699.7</ele></trkpt>
    <trkpt lat="45.30788951174709" lon="-121.85469104575137"><ele>697.8</ele></trkpt>
  </trkseg></trk>
</gpx>
