<?xml version="1.0" encoding="UTF-8"?>
<gpx version="1.1" creator="h2c-tracker" xmlns="http://www.topografix.com/GPX/1/1">
  <metadata><name>Hood to Coast 2026 — Leg 12 (5.85 mi)</name><desc>Derived from the official Hood to Coast Strava route (simplified, 491 points, ~5.90 mi). Verify against the official leg map PDF.</desc></metadata>
  <wpt lat="45.461735031466404" lon="-122.61694525163256"><name>Exchange 11 — Springwater Trail near SE 45th Ave / Johnson Creek Blvd</name></wpt>
  <wpt lat="45.506640912140774" lon="-122.66430175718469"><name>Exchange 12 — OMSI gravel lot (end of SE 2nd Place)</name></wpt>
  <trk><name>HTC Leg 12</name><trkseg>
    <trkpt lat="45.461735031466404" lon="-122.61694525163256"><ele>31.3</ele></trkpt>
    <trkpt lat="45.46188201551518" lon="-122.61739079703038"><ele>31.3</ele></trkpt>
    <trkpt lat="45.462050000000005" lon="-122.6179"><ele>31.2</ele></trkpt>
    <trkpt lat="45.46210000000001" lon="-122.61808"><ele>31.2</ele></trkpt>
    <trkpt lat="45.462110100065914" lon="-122.61820372580742"><ele>31.2</ele></trkpt>
    <trkpt lat="45.46212455174245" lon="-122.61838075884498"><ele>31.2</ele></trkpt>
    <trkpt lat="45.46213993913905" lon="-122.61856925445328"><ele>31.1</ele></trkpt>
    <trkpt lat="45.462140000000005" lon="-122.61857"><ele>31.1</ele></trkpt>
    <trkpt lat="45.462167380651536" lon="-122.61868864949"><ele>31.1</ele></trkpt>
    <trkpt lat="45.46217" lon="-122.6187"><ele>31.1</ele></trkpt>
    <trkpt lat="45.462261365678614" lon="-122.61897409703585"><ele>31.1</ele></trkpt>
    <trkpt lat="45.46229919651434" lon="-122.61908758954301"><ele>31.1</ele></trkpt>
    <trkpt lat="45.462337413379" lon="-122.619202240137"><ele>31.2</ele></trkpt>
    <trkpt lat="45.46244" lon="-122.61951"><ele>31.5</ele></trkpt>
    <trkpt lat="45.46247989470697" lon="-122.61966292971007"><ele>31.6</ele></trkpt>
    <trkpt lat="45.462541656328035" lon="-122.6198996825908"><ele>31.7</ele></trkpt>
    <trkpt lat="45.46257238038318" lon="-122.62001745813554"><ele>31.8</ele></trkpt>
    <trkpt lat="45.4626034179491" lon="-122.62013643547152"><ele>31.8</ele></trkpt>
    <trkpt lat="45.462740000000004" lon="-122.62066000000002"><ele>31.7</ele></trkpt>
    <trkpt lat="45.46274191633498" lon="-122.62066766533991"><ele>31.7</ele></trkpt>
    <trkpt lat="45.46281619594944" lon="-122.62096478379775"><ele>31.6</ele></trkpt>
    <trkpt lat="45.46284578701536" lon="-122.62108314806144"><ele>31.6</ele></trkpt>
    <trkpt lat="45.462860000000006" lon="-122.62114000000001"><ele>31.6</ele></trkpt>
    <trkpt lat="45.46288118759165" lon="-122.62125791355348"><ele>31.6</ele></trkpt>
    <trkpt lat="45.4629144434094" lon="-122.62144298940883"><ele>31.4</ele></trkpt>
    <trkpt lat="45.462936762750175" lon="-122.62156720139228"><ele>31.3</ele></trkpt>
    <trkpt lat="45.46295885889755" lon="-122.62169017125589"><ele>31.3</ele></trkpt>
    <trkpt lat="45.46298117823832" lon="-122.62181438323935"><ele>31.2</ele></trkpt>
    <trkpt lat="45.463003497579095" lon="-122.62193859522279"><ele>31.2</ele></trkpt>
    <trkpt lat="45.46302559372647" lon="-122.6220615650864"><ele>31.3</ele></trkpt>
    <trkpt lat="45.46309" lon="-122.62242"><ele>31.4</ele></trkpt>
    <trkpt lat="45.46311785236684" lon="-122.62262053704127"><ele>31.4</ele></trkpt>
    <trkpt lat="45.46318283945676" lon="-122.62308844408868"><ele>31.4</ele></trkpt>
    <trkpt lat="45.463190000000004" lon="-122.62314"><ele>31.4</ele></trkpt>
    <trkpt lat="45.46319727692596" lon="-122.62321495233734"><ele>31.3</ele></trkpt>
    <trkpt lat="45.46320948497752" lon="-122.6233406952684"><ele>31.3</ele></trkpt>
    <trkpt lat="45.46322798202533" lon="-122.62353121486089"><ele>31.2</ele></trkpt>
    <trkpt lat="45.463252644755755" lon="-122.62378524098428"><ele>31.2</ele></trkpt>
    <trkpt lat="45.46328347316878" lon="-122.62410277363847"><ele>31.3</ele></trkpt>
    <trkpt lat="45.46329" lon="-122.62417"><ele>31.3</ele></trkpt>
    <trkpt lat="45.463295383569346" lon="-122.62435842492704"><ele>31.4</ele></trkpt>
    <trkpt lat="45.46330087434421" lon="-122.62455060204746"><ele>31.4</ele></trkpt>
    <trkpt lat="45.463322800838526" lon="-122.62531802934829"><ele>31.7</ele></trkpt>
    <trkpt lat="45.463330000000006" lon="-122.62557000000001"><ele>31.9</ele></trkpt>
    <trkpt lat="45.463330000000006" lon="-122.62604"><ele>32.1</ele></trkpt>
    <trkpt lat="45.463321956917234" lon="-122.62621373058776"><ele>32.3</ele></trkpt>
    <trkpt lat="45.4633012249438" lon="-122.62666154121408"><ele>32.6</ele></trkpt>
    <trkpt lat="45.46329233981232" lon="-122.62685346005392"><ele>32.7</ele></trkpt>
    <trkpt lat="45.463280492970355" lon="-122.62710935184036"><ele>32.8</ele></trkpt>
    <trkpt lat="45.463280000000005" lon="-122.62712"><ele>32.8</ele></trkpt>
    <trkpt lat="45.46326739237354" lon="-122.62723617027244"><ele>32.8</ele></trkpt>
    <trkpt lat="45.46326051630705" lon="-122.62729952831364"><ele>32.8</ele></trkpt>
    <trkpt lat="45.463239888107594" lon="-122.62748960243722"><ele>32.7</ele></trkpt>
    <trkpt lat="45.46316438889758" lon="-122.62818527372953"><ele>32.3</ele></trkpt>
    <trkpt lat="45.46314" lon="-122.62841000000002"><ele>32.2</ele></trkpt>
    <trkpt lat="45.46312351618375" lon="-122.62850014587016"><ele>32.1</ele></trkpt>
    <trkpt lat="45.463055451595544" lon="-122.62887237408687"><ele>31.9</ele></trkpt>
    <trkpt lat="45.46297626979128" lon="-122.62930539957898"><ele>31.5</ele></trkpt>
    <trkpt lat="45.46285148471291" lon="-122.62998781797627"><ele>31.0</ele></trkpt>
    <trkpt lat="45.46282" lon="-122.63016"><ele>30.9</ele></trkpt>
    <trkpt lat="45.46267649653426" lon="-122.63071351336791"><ele>30.5</ele></trkpt>
    <trkpt lat="45.462582953817034" lon="-122.63107432099144"><ele>30.3</ele></trkpt>
    <trkpt lat="45.46247382064695" lon="-122.63149526321894"><ele>30.0</ele></trkpt>
    <trkpt lat="45.46247" lon="-122.63151"><ele>30.0</ele></trkpt>
    <trkpt lat="45.46242468570449" lon="-122.6316729981865"><ele>29.9</ele></trkpt>
    <trkpt lat="45.46232427949579" lon="-122.63203416522546"><ele>29.7</ele></trkpt>
    <trkpt lat="45.46225899889144" lon="-122.6322689833993"><ele>29.2</ele></trkpt>
    <trkpt lat="45.46220995559479" lon="-122.6324453950223"><ele>28.9</ele></trkpt>
    <trkpt lat="45.46211186900147" lon="-122.63279821826828"><ele>28.3</ele></trkpt>
    <trkpt lat="45.461997545100466" lon="-122.63320944806512"><ele>27.8</ele></trkpt>
    <trkpt lat="45.4619485018038" lon="-122.6333858596881"><ele>27.5</ele></trkpt>
    <trkpt lat="45.461856048562126" lon="-122.63371841943683"><ele>27.2</ele></trkpt>
    <trkpt lat="45.461748683507274" lon="-122.63410461785475"><ele>26.8</ele></trkpt>
    <trkpt lat="45.46167511856228" lon="-122.63436923528921"><ele>26.4</ele></trkpt>
    <trkpt lat="45.461577363342585" lon="-122.63472086656475"><ele>25.7</ele></trkpt>
    <trkpt lat="45.46139775883725" lon="-122.63536691453544"><ele>24.6</ele></trkpt>
    <trkpt lat="45.461283766309876" lon="-122.63577695236185"><ele>23.9</ele></trkpt>
    <trkpt lat="45.46123505438684" lon="-122.63595217201441"><ele>23.7</ele></trkpt>
    <trkpt lat="45.46120688762862" lon="-122.6360534895006"><ele>23.6</ele></trkpt>
    <trkpt lat="45.461112114771566" lon="-122.63639439304231"><ele>23.5</ele></trkpt>
    <trkpt lat="45.46103324784855" lon="-122.63667808200361"><ele>23.2</ele></trkpt>
    <trkpt lat="45.46100176735408" lon="-122.63679131919405"><ele>23.2</ele></trkpt>
    <trkpt lat="45.46095438092554" lon="-122.6369617709649"><ele>23.1</ele></trkpt>
    <trkpt lat="45.460907325870636" lon="-122.63713103076533"><ele>23.1</ele></trkpt>
    <trkpt lat="45.4608102333982" lon="-122.63748027810003"><ele>23.3</ele></trkpt>
    <trkpt lat="45.46072937823344" lon="-122.63777111888388"><ele>23.7</ele></trkpt>
    <trkpt lat="45.460664760376346" lon="-122.63800355311687"><ele>23.9</ele></trkpt>
    <trkpt lat="45.460584236585206" lon="-122.63829320193028"><ele>24.2</ele></trkpt>
    <trkpt lat="45.460455000871036" lon="-122.63875807039628"><ele>24.7</ele></trkpt>
    <trkpt lat="45.46042252625568" lon="-122.63887488349798"><ele>24.9</ele></trkpt>
    <trkpt lat="45.460390383013944" lon="-122.63899050462928"><ele>25.0</ele></trkpt>
    <trkpt lat="45.460342002464536" lon="-122.63916453231141"><ele>25.0</ele></trkpt>
    <trkpt lat="45.46027970422283" lon="-122.63938862275143"><ele>25.1</ele></trkpt>
    <trkpt lat="45.46023264916793" lon="-122.63955788255186"><ele>25.1</ele></trkpt>
    <trkpt lat="45.46000731510219" lon="-122.64036842244127"><ele>24.9</ele></trkpt>
    <trkpt lat="45.459841959662775" lon="-122.64096321568364"><ele>24.7</ele></trkpt>
    <trkpt lat="45.45975911625625" lon="-122.64126120829005"><ele>24.7</ele></trkpt>
    <trkpt lat="45.45972564752002" lon="-122.64138159730302"><ele>24.7</ele></trkpt>
    <trkpt lat="45.45969284153104" lon="-122.64149960237516"><ele>24.6</ele></trkpt>
    <trkpt lat="45.459676272849734" lon="-122.64155920089644"><ele>24.4</ele></trkpt>
    <trkpt lat="45.45965970416842" lon="-122.64161879941773"><ele>24.3</ele></trkpt>
    <trkpt lat="45.45960999812451" lon="-122.64179759498157"><ele>23.9</ele></trkpt>
    <trkpt lat="45.4595768607619" lon="-122.64191679202412"><ele>23.7</ele></trkpt>
    <trkpt lat="45.459560292080596" lon="-122.6419763905454"><ele>23.6</ele></trkpt>
    <trkpt lat="45.45954372339929" lon="-122.64203598906667"><ele>23.5</ele></trkpt>
    <trkpt lat="45.45951091741031" lon="-122.64215399413882"><ele>23.4</ele></trkpt>
    <trkpt lat="45.45946452510266" lon="-122.6423208699984"><ele>23.4</ele></trkpt>
    <trkpt lat="45.459432381860935" lon="-122.64243649112967"><ele>23.4</ele></trkpt>
    <trkpt lat="45.459400238619196" lon="-122.64255211226096"><ele>23.4</ele></trkpt>
    <trkpt lat="45.45925509697097" lon="-122.64307419530738"><ele>23.5</ele></trkpt>
    <trkpt lat="45.459191804608395" lon="-122.64330186165867"><ele>23.7</ele></trkpt>
    <trkpt lat="45.45908543367442" lon="-122.64368448416528"><ele>24.2</ele></trkpt>
    <trkpt lat="45.459070000000004" lon="-122.64374000000001"><ele>24.3</ele></trkpt>
    <trkpt lat="45.45904285339719" lon="-122.6438587663873"><ele>24.5</ele></trkpt>
    <trkpt lat="45.459003007793676" lon="-122.64403309090268"><ele>24.9</ele></trkpt>
    <trkpt lat="45.45899000000001" lon="-122.64409"><ele>25.0</ele></trkpt>
    <trkpt lat="45.458972828198064" lon="-122.64421234908886"><ele>25.3</ele></trkpt>
    <trkpt lat="45.458955888774156" lon="-122.64433304248418"><ele>25.7</ele></trkpt>
    <trkpt lat="45.45893912580259" lon="-122.64445247865663"><ele>26.1</ele></trkpt>
    <trkpt lat="45.45892218637868" lon="-122.64457317205195"><ele>26.5</ele></trkpt>
    <trkpt lat="45.45891" lon="-122.64466000000002"><ele>26.9</ele></trkpt>
    <trkpt lat="45.45889873530993" lon="-122.64469057558736"><ele>27.1</ele></trkpt>
    <trkpt lat="45.45884" lon="-122.64485"><ele>27.9</ele></trkpt>
    <trkpt lat="45.45883845108191" lon="-122.64485240942815"><ele>27.9</ele></trkpt>
    <trkpt lat="45.45875642022461" lon="-122.64498001298395"><ele>28.1</ele></trkpt>
    <trkpt lat="45.45875" lon="-122.64499"><ele>28.1</ele></trkpt>
    <trkpt lat="45.458760000000005" lon="-122.64509000000001"><ele>28.2</ele></trkpt>
    <trkpt lat="45.459148163857684" lon="-122.64508319010777"><ele>28.8</ele></trkpt>
    <trkpt lat="45.45933" lon="-122.64508000000001"><ele>29.0</ele></trkpt>
    <trkpt lat="45.45933" lon="-122.64525026002958"><ele>29.2</ele></trkpt>
    <trkpt lat="45.45933" lon="-122.64592595460871"><ele>29.9</ele></trkpt>
    <trkpt lat="45.459329999999994" lon="-122.64623495345799"><ele>30.2</ele></trkpt>
    <trkpt lat="45.45933" lon="-122.64667088544454"><ele>30.5</ele></trkpt>
    <trkpt lat="45.45933" lon="-122.64704399193889"><ele>30.8</ele></trkpt>
    <trkpt lat="45.45933" lon="-122.64779020492762"><ele>31.3</ele></trkpt>
    <trkpt lat="45.45933" lon="-122.64803766043762"><ele>31.4</ele></trkpt>
    <trkpt lat="45.45933" lon="-122.64835050574561"><ele>31.3</ele></trkpt>
    <trkpt lat="45.45933" lon="-122.64911338672205"><ele>31.0</ele></trkpt>
    <trkpt lat="45.45933" lon="-122.64934802070304"><ele>30.9</ele></trkpt>
    <trkpt lat="45.45933" lon="-122.6494749538403"><ele>30.9</ele></trkpt>
    <trkpt lat="45.45933" lon="-122.64959932267175"><ele>30.9</ele></trkpt>
    <trkpt lat="45.45933" lon="-122.64991216797974"><ele>31.0</ele></trkpt>
    <trkpt lat="45.45933" lon="-122.65003653681119"><ele>31.0</ele></trkpt>
    <trkpt lat="45.45933" lon="-122.65021988467612"><ele>30.9</ele></trkpt>
    <trkpt lat="45.45933" lon="-122.65064940589815"><ele>30.5</ele></trkpt>
    <trkpt lat="45.45933" lon="-122.6510173837809"><ele>30.2</ele></trkpt>
    <trkpt lat="45.45933" lon="-122.6512661214438"><ele>29.9</ele></trkpt>
    <trkpt lat="45.45933" lon="-122.65170077127745"><ele>29.5</ele></trkpt>
    <trkpt lat="45.45933" lon="-122.65182514010891"><ele>29.4</ele></trkpt>
    <trkpt lat="45.45933" lon="-122.65194822678745"><ele>29.4</ele></trkpt>
    <trkpt lat="45.45933" lon="-122.6521"><ele>29.2</ele></trkpt>
    <trkpt lat="45.459329999999994" lon="-122.65210849590015"><ele>29.2</ele></trkpt>
    <trkpt lat="45.45933" lon="-122.6522354290374"><ele>29.0</ele></trkpt>
    <trkpt lat="45.45933" lon="-122.65242646981974"><ele>28.6</ele></trkpt>
    <trkpt lat="45.459329999999994" lon="-122.652553402957"><ele>28.4</ele></trkpt>
    <trkpt lat="45.459329999999994" lon="-122.65299959216675"><ele>27.7</ele></trkpt>
    <trkpt lat="45.45933" lon="-122.653126525304"><ele>27.6</ele></trkpt>
    <trkpt lat="45.45933" lon="-122.65331756608633"><ele>27.4</ele></trkpt>
    <trkpt lat="45.45933" lon="-122.65350860686868"><ele>27.2</ele></trkpt>
    <trkpt lat="45.45933" lon="-122.65369964765102"><ele>27.2</ele></trkpt>
    <trkpt lat="45.459329999999994" lon="-122.65389068843334"><ele>27.2</ele></trkpt>
    <trkpt lat="45.45933" lon="-122.65390350996236"><ele>27.1</ele></trkpt>
    <trkpt lat="45.45933" lon="-122.65399582497128"><ele>27.0</ele></trkpt>
    <trkpt lat="45.45933" lon="-122.6541676334601"><ele>26.9</ele></trkpt>
    <trkpt lat="45.45933" lon="-122.65420738020003"><ele>26.9</ele></trkpt>
    <trkpt lat="45.459329999999994" lon="-122.65430610597346"><ele>26.8</ele></trkpt>
    <trkpt lat="45.45933" lon="-122.65448688953259"><ele>26.7</ele></trkpt>
    <trkpt lat="45.45933" lon="-122.65460741190533"><ele>26.6</ele></trkpt>
    <trkpt lat="45.45933" lon="-122.65509206570214"><ele>26.2</ele></trkpt>
    <trkpt lat="45.45933" lon="-122.65527413141416"><ele>26.0</ele></trkpt>
    <trkpt lat="45.45933" lon="-122.65568057388397"><ele>25.7</ele></trkpt>
    <trkpt lat="45.459329999999994" lon="-122.65576134951677"><ele>25.6</ele></trkpt>
    <trkpt lat="45.45933" lon="-122.65614343108143"><ele>25.2</ele></trkpt>
    <trkpt lat="45.45933" lon="-122.6562703642187"><ele>25.1</ele></trkpt>
    <trkpt lat="45.45933" lon="-122.65652551264611"><ele>24.9</ele></trkpt>
    <trkpt lat="45.45933" lon="-122.65665244578337"><ele>24.8</ele></trkpt>
    <trkpt lat="45.45933" lon="-122.65699000000001"><ele>24.4</ele></trkpt>
    <trkpt lat="45.45945464700181" lon="-122.65722970577272"><ele>24.1</ele></trkpt>
    <trkpt lat="45.45946000000001" lon="-122.65724000000002"><ele>24.1</ele></trkpt>
    <trkpt lat="45.45956284916274" lon="-122.6574132196425"><ele>23.9</ele></trkpt>
    <trkpt lat="45.45965" lon="-122.65756"><ele>23.8</ele></trkpt>
    <trkpt lat="45.460040000000006" lon="-122.65812000000001"><ele>23.3</ele></trkpt>
    <trkpt lat="45.46052" lon="-122.65869"><ele>22.8</ele></trkpt>
    <trkpt lat="45.46085" lon="-122.65901000000001"><ele>22.5</ele></trkpt>
    <trkpt lat="45.46108061710082" lon="-122.65921965190984"><ele>22.3</ele></trkpt>
    <trkpt lat="45.4611101903251" lon="-122.6592465366592"><ele>22.6</ele></trkpt>
    <trkpt lat="45.461180000000006" lon="-122.65931"><ele>22.4</ele></trkpt>
    <trkpt lat="45.46137966069574" lon="-122.65945438739578"><ele>22.0</ele></trkpt>
    <trkpt lat="45.46145745961069" lon="-122.65951064875802"><ele>21.9</ele></trkpt>
    <trkpt lat="45.46153606057631" lon="-122.65956749013428"><ele>21.8</ele></trkpt>
    <trkpt lat="45.461691658406224" lon="-122.65968001285876"><ele>21.6</ele></trkpt>
    <trkpt lat="45.4618873587696" lon="-122.65982153628536"><ele>21.4</ele></trkpt>
    <trkpt lat="45.462083059132986" lon="-122.659963059712"><ele>21.1</ele></trkpt>
    <trkpt lat="45.46239505684346" lon="-122.66018868517494"><ele>20.9</ele></trkpt>
    <trkpt lat="45.46278244731688" lon="-122.66046883195797"><ele>20.4</ele></trkpt>
    <trkpt lat="45.46285944418116" lon="-122.66052451330616"><ele>20.3</ele></trkpt>
    <trkpt lat="45.462950000000006" lon="-122.66059000000001"><ele>20.3</ele></trkpt>
    <trkpt lat="45.463007584125705" lon="-122.66065169727754"><ele>20.2</ele></trkpt>
    <trkpt lat="45.463029152657015" lon="-122.66067480641823"><ele>20.1</ele></trkpt>
    <trkpt lat="45.46307947923008" lon="-122.66072872774652"><ele>20.0</ele></trkpt>
    <trkpt lat="45.46309" lon="-122.66074"><ele>20.0</ele></trkpt>
    <trkpt lat="45.463136680866214" lon="-122.66076817673907"><ele>19.9</ele></trkpt>
    <trkpt lat="45.46325262422336" lon="-122.66083816056725"><ele>19.6</ele></trkpt>
    <trkpt lat="45.46345635326521" lon="-122.66096113215107"><ele>19.2</ele></trkpt>
    <trkpt lat="45.463618673965215" lon="-122.66105910951053"><ele>18.9</ele></trkpt>
    <trkpt lat="45.46386298318207" lon="-122.66120657543422"><ele>18.6</ele></trkpt>
    <trkpt lat="45.464107292398914" lon="-122.66135404135791"><ele>18.3</ele></trkpt>
    <trkpt lat="45.46418845274893" lon="-122.66140303003765"><ele>18.2</ele></trkpt>
    <trkpt lat="45.464200000000005" lon="-122.66141"><ele>18.2</ele></trkpt>
    <trkpt lat="45.4643" lon="-122.66145000000002"><ele>18.2</ele></trkpt>
    <trkpt lat="45.464398078277675" lon="-122.66149903913885"><ele>18.1</ele></trkpt>
    <trkpt lat="45.464939519777054" lon="-122.66176975988853"><ele>17.8</ele></trkpt>
    <trkpt lat="45.46506596928082" lon="-122.66183298464041"><ele>17.7</ele></trkpt>
    <trkpt lat="45.46522" lon="-122.66191"><ele>17.5</ele></trkpt>
    <trkpt lat="45.46549421981001" lon="-122.66200341553969"><ele>17.2</ele></trkpt>
    <trkpt lat="45.46562367602667" lon="-122.6620475160091"><ele>17.1</ele></trkpt>
    <trkpt lat="45.466098640389085" lon="-122.66220931705564"><ele>16.7</ele></trkpt>
    <trkpt lat="45.46613000000001" lon="-122.66222"><ele>16.6</ele></trkpt>
    <trkpt lat="45.46649570584927" lon="-122.66229780975516"><ele>16.2</ele></trkpt>
    <trkpt lat="45.46658376380066" lon="-122.66231654548952"><ele>16.1</ele></trkpt>
    <trkpt lat="45.46660000000001" lon="-122.66232000000001"><ele>16.1</ele></trkpt>
    <trkpt lat="45.466671384418476" lon="-122.6623298461267"><ele>15.9</ele></trkpt>
    <trkpt lat="45.46698199938488" lon="-122.66237268957033"><ele>15.3</ele></trkpt>
    <trkpt lat="45.46729171920728" lon="-122.66241540954584"><ele>14.7</ele></trkpt>
    <trkpt lat="45.467470000000006" lon="-122.66244"><ele>14.4</ele></trkpt>
    <trkpt lat="45.46755798576737" lon="-122.66244"><ele>14.2</ele></trkpt>
    <trkpt lat="45.46773605159575" lon="-122.66244"><ele>14.0</ele></trkpt>
    <trkpt lat="45.468050000000005" lon="-122.66244"><ele>13.7</ele></trkpt>
    <trkpt lat="45.468225046927344" lon="-122.66242703356093"><ele>13.6</ele></trkpt>
    <trkpt lat="45.468536691563024" lon="-122.66240394877312"><ele>13.1</ele></trkpt>
    <trkpt lat="45.468590000000006" lon="-122.6624"><ele>13.1</ele></trkpt>
    <trkpt lat="45.46880028083568" lon="-122.66235327092542"><ele>12.8</ele></trkpt>
    <trkpt lat="45.46889624923222" lon="-122.66233194461506"><ele>12.8</ele></trkpt>
    <trkpt lat="45.46895000000001" lon="-122.66232000000001"><ele>12.7</ele></trkpt>
    <trkpt lat="45.46907241880843" lon="-122.66229501656971"><ele>12.6</ele></trkpt>
    <trkpt lat="45.469440000000006" lon="-122.66222"><ele>12.4</ele></trkpt>
    <trkpt lat="45.46964052012194" lon="-122.66214708359202"><ele>12.3</ele></trkpt>
    <trkpt lat="45.4697180776962" lon="-122.66211888083775"><ele>12.2</ele></trkpt>
    <trkpt lat="45.46988365004573" lon="-122.66205867271066"><ele>12.1</ele></trkpt>
    <trkpt lat="45.47009017976593" lon="-122.66198357099421"><ele>12.0</ele></trkpt>
    <trkpt lat="45.47026185214939" lon="-122.66192114467296"><ele>11.9</ele></trkpt>
    <trkpt lat="45.47043" lon="-122.66186"><ele>11.9</ele></trkpt>
    <trkpt lat="45.470434222702266" lon="-122.66185763528674"><ele>11.9</ele></trkpt>
    <trkpt lat="45.47068283738235" lon="-122.66171841106589"><ele>11.7</ele></trkpt>
    <trkpt lat="45.47088959773918" lon="-122.66160262526607"><ele>11.5</ele></trkpt>
    <trkpt lat="45.47093" lon="-122.66158000000001"><ele>11.5</ele></trkpt>
    <trkpt lat="45.47101172818324" lon="-122.66152730682926"><ele>11.5</ele></trkpt>
    <trkpt lat="45.47113300769455" lon="-122.66144911346011"><ele>11.4</ele></trkpt>
    <trkpt lat="45.471375566717185" lon="-122.66129272672183"><ele>11.5</ele></trkpt>
    <trkpt lat="45.471652542898426" lon="-122.6611141499734"><ele>11.4</ele></trkpt>
    <trkpt lat="45.47169" lon="-122.66109000000002"><ele>11.4</ele></trkpt>
    <trkpt lat="45.47189627298614" lon="-122.66097850108858"><ele>11.4</ele></trkpt>
    <trkpt lat="45.472060000000006" lon="-122.66089000000001"><ele>11.4</ele></trkpt>
    <trkpt lat="45.472213962147634" lon="-122.66078051580612"><ele>11.4</ele></trkpt>
    <trkpt lat="45.47233387825381" lon="-122.66069524213063"><ele>11.5</ele></trkpt>
    <trkpt lat="45.47251000000001" lon="-122.66057"><ele>11.5</ele></trkpt>
    <trkpt lat="45.47261020567791" lon="-122.66048371177736"><ele>11.5</ele></trkpt>
    <trkpt lat="45.47287" lon="-122.66026000000001"><ele>11.6</ele></trkpt>
    <trkpt lat="45.4728793157156" lon="-122.66025347899908"><ele>11.6</ele></trkpt>
    <trkpt lat="45.47296004617407" lon="-122.66019696767817"><ele>11.6</ele></trkpt>
    <trkpt lat="45.47324179547412" lon="-122.65999974316813"><ele>11.6</ele></trkpt>
    <trkpt lat="45.47327000000001" lon="-122.65998"><ele>11.6</ele></trkpt>
    <trkpt lat="45.47356330912589" lon="-122.65977541580794"><ele>11.6</ele></trkpt>
    <trkpt lat="45.47380486319926" lon="-122.65960693095501"><ele>11.6</ele></trkpt>
    <trkpt lat="45.474127204588136" lon="-122.65938209665293"><ele>11.5</ele></trkpt>
    <trkpt lat="45.474489939634765" lon="-122.65912908762627"><ele>11.6</ele></trkpt>
    <trkpt lat="45.474730685834984" lon="-122.65896116626783"><ele>11.5</ele></trkpt>
    <trkpt lat="45.47493265412375" lon="-122.65882029264498"><ele>11.5</ele></trkpt>
    <trkpt lat="45.47501344143926" lon="-122.65876394319582"><ele>11.4</ele></trkpt>
    <trkpt lat="45.47529458129723" lon="-122.6585678471128"><ele>11.5</ele></trkpt>
    <trkpt lat="45.475496549586" lon="-122.65842697348994"><ele>11.6</ele></trkpt>
    <trkpt lat="45.475576529028345" lon="-122.6583711875353"><ele>11.6</ele></trkpt>
    <trkpt lat="45.47573810365937" lon="-122.658258488637"><ele>11.6</ele></trkpt>
    <trkpt lat="45.47593926407498" lon="-122.65811817850863"><ele>11.6</ele></trkpt>
    <trkpt lat="45.476221211806106" lon="-122.65792151893115"><ele>11.5</ele></trkpt>
    <trkpt lat="45.476462765879475" lon="-122.6577530340782"><ele>11.5</ele></trkpt>
    <trkpt lat="45.47666392629509" lon="-122.65761272394984"><ele>11.5</ele></trkpt>
    <trkpt lat="45.47690548036846" lon="-122.65744423909689"><ele>11.6</ele></trkpt>
    <trkpt lat="45.47702585346857" lon="-122.65736027841768"><ele>11.6</ele></trkpt>
    <trkpt lat="45.47718742809958" lon="-122.65724757951938"><ele>11.6</ele></trkpt>
    <trkpt lat="45.47746856795756" lon="-122.65705148343636"><ele>11.6</ele></trkpt>
    <trkpt lat="45.47787169666194" lon="-122.65677029968514"><ele>11.5</ele></trkpt>
    <trkpt lat="45.478113250735305" lon="-122.65660181483221"><ele>11.6</ele></trkpt>
    <trkpt lat="45.478233623835415" lon="-122.65651785415298"><ele>11.6</ele></trkpt>
    <trkpt lat="45.47831441115093" lon="-122.65646150470383"><ele>11.5</ele></trkpt>
    <trkpt lat="45.478354804808674" lon="-122.65643332997927"><ele>11.4</ele></trkpt>
    <trkpt lat="45.47843559212419" lon="-122.65637698053013"><ele>11.3</ele></trkpt>
    <trkpt lat="45.478475177908784" lon="-122.65634936930005"><ele>11.1</ele></trkpt>
    <trkpt lat="45.47851557156655" lon="-122.65632119457547"><ele>10.9</ele></trkpt>
    <trkpt lat="45.478677146197555" lon="-122.65620849567718"><ele>10.0</ele></trkpt>
    <trkpt lat="45.47879751929767" lon="-122.65612453499796"><ele>9.3</ele></trkpt>
    <trkpt lat="45.47883791295543" lon="-122.6560963602734"><ele>9.2</ele></trkpt>
    <trkpt lat="45.47887830661317" lon="-122.65606818554882"><ele>9.0</ele></trkpt>
    <trkpt lat="45.47895828605552" lon="-122.65601239959418"><ele>8.7</ele></trkpt>
    <trkpt lat="45.47903664975157" lon="-122.6559577406285"><ele>9.0</ele></trkpt>
    <trkpt lat="45.47911582132077" lon="-122.65590251816833"><ele>9.2</ele></trkpt>
    <trkpt lat="45.479194992889965" lon="-122.65584729570818"><ele>9.5</ele></trkpt>
    <trkpt lat="45.47939211393981" lon="-122.65570980305228"><ele>10.3</ele></trkpt>
    <trkpt lat="45.47947047763585" lon="-122.6556551440866"><ele>10.6</ele></trkpt>
    <trkpt lat="45.47951006342045" lon="-122.65562753285651"><ele>10.7</ele></trkpt>
    <trkpt lat="45.479589234989646" lon="-122.65557231039637"><ele>10.8</ele></trkpt>
    <trkpt lat="45.479668406558844" lon="-122.6555170879362"><ele>10.9</ele></trkpt>
    <trkpt lat="45.47990430552013" lon="-122.65535254754471"><ele>11.0</ele></trkpt>
    <trkpt lat="45.48008" lon="-122.65523"><ele>11.0</ele></trkpt>
    <trkpt lat="45.48022715768887" lon="-122.65514170538668"><ele>10.9</ele></trkpt>
    <trkpt lat="45.480380000000004" lon="-122.65505000000002"><ele>10.9</ele></trkpt>
    <trkpt lat="45.48064061401742" lon="-122.65491015833213"><ele>10.9</ele></trkpt>
    <trkpt lat="45.480790000000006" lon="-122.65483"><ele>10.9</ele></trkpt>
    <trkpt lat="45.48095724492327" lon="-122.65468526881642"><ele>10.9</ele></trkpt>
    <trkpt lat="45.48114638445212" lon="-122.65452159037798"><ele>11.0</ele></trkpt>
    <trkpt lat="45.48131" lon="-122.65438"><ele>11.0</ele></trkpt>
    <trkpt lat="45.48137791101405" lon="-122.65433223208333"><ele>11.0</ele></trkpt>
    <trkpt lat="45.481775550569445" lon="-122.65405253646387"><ele>11.2</ele></trkpt>
    <trkpt lat="45.48189572966428" lon="-122.65396800371073"><ele>11.2</ele></trkpt>
    <trkpt lat="45.482336117488316" lon="-122.65365823939383"><ele>11.2</ele></trkpt>
    <trkpt lat="45.48253614712267" lon="-122.65351754058321"><ele>11.2</ele></trkpt>
    <trkpt lat="45.48273617675703" lon="-122.65337684177261"><ele>11.3</ele></trkpt>
    <trkpt lat="45.482856355851865" lon="-122.65329230901946"><ele>11.3</ele></trkpt>
    <trkpt lat="45.48309590747043" lon="-122.65312381084709"><ele>11.3</ele></trkpt>
    <trkpt lat="45.483576623849764" lon="-122.6527856798345"><ele>11.1</ele></trkpt>
    <trkpt lat="45.483670000000004" lon="-122.65272000000002"><ele>11.1</ele></trkpt>
    <trkpt lat="45.4838582288741" lon="-122.65259392216926"><ele>11.1</ele></trkpt>
    <trkpt lat="45.48430268954932" lon="-122.65229621737735"><ele>11.0</ele></trkpt>
    <trkpt lat="45.48450456912341" lon="-122.6521609961532"><ele>11.1</ele></trkpt>
    <trkpt lat="45.484730000000006" lon="-122.65201"><ele>11.0</ele></trkpt>
    <trkpt lat="45.48487385137494" lon="-122.65193589474623"><ele>11.0</ele></trkpt>
    <trkpt lat="45.485060000000004" lon="-122.65184"><ele>11.0</ele></trkpt>
    <trkpt lat="45.485127699848476" lon="-122.65181969004547"><ele>11.0</ele></trkpt>
    <trkpt lat="45.48525882981883" lon="-122.65178035105436"><ele>11.0</ele></trkpt>
    <trkpt lat="45.48538995978919" lon="-122.65174101206325"><ele>11.0</ele></trkpt>
    <trkpt lat="45.485477086413795" lon="-122.65171487407588"><ele>11.0</ele></trkpt>
    <trkpt lat="45.48556000000001" lon="-122.65169000000002"><ele>11.1</ele></trkpt>
    <trkpt lat="45.48574250056168" lon="-122.65166606550014"><ele>11.2</ele></trkpt>
    <trkpt lat="45.485964595687484" lon="-122.65163693827051"><ele>11.4</ele></trkpt>
    <trkpt lat="45.48614280911505" lon="-122.6516135660177"><ele>11.4</ele></trkpt>
    <trkpt lat="45.48617" lon="-122.65161"><ele>11.4</ele></trkpt>
    <trkpt lat="45.48635" lon="-122.65161"><ele>11.5</ele></trkpt>
    <trkpt lat="45.486409590811895" lon="-122.65161701068376"><ele>11.5</ele></trkpt>
    <trkpt lat="45.48663276425401" lon="-122.65164326638283"><ele>11.6</ele></trkpt>
    <trkpt lat="45.48669" lon="-122.65165"><ele>11.6</ele></trkpt>
    <trkpt lat="45.48685529798702" lon="-122.65167849965293"><ele>11.7</ele></trkpt>
    <trkpt lat="45.48698" lon="-122.6517"><ele>11.7</ele></trkpt>
    <trkpt lat="45.48703163360494" lon="-122.65171917819612"><ele>11.7</ele></trkpt>
    <trkpt lat="45.48733000000001" lon="-122.65183"><ele>11.8</ele></trkpt>
    <trkpt lat="45.487418669954465" lon="-122.65187694291707"><ele>11.8</ele></trkpt>
    <trkpt lat="45.487502982307916" lon="-122.6519215788689"><ele>11.8</ele></trkpt>
    <trkpt lat="45.48762860771456" lon="-122.65198808643711"><ele>11.8</ele></trkpt>
    <trkpt lat="45.48767" lon="-122.65201"><ele>11.8</ele></trkpt>
    <trkpt lat="45.48789000000001" lon="-122.65215"><ele>11.7</ele></trkpt>
    <trkpt lat="45.48791503870845" lon="-122.65216759476809"><ele>11.7</ele></trkpt>
    <trkpt lat="45.48819659126147" lon="-122.65236544250806"><ele>11.7</ele></trkpt>
    <trkpt lat="45.488260000000004" lon="-122.65241"><ele>11.7</ele></trkpt>
    <trkpt lat="45.488350121738904" lon="-122.65249561565196"><ele>11.7</ele></trkpt>
    <trkpt lat="45.48846" lon="-122.6526"><ele>11.7</ele></trkpt>
    <trkpt lat="45.488497087819326" lon="-122.65264106151426"><ele>11.7</ele></trkpt>
    <trkpt lat="45.48863846483012" lon="-122.65279758606191"><ele>11.7</ele></trkpt>
    <trkpt lat="45.48874000000001" lon="-122.65291"><ele>11.7</ele></trkpt>
    <trkpt lat="45.48887698028771" lon="-122.65308807437403"><ele>11.7</ele></trkpt>
    <trkpt lat="45.48894000000001" lon="-122.65317000000002"><ele>11.8</ele></trkpt>
    <trkpt lat="45.48903349160569" lon="-122.65331608063389"><ele>11.8</ele></trkpt>
    <trkpt lat="45.48926" lon="-122.65367"><ele>11.9</ele></trkpt>
    <trkpt lat="45.48932585030194" lon="-122.6537990665918"><ele>11.9</ele></trkpt>
    <trkpt lat="45.4894835510287" lon="-122.65410816001624"><ele>11.9</ele></trkpt>
    <trkpt lat="45.48951" lon="-122.65416"><ele>11.9</ele></trkpt>
    <trkpt lat="45.489607908464066" lon="-122.65437372701302"><ele>11.9</ele></trkpt>
    <trkpt lat="45.489681209237034" lon="-122.65453373723693"><ele>11.9</ele></trkpt>
    <trkpt lat="45.48980321320815" lon="-122.65480006297875"><ele>11.9</ele></trkpt>
    <trkpt lat="45.48999851795223" lon="-122.65522639894448"><ele>12.0</ele></trkpt>
    <trkpt lat="45.49014511949816" lon="-122.65554641939232"><ele>12.0</ele></trkpt>
    <trkpt lat="45.49021842027113" lon="-122.65570642961623"><ele>12.1</ele></trkpt>
    <trkpt lat="45.49033000000001" lon="-122.65595"><ele>12.2</ele></trkpt>
    <trkpt lat="45.490400191183475" lon="-122.65606893506087"><ele>12.3</ele></trkpt>
    <trkpt lat="45.4904575304989" lon="-122.65616609334538"><ele>12.3</ele></trkpt>
    <trkpt lat="45.49054382906455" lon="-122.65631232147048"><ele>12.4</ele></trkpt>
    <trkpt lat="45.49062954844519" lon="-122.6564575681988"><ele>12.4</ele></trkpt>
    <trkpt lat="45.49069" lon="-122.65656000000001"><ele>12.5</ele></trkpt>
    <trkpt lat="45.49071703740374" lon="-122.65660055610563"><ele>12.5</ele></trkpt>
    <trkpt lat="45.49077839235497" lon="-122.65669258853245"><ele>12.5</ele></trkpt>
    <trkpt lat="45.49093146985955" lon="-122.65692220478931"><ele>12.5</ele></trkpt>
    <trkpt lat="45.49102381215987" lon="-122.6570607182398"><ele>12.5</ele></trkpt>
    <trkpt lat="45.49103" lon="-122.65707"><ele>12.5</ele></trkpt>
    <trkpt lat="45.491264348869976" lon="-122.65734214707481"><ele>12.6</ele></trkpt>
    <trkpt lat="45.49134" lon="-122.65743"><ele>12.6</ele></trkpt>
    <trkpt lat="45.49161898269048" lon="-122.65772366598998"><ele>12.6</ele></trkpt>
    <trkpt lat="45.49172" lon="-122.65783"><ele>12.6</ele></trkpt>
    <trkpt lat="45.491744724217156" lon="-122.65784947032101"><ele>12.6</ele></trkpt>
    <trkpt lat="45.492520000000006" lon="-122.65846"><ele>12.8</ele></trkpt>
    <trkpt lat="45.49277000000001" lon="-122.65863000000002"><ele>12.8</ele></trkpt>
    <trkpt lat="45.493300000000005" lon="-122.65886"><ele>12.9</ele></trkpt>
    <trkpt lat="45.493680000000005" lon="-122.659"><ele>12.9</ele></trkpt>
    <trkpt lat="45.49618764616585" lon="-122.65968440124614"><ele>13.3</ele></trkpt>
    <trkpt lat="45.49628127632403" lon="-122.65970995532861"><ele>13.7</ele></trkpt>
    <trkpt lat="45.49636960666192" lon="-122.65973406295359"><ele>13.7</ele></trkpt>
    <trkpt lat="45.496676112934416" lon="-122.65981771641222"><ele>13.7</ele></trkpt>
    <trkpt lat="45.49685189030683" lon="-122.65986569058593"><ele>13.8</ele></trkpt>
    <trkpt lat="45.497377455817315" lon="-122.6600091309545"><ele>13.9</ele></trkpt>
    <trkpt lat="45.4975081847174" lon="-122.66004481023947"><ele>13.9</ele></trkpt>
    <trkpt lat="45.49768307878643" lon="-122.66009254333692"><ele>13.9</ele></trkpt>
    <trkpt lat="45.4979445365866" lon="-122.66016390190683"><ele>14.1</ele></trkpt>
    <trkpt lat="45.49824927625234" lon="-122.66024707321297"><ele>14.1</ele></trkpt>
    <trkpt lat="45.49826" lon="-122.66025"><ele>14.1</ele></trkpt>
    <trkpt lat="45.498467193311086" lon="-122.66030852024817"><ele>14.2</ele></trkpt>
    <trkpt lat="45.498684214786735" lon="-122.66036981639016"><ele>14.3</ele></trkpt>
    <trkpt lat="45.498814780552586" lon="-122.66040669374388"><ele>14.3</ele></trkpt>
    <trkpt lat="45.499120022140296" lon="-122.66049290701675"><ele>14.4</ele></trkpt>
    <trkpt lat="45.49942438152688" lon="-122.6605788711183"><ele>14.4</ele></trkpt>
    <trkpt lat="45.49959817514763" lon="-122.66062795786613"><ele>14.4</ele></trkpt>
    <trkpt lat="45.49977196876838" lon="-122.66067704461398"><ele>14.4</ele></trkpt>
    <trkpt lat="45.50003310030006" lon="-122.6607507993214"><ele>14.4</ele></trkpt>
    <trkpt lat="45.500206893920804" lon="-122.66079988606926"><ele>14.4</ele></trkpt>
    <trkpt lat="45.50025100397684" lon="-122.66081234463469"><ele>14.4</ele></trkpt>
    <trkpt lat="45.50033745968665" lon="-122.66083676342296"><ele>14.5</ele></trkpt>
    <trkpt lat="45.500598591218335" lon="-122.66091051813038"><ele>14.8</ele></trkpt>
    <trkpt lat="45.50088" lon="-122.66099000000001"><ele>15.1</ele></trkpt>
    <trkpt lat="45.500988735762924" lon="-122.66103077591112"><ele>15.2</ele></trkpt>
    <trkpt lat="45.501073974262084" lon="-122.66106274034829"><ele>15.2</ele></trkpt>
    <trkpt lat="45.501202701791414" lon="-122.66111101317178"><ele>15.2</ele></trkpt>
    <trkpt lat="45.50128" lon="-122.66114"><ele>15.2</ele></trkpt>
    <trkpt lat="45.50141467490102" lon="-122.6612051652747"><ele>15.2</ele></trkpt>
    <trkpt lat="45.50166677130531" lon="-122.66132714740581"><ele>15.3</ele></trkpt>
    <trkpt lat="45.5017919678304" lon="-122.66138772636955"><ele>15.4</ele></trkpt>
    <trkpt lat="45.50198615019586" lon="-122.66148168557865"><ele>15.4</ele></trkpt>
    <trkpt lat="45.50207046622297" lon="-122.66152248365628"><ele>15.3</ele></trkpt>
    <trkpt lat="45.502210000000005" lon="-122.66159"><ele>15.2</ele></trkpt>
    <trkpt lat="45.50247765710071" lon="-122.66170204250727"><ele>15.0</ele></trkpt>
    <trkpt lat="45.50260019575954" lon="-122.6617533377598"><ele>15.0</ele></trkpt>
    <trkpt lat="45.50264000000001" lon="-122.66177"><ele>15.0</ele></trkpt>
    <trkpt lat="45.50276758943484" lon="-122.66179166613045"><ele>15.0</ele></trkpt>
    <trkpt lat="45.502972090980414" lon="-122.661826392808"><ele>14.8</ele></trkpt>
    <trkpt lat="45.503135513612904" lon="-122.66185414382106"><ele>14.7</ele></trkpt>
    <trkpt lat="45.503170000000004" lon="-122.66186"><ele>14.6</ele></trkpt>
    <trkpt lat="45.50356120955421" lon="-122.66190445563117"><ele>14.3</ele></trkpt>
    <trkpt lat="45.50361" lon="-122.66191"><ele>14.3</ele></trkpt>
    <trkpt lat="45.50364635144576" lon="-122.66190545606929"><ele>14.3</ele></trkpt>
    <trkpt lat="45.50377356795218" lon="-122.661889554006"><ele>14.3</ele></trkpt>
    <trkpt lat="45.50385000000001" lon="-122.66188000000001"><ele>14.2</ele></trkpt>
    <trkpt lat="45.50405000000001" lon="-122.66191"><ele>14.1</ele></trkpt>
    <trkpt lat="45.50429375139638" lon="-122.66191532789938"><ele>14.0</ele></trkpt>
    <trkpt lat="45.504380975431815" lon="-122.66191723443568"><ele>13.9</ele></trkpt>
    <trkpt lat="45.504510462659695" lon="-122.6619200647576"><ele>13.9</ele></trkpt>
    <trkpt lat="45.50480360735612" lon="-122.66192647229195"><ele>13.8</ele></trkpt>
    <trkpt lat="45.504982551511304" lon="-122.6619303836396"><ele>13.6</ele></trkpt>
    <trkpt lat="45.505342238255395" lon="-122.66193824564493"><ele>13.0</ele></trkpt>
    <trkpt lat="45.505470826266404" lon="-122.66194105631183"><ele>12.8</ele></trkpt>
    <trkpt lat="45.505557151084986" lon="-122.66194294319313"><ele>12.6</ele></trkpt>
    <trkpt lat="45.505686638312866" lon="-122.66194577351504"><ele>12.4</ele></trkpt>
    <trkpt lat="45.5057738623483" lon="-122.66194768005134"><ele>12.2</ele></trkpt>
    <trkpt lat="45.50586018716689" lon="-122.6619495669326"><ele>11.9</ele></trkpt>
    <trkpt lat="45.505880000000005" lon="-122.66195"><ele>11.8</ele></trkpt>
    <trkpt lat="45.50588074173218" lon="-122.66210650548766"><ele>11.4</ele></trkpt>
    <trkpt lat="45.50588103972265" lon="-122.66216938147892"><ele>11.2</ele></trkpt>
    <trkpt lat="45.5058813316317" lon="-122.6622309742867"><ele>11.1</ele></trkpt>
    <trkpt lat="45.50588162354074" lon="-122.6622925670945"><ele>11.0</ele></trkpt>
    <trkpt lat="45.50588191544978" lon="-122.66235415990226"><ele>11.0</ele></trkpt>
    <trkpt lat="45.50588220735882" lon="-122.66241575271005"><ele>11.0</ele></trkpt>
    <trkpt lat="45.5058827911769" lon="-122.66253893832561"><ele>11.1</ele></trkpt>
    <trkpt lat="45.50588338107642" lon="-122.66266340712465"><ele>11.1</ele></trkpt>
    <trkpt lat="45.5058836790669" lon="-122.66272628311592"><ele>11.1</ele></trkpt>
    <trkpt lat="45.50588397705739" lon="-122.6627891591072"><ele>11.2</ele></trkpt>
    <trkpt lat="45.50588427504786" lon="-122.66285203509848"><ele>11.4</ele></trkpt>
    <trkpt lat="45.505884573038344" lon="-122.66291491108976"><ele>11.6</ele></trkpt>
    <trkpt lat="45.50588516901931" lon="-122.66304066307231"><ele>12.0</ele></trkpt>
    <trkpt lat="45.505885765000265" lon="-122.66316641505485"><ele>12.4</ele></trkpt>
    <trkpt lat="45.505887248871225" lon="-122.66347951182773"><ele>13.7</ele></trkpt>
    <trkpt lat="45.50588784485218" lon="-122.66360526381027"><ele>14.1</ele></trkpt>
    <trkpt lat="45.50588844083315" lon="-122.66373101579282"><ele>14.4</ele></trkpt>
    <trkpt lat="45.50588873882363" lon="-122.6637938917841"><ele>14.5</ele></trkpt>
    <trkpt lat="45.50588963279506" lon="-122.66398251975792"><ele>14.9</ele></trkpt>
    <trkpt lat="45.50589" lon="-122.66406"><ele>14.9</ele></trkpt>
    <trkpt lat="45.50590069689358" lon="-122.66428998321193"><ele>15.0</ele></trkpt>
    <trkpt lat="45.50591000000001" lon="-122.66449000000001"><ele>15.1</ele></trkpt>
    <trkpt lat="45.50602509376044" lon="-122.66453543174754"><ele>15.2</ele></trkpt>
    <trkpt lat="45.50615077482227" lon="-122.664585042693"><ele>15.3</ele></trkpt>
    <trkpt lat="45.50629000000001" lon="-122.66464"><ele>15.5</ele></trkpt>
    <trkpt lat="45.506291690843874" lon="-122.66464185992827"><ele>15.5</ele></trkpt>
    <trkpt lat="45.50633157656241" lon="-122.66468573421865"><ele>13.7</ele></trkpt>
    <trkpt lat="45.50643698881855" lon="-122.6648016877004"><ele>16.2</ele></trkpt>
    <trkpt lat="45.50649000000001" lon="-122.66486"><ele>16.5</ele></trkpt>
    <trkpt lat="45.50655142948893" lon="-122.66489839343058"><ele>16.8</ele></trkpt>
    <trkpt lat="45.50657" lon="-122.66491"><ele>16.9</ele></trkpt>
    <trkpt lat="45.5065990066499" lon="-122.66482104627367"><ele>17.2</ele></trkpt>
    <trkpt lat="45.50669309475921" lon="-122.6645325094051"><ele>18.4</ele></trkpt>
    <trkpt lat="45.50672" lon="-122.66445000000002"><ele>18.7</ele></trkpt>
    <trkpt lat="45.506746882434925" lon="-122.66403332225875"><ele>20.1</ele></trkpt>
    <trkpt lat="45.50677548932677" lon="-122.66358991543514"><ele>21.7</ele></trkpt>
    <trkpt lat="45.506780000000006" lon="-122.66352"><ele>21.9</ele></trkpt>
    <trkpt lat="45.50673336313039" lon="-122.66362104655083"><ele>22.4</ele></trkpt>
    <trkpt lat="45.50672" lon="-122.66365"><ele>22.5</ele></trkpt>
    <trkpt lat="45.506660000000004" lon="-122.66392"><ele>23.4</ele></trkpt>
    <trkpt lat="45.506653647910554" lon="-122.66404704178903"><ele>23.8</ele></trkpt>
    <trkpt lat="45.506640912140774" lon="-122.66430175718469"><ele>24.6</ele></trkpt>
  </trkseg></trk>
</gpx>
