<?xml version="1.0" encoding="UTF-8"?>
<gpx version="1.1" creator="h2c-tracker" xmlns="http://www.topografix.com/GPX/1/1">
  <metadata><name>Hood to Coast 2026 — Leg 18 (4.17 mi)</name><desc>Derived from the official Hood to Coast Strava route (simplified, 370 points, ~4.17 mi). Verify against the official leg map PDF.</desc></metadata>
  <wpt lat="45.819094592155984" lon="-122.85074435618814"><name>Exchange 17 — Warren Baptist Church</name></wpt>
  <wpt lat="45.8507072732355" lon="-122.87240902596128"><name>Exchange 18 — Columbia County Fairgrounds</name></wpt>
  <trk><name>HTC Leg 18</name><trkseg>
    <trkpt lat="45.819094592155984" lon="-122.85074435618814"><ele>33.6</ele></trkpt>
    <trkpt lat="45.81909749326947" lon="-122.85111984316187"><ele>33.4</ele></trkpt>
    <trkpt lat="45.819098859085784" lon="-122.85129661881615"><ele>33.4</ele></trkpt>
    <trkpt lat="45.819099766306834" lon="-122.85141403914128"><ele>33.4</ele></trkpt>
    <trkpt lat="45.81910068349735" lon="-122.85153274979962"><ele>33.5</ele></trkpt>
    <trkpt lat="45.81910160068787" lon="-122.85165146045799"><ele>33.6</ele></trkpt>
    <trkpt lat="45.819103564671906" lon="-122.85190565610685"><ele>34.1</ele></trkpt>
    <trkpt lat="45.819104551648664" lon="-122.8520333990979"><ele>34.2</ele></trkpt>
    <trkpt lat="45.819105538625415" lon="-122.85216114208896"><ele>34.4</ele></trkpt>
    <trkpt lat="45.819107512578924" lon="-122.85241662807108"><ele>34.5</ele></trkpt>
    <trkpt lat="45.819108479616744" lon="-122.85254179039565"><ele>34.7</ele></trkpt>
    <trkpt lat="45.819108968120396" lon="-122.85260501672457"><ele>34.9</ele></trkpt>
    <trkpt lat="45.81911043363133" lon="-122.85279469571128"><ele>35.3</ele></trkpt>
    <trkpt lat="45.819114331691026" lon="-122.8532992160093"><ele>36.5</ele></trkpt>
    <trkpt lat="45.819115308698315" lon="-122.8534256686671"><ele>36.8</ele></trkpt>
    <trkpt lat="45.81911676423979" lon="-122.85361405732058"><ele>37.3</ele></trkpt>
    <trkpt lat="45.81911920675802" lon="-122.85393018896514"><ele>38.0</ele></trkpt>
    <trkpt lat="45.81912117074205" lon="-122.85418438461397"><ele>38.6</ele></trkpt>
    <trkpt lat="45.819122636252985" lon="-122.85437406360072"><ele>39.1</ele></trkpt>
    <trkpt lat="45.81912410176392" lon="-122.85456374258743"><ele>39.5</ele></trkpt>
    <trkpt lat="45.819127042755255" lon="-122.85494439089413"><ele>40.2</ele></trkpt>
    <trkpt lat="45.81912948527348" lon="-122.85526052253866"><ele>40.8</ele></trkpt>
    <trkpt lat="45.8191319277917" lon="-122.8555766541832"><ele>41.3</ele></trkpt>
    <trkpt lat="45.819133403272104" lon="-122.85576762350316"><ele>41.5</ele></trkpt>
    <trkpt lat="45.81913535728668" lon="-122.85602052881879"><ele>41.7</ele></trkpt>
    <trkpt lat="45.81913974385002" lon="-122.85658827544572"><ele>42.2</ele></trkpt>
    <trkpt lat="45.81914504760388" lon="-122.85727473273099"><ele>42.9</ele></trkpt>
    <trkpt lat="45.81914601464172" lon="-122.85739989505555"><ele>43.0</ele></trkpt>
    <trkpt lat="45.81914746021373" lon="-122.8575869933758"><ele>43.1</ele></trkpt>
    <trkpt lat="45.81914943416723" lon="-122.85784247935791"><ele>43.1</ele></trkpt>
    <trkpt lat="45.81915092958655" lon="-122.85803602934436"><ele>43.3</ele></trkpt>
    <trkpt lat="45.81915241503641" lon="-122.85822828899757"><ele>43.5</ele></trkpt>
    <trkpt lat="45.81915734992017" lon="-122.85886700395284"><ele>44.2</ele></trkpt>
    <trkpt lat="45.819160000000004" lon="-122.85921"><ele>44.6</ele></trkpt>
    <trkpt lat="45.819160000000004" lon="-122.85925023542364"><ele>44.6</ele></trkpt>
    <trkpt lat="45.819160000000004" lon="-122.85944121659873"><ele>44.8</ele></trkpt>
    <trkpt lat="45.819160000000004" lon="-122.85956896751992"><ele>44.9</ele></trkpt>
    <trkpt lat="45.819160000000004" lon="-122.85986576258932"><ele>45.2</ele></trkpt>
    <trkpt lat="45.81916" lon="-122.86005029169769"><ele>45.3</ele></trkpt>
    <trkpt lat="45.819160000000004" lon="-122.86055871455572"><ele>45.9</ele></trkpt>
    <trkpt lat="45.819160000000004" lon="-122.86100906881322"><ele>46.7</ele></trkpt>
    <trkpt lat="45.819160000000004" lon="-122.86118"><ele>46.9</ele></trkpt>
    <trkpt lat="45.81916037427448" lon="-122.8612013336452"><ele>46.9</ele></trkpt>
    <trkpt lat="45.819163769023945" lon="-122.86139483436429"><ele>47.1</ele></trkpt>
    <trkpt lat="45.81917000000001" lon="-122.86175000000001"><ele>47.4</ele></trkpt>
    <trkpt lat="45.81917083540108" lon="-122.86184506864198"><ele>47.4</ele></trkpt>
    <trkpt lat="45.819173091745604" lon="-122.86210184064909"><ele>47.7</ele></trkpt>
    <trkpt lat="45.819177559081" lon="-122.86261022341694"><ele>47.8</ele></trkpt>
    <trkpt lat="45.81917962267248" lon="-122.86284506012696"><ele>47.8</ele></trkpt>
    <trkpt lat="45.81918169760237" lon="-122.86308118714857"><ele>47.7</ele></trkpt>
    <trkpt lat="45.81918327364201" lon="-122.86326054046006"><ele>47.5</ele></trkpt>
    <trkpt lat="45.81918432811458" lon="-122.86338053943827"><ele>47.3</ele></trkpt>
    <trkpt lat="45.81918538258714" lon="-122.86350053841645"><ele>47.1</ele></trkpt>
    <trkpt lat="45.81918643705971" lon="-122.86362053739465"><ele>46.8</ele></trkpt>
    <trkpt lat="45.819188534666424" lon="-122.86385924503945"><ele>46.1</ele></trkpt>
    <trkpt lat="45.819190768334124" lon="-122.86411343642337"><ele>45.5</ele></trkpt>
    <trkpt lat="45.819193002001825" lon="-122.8643676278073"><ele>44.7</ele></trkpt>
    <trkpt lat="45.81919634683416" lon="-122.86474826972739"><ele>43.3</ele></trkpt>
    <trkpt lat="45.819197469337226" lon="-122.86487601057513"><ele>42.9</ele></trkpt>
    <trkpt lat="45.819198024919544" lon="-122.86493923584321"><ele>42.7</ele></trkpt>
    <trkpt lat="45.819199147422594" lon="-122.86506697669097"><ele>42.4</ele></trkpt>
    <trkpt lat="45.81920082550797" lon="-122.86525794280682"><ele>42.0</ele></trkpt>
    <trkpt lat="45.81920361475799" lon="-122.86557535945882"><ele>41.4</ele></trkpt>
    <trkpt lat="45.81920529284337" lon="-122.86576632557464"><ele>41.0</ele></trkpt>
    <trkpt lat="45.819206415346414" lon="-122.86589406642241"><ele>40.8</ele></trkpt>
    <trkpt lat="45.81920752651106" lon="-122.86602051695857"><ele>40.7</ele></trkpt>
    <trkpt lat="45.81920807075497" lon="-122.86608245191506"><ele>40.7</ele></trkpt>
    <trkpt lat="45.819208649014115" lon="-122.86614825780633"><ele>40.7</ele></trkpt>
    <trkpt lat="45.81920976017876" lon="-122.8662747083425"><ele>40.7</ele></trkpt>
    <trkpt lat="45.81921144960255" lon="-122.86646696476993"><ele>41.0</ele></trkpt>
    <trkpt lat="45.819212572105606" lon="-122.86659470561769"><ele>41.2</ele></trkpt>
    <trkpt lat="45.81921370594708" lon="-122.86672373677703"><ele>41.5</ele></trkpt>
    <trkpt lat="45.81921427286781" lon="-122.86678825235671"><ele>41.6</ele></trkpt>
    <trkpt lat="45.81921539537086" lon="-122.86691599320447"><ele>42.0</ele></trkpt>
    <trkpt lat="45.8192159622916" lon="-122.86698050878414"><ele>42.2</ele></trkpt>
    <trkpt lat="45.81921709613307" lon="-122.86710953994348"><ele>42.8</ele></trkpt>
    <trkpt lat="45.819219352477596" lon="-122.8673663119506"><ele>43.8</ele></trkpt>
    <trkpt lat="45.81922" lon="-122.86744000000002"><ele>44.1</ele></trkpt>
    <trkpt lat="45.81922108144523" lon="-122.86768116228525"><ele>45.0</ele></trkpt>
    <trkpt lat="45.81922166009462" lon="-122.86781020109923"><ele>45.3</ele></trkpt>
    <trkpt lat="45.81922244705779" lon="-122.86798569388624"><ele>46.0</ele></trkpt>
    <trkpt lat="45.81922297362873" lon="-122.86810311920698"><ele>46.4</ele></trkpt>
    <trkpt lat="45.81922350019968" lon="-122.86822054452769"><ele>46.8</ele></trkpt>
    <trkpt lat="45.81922402677063" lon="-122.86833796984841"><ele>47.1</ele></trkpt>
    <trkpt lat="45.81922514356395" lon="-122.86858701475938"><ele>47.7</ele></trkpt>
    <trkpt lat="45.81922710518538" lon="-122.86902445633879"><ele>48.7</ele></trkpt>
    <trkpt lat="45.81922899736888" lon="-122.8694464132605"><ele>49.6</ele></trkpt>
    <trkpt lat="45.819229766972576" lon="-122.8696180348831"><ele>49.8</ele></trkpt>
    <trkpt lat="45.819230000000005" lon="-122.86967000000001"><ele>49.9</ele></trkpt>
    <trkpt lat="45.819184362169224" lon="-122.870308929631"><ele>51.0</ele></trkpt>
    <trkpt lat="45.81917546803432" lon="-122.8704334475196"><ele>51.1</ele></trkpt>
    <trkpt lat="45.81917097512081" lon="-122.87049634830869"><ele>51.2</ele></trkpt>
    <trkpt lat="45.819162080985905" lon="-122.87062086619731"><ele>51.3</ele></trkpt>
    <trkpt lat="45.819160000000004" lon="-122.87065000000001"><ele>51.2</ele></trkpt>
    <trkpt lat="45.81915875438898" lon="-122.87074715766"><ele>51.2</ele></trkpt>
    <trkpt lat="45.81915633940869" lon="-122.87093552612171"><ele>51.0</ele></trkpt>
    <trkpt lat="45.8191547349355" lon="-122.87106067503122"><ele>50.8</ele></trkpt>
    <trkpt lat="45.81915311392134" lon="-122.87118711413565"><ele>50.6</ele></trkpt>
    <trkpt lat="45.8191515259891" lon="-122.8713109728502"><ele>50.3</ele></trkpt>
    <trkpt lat="45.81915" lon="-122.87143"><ele>50.1</ele></trkpt>
    <trkpt lat="45.81914998652694" lon="-122.87143870359884"><ele>50.0</ele></trkpt>
    <trkpt lat="45.81914959900448" lon="-122.87168904310286"><ele>49.3</ele></trkpt>
    <trkpt lat="45.81914930736388" lon="-122.87187744293576"><ele>48.6</ele></trkpt>
    <trkpt lat="45.81914881796696" lon="-122.8721935933403"><ele>47.2</ele></trkpt>
    <trkpt lat="45.81914842045682" lon="-122.8724503848934"><ele>46.1</ele></trkpt>
    <trkpt lat="45.81914822270052" lon="-122.87257813546503"><ele>45.5</ele></trkpt>
    <trkpt lat="45.8191481228236" lon="-122.87264265595576"><ele>45.3</ele></trkpt>
    <trkpt lat="45.81914792306976" lon="-122.87277169693719"><ele>45.0</ele></trkpt>
    <trkpt lat="45.81914782519038" lon="-122.8728349270181"><ele>44.8</ele></trkpt>
    <trkpt lat="45.81914772531346" lon="-122.87289944750883"><ele>44.7</ele></trkpt>
    <trkpt lat="45.81914762543653" lon="-122.87296396799954"><ele>44.6</ele></trkpt>
    <trkpt lat="45.819147525559615" lon="-122.87302848849028"><ele>44.6</ele></trkpt>
    <trkpt lat="45.819147227926386" lon="-122.87322075955262"><ele>44.6</ele></trkpt>
    <trkpt lat="45.819146930293165" lon="-122.87341303061498"><ele>44.7</ele></trkpt>
    <trkpt lat="45.819146732536865" lon="-122.87354078118662"><ele>44.8</ele></trkpt>
    <trkpt lat="45.81914663265995" lon="-122.87360530167734"><ele>44.9</ele></trkpt>
    <trkpt lat="45.81914653278302" lon="-122.87366982216807"><ele>45.0</ele></trkpt>
    <trkpt lat="45.8191464329061" lon="-122.87373434265879"><ele>45.1</ele></trkpt>
    <trkpt lat="45.81914633302918" lon="-122.87379886314952"><ele>45.3</ele></trkpt>
    <trkpt lat="45.81914613327534" lon="-122.87392790413097"><ele>45.7</ele></trkpt>
    <trkpt lat="45.8191459335215" lon="-122.87405694511241"><ele>46.2</ele></trkpt>
    <trkpt lat="45.81914577172088" lon="-122.87416146830736"><ele>46.5</ele></trkpt>
    <trkpt lat="45.81914552602367" lon="-122.87432018871456"><ele>47.0</ele></trkpt>
    <trkpt lat="45.81914487083107" lon="-122.8747434431337"><ele>49.3</ele></trkpt>
    <trkpt lat="45.81914458917815" lon="-122.87492539091755"><ele>50.3</ele></trkpt>
    <trkpt lat="45.81914440340708" lon="-122.8750453990303"><ele>50.9</ele></trkpt>
    <trkpt lat="45.81914429154493" lon="-122.87511766197991"><ele>51.0</ele></trkpt>
    <trkpt lat="45.81914401388708" lon="-122.87529702894412"><ele>51.4</ele></trkpt>
    <trkpt lat="45.81914382811601" lon="-122.87541703705686"><ele>51.7</ele></trkpt>
    <trkpt lat="45.81914355045817" lon="-122.87559640402108"><ele>52.0</ele></trkpt>
    <trkpt lat="45.8191431149948" lon="-122.87587771336064"><ele>52.5</ele></trkpt>
    <trkpt lat="45.81914252771851" lon="-122.87625709384608"><ele>53.0</ele></trkpt>
    <trkpt lat="45.819142040319136" lon="-122.87657195384082"><ele>53.4</ele></trkpt>
    <trkpt lat="45.81914164880161" lon="-122.87682487416446"><ele>53.7</ele></trkpt>
    <trkpt lat="45.81914125129146" lon="-122.87708166571753"><ele>54.0</ele></trkpt>
    <trkpt lat="45.81914095365824" lon="-122.8772739367799"><ele>54.2</ele></trkpt>
    <trkpt lat="45.819140000000004" lon="-122.87789000000001"><ele>54.6</ele></trkpt>
    <trkpt lat="45.81915851099009" lon="-122.87788996658666"><ele>54.6</ele></trkpt>
    <trkpt lat="45.81950744779185" lon="-122.87788933673686"><ele>55.0</ele></trkpt>
    <trkpt lat="45.819716090415575" lon="-122.8778889601256"><ele>55.4</ele></trkpt>
    <trkpt lat="45.8198797669566" lon="-122.8778886646806"><ele>55.6</ele></trkpt>
    <trkpt lat="45.820083912972066" lon="-122.87788829618597"><ele>55.9</ele></trkpt>
    <trkpt lat="45.82030784406391" lon="-122.87788789197822"><ele>56.3</ele></trkpt>
    <trkpt lat="45.820621707321166" lon="-122.87788732543804"><ele>56.7</ele></trkpt>
    <trkpt lat="45.820889705174054" lon="-122.87788684168741"><ele>57.0</ele></trkpt>
    <trkpt lat="45.82115950167026" lon="-122.87788635469013"><ele>57.5</ele></trkpt>
    <trkpt lat="45.821932018971054" lon="-122.87788496025456"><ele>58.4</ele></trkpt>
    <trkpt lat="45.82205522603766" lon="-122.87788473785915"><ele>58.6</ele></trkpt>
    <trkpt lat="45.82231782796063" lon="-122.87788426384844"><ele>58.9</ele></trkpt>
    <trkpt lat="45.822707234236816" lon="-122.87788356094903"><ele>59.4</ele></trkpt>
    <trkpt lat="45.823150599812244" lon="-122.87788276065017"><ele>60.0</ele></trkpt>
    <trkpt lat="45.82337273226078" lon="-122.87788235968907"><ele>60.5</ele></trkpt>
    <trkpt lat="45.82359486470932" lon="-122.87788195872797"><ele>60.8</ele></trkpt>
    <trkpt lat="45.823995062845356" lon="-122.87788123634866"><ele>61.5</ele></trkpt>
    <trkpt lat="45.8242171952939" lon="-122.87788083538756"><ele>62.0</ele></trkpt>
    <trkpt lat="45.82448339450348" lon="-122.87788035488357"><ele>62.5</ele></trkpt>
    <trkpt lat="45.824661460190974" lon="-122.87788003346536"><ele>62.9</ele></trkpt>
    <trkpt lat="45.82468" lon="-122.87788"><ele>62.9</ele></trkpt>
    <trkpt lat="45.82483861882274" lon="-122.87787773401682"><ele>63.3</ele></trkpt>
    <trkpt lat="45.825014877272764" lon="-122.87787521603897"><ele>63.6</ele></trkpt>
    <trkpt lat="45.825191135722775" lon="-122.87787269806111"><ele>63.9</ele></trkpt>
    <trkpt lat="45.82538" lon="-122.87787000000002"><ele>64.4</ele></trkpt>
    <trkpt lat="45.82544203730452" lon="-122.87787000000002"><ele>64.5</ele></trkpt>
    <trkpt lat="45.825525674284506" lon="-122.87787"><ele>64.7</ele></trkpt>
    <trkpt lat="45.825650680093325" lon="-122.87787000000002"><ele>64.9</ele></trkpt>
    <trkpt lat="45.825920476802985" lon="-122.87787"><ele>65.4</ele></trkpt>
    <trkpt lat="45.82609494534191" lon="-122.87787"><ele>65.8</ele></trkpt>
    <trkpt lat="45.826530000000005" lon="-122.87787000000002"><ele>66.8</ele></trkpt>
    <trkpt lat="45.82657693151562" lon="-122.87787312876773"><ele>66.9</ele></trkpt>
    <trkpt lat="45.826796129774124" lon="-122.87788774198495"><ele>67.4</ele></trkpt>
    <trkpt lat="45.82697130871022" lon="-122.87789942058069"><ele>67.9</ele></trkpt>
    <trkpt lat="45.826980000000006" lon="-122.87790000000001"><ele>67.9</ele></trkpt>
    <trkpt lat="45.82709810379047" lon="-122.87790000000001"><ele>68.1</ele></trkpt>
    <trkpt lat="45.82722580756637" lon="-122.87790000000001"><ele>68.4</ele></trkpt>
    <trkpt lat="45.82739577949346" lon="-122.87790000000001"><ele>68.6</ele></trkpt>
    <trkpt lat="45.82748481240765" lon="-122.87790000000001"><ele>68.6</ele></trkpt>
    <trkpt lat="45.82752977852593" lon="-122.87790000000001"><ele>68.6</ele></trkpt>
    <trkpt lat="45.82761881144012" lon="-122.87790000000001"><ele>68.5</ele></trkpt>
    <trkpt lat="45.8276637775584" lon="-122.87790000000001"><ele>68.4</ele></trkpt>
    <trkpt lat="45.82770874367667" lon="-122.87790000000001"><ele>68.3</ele></trkpt>
    <trkpt lat="45.82775" lon="-122.87790000000001"><ele>68.2</ele></trkpt>
    <trkpt lat="45.82775281043323" lon="-122.87790002134507"><ele>68.2</ele></trkpt>
    <trkpt lat="45.827842741410464" lon="-122.87790070436516"><ele>67.9</ele></trkpt>
    <trkpt lat="45.82793177307794" lon="-122.87790138055503"><ele>67.5</ele></trkpt>
    <trkpt lat="45.82802170405519" lon="-122.8779020635751"><ele>67.2</ele></trkpt>
    <trkpt lat="45.82811073572265" lon="-122.87790273976499"><ele>66.7</ele></trkpt>
    <trkpt lat="45.828334663856" lon="-122.877904440485"><ele>65.6</ele></trkpt>
    <trkpt lat="45.82851362650071" lon="-122.87790579969496"><ele>64.8</ele></trkpt>
    <trkpt lat="45.828647623656806" lon="-122.87790681739487"><ele>64.1</ele></trkpt>
    <trkpt lat="45.82878162081289" lon="-122.87790783509479"><ele>63.6</ele></trkpt>
    <trkpt lat="45.82885086766537" lon="-122.87790836102025"><ele>63.5</ele></trkpt>
    <trkpt lat="45.82902983031009" lon="-122.8779097202302"><ele>63.2</ele></trkpt>
    <trkpt lat="45.82916292815641" lon="-122.87791073109992"><ele>62.9</ele></trkpt>
    <trkpt lat="45.82941653351224" lon="-122.87791265721654"><ele>62.4</ele></trkpt>
    <trkpt lat="45.829503766560165" lon="-122.87791331974606"><ele>62.1</ele></trkpt>
    <trkpt lat="45.82959010029832" lon="-122.87791397544531"><ele>61.9</ele></trkpt>
    <trkpt lat="45.82967913196579" lon="-122.8779146516352"><ele>61.5</ele></trkpt>
    <trkpt lat="45.829856295990965" lon="-122.87791599718474"><ele>60.5</ele></trkpt>
    <trkpt lat="45.82998939383728" lon="-122.87791700805447"><ele>59.7</ele></trkpt>
    <trkpt lat="45.830077526194984" lon="-122.87791767741416"><ele>59.2</ele></trkpt>
    <trkpt lat="45.83016745717222" lon="-122.87791836043424"><ele>58.6</ele></trkpt>
    <trkpt lat="45.830211523351075" lon="-122.87791869511406"><ele>58.3</ele></trkpt>
    <trkpt lat="45.83030055501854" lon="-122.87791937130393"><ele>57.6</ele></trkpt>
    <trkpt lat="45.830477719043714" lon="-122.87792071685351"><ele>56.2</ele></trkpt>
    <trkpt lat="45.83083294640383" lon="-122.87792341478283"><ele>53.1</ele></trkpt>
    <trkpt lat="45.831055075917625" lon="-122.87792510184242"><ele>51.2</ele></trkpt>
    <trkpt lat="45.83118817376394" lon="-122.87792611271213"><ele>50.1</ele></trkpt>
    <trkpt lat="45.831321271610264" lon="-122.87792712358186"><ele>48.9</ele></trkpt>
    <trkpt lat="45.831410303277735" lon="-122.87792779977174"><ele>48.0</ele></trkpt>
    <trkpt lat="45.831497536325664" lon="-122.87792846230121"><ele>47.1</ele></trkpt>
    <trkpt lat="45.83166480794333" lon="-122.87792973271856"><ele>46.0</ele></trkpt>
    <trkpt lat="45.831700000000005" lon="-122.87793"><ele>45.7</ele></trkpt>
    <trkpt lat="45.83183192380296" lon="-122.87792074218927"><ele>44.7</ele></trkpt>
    <trkpt lat="45.83193342596701" lon="-122.87791361923038"><ele>44.2</ele></trkpt>
    <trkpt lat="45.83202145439247" lon="-122.87790744179702"><ele>43.6</ele></trkpt>
    <trkpt lat="45.832065468605194" lon="-122.87790435308034"><ele>43.4</ele></trkpt>
    <trkpt lat="45.83210858456869" lon="-122.87790132739869"><ele>43.2</ele></trkpt>
    <trkpt lat="45.83215349703066" lon="-122.87789817564698"><ele>43.0</ele></trkpt>
    <trkpt lat="45.83219751124339" lon="-122.8778950869303"><ele>42.9</ele></trkpt>
    <trkpt lat="45.83224152545612" lon="-122.87789199821361"><ele>42.8</ele></trkpt>
    <trkpt lat="45.83227" lon="-122.87789000000001"><ele>42.8</ele></trkpt>
    <trkpt lat="45.83232872570743" lon="-122.87789000000001"><ele>42.8</ele></trkpt>
    <trkpt lat="45.83245822812807" lon="-122.87789000000001"><ele>42.7</ele></trkpt>
    <trkpt lat="45.83254276443043" lon="-122.87789000000001"><ele>42.7</ele></trkpt>
    <trkpt lat="45.83263269666698" lon="-122.87789000000001"><ele>42.6</ele></trkpt>
    <trkpt lat="45.83267676346289" lon="-122.87789000000001"><ele>42.6</ele></trkpt>
    <trkpt lat="45.832770000000004" lon="-122.87789000000001"><ele>42.5</ele></trkpt>
    <trkpt lat="45.832850107282" lon="-122.87784994635899"><ele>42.4</ele></trkpt>
    <trkpt lat="45.832890000000006" lon="-122.87783"><ele>42.3</ele></trkpt>
    <trkpt lat="45.832918306951385" lon="-122.87777653131405"><ele>42.3</ele></trkpt>
    <trkpt lat="45.832980000000006" lon="-122.87766"><ele>42.3</ele></trkpt>
    <trkpt lat="45.832993433370504" lon="-122.87761969988851"><ele>42.3</ele></trkpt>
    <trkpt lat="45.833051262837785" lon="-122.87744621148667"><ele>42.3</ele></trkpt>
    <trkpt lat="45.833122288290895" lon="-122.87723313512734"><ele>42.4</ele></trkpt>
    <trkpt lat="45.833140529800716" lon="-122.87717841059789"><ele>42.4</ele></trkpt>
    <trkpt lat="45.83315838319329" lon="-122.87712485042015"><ele>42.5</ele></trkpt>
    <trkpt lat="45.83317662470311" lon="-122.87707012589068"><ele>42.6</ele></trkpt>
    <trkpt lat="45.83319447809569" lon="-122.87701656571294"><ele>42.8</ele></trkpt>
    <trkpt lat="45.83321310772274" lon="-122.8769606768318"><ele>43.0</ele></trkpt>
    <trkpt lat="45.83324842639068" lon="-122.87685472082799"><ele>43.4</ele></trkpt>
    <trkpt lat="45.833286461879226" lon="-122.87674061436232"><ele>44.2</ele></trkpt>
    <trkpt lat="45.83334467946375" lon="-122.87656596160878"><ele>45.3</ele></trkpt>
    <trkpt lat="45.83338310306952" lon="-122.87645069079144"><ele>45.9</ele></trkpt>
    <trkpt lat="45.8334215266753" lon="-122.8763354199741"><ele>46.5</ele></trkpt>
    <trkpt lat="45.83346" lon="-122.87622"><ele>47.0</ele></trkpt>
    <trkpt lat="45.83349991357511" lon="-122.87610596121398"><ele>47.4</ele></trkpt>
    <trkpt lat="45.83352009806447" lon="-122.87604829124442"><ele>47.5</ele></trkpt>
    <trkpt lat="45.83353987886403" lon="-122.87599177467422"><ele>47.6</ele></trkpt>
    <trkpt lat="45.83357984415294" lon="-122.87587758813446"><ele>47.8</ele></trkpt>
    <trkpt lat="45.833600000000004" lon="-122.87582"><ele>47.9</ele></trkpt>
    <trkpt lat="45.83364932458689" lon="-122.87572135082625"><ele>48.0</ele></trkpt>
    <trkpt lat="45.833670000000005" lon="-122.87568000000002"><ele>48.0</ele></trkpt>
    <trkpt lat="45.8337094383824" lon="-122.8755560507982"><ele>48.0</ele></trkpt>
    <trkpt lat="45.833740000000006" lon="-122.87546"><ele>48.0</ele></trkpt>
    <trkpt lat="45.833741813381295" lon="-122.87544186618716"><ele>48.0</ele></trkpt>
    <trkpt lat="45.833760000000005" lon="-122.87526000000001"><ele>48.0</ele></trkpt>
    <trkpt lat="45.83376000783296" lon="-122.87525786160396"><ele>48.0</ele></trkpt>
    <trkpt lat="45.83376093451386" lon="-122.87500487771769"><ele>48.2</ele></trkpt>
    <trkpt lat="45.833763019545884" lon="-122.87443566397354"><ele>48.8</ele></trkpt>
    <trkpt lat="45.83376394622679" lon="-122.87418268008726"><ele>49.0</ele></trkpt>
    <trkpt lat="45.83376555373448" lon="-122.87374383048862"><ele>49.5</ele></trkpt>
    <trkpt lat="45.833766470959446" lon="-122.87349342807056"><ele>49.8</ele></trkpt>
    <trkpt lat="45.833768541807586" lon="-122.87292808652879"><ele>50.2</ele></trkpt>
    <trkpt lat="45.83376969070279" lon="-122.87261443813915"><ele>50.5</ele></trkpt>
    <trkpt lat="45.83377" lon="-122.87253000000001"><ele>50.5</ele></trkpt>
    <trkpt lat="45.83376572114963" lon="-122.87236027226892"><ele>50.7</ele></trkpt>
    <trkpt lat="45.83375768903576" lon="-122.87204166508499"><ele>50.8</ele></trkpt>
    <trkpt lat="45.83375128285586" lon="-122.87178755328243"><ele>51.0</ele></trkpt>
    <trkpt lat="45.83374016146741" lon="-122.8713464048739"><ele>51.4</ele></trkpt>
    <trkpt lat="45.833740000000006" lon="-122.87134"><ele>51.4</ele></trkpt>
    <trkpt lat="45.83374" lon="-122.87115795936319"><ele>51.6</ele></trkpt>
    <trkpt lat="45.833740000000006" lon="-122.87090497209442"><ele>51.9</ele></trkpt>
    <trkpt lat="45.833740000000006" lon="-122.87045837211994"><ele>52.6</ele></trkpt>
    <trkpt lat="45.833740000000006" lon="-122.87026605016564"><ele>52.8</ele></trkpt>
    <trkpt lat="45.833740000000006" lon="-122.8697226438383"><ele>53.3</ele></trkpt>
    <trkpt lat="45.833740000000006" lon="-122.8694038282496"><ele>53.5</ele></trkpt>
    <trkpt lat="45.833740000000006" lon="-122.86911"><ele>53.8</ele></trkpt>
    <trkpt lat="45.833749317474904" lon="-122.86895781457673"><ele>54.0</ele></trkpt>
    <trkpt lat="45.83376876188614" lon="-122.86864022252652"><ele>54.2</ele></trkpt>
    <trkpt lat="45.833795999806334" lon="-122.86819533649668"><ele>54.7</ele></trkpt>
    <trkpt lat="45.83381552293989" lon="-122.86787645864871"><ele>55.0</ele></trkpt>
    <trkpt lat="45.83382717384217" lon="-122.86768616057816"><ele>55.1</ele></trkpt>
    <trkpt lat="45.833830000000006" lon="-122.86764000000001"><ele>55.2</ele></trkpt>
    <trkpt lat="45.834234742060275" lon="-122.86763156787374"><ele>55.7</ele></trkpt>
    <trkpt lat="45.83440829299732" lon="-122.86762795222923"><ele>55.8</ele></trkpt>
    <trkpt lat="45.83464928600833" lon="-122.8676229315415"><ele>56.0</ele></trkpt>
    <trkpt lat="45.834680758976184" lon="-122.86762227585469"><ele>56.1</ele></trkpt>
    <trkpt lat="45.83493613962965" lon="-122.86761695542438"><ele>56.1</ele></trkpt>
    <trkpt lat="45.83506382995638" lon="-122.86761429520925"><ele>56.2</ele></trkpt>
    <trkpt lat="45.83514835735576" lon="-122.86761253422176"><ele>56.3</ele></trkpt>
    <trkpt lat="45.83519152028311" lon="-122.8676116349941"><ele>56.4</ele></trkpt>
    <trkpt lat="45.83531921060984" lon="-122.86760897477897"><ele>56.7</ele></trkpt>
    <trkpt lat="45.835648327930855" lon="-122.86760211816812"><ele>57.3</ele></trkpt>
    <trkpt lat="45.83586773947819" lon="-122.8675975470942"><ele>58.0</ele></trkpt>
    <trkpt lat="45.83679034705021" lon="-122.86757832610314"><ele>60.8</ele></trkpt>
    <trkpt lat="45.836921634287556" lon="-122.86757559095236"><ele>61.1</ele></trkpt>
    <trkpt lat="45.837185107989896" lon="-122.86757010191688"><ele>61.6</ele></trkpt>
    <trkpt lat="45.837272333072235" lon="-122.86756828472767"><ele>61.8</ele></trkpt>
    <trkpt lat="45.83736135660989" lon="-122.86756643007064"><ele>62.1</ele></trkpt>
    <trkpt lat="45.83753670600223" lon="-122.8675627769583"><ele>62.6</ele></trkpt>
    <trkpt lat="45.837636520271715" lon="-122.86756069749435"><ele>62.7</ele></trkpt>
    <trkpt lat="45.837759714460184" lon="-122.86755813094877"><ele>63.1</ele></trkpt>
    <trkpt lat="45.837923373893034" lon="-122.86755472137725"><ele>63.6</ele></trkpt>
    <trkpt lat="45.83826418117354" lon="-122.86754762122555"><ele>64.7</ele></trkpt>
    <trkpt lat="45.83852855410353" lon="-122.86754211345618"><ele>65.4</ele></trkpt>
    <trkpt lat="45.838705701951184" lon="-122.86753842287602"><ele>65.9</ele></trkpt>
    <trkpt lat="45.83888464825414" lon="-122.86753469482805"><ele>66.2</ele></trkpt>
    <trkpt lat="45.838974571019435" lon="-122.8675328214371"><ele>66.4</ele></trkpt>
    <trkpt lat="45.83906449378475" lon="-122.86753094804615"><ele>66.7</ele></trkpt>
    <trkpt lat="45.8392875022427" lon="-122.86752630203662"><ele>67.4</ele></trkpt>
    <trkpt lat="45.83942238639065" lon="-122.86752349195021"><ele>67.7</ele></trkpt>
    <trkpt lat="45.839801860460234" lon="-122.86751558624042"><ele>69.3</ele></trkpt>
    <trkpt lat="45.83988638785962" lon="-122.86751382525293"><ele>69.7</ele></trkpt>
    <trkpt lat="45.83997001603135" lon="-122.86751208299935"><ele>70.0</ele></trkpt>
    <trkpt lat="45.8401606522938" lon="-122.86750811141056"><ele>70.5</ele></trkpt>
    <trkpt lat="45.840467288923485" lon="-122.86750172314743"><ele>71.5</ele></trkpt>
    <trkpt lat="45.84068849892613" lon="-122.86749711460573"><ele>72.3</ele></trkpt>
    <trkpt lat="45.84079011165092" lon="-122.86749499767394"><ele>72.5</ele></trkpt>
    <trkpt lat="45.84092319734357" lon="-122.86749222505534"><ele>73.0</ele></trkpt>
    <trkpt lat="45.84114440734621" lon="-122.86748761651361"><ele>73.8</ele></trkpt>
    <trkpt lat="45.84136471812121" lon="-122.86748302670581"><ele>74.6</ele></trkpt>
    <trkpt lat="45.84149780381386" lon="-122.86748025408723"><ele>75.1</ele></trkpt>
    <trkpt lat="45.84176307597151" lon="-122.86747472758394"><ele>76.0</ele></trkpt>
    <trkpt lat="45.84193932459151" lon="-122.86747105573768"><ele>76.6</ele></trkpt>
    <trkpt lat="45.842027448901504" lon="-122.86746921981457"><ele>76.8</ele></trkpt>
    <trkpt lat="45.84211647243915" lon="-122.86746736515752"><ele>77.1</ele></trkpt>
    <trkpt lat="45.8422342712617" lon="-122.86746491101539"><ele>77.4</ele></trkpt>
    <trkpt lat="45.842312504067515" lon="-122.86746328116527"><ele>77.5</ele></trkpt>
    <trkpt lat="45.84286373061883" lon="-122.86745179727878"><ele>78.4</ele></trkpt>
    <trkpt lat="45.84295" lon="-122.86745"><ele>78.6</ele></trkpt>
    <trkpt lat="45.84312807666456" lon="-122.86744421165717"><ele>79.0</ele></trkpt>
    <trkpt lat="45.843524576199975" lon="-122.86743132352696"><ele>79.7</ele></trkpt>
    <trkpt lat="45.8437898083155" lon="-122.86742270221536"><ele>80.2</ele></trkpt>
    <trkpt lat="45.84414225234697" lon="-122.8674112460996"><ele>80.9</ele></trkpt>
    <trkpt lat="45.84423036335484" lon="-122.86740838207069"><ele>81.1</ele></trkpt>
    <trkpt lat="45.844363428958566" lon="-122.8674040568025"><ele>81.3</ele></trkpt>
    <trkpt lat="45.84447941181586" lon="-122.86740028680524"><ele>81.3</ele></trkpt>
    <trkpt lat="45.84463405562559" lon="-122.86739526014219"><ele>81.5</ele></trkpt>
    <trkpt lat="45.84489119591386" lon="-122.86738690185366"><ele>81.9</ele></trkpt>
    <trkpt lat="45.8449775087379" lon="-122.8673840962743"><ele>82.0</ele></trkpt>
    <trkpt lat="45.84510697797395" lon="-122.86737988790524"><ele>82.1</ele></trkpt>
    <trkpt lat="45.84536501735413" lon="-122.86737150039193"><ele>82.3</ele></trkpt>
    <trkpt lat="45.84553674391029" lon="-122.86736591845798"><ele>82.4</ele></trkpt>
    <trkpt lat="45.845703975006856" lon="-122.86736048264797"><ele>82.7</ele></trkpt>
    <trkpt lat="45.84582984787524" lon="-122.86735639117805"><ele>82.8</ele></trkpt>
    <trkpt lat="45.84595661983555" lon="-122.86735227048337"><ele>82.9</ele></trkpt>
    <trkpt lat="45.84608249270393" lon="-122.86734817901345"><ele>82.9</ele></trkpt>
    <trkpt lat="45.84641515671323" lon="-122.86733736584299"><ele>83.1</ele></trkpt>
    <trkpt lat="45.84654732322503" lon="-122.86733306979957"><ele>83.3</ele></trkpt>
    <trkpt lat="45.8466354342329" lon="-122.86733020577064"><ele>83.4</ele></trkpt>
    <trkpt lat="45.84672354524076" lon="-122.86732734174171"><ele>83.6</ele></trkpt>
    <trkpt lat="45.84681165624864" lon="-122.86732447771277"><ele>83.9</ele></trkpt>
    <trkpt lat="45.84698787826438" lon="-122.8673187496549"><ele>84.4</ele></trkpt>
    <trkpt lat="45.847296266791915" lon="-122.86730872555361"><ele>85.3</ele></trkpt>
    <trkpt lat="45.84756059981552" lon="-122.86730013346681"><ele>86.2</ele></trkpt>
    <trkpt lat="45.847868988343066" lon="-122.86729010936554"><ele>87.1</ele></trkpt>
    <trkpt lat="45.848045210358805" lon="-122.86728438130766"><ele>87.7</ele></trkpt>
    <trkpt lat="45.84811803680408" lon="-122.86728201410007"><ele>87.9</ele></trkpt>
    <trkpt lat="45.848180000000006" lon="-122.86728000000001"><ele>88.1</ele></trkpt>
    <trkpt lat="45.848181279223006" lon="-122.86734850949834"><ele>88.2</ele></trkpt>
    <trkpt lat="45.848184869942" lon="-122.8675408124493"><ele>88.7</ele></trkpt>
    <trkpt lat="45.84827000000001" lon="-122.8721"><ele>91.7</ele></trkpt>
    <trkpt lat="45.848290000000006" lon="-122.87225000000001"><ele>91.8</ele></trkpt>
    <trkpt lat="45.84834" lon="-122.87236000000001"><ele>91.8</ele></trkpt>
    <trkpt lat="45.848400000000005" lon="-122.87242"><ele>91.9</ele></trkpt>
    <trkpt lat="45.8485" lon="-122.87246"><ele>92.0</ele></trkpt>
    <trkpt lat="45.85012819399778" lon="-122.87242320465542"><ele>93.1</ele></trkpt>
    <trkpt lat="45.85027" lon="-122.87242"><ele>94.5</ele></trkpt>
    <trkpt lat="45.85030533753801" lon="-122.8724191131506"><ele>94.8</ele></trkpt>
    <trkpt lat="45.8507072732355" lon="-122.87240902596128"><ele>98.2</ele></trkpt>
  </trkseg></trk>
</gpx>
