<?xml version="1.0" encoding="UTF-8"?>
<gpx version="1.1" creator="h2c-tracker" xmlns="http://www.topografix.com/GPX/1/1">
  <metadata><name>Hood to Coast 2026 — Leg 4 (6.64 mi)</name><desc>Derived from the official Hood to Coast Strava route (simplified, 462 points, ~6.68 mi). Verify against the official leg map PDF.</desc></metadata>
  <wpt lat="45.334990000000005" lon="-121.91893"><name>Exchange 3 — 9 Rd &amp; HWY 26 (Rhododendron)</name></wpt>
  <wpt lat="45.37758843323309" lon="-122.03935650417638"><name>Exchange 4 — Brightwood Weigh Station</name></wpt>
  <trk><name>HTC Leg 4</name><trkseg>
    <trkpt lat="45.334990000000005" lon="-121.91893"><ele>474.1</ele></trkpt>
    <trkpt lat="45.335010000000004" lon="-121.91893"><ele>474.0</ele></trkpt>
    <trkpt lat="45.33503505934936" lon="-121.91891997626027"><ele>473.9</ele></trkpt>
    <trkpt lat="45.33511" lon="-121.91889"><ele>473.5</ele></trkpt>
    <trkpt lat="45.33518" lon="-121.91890000000001"><ele>473.2</ele></trkpt>
    <trkpt lat="45.33533427919768" lon="-121.91898228223877"><ele>472.4</ele></trkpt>
    <trkpt lat="45.33545975022564" lon="-121.91904920012036"><ele>471.8</ele></trkpt>
    <trkpt lat="45.335543116881794" lon="-121.91909366233696"><ele>471.4</ele></trkpt>
    <trkpt lat="45.33583532122208" lon="-121.91924950465179"><ele>470.3</ele></trkpt>
    <trkpt lat="45.335960792250035" lon="-121.91931642253337"><ele>469.9</ele></trkpt>
    <trkpt lat="45.3360441589062" lon="-121.91936088474998"><ele>469.7</ele></trkpt>
    <trkpt lat="45.33612836764979" lon="-121.9194057960799"><ele>469.7</ele></trkpt>
    <trkpt lat="45.33621089221852" lon="-121.91944980918322"><ele>469.3</ele></trkpt>
    <trkpt lat="45.33637762553084" lon="-121.91953873361646"><ele>468.7</ele></trkpt>
    <trkpt lat="45.336380000000005" lon="-121.91954000000001"><ele>468.7</ele></trkpt>
    <trkpt lat="45.3365858811903" lon="-121.91965229883108"><ele>467.8</ele></trkpt>
    <trkpt lat="45.336600000000004" lon="-121.91966000000001"><ele>467.7</ele></trkpt>
    <trkpt lat="45.33677388912004" lon="-121.91981979000221"><ele>467.0</ele></trkpt>
    <trkpt lat="45.336810905102595" lon="-121.91985380468888"><ele>466.8</ele></trkpt>
    <trkpt lat="45.33692346390671" lon="-121.91995723710347"><ele>466.2</ele></trkpt>
    <trkpt lat="45.33696047988928" lon="-121.91999125179015"><ele>466.0</ele></trkpt>
    <trkpt lat="45.33697" lon="-121.92000000000002"><ele>466.0</ele></trkpt>
    <trkpt lat="45.33722326045815" lon="-121.92033285660216"><ele>465.0</ele></trkpt>
    <trkpt lat="45.33725628888251" lon="-121.92037626538844"><ele>464.9</ele></trkpt>
    <trkpt lat="45.33728865673838" lon="-121.92041880599902"><ele>464.8</ele></trkpt>
    <trkpt lat="45.337320000000005" lon="-121.92046"><ele>464.7</ele></trkpt>
    <trkpt lat="45.337367782690855" lon="-121.92056921757909"><ele>464.6</ele></trkpt>
    <trkpt lat="45.3374148282961" lon="-121.92067675039107"><ele>464.5</ele></trkpt>
    <trkpt lat="45.33743858870279" lon="-121.92073105989206"><ele>464.4</ele></trkpt>
    <trkpt lat="45.33746000000001" lon="-121.92078000000001"><ele>464.3</ele></trkpt>
    <trkpt lat="45.33749534121931" lon="-121.92090173086649"><ele>464.0</ele></trkpt>
    <trkpt lat="45.33761446893149" lon="-121.92131205965293"><ele>463.3</ele></trkpt>
    <trkpt lat="45.33764" lon="-121.9214"><ele>463.1</ele></trkpt>
    <trkpt lat="45.337646872857285" lon="-121.92142861026639"><ele>463.1</ele></trkpt>
    <trkpt lat="45.33769020615484" lon="-121.92160899771436"><ele>462.7</ele></trkpt>
    <trkpt lat="45.33770416587487" lon="-121.921667109107"><ele>462.5</ele></trkpt>
    <trkpt lat="45.33776204054744" lon="-121.92190802925563"><ele>462.2</ele></trkpt>
    <trkpt lat="45.33779083246998" lon="-121.92202788400294"><ele>461.9</ele></trkpt>
    <trkpt lat="45.33783416576754" lon="-121.92220827145093"><ele>461.5</ele></trkpt>
    <trkpt lat="45.33786295769008" lon="-121.92232812619822"><ele>461.3</ele></trkpt>
    <trkpt lat="45.33789145878511" lon="-121.92244677029151"><ele>461.1</ele></trkpt>
    <trkpt lat="45.337920250707654" lon="-121.92256662503884"><ele>461.1</ele></trkpt>
    <trkpt lat="45.33793479208268" lon="-121.9226271577395"><ele>461.0</ele></trkpt>
    <trkpt lat="45.33803629088031" lon="-121.92304967599011"><ele>460.6</ele></trkpt>
    <trkpt lat="45.33806537363034" lon="-121.92317074139144"><ele>460.6</ele></trkpt>
    <trkpt lat="45.33807" lon="-121.92319"><ele>460.5</ele></trkpt>
    <trkpt lat="45.33809508321603" lon="-121.92321508321604"><ele>460.5</ele></trkpt>
    <trkpt lat="45.33813187033188" lon="-121.92325187033188"><ele>460.6</ele></trkpt>
    <trkpt lat="45.33824223167944" lon="-121.92336223167943"><ele>460.7</ele></trkpt>
    <trkpt lat="45.33825" lon="-121.92337"><ele>460.7</ele></trkpt>
    <trkpt lat="45.33826669585024" lon="-121.92341452226731"><ele>460.7</ele></trkpt>
    <trkpt lat="45.338280000000005" lon="-121.92345000000002"><ele>460.7</ele></trkpt>
    <trkpt lat="45.338280000000005" lon="-121.92353773020312"><ele>460.6</ele></trkpt>
    <trkpt lat="45.338280000000005" lon="-121.92368"><ele>460.5</ele></trkpt>
    <trkpt lat="45.338299210859255" lon="-121.92371989947691"><ele>460.5</ele></trkpt>
    <trkpt lat="45.33837544365791" lon="-121.92387822913565"><ele>460.3</ele></trkpt>
    <trkpt lat="45.33841" lon="-121.92395"><ele>460.2</ele></trkpt>
    <trkpt lat="45.33849309392261" lon="-121.92407062021023"><ele>460.0</ele></trkpt>
    <trkpt lat="45.338618359588025" lon="-121.92425245746648"><ele>459.7</ele></trkpt>
    <trkpt lat="45.3386498333733" lon="-121.92429814521931"><ele>459.6</ele></trkpt>
    <trkpt lat="45.33872" lon="-121.9244"><ele>459.4</ele></trkpt>
    <trkpt lat="45.338787522085255" lon="-121.92446001963134"><ele>459.1</ele></trkpt>
    <trkpt lat="45.33882565652389" lon="-121.92449391691014"><ele>459.1</ele></trkpt>
    <trkpt lat="45.33890192540114" lon="-121.92456171146767"><ele>458.9</ele></trkpt>
    <trkpt lat="45.339015566028245" lon="-121.92466272535844"><ele>458.8</ele></trkpt>
    <trkpt lat="45.33917" lon="-121.9248"><ele>458.5</ele></trkpt>
    <trkpt lat="45.33924963243938" lon="-121.92485225878836"><ele>458.3</ele></trkpt>
    <trkpt lat="45.339329661944966" lon="-121.92490477815139"><ele>458.3</ele></trkpt>
    <trkpt lat="45.33937049332536" lon="-121.92493157374477"><ele>458.3</ele></trkpt>
    <trkpt lat="45.33945133945856" lon="-121.92498462901969"><ele>458.1</ele></trkpt>
    <trkpt lat="45.339490000000005" lon="-121.92501000000001"><ele>458.0</ele></trkpt>
    <trkpt lat="45.33961" lon="-121.92524000000002"><ele>457.6</ele></trkpt>
    <trkpt lat="45.33961746848825" lon="-121.92526987395304"><ele>457.6</ele></trkpt>
    <trkpt lat="45.33966237209525" lon="-121.92544948838099"><ele>457.3</ele></trkpt>
    <trkpt lat="45.33973680961826" lon="-121.92574723847302"><ele>456.8</ele></trkpt>
    <trkpt lat="45.339766644900756" lon="-121.92586657960302"><ele>456.6</ele></trkpt>
    <trkpt lat="45.339811247141256" lon="-121.92604498856502"><ele>456.4</ele></trkpt>
    <trkpt lat="45.339850000000006" lon="-121.92620000000001"><ele>456.2</ele></trkpt>
    <trkpt lat="45.33988475387149" lon="-121.92640972163828"><ele>455.9</ele></trkpt>
    <trkpt lat="45.33992561418727" lon="-121.92665629250936"><ele>455.7</ele></trkpt>
    <trkpt lat="45.33996626813782" lon="-121.92690161807303"><ele>455.4</ele></trkpt>
    <trkpt lat="45.33998669829572" lon="-121.92702490350858"><ele>455.3</ele></trkpt>
    <trkpt lat="45.34002755861149" lon="-121.92727147437967"><ele>455.3</ele></trkpt>
    <trkpt lat="45.340078530823604" lon="-121.9275790653148"><ele>455.0</ele></trkpt>
    <trkpt lat="45.34010721559074" lon="-121.92775216304756"><ele>454.7</ele></trkpt>
    <trkpt lat="45.340136106723115" lon="-121.92792650608772"><ele>454.4</ele></trkpt>
    <trkpt lat="45.340140000000005" lon="-121.92795000000001"><ele>454.3</ele></trkpt>
    <trkpt lat="45.34016927167053" lon="-121.9280992855197"><ele>454.1</ele></trkpt>
    <trkpt lat="45.34020382718166" lon="-121.92827551862646"><ele>453.8</ele></trkpt>
    <trkpt lat="45.34024" lon="-121.92846000000002"><ele>453.4</ele></trkpt>
    <trkpt lat="45.34029031637515" lon="-121.92881011811046"><ele>452.7</ele></trkpt>
    <trkpt lat="45.3403074303505" lon="-121.92892920285557"><ele>452.4</ele></trkpt>
    <trkpt lat="45.34032472447296" lon="-121.9290495411243"><ele>452.0</ele></trkpt>
    <trkpt lat="45.34035282742194" lon="-121.92924509081101"><ele>452.0</ele></trkpt>
    <trkpt lat="45.34037930904695" lon="-121.92942935878503"><ele>451.6</ele></trkpt>
    <trkpt lat="45.34039714361074" lon="-121.92955345762466"><ele>451.3</ele></trkpt>
    <trkpt lat="45.34046812157164" lon="-121.93004734593595"><ele>449.8</ele></trkpt>
    <trkpt lat="45.34048000000001" lon="-121.93013"><ele>449.6</ele></trkpt>
    <trkpt lat="45.34047531964076" lon="-121.93048570730258"><ele>448.5</ele></trkpt>
    <trkpt lat="45.34047282849985" lon="-121.93067503401168"><ele>448.0</ele></trkpt>
    <trkpt lat="45.3404711789606" lon="-121.93080039899475"><ele>447.8</ele></trkpt>
    <trkpt lat="45.34047" lon="-121.93089"><ele>448.1</ele></trkpt>
    <trkpt lat="45.340500000000006" lon="-121.93117000000001"><ele>447.7</ele></trkpt>
    <trkpt lat="45.34054602704418" lon="-121.93132649195019"><ele>447.4</ele></trkpt>
    <trkpt lat="45.340595668929836" lon="-121.93149527436145"><ele>446.9</ele></trkpt>
    <trkpt lat="45.340650000000004" lon="-121.93168000000001"><ele>446.6</ele></trkpt>
    <trkpt lat="45.34071692018345" lon="-121.9320193809304"><ele>446.1</ele></trkpt>
    <trkpt lat="45.34077497600024" lon="-121.93231380685836"><ele>446.5</ele></trkpt>
    <trkpt lat="45.340790000000005" lon="-121.93239000000001"><ele>446.3</ele></trkpt>
    <trkpt lat="45.34073" lon="-121.93243000000001"><ele>446.2</ele></trkpt>
    <trkpt lat="45.3407351368077" lon="-121.93244701326162"><ele>446.1</ele></trkpt>
    <trkpt lat="45.34101768004213" lon="-121.93338280495159"><ele>444.5</ele></trkpt>
    <trkpt lat="45.34110606354135" lon="-121.93367553375913"><ele>444.0</ele></trkpt>
    <trkpt lat="45.34119444704056" lon="-121.93396826256667"><ele>443.5</ele></trkpt>
    <trkpt lat="45.34130022327656" lon="-121.93431859664156"><ele>443.0</ele></trkpt>
    <trkpt lat="45.341371214038986" lon="-121.93455372018174"><ele>442.6</ele></trkpt>
    <trkpt lat="45.34152774867012" lon="-121.93507216758789"><ele>441.8</ele></trkpt>
    <trkpt lat="45.341665825703025" lon="-121.93552948287355"><ele>441.2</ele></trkpt>
    <trkpt lat="45.3418088720893" lon="-121.93600325680704"><ele>440.6</ele></trkpt>
    <trkpt lat="45.34192778161635" lon="-121.93639708873687"><ele>439.8</ele></trkpt>
    <trkpt lat="45.342033202898534" lon="-121.93674624719404"><ele>439.3</ele></trkpt>
    <trkpt lat="45.342138979134546" lon="-121.93709658126892"><ele>438.7</ele></trkpt>
    <trkpt lat="45.342227007679945" lon="-121.93738813445877"><ele>438.3</ele></trkpt>
    <trkpt lat="45.342262148107345" lon="-121.93750452061117"><ele>438.2</ele></trkpt>
    <trkpt lat="45.34233242896214" lon="-121.93773729291595"><ele>437.9</ele></trkpt>
    <trkpt lat="45.34252090943636" lon="-121.93836154591517"><ele>437.4</ele></trkpt>
    <trkpt lat="45.34258835066066" lon="-121.93858491327835"><ele>437.2</ele></trkpt>
    <trkpt lat="45.34267282966794" lon="-121.93886471029117"><ele>437.0</ele></trkpt>
    <trkpt lat="45.342740270892236" lon="-121.93908807765436"><ele>437.0</ele></trkpt>
    <trkpt lat="45.343118296702116" lon="-121.94034011050589"><ele>435.8</ele></trkpt>
    <trkpt lat="45.34318715774167" lon="-121.94056818033987"><ele>435.7</ele></trkpt>
    <trkpt lat="45.34325566382741" lon="-121.94079507455615"><ele>435.6</ele></trkpt>
    <trkpt lat="45.34332558972838" lon="-121.94102667124324"><ele>435.4</ele></trkpt>
    <trkpt lat="45.34339000000001" lon="-121.94124000000001"><ele>435.2</ele></trkpt>
    <trkpt lat="45.343395268756815" lon="-121.94125978996459"><ele>435.2</ele></trkpt>
    <trkpt lat="45.34348988271282" lon="-121.94161516921399"><ele>435.0</ele></trkpt>
    <trkpt lat="45.34358449666882" lon="-121.94197054846336"><ele>434.9</ele></trkpt>
    <trkpt lat="45.343678792059315" lon="-121.94232473114961"><ele>434.9</ele></trkpt>
    <trkpt lat="45.34372466549252" lon="-121.94249703624023"><ele>434.9</ele></trkpt>
    <trkpt lat="45.3438" lon="-121.94278000000001"><ele>434.8</ele></trkpt>
    <trkpt lat="45.34380128577601" lon="-121.94278548597768"><ele>434.8</ele></trkpt>
    <trkpt lat="45.343868141066565" lon="-121.94307073521732"><ele>434.7</ele></trkpt>
    <trkpt lat="45.34393812575369" lon="-121.94336933654904"><ele>434.7</ele></trkpt>
    <trkpt lat="45.34395000000001" lon="-121.94342"><ele>434.7</ele></trkpt>
    <trkpt lat="45.344006085775526" lon="-121.94366888062888"><ele>434.8</ele></trkpt>
    <trkpt lat="45.34407006255861" lon="-121.94395277760383"><ele>434.9</ele></trkpt>
    <trkpt lat="45.34411" lon="-121.94413000000002"><ele>435.0</ele></trkpt>
    <trkpt lat="45.344213177352" lon="-121.9446927855564"><ele>435.2</ele></trkpt>
    <trkpt lat="45.34428876432616" lon="-121.94510507814265"><ele>435.2</ele></trkpt>
    <trkpt lat="45.34433000000001" lon="-121.94533000000001"><ele>435.1</ele></trkpt>
    <trkpt lat="45.34434433322549" lon="-121.94541897087527"><ele>435.1</ele></trkpt>
    <trkpt lat="45.34440360678478" lon="-121.94578690065185"><ele>435.0</ele></trkpt>
    <trkpt lat="45.34447312763738" lon="-121.94621843862711"><ele>434.9</ele></trkpt>
    <trkpt lat="45.34450286488069" lon="-121.9464030271252"><ele>434.9</ele></trkpt>
    <trkpt lat="45.344582030244624" lon="-121.94689443164039"><ele>434.6</ele></trkpt>
    <trkpt lat="45.344601922049264" lon="-121.94701790637896"><ele>434.5</ele></trkpt>
    <trkpt lat="45.344661396535884" lon="-121.94738708337513"><ele>434.2</ele></trkpt>
    <trkpt lat="45.34470097921785" lon="-121.94763278563273"><ele>434.0</ele></trkpt>
    <trkpt lat="45.34473111831579" lon="-121.94781986856998"><ele>434.0</ele></trkpt>
    <trkpt lat="45.34478255570962" lon="-121.9481391567829"><ele>433.6</ele></trkpt>
    <trkpt lat="45.34481229295293" lon="-121.94832374528099"><ele>433.4</ele></trkpt>
    <trkpt lat="45.3448518756349" lon="-121.94856944753857"><ele>433.1</ele></trkpt>
    <trkpt lat="45.344921195560175" lon="-121.94899973829425"><ele>432.5</ele></trkpt>
    <trkpt lat="45.34495997453287" lon="-121.94924045167352"><ele>432.3</ele></trkpt>
    <trkpt lat="45.34501844438288" lon="-121.94960339257179"><ele>431.9</ele></trkpt>
    <trkpt lat="45.345067269721554" lon="-121.94990646693013"><ele>431.6</ele></trkpt>
    <trkpt lat="45.34510725425817" lon="-121.95015466362689"><ele>431.3</ele></trkpt>
    <trkpt lat="45.34520751699067" lon="-121.95077702619814"><ele>430.3</ele></trkpt>
    <trkpt lat="45.345257547893254" lon="-121.95108758387397"><ele>429.9</ele></trkpt>
    <trkpt lat="45.3453377178938" lon="-121.95158522448708"><ele>429.2</ele></trkpt>
    <trkpt lat="45.3454779651629" lon="-121.95245578375508"><ele>428.2</ele></trkpt>
    <trkpt lat="45.34555793423612" lon="-121.95295217714857"><ele>427.4</ele></trkpt>
    <trkpt lat="45.345617810577366" lon="-121.95332384858392"><ele>426.8</ele></trkpt>
    <trkpt lat="45.3457377641872" lon="-121.95406843867417"><ele>425.7</ele></trkpt>
    <trkpt lat="45.345867764163" lon="-121.9548753897435"><ele>424.6</ele></trkpt>
    <trkpt lat="45.34596782596819" lon="-121.9554965050952"><ele>423.6</ele></trkpt>
    <trkpt lat="45.34597" lon="-121.95551"><ele>423.6</ele></trkpt>
    <trkpt lat="45.34602982289197" lon="-121.95580131147392"><ele>423.2</ele></trkpt>
    <trkpt lat="45.346055045461206" lon="-121.95592413441979"><ele>423.0</ele></trkpt>
    <trkpt lat="45.34613020871755" lon="-121.9562901467985"><ele>422.3</ele></trkpt>
    <trkpt lat="45.346180401630335" lon="-121.95653456446077"><ele>421.8</ele></trkpt>
    <trkpt lat="45.3462" lon="-121.95663"><ele>421.6</ele></trkpt>
    <trkpt lat="45.34623602551069" lon="-121.95677650374346"><ele>421.3</ele></trkpt>
    <trkpt lat="45.34635" lon="-121.95724000000001"><ele>420.1</ele></trkpt>
    <trkpt lat="45.346385429417936" lon="-121.95736211841928"><ele>419.8</ele></trkpt>
    <trkpt lat="45.34648563013279" lon="-121.957707491096"><ele>418.8</ele></trkpt>
    <trkpt lat="45.34655254499373" lon="-121.9579381338082"><ele>418.2</ele></trkpt>
    <trkpt lat="45.3466860315625" lon="-121.95839823644945"><ele>416.8</ele></trkpt>
    <trkpt lat="45.34671794480386" lon="-121.95850823528141"><ele>416.6</ele></trkpt>
    <trkpt lat="45.34679858579013" lon="-121.9587861893192"><ele>416.0</ele></trkpt>
    <trkpt lat="45.34682" lon="-121.95886000000002"><ele>415.9</ele></trkpt>
    <trkpt lat="45.34686404721427" lon="-121.95900799484275"><ele>415.6</ele></trkpt>
    <trkpt lat="45.34700397899415" lon="-121.9594781535601"><ele>414.5</ele></trkpt>
    <trkpt lat="45.34703869890946" lon="-121.95959480948244"><ele>414.2</ele></trkpt>
    <trkpt lat="45.347178981395565" lon="-121.96006614654243"><ele>413.3</ele></trkpt>
    <trkpt lat="45.34735398379698" lon="-121.96065413952476"><ele>412.2</ele></trkpt>
    <trkpt lat="45.34749181133958" lon="-121.96111722818621"><ele>411.7</ele></trkpt>
    <trkpt lat="45.347561601876414" lon="-121.96135171837356"><ele>411.5</ele></trkpt>
    <trkpt lat="45.347684349051754" lon="-121.96176413830105"><ele>411.1</ele></trkpt>
    <trkpt lat="45.34778745667904" lon="-121.96211057104014"><ele>410.6</ele></trkpt>
    <trkpt lat="45.34789091501254" lon="-121.96245818212189"><ele>410.1</ele></trkpt>
    <trkpt lat="45.34799437334604" lon="-121.96280579320363"><ele>409.5</ele></trkpt>
    <trkpt lat="45.34804347221618" lon="-121.96297076117463"><ele>409.3</ele></trkpt>
    <trkpt lat="45.34814237136889" lon="-121.96330305380192"><ele>408.9</ele></trkpt>
    <trkpt lat="45.34822513803568" lon="-121.96358114266732"><ele>408.4</ele></trkpt>
    <trkpt lat="45.348358055691264" lon="-121.96402773453165"><ele>407.5</ele></trkpt>
    <trkpt lat="45.34851727631299" lon="-121.96456270209474"><ele>406.6</ele></trkpt>
    <trkpt lat="45.34856953153907" lon="-121.9647382751496"><ele>406.4</ele></trkpt>
    <trkpt lat="45.348604251454375" lon="-121.96485493107193"><ele>406.3</ele></trkpt>
    <trkpt lat="45.34870876190653" lon="-121.96520607718165"><ele>405.8</ele></trkpt>
    <trkpt lat="45.348835717556454" lon="-121.96563263722093"><ele>405.3</ele></trkpt>
    <trkpt lat="45.348933213884294" lon="-121.96596021647761"><ele>404.8</ele></trkpt>
    <trkpt lat="45.348981962048214" lon="-121.96612400610596"><ele>404.6</ele></trkpt>
    <trkpt lat="45.34900966783922" lon="-121.9662170951753"><ele>404.5</ele></trkpt>
    <trkpt lat="45.34907384707662" lon="-121.96643273188027"><ele>404.2</ele></trkpt>
    <trkpt lat="45.34918677447793" lon="-121.96681215821354"><ele>403.5</ele></trkpt>
    <trkpt lat="45.349312678009206" lon="-121.96723518322489"><ele>402.9</ele></trkpt>
    <trkpt lat="45.34953222009996" lon="-121.96797282572376"><ele>401.8</ele></trkpt>
    <trkpt lat="45.34985522052421" lon="-121.9690580793044"><ele>399.9</ele></trkpt>
    <trkpt lat="45.34995727603285" lon="-121.96940097701554"><ele>399.4</ele></trkpt>
    <trkpt lat="45.34999164524195" lon="-121.96951645459524"><ele>399.1</ele></trkpt>
    <trkpt lat="45.35004249764316" lon="-121.9696873142795"><ele>398.8</ele></trkpt>
    <trkpt lat="45.350094402163016" lon="-121.96986170899169"><ele>398.5</ele></trkpt>
    <trkpt lat="45.35044019849126" lon="-121.97102355484458"><ele>396.7</ele></trkpt>
    <trkpt lat="45.35048894665519" lon="-121.97118734447292"><ele>396.5</ele></trkpt>
    <trkpt lat="45.350538045525326" lon="-121.97135231244391"><ele>396.2</ele></trkpt>
    <trkpt lat="45.350570661203335" lon="-121.97146189831037"><ele>396.1</ele></trkpt>
    <trkpt lat="45.35061940936726" lon="-121.9716256879387"><ele>395.7</ele></trkpt>
    <trkpt lat="45.350677626598994" lon="-121.9718212928186"><ele>395.6</ele></trkpt>
    <trkpt lat="45.350725322644266" lon="-121.971981547419"><ele>395.4</ele></trkpt>
    <trkpt lat="45.35078880046923" lon="-121.97219482743864"><ele>394.9</ele></trkpt>
    <trkpt lat="45.35082071473482" lon="-121.97230205661978"><ele>394.8</ele></trkpt>
    <trkpt lat="45.35087191784225" lon="-121.9724740946467"><ele>394.7</ele></trkpt>
    <trkpt lat="45.350897519395964" lon="-121.97256011366014"><ele>394.6</ele></trkpt>
    <trkpt lat="45.35096450428308" lon="-121.97278517710629"><ele>394.2</ele></trkpt>
    <trkpt lat="45.35104797236231" lon="-121.97306562265697"><ele>393.6</ele></trkpt>
    <trkpt lat="45.35111600936807" lon="-121.97329422113107"><ele>393.4</ele></trkpt>
    <trkpt lat="45.35125243408581" lon="-121.97375259642192"><ele>392.8</ele></trkpt>
    <trkpt lat="45.35133800640233" lon="-121.97404011202852"><ele>392.5</ele></trkpt>
    <trkpt lat="45.35144006191097" lon="-121.97438300973965"><ele>392.0</ele></trkpt>
    <trkpt lat="45.35146" lon="-121.97445"><ele>391.9</ele></trkpt>
    <trkpt lat="45.351576282077176" lon="-121.97477380086104"><ele>391.5</ele></trkpt>
    <trkpt lat="45.351615158889366" lon="-121.97488205783037"><ele>391.4</ele></trkpt>
    <trkpt lat="45.35167326949285" lon="-121.97504387351086"><ele>391.3</ele></trkpt>
    <trkpt lat="45.35188770580429" lon="-121.97564099616271"><ele>390.8</ele></trkpt>
    <trkpt lat="45.35194581640777" lon="-121.97580281184318"><ele>390.6</ele></trkpt>
    <trkpt lat="45.35202684386896" lon="-121.9760284421582"><ele>390.4</ele></trkpt>
    <trkpt lat="45.35211" lon="-121.97626000000001"><ele>390.0</ele></trkpt>
    <trkpt lat="45.35212974483192" lon="-121.97630997527334"><ele>389.9</ele></trkpt>
    <trkpt lat="45.352239491358986" lon="-121.97658774986824"><ele>389.6</ele></trkpt>
    <trkpt lat="45.35232675968172" lon="-121.97680863087143"><ele>389.3</ele></trkpt>
    <trkpt lat="45.35256740869288" lon="-121.97741772697113"><ele>388.3</ele></trkpt>
    <trkpt lat="45.352808057704046" lon="-121.9780268230708"><ele>387.2</ele></trkpt>
    <trkpt lat="45.35289576677589" lon="-121.9782488196346"><ele>386.9</ele></trkpt>
    <trkpt lat="45.353062810686566" lon="-121.97867161711041"><ele>386.4</ele></trkpt>
    <trkpt lat="45.35314611226735" lon="-121.97888245806799"><ele>386.2</ele></trkpt>
    <trkpt lat="45.35324792531053" lon="-121.9791401525717"><ele>385.9</ele></trkpt>
    <trkpt lat="45.35339072802046" lon="-121.97950159421327"><ele>385.4</ele></trkpt>
    <trkpt lat="45.353452873644216" lon="-121.979658888261"><ele>385.1</ele></trkpt>
    <trkpt lat="45.35355644968382" lon="-121.9799210450072"><ele>384.6</ele></trkpt>
    <trkpt lat="45.35361859530758" lon="-121.98007833905491"><ele>384.4</ele></trkpt>
    <trkpt lat="45.35378387622185" lon="-121.98049667428822"><ele>383.8</ele></trkpt>
    <trkpt lat="45.35382486588858" lon="-121.98060042142606"><ele>383.7</ele></trkpt>
    <trkpt lat="45.35388701151235" lon="-121.9807577154738"><ele>383.4</ele></trkpt>
    <trkpt lat="45.35396899084582" lon="-121.98096520974951"><ele>383.1</ele></trkpt>
    <trkpt lat="45.35415322397158" lon="-121.98143151408956"><ele>382.5</ele></trkpt>
    <trkpt lat="45.354240051545204" lon="-121.98165127953213"><ele>382.1</ele></trkpt>
    <trkpt lat="45.35439299148454" lon="-121.982038379068"><ele>381.4</ele></trkpt>
    <trkpt lat="45.354479819058156" lon="-121.98225814451058"><ele>381.1</ele></trkpt>
    <trkpt lat="45.354567087380886" lon="-121.98247902551375"><ele>380.8</ele></trkpt>
    <trkpt lat="45.35493775737794" lon="-121.98341721199697"><ele>379.5</ele></trkpt>
    <trkpt lat="45.3551122940234" lon="-121.98385897400333"><ele>378.8</ele></trkpt>
    <trkpt lat="45.355221159052256" lon="-121.98413451747699"><ele>378.4</ele></trkpt>
    <trkpt lat="45.355373658242485" lon="-121.98452050145227"><ele>377.9</ele></trkpt>
    <trkpt lat="45.35556979159408" lon="-121.9850169259291"><ele>377.1</ele></trkpt>
    <trkpt lat="45.35574432823954" lon="-121.98545868793548"><ele>376.5</ele></trkpt>
    <trkpt lat="45.355875230723626" lon="-121.98579000944025"><ele>376.0</ele></trkpt>
    <trkpt lat="45.35594046159112" lon="-121.98595511241231"><ele>375.8</ele></trkpt>
    <trkpt lat="45.35602817066295" lon="-121.98617710897612"><ele>375.4</ele></trkpt>
    <trkpt lat="45.35613835793913" lon="-121.98645599913166"><ele>375.0</ele></trkpt>
    <trkpt lat="45.356226067010965" lon="-121.98667799569546"><ele>374.6</ele></trkpt>
    <trkpt lat="45.35633669503625" lon="-121.98695800141164"><ele>374.2</ele></trkpt>
    <trkpt lat="45.356490516473784" lon="-121.98734733206874"><ele>373.8</ele></trkpt>
    <trkpt lat="45.35662274120519" lon="-121.98768200025539"><ele>373.4</ele></trkpt>
    <trkpt lat="45.3566888535709" lon="-121.98784933434871"><ele>373.4</ele></trkpt>
    <trkpt lat="45.356732928481364" lon="-121.98796089041092"><ele>373.4</ele></trkpt>
    <trkpt lat="45.35677700339184" lon="-121.98807244647313"><ele>373.4</ele></trkpt>
    <trkpt lat="45.35688719066801" lon="-121.98835133662867"><ele>373.6</ele></trkpt>
    <trkpt lat="45.35704101210555" lon="-121.9887406672858"><ele>373.7</ele></trkpt>
    <trkpt lat="45.35715119938172" lon="-121.98901955744132"><ele>373.8</ele></trkpt>
    <trkpt lat="45.357261386657896" lon="-121.98929844759687"><ele>373.7</ele></trkpt>
    <trkpt lat="45.357371573934074" lon="-121.9895773377524"><ele>373.6</ele></trkpt>
    <trkpt lat="45.357459723755014" lon="-121.98980044987682"><ele>373.4</ele></trkpt>
    <trkpt lat="45.357525836120715" lon="-121.98996778397013"><ele>373.3</ele></trkpt>
    <trkpt lat="45.35772373246872" lon="-121.99046867068948"><ele>372.8</ele></trkpt>
    <trkpt lat="45.35783524199221" lon="-121.99075090752689"><ele>372.7</ele></trkpt>
    <trkpt lat="45.3578991506124" lon="-121.9909126638171"><ele>372.5</ele></trkpt>
    <trkpt lat="45.357963059232574" lon="-121.9910744201073"><ele>372.3</ele></trkpt>
    <trkpt lat="45.358368989157995" lon="-121.99210185144028"><ele>370.7</ele></trkpt>
    <trkpt lat="45.35849548415105" lon="-121.99242201733884"><ele>370.1</ele></trkpt>
    <trkpt lat="45.35855" lon="-121.99256000000001"><ele>369.9</ele></trkpt>
    <trkpt lat="45.35858160114622" lon="-121.9926349752685"><ele>369.7</ele></trkpt>
    <trkpt lat="45.35871436949815" lon="-121.99294997469171"><ele>369.2</ele></trkpt>
    <trkpt lat="45.35886980561749" lon="-121.99331875450423"><ele>368.6</ele></trkpt>
    <trkpt lat="45.35906000000001" lon="-121.99377000000001"><ele>368.2</ele></trkpt>
    <trkpt lat="45.359119147734866" lon="-121.9939013079714"><ele>368.0</ele></trkpt>
    <trkpt lat="45.35937929893341" lon="-121.99447884363218"><ele>367.4</ele></trkpt>
    <trkpt lat="45.359475399562726" lon="-121.99469218702927"><ele>367.2</ele></trkpt>
    <trkpt lat="45.35959528267102" lon="-121.99495832752967"><ele>366.8</ele></trkpt>
    <trkpt lat="45.35976321609397" lon="-121.99533113972859"><ele>366.3</ele></trkpt>
    <trkpt lat="45.35985931672329" lon="-121.99554448312568"><ele>366.1</ele></trkpt>
    <trkpt lat="45.360060000000004" lon="-121.99599"><ele>365.9</ele></trkpt>
    <trkpt lat="45.360089923217615" lon="-121.99605317123716"><ele>365.9</ele></trkpt>
    <trkpt lat="45.36030457916104" lon="-121.99650633378442"><ele>365.9</ele></trkpt>
    <trkpt lat="45.360499629526494" lon="-121.99691810677817"><ele>366.1</ele></trkpt>
    <trkpt lat="45.360510000000005" lon="-121.99694000000001"><ele>366.1</ele></trkpt>
    <trkpt lat="45.36070807075254" lon="-121.99731633442983"><ele>366.3</ele></trkpt>
    <trkpt lat="45.36088545362384" lon="-121.99765336188528"><ele>365.9</ele></trkpt>
    <trkpt lat="45.361039652715604" lon="-121.99794634015964"><ele>365.9</ele></trkpt>
    <trkpt lat="45.361110000000004" lon="-121.99808000000002"><ele>365.8</ele></trkpt>
    <trkpt lat="45.361142683079755" lon="-121.99814033799342"><ele>365.8</ele></trkpt>
    <trkpt lat="45.361303562504176" lon="-121.99843734616157"><ele>365.8</ele></trkpt>
    <trkpt lat="45.36137" lon="-121.99856000000001"><ele>365.8</ele></trkpt>
    <trkpt lat="45.361589296208166" lon="-121.99891447880226"><ele>365.8</ele></trkpt>
    <trkpt lat="45.3617640193568" lon="-121.99919690800141"><ele>365.8</ele></trkpt>
    <trkpt lat="45.361851380931114" lon="-121.99933812260099"><ele>365.8</ele></trkpt>
    <trkpt lat="45.36205879038306" lon="-121.99967338719455"><ele>366.0</ele></trkpt>
    <trkpt lat="45.362100000000005" lon="-121.99974000000002"><ele>366.0</ele></trkpt>
    <trkpt lat="45.362477491033424" lon="-122.00034246894843"><ele>366.1</ele></trkpt>
    <trkpt lat="45.36253674914759" lon="-122.00043704384046"><ele>366.2</ele></trkpt>
    <trkpt lat="45.362716319190525" lon="-122.00072363442237"><ele>366.4</ele></trkpt>
    <trkpt lat="45.36298567425492" lon="-122.00115352029525"><ele>366.6</ele></trkpt>
    <trkpt lat="45.363284359093" lon="-122.00163021596316"><ele>366.8</ele></trkpt>
    <trkpt lat="45.36349385747641" lon="-122.00196457164206"><ele>367.0</ele></trkpt>
    <trkpt lat="45.363793140881306" lon="-122.0024422226119"><ele>367.2</ele></trkpt>
    <trkpt lat="45.36388232733596" lon="-122.00258456260093"><ele>367.3</ele></trkpt>
    <trkpt lat="45.364091825719385" lon="-122.00291891827982"><ele>367.5</ele></trkpt>
    <trkpt lat="45.364271395762316" lon="-122.00320550886173"><ele>367.7</ele></trkpt>
    <trkpt lat="45.36433125244329" lon="-122.00330103905571"><ele>367.7</ele></trkpt>
    <trkpt lat="45.36471972230284" lon="-122.00392103001458"><ele>368.2</ele></trkpt>
    <trkpt lat="45.364959149026745" lon="-122.00430315079046"><ele>368.4</ele></trkpt>
    <trkpt lat="45.36516864741017" lon="-122.00463750646935"><ele>368.7</ele></trkpt>
    <trkpt lat="45.365227905524335" lon="-122.00473208136138"><ele>368.8</ele></trkpt>
    <trkpt lat="45.36537754722678" lon="-122.00497090684632"><ele>368.9</ele></trkpt>
    <trkpt lat="45.36567683063167" lon="-122.00544855781618"><ele>369.2</ele></trkpt>
    <trkpt lat="45.3658564006746" lon="-122.00573514839809"><ele>369.3</ele></trkpt>
    <trkpt lat="45.36600544381024" lon="-122.00597301858107"><ele>369.4</ele></trkpt>
    <trkpt lat="45.36633465555561" lon="-122.00649843464791"><ele>369.7</ele></trkpt>
    <trkpt lat="45.36642384201026" lon="-122.00664077463694"><ele>369.8</ele></trkpt>
    <trkpt lat="45.36648369869124" lon="-122.0067363048309"><ele>369.8</ele></trkpt>
    <trkpt lat="45.366580000000006" lon="-122.00689000000001"><ele>369.9</ele></trkpt>
    <trkpt lat="45.366781103662" lon="-122.00721292607264"><ele>370.0</ele></trkpt>
    <trkpt lat="45.3668705855361" lon="-122.00735661331278"><ele>370.0</ele></trkpt>
    <trkpt lat="45.3670191254471" lon="-122.0075951341314"><ele>370.1</ele></trkpt>
    <trkpt lat="45.36719749264947" lon="-122.00788155069674"><ele>370.3</ele></trkpt>
    <trkpt lat="45.367702766965195" lon="-122.00869290464604"><ele>370.6</ele></trkpt>
    <trkpt lat="45.36832735044639" lon="-122.00969584158219"><ele>371.1</ele></trkpt>
    <trkpt lat="45.368446063066024" lon="-122.00988646665411"><ele>371.1</ele></trkpt>
    <trkpt lat="45.368594602977026" lon="-122.01012498747272"><ele>371.1</ele></trkpt>
    <trkpt lat="45.368660000000006" lon="-122.01023"><ele>371.1</ele></trkpt>
    <trkpt lat="45.368711098998126" lon="-122.01031996302487"><ele>371.1</ele></trkpt>
    <trkpt lat="45.368992677146686" lon="-122.01081569920191"><ele>371.1</ele></trkpt>
    <trkpt lat="45.36904921894359" lon="-122.01091524461899"><ele>371.0</ele></trkpt>
    <trkpt lat="45.36910519532252" lon="-122.01101379458188"><ele>371.0</ele></trkpt>
    <trkpt lat="45.36924654981477" lon="-122.0112626581246"><ele>370.7</ele></trkpt>
    <trkpt lat="45.36937" lon="-122.01148"><ele>370.4</ele></trkpt>
    <trkpt lat="45.369412750417496" lon="-122.0115618365135"><ele>370.3</ele></trkpt>
    <trkpt lat="45.36960003191827" lon="-122.01192034681497"><ele>369.8</ele></trkpt>
    <trkpt lat="45.36970735656055" lon="-122.01212579684449"><ele>369.5</ele></trkpt>
    <trkpt lat="45.36972" lon="-122.01215"><ele>369.4</ele></trkpt>
    <trkpt lat="45.369830273283256" lon="-122.0123921687789"><ele>369.0</ele></trkpt>
    <trkpt lat="45.36997652893572" lon="-122.01271335766276"><ele>368.4</ele></trkpt>
    <trkpt lat="45.37004990133662" lon="-122.01287448920984"><ele>368.0</ele></trkpt>
    <trkpt lat="45.37023000000001" lon="-122.01327"><ele>367.0</ele></trkpt>
    <trkpt lat="45.37026642816781" lon="-122.01335803473887"><ele>366.8</ele></trkpt>
    <trkpt lat="45.37033489142746" lon="-122.01352348761637"><ele>366.4</ele></trkpt>
    <trkpt lat="45.37058501053605" lon="-122.01412794212878"><ele>364.7</ele></trkpt>
    <trkpt lat="45.37065301737396" lon="-122.01429229198709"><ele>364.3</ele></trkpt>
    <trkpt lat="45.370698659547074" lon="-122.01440259390542"><ele>363.9</ele></trkpt>
    <trkpt lat="45.37071" lon="-122.01443"><ele>363.8</ele></trkpt>
    <trkpt lat="45.37085855941006" lon="-122.01485976115052"><ele>362.4</ele></trkpt>
    <trkpt lat="45.370990000000006" lon="-122.01524"><ele>361.1</ele></trkpt>
    <trkpt lat="45.37099666420907" lon="-122.01526094465707"><ele>361.0</ele></trkpt>
    <trkpt lat="45.37103339703946" lon="-122.01537639069542"><ele>360.6</ele></trkpt>
    <trkpt lat="45.371107604777606" lon="-122.01560961501532"><ele>359.7</ele></trkpt>
    <trkpt lat="45.37114433760799" lon="-122.01572506105367"><ele>359.3</ele></trkpt>
    <trkpt lat="45.37131056294145" lon="-122.01624748353026"><ele>357.0</ele></trkpt>
    <trkpt lat="45.3713847706796" lon="-122.01648070785016"><ele>355.9</ele></trkpt>
    <trkpt lat="45.371410000000004" lon="-122.01656000000001"><ele>355.5</ele></trkpt>
    <trkpt lat="45.37151792797633" lon="-122.01695629429886"><ele>353.7</ele></trkpt>
    <trkpt lat="45.37161545221856" lon="-122.01731438774709"><ele>352.0</ele></trkpt>
    <trkpt lat="45.37169672242043" lon="-122.01761279895396"><ele>350.6</ele></trkpt>
    <trkpt lat="45.37179424666268" lon="-122.0179708924022"><ele>349.0</ele></trkpt>
    <trkpt lat="45.37203545662182" lon="-122.01885657686418"><ele>344.9</ele></trkpt>
    <trkpt lat="45.372115426500464" lon="-122.01915021349171"><ele>343.5</ele></trkpt>
    <trkpt lat="45.372179467419535" lon="-122.01938536152272"><ele>342.3</ele></trkpt>
    <trkpt lat="45.37225911221737" lon="-122.01967780450546"><ele>341.2</ele></trkpt>
    <trkpt lat="45.372355011055575" lon="-122.02002992972956"><ele>339.7</ele></trkpt>
    <trkpt lat="45.37248244273211" lon="-122.02049783850191"><ele>337.8</ele></trkpt>
    <trkpt lat="45.37256241261075" lon="-122.02079147512947"><ele>336.5</ele></trkpt>
    <trkpt lat="45.372706748489264" lon="-122.02132145343286"><ele>334.4</ele></trkpt>
    <trkpt lat="45.372755185529584" lon="-122.02149930651217"><ele>333.8</ele></trkpt>
    <trkpt lat="45.372852384691015" lon="-122.02185620631556"><ele>332.6</ele></trkpt>
    <trkpt lat="45.37288456769095" lon="-122.02197437715347"><ele>332.2</ele></trkpt>
    <trkpt lat="45.37293332981207" lon="-122.0221534238776"><ele>331.7</ele></trkpt>
    <trkpt lat="45.372981766852384" lon="-122.02233127695689"><ele>331.2</ele></trkpt>
    <trkpt lat="45.373013949852336" lon="-122.02244944779481"><ele>331.0</ele></trkpt>
    <trkpt lat="45.373046457933086" lon="-122.02256881227757"><ele>330.8</ele></trkpt>
    <trkpt lat="45.373111149013766" lon="-122.02280634759822"><ele>330.4</ele></trkpt>
    <trkpt lat="45.37315958605408" lon="-122.02298420067751"><ele>330.2</ele></trkpt>
    <trkpt lat="45.37323825560949" lon="-122.02327306272576"><ele>329.8</ele></trkpt>
    <trkpt lat="45.37330164636695" lon="-122.0235058234671"><ele>329.6</ele></trkpt>
    <trkpt lat="45.373348783084026" lon="-122.02367890196709"><ele>329.5</ele></trkpt>
    <trkpt lat="45.373443706679815" lon="-122.0240274462567"><ele>329.3</ele></trkpt>
    <trkpt lat="45.37355553447759" lon="-122.02443806007736"><ele>329.3</ele></trkpt>
    <trkpt lat="45.373795444113505" lon="-122.02531896996001"><ele>329.2</ele></trkpt>
    <trkpt lat="45.37403470358781" lon="-122.02619749255302"><ele>329.3</ele></trkpt>
    <trkpt lat="45.37417708898148" lon="-122.02672030898744"><ele>329.1</ele></trkpt>
    <trkpt lat="45.374272012577265" lon="-122.02706885327706"><ele>329.1</ele></trkpt>
    <trkpt lat="45.37446185976883" lon="-122.0277659418563"><ele>328.8</ele></trkpt>
    <trkpt lat="45.37450932156673" lon="-122.02794021400109"><ele>328.8</ele></trkpt>
    <trkpt lat="45.37455678336462" lon="-122.02811448614591"><ele>328.8</ele></trkpt>
    <trkpt lat="45.374669586404806" lon="-122.02852868090103"><ele>328.9</ele></trkpt>
    <trkpt lat="45.374733627323884" lon="-122.02876382893204"><ele>328.7</ele></trkpt>
    <trkpt lat="45.37481359720252" lon="-122.0290574655596"><ele>328.4</ele></trkpt>
    <trkpt lat="45.37484545512166" lon="-122.02917444275269"><ele>328.2</ele></trkpt>
    <trkpt lat="45.374891616596315" lon="-122.02934394031818"><ele>328.1</ele></trkpt>
    <trkpt lat="45.37493810315179" lon="-122.02951463152851"><ele>327.9</ele></trkpt>
    <trkpt lat="45.37500019358602" lon="-122.02974261769056"><ele>327.7</ele></trkpt>
    <trkpt lat="45.37504668014148" lon="-122.02991330890089"><ele>327.4</ele></trkpt>
    <trkpt lat="45.37514257897969" lon="-122.03026543412497"><ele>327.2</ele></trkpt>
    <trkpt lat="45.375302518736966" lon="-122.03085270738008"><ele>326.7</ele></trkpt>
    <trkpt lat="45.37543027549431" lon="-122.03132180979728"><ele>326.4</ele></trkpt>
    <trkpt lat="45.375477087130584" lon="-122.03149369465244"><ele>326.3</ele></trkpt>
    <trkpt lat="45.37555510652438" lon="-122.03178016941102"><ele>326.1</ele></trkpt>
    <trkpt lat="45.375656856817116" lon="-122.03215378024201"><ele>325.8</ele></trkpt>
    <trkpt lat="45.37578266308961" lon="-122.03261572079023"><ele>325.3</ele></trkpt>
    <trkpt lat="45.37589319056415" lon="-122.03302156003157"><ele>325.1</ele></trkpt>
    <trkpt lat="45.37592" lon="-122.03312000000001"><ele>325.0</ele></trkpt>
    <trkpt lat="45.376048997057794" lon="-122.03360289030186"><ele>324.9</ele></trkpt>
    <trkpt lat="45.37609566911079" lon="-122.03377760344763"><ele>324.8</ele></trkpt>
    <trkpt lat="45.37617334930859" lon="-122.03406839313544"><ele>324.6</ele></trkpt>
    <trkpt lat="45.37628331633758" lon="-122.03448004602684"><ele>324.2</ele></trkpt>
    <trkpt lat="45.37645625867094" lon="-122.03512744199847"><ele>323.6</ele></trkpt>
    <trkpt lat="45.37651923397533" lon="-122.03536318507872"><ele>323.4</ele></trkpt>
    <trkpt lat="45.37655088146333" lon="-122.03548165495152"><ele>323.2</ele></trkpt>
    <trkpt lat="45.376629520675905" lon="-122.03577603463549"><ele>322.8</ele></trkpt>
    <trkpt lat="45.376708159888494" lon="-122.03607041431945"><ele>322.5</ele></trkpt>
    <trkpt lat="45.37677113519288" lon="-122.03630615739968"><ele>322.2</ele></trkpt>
    <trkpt lat="45.37685680718059" lon="-122.03662686372205"><ele>321.8</ele></trkpt>
    <trkpt lat="45.37691402839624" lon="-122.03684106682542"><ele>321.7</ele></trkpt>
    <trkpt lat="45.376959741434455" lon="-122.03701218997503"><ele>321.4</ele></trkpt>
    <trkpt lat="45.37705180685407" lon="-122.03735682960505"><ele>320.6</ele></trkpt>
    <trkpt lat="45.37712820836549" lon="-122.03764283263132"><ele>320.1</ele></trkpt>
    <trkpt lat="45.37730402774322" lon="-122.03830099859138"><ele>319.0</ele></trkpt>
    <trkpt lat="45.37735006045303" lon="-122.03847331840639"><ele>318.8</ele></trkpt>
    <trkpt lat="45.37738170794102" lon="-122.03859178827919"><ele>318.6</ele></trkpt>
    <trkpt lat="45.37741367510061" lon="-122.03871145481739"><ele>318.5</ele></trkpt>
    <trkpt lat="45.37744000000001" lon="-122.03881000000001"><ele>318.5</ele></trkpt>
    <trkpt lat="45.37746161716904" lon="-122.03888959048601"><ele>318.4</ele></trkpt>
    <trkpt lat="45.377524863032185" lon="-122.03912245025487"><ele>318.3</ele></trkpt>
    <trkpt lat="45.37758843323309" lon="-122.03935650417638"><ele>318.2</ele></trkpt>
  </trkseg></trk>
</gpx>
