<?xml version="1.0" encoding="UTF-8"?>
<gpx version="1.1" creator="h2c-tracker" xmlns="http://www.topografix.com/GPX/1/1">
  <metadata><name>Hood to Coast 2026 — Leg 25 (3.8 mi)</name><desc>Derived from the official Hood to Coast Strava route (simplified, 378 points, ~3.77 mi). Verify against the official leg map PDF.</desc></metadata>
  <wpt lat="46.00285205573658" lon="-123.27836253347871"><name>Exchange 24 — Mist - HWY 202</name></wpt>
  <wpt lat="45.995683105170016" lon="-123.33424602731054"><name>Exchange 25 — HWY 202 m.p. 41.3, Birkenfeld</name></wpt>
  <trk><name>HTC Leg 25</name><trkseg>
    <trkpt lat="46.00285205573658" lon="-123.27836253347871"><ele>161.4</ele></trkpt>
    <trkpt lat="46.002880000000005" lon="-123.27863"><ele>161.5</ele></trkpt>
    <trkpt lat="46.00294542736334" lon="-123.27892078828151"><ele>161.6</ele></trkpt>
    <trkpt lat="46.002970000000005" lon="-123.27903"><ele>161.7</ele></trkpt>
    <trkpt lat="46.00310454906853" lon="-123.27951633882061"><ele>162.0</ele></trkpt>
    <trkpt lat="46.00315280057705" lon="-123.27969074791912"><ele>162.1</ele></trkpt>
    <trkpt lat="46.00334613938014" lon="-123.28038958713447"><ele>162.3</ele></trkpt>
    <trkpt lat="46.003426669484014" lon="-123.28068066990575"><ele>162.5</ele></trkpt>
    <trkpt lat="46.00357142400957" lon="-123.28120389720125"><ele>162.6</ele></trkpt>
    <trkpt lat="46.0036376450454" lon="-123.28144325865367"><ele>162.6</ele></trkpt>
    <trkpt lat="46.00378672556826" lon="-123.28198212262694"><ele>162.7</ele></trkpt>
    <trkpt lat="46.00390252918871" lon="-123.28240070446336"><ele>162.8</ele></trkpt>
    <trkpt lat="46.0040176672711" lon="-123.28281688065701"><ele>162.8</ele></trkpt>
    <trkpt lat="46.00406724985572" lon="-123.28299610104098"><ele>162.9</ele></trkpt>
    <trkpt lat="46.004166415024955" lon="-123.28335454180893"><ele>163.0</ele></trkpt>
    <trkpt lat="46.00441432794803" lon="-123.28425064372878"><ele>163.3</ele></trkpt>
    <trkpt lat="46.004530131568465" lon="-123.28466922556518"><ele>163.3</ele></trkpt>
    <trkpt lat="46.00461265828649" lon="-123.28496752526468"><ele>163.3</ele></trkpt>
    <trkpt lat="46.00469551777353" lon="-123.28526702778555"><ele>163.2</ele></trkpt>
    <trkpt lat="46.00479435017373" lon="-123.28562426573212"><ele>163.1</ele></trkpt>
    <trkpt lat="46.00484393275835" lon="-123.28580348611611"><ele>163.0</ele></trkpt>
    <trkpt lat="46.00487687689174" lon="-123.28592256543162"><ele>163.0</ele></trkpt>
    <trkpt lat="46.00489" lon="-123.28597"><ele>162.9</ele></trkpt>
    <trkpt lat="46.00501149731756" lon="-123.28632774210169"><ele>162.9</ele></trkpt>
    <trkpt lat="46.00507" lon="-123.2865"><ele>162.9</ele></trkpt>
    <trkpt lat="46.005255681972976" lon="-123.28693888466341"><ele>162.8</ele></trkpt>
    <trkpt lat="46.00529" lon="-123.28702000000001"><ele>162.7</ele></trkpt>
    <trkpt lat="46.00541066036701" lon="-123.28725166790467"><ele>162.6</ele></trkpt>
    <trkpt lat="46.00554" lon="-123.28750000000001"><ele>162.6</ele></trkpt>
    <trkpt lat="46.005545118959624" lon="-123.28750776669736"><ele>162.6</ele></trkpt>
    <trkpt lat="46.00583" lon="-123.28794"><ele>162.4</ele></trkpt>
    <trkpt lat="46.0058541857703" lon="-123.28796858318309"><ele>162.4</ele></trkpt>
    <trkpt lat="46.006059246137646" lon="-123.28821092725359"><ele>162.2</ele></trkpt>
    <trkpt lat="46.00616" lon="-123.28833000000002"><ele>162.1</ele></trkpt>
    <trkpt lat="46.00623461089914" lon="-123.28840241646094"><ele>162.1</ele></trkpt>
    <trkpt lat="46.006491130236356" lon="-123.28865139111176"><ele>161.9</ele></trkpt>
    <trkpt lat="46.0065" lon="-123.28866000000001"><ele>161.9</ele></trkpt>
    <trkpt lat="46.00668606429765" lon="-123.28879905337138"><ele>161.9</ele></trkpt>
    <trkpt lat="46.00692153276505" lon="-123.28897502847602"><ele>161.8</ele></trkpt>
    <trkpt lat="46.00711788952091" lon="-123.2891217738175"><ele>161.8</ele></trkpt>
    <trkpt lat="46.00743078321318" lon="-123.28935561192262"><ele>161.8</ele></trkpt>
    <trkpt lat="46.00750980483445" lon="-123.28941466797468"><ele>161.8</ele></trkpt>
    <trkpt lat="46.00786659942742" lon="-123.28968131499764"><ele>162.0</ele></trkpt>
    <trkpt lat="46.008024642669945" lon="-123.28979942710174"><ele>162.1</ele></trkpt>
    <trkpt lat="46.00814357420094" lon="-123.28988830944273"><ele>162.2</ele></trkpt>
    <trkpt lat="46.008341527353195" lon="-123.29003624783576"><ele>162.5</ele></trkpt>
    <trkpt lat="46.00857939041518" lon="-123.29021401251774"><ele>162.7</ele></trkpt>
    <trkpt lat="46.00920757239431" lon="-123.29068347830533"><ele>163.2</ele></trkpt>
    <trkpt lat="46.00928579581738" lon="-123.29074193783161"><ele>163.2</ele></trkpt>
    <trkpt lat="46.00944224266352" lon="-123.29085885688417"><ele>163.2</ele></trkpt>
    <trkpt lat="46.009559577798115" lon="-123.2909465461736"><ele>163.2</ele></trkpt>
    <trkpt lat="46.00967771113091" lon="-123.2910348319888"><ele>163.2</ele></trkpt>
    <trkpt lat="46.010068828246254" lon="-123.2913271296202"><ele>163.0</ele></trkpt>
    <trkpt lat="46.01026" lon="-123.29147"><ele>162.9</ele></trkpt>
    <trkpt lat="46.01040834476436" lon="-123.29159595310182"><ele>162.7</ele></trkpt>
    <trkpt lat="46.010482712406905" lon="-123.29165909543984"><ele>162.7</ele></trkpt>
    <trkpt lat="46.01070504067159" lon="-123.29184786472115"><ele>162.3</ele></trkpt>
    <trkpt lat="46.01079000000001" lon="-123.29192"><ele>162.3</ele></trkpt>
    <trkpt lat="46.011030000000005" lon="-123.29219"><ele>162.0</ele></trkpt>
    <trkpt lat="46.011051862950346" lon="-123.29221823964419"><ele>162.0</ele></trkpt>
    <trkpt lat="46.01127" lon="-123.2925"><ele>161.8</ele></trkpt>
    <trkpt lat="46.01136886844468" lon="-123.29265433123072"><ele>161.7</ele></trkpt>
    <trkpt lat="46.01151642871072" lon="-123.29288466920698"><ele>161.6</ele></trkpt>
    <trkpt lat="46.01163594033115" lon="-123.29307122393158"><ele>161.5</ele></trkpt>
    <trkpt lat="46.011680000000005" lon="-123.29314000000001"><ele>161.5</ele></trkpt>
    <trkpt lat="46.011913740474554" lon="-123.29363419414621"><ele>161.3</ele></trkpt>
    <trkpt lat="46.0119896726763" lon="-123.29379473651562"><ele>161.1</ele></trkpt>
    <trkpt lat="46.01203" lon="-123.29388000000002"><ele>161.1</ele></trkpt>
    <trkpt lat="46.012132869059755" lon="-123.29419717960093"><ele>160.9</ele></trkpt>
    <trkpt lat="46.01227" lon="-123.29462000000001"><ele>160.7</ele></trkpt>
    <trkpt lat="46.01232982788877" lon="-123.29491540020081"><ele>160.6</ele></trkpt>
    <trkpt lat="46.01243" lon="-123.29541"><ele>160.5</ele></trkpt>
    <trkpt lat="46.012430020001105" lon="-123.29541017143798"><ele>160.5</ele></trkpt>
    <trkpt lat="46.01246726651242" lon="-123.29572942724928"><ele>160.4</ele></trkpt>
    <trkpt lat="46.0125" lon="-123.29601000000001"><ele>160.4</ele></trkpt>
    <trkpt lat="46.01250112561019" lon="-123.29604789554303"><ele>160.4</ele></trkpt>
    <trkpt lat="46.01251453689984" lon="-123.29649940896111"><ele>160.4</ele></trkpt>
    <trkpt lat="46.012520262636684" lon="-123.29669217543473"><ele>160.5</ele></trkpt>
    <trkpt lat="46.01252983114993" lon="-123.29701431538057"><ele>160.6</ele></trkpt>
    <trkpt lat="46.012530000000005" lon="-123.29702"><ele>160.6</ele></trkpt>
    <trkpt lat="46.01252416788269" lon="-123.29746615697451"><ele>160.9</ele></trkpt>
    <trkpt lat="46.01251826140193" lon="-123.29791800275294"><ele>161.3</ele></trkpt>
    <trkpt lat="46.01251656900056" lon="-123.29804747145734"><ele>161.3</ele></trkpt>
    <trkpt lat="46.012512354921164" lon="-123.29836984853134"><ele>161.4</ele></trkpt>
    <trkpt lat="46.01250138816032" lon="-123.29920880573596"><ele>161.7</ele></trkpt>
    <trkpt lat="46.012491267600154" lon="-123.29998302858837"><ele>161.9</ele></trkpt>
    <trkpt lat="46.012487899721435" lon="-123.30024067131018"><ele>162.0</ele></trkpt>
    <trkpt lat="46.01248104549591" lon="-123.30076501956304"><ele>162.1</ele></trkpt>
    <trkpt lat="46.01247742375699" lon="-123.30104208259053"><ele>162.1</ele></trkpt>
    <trkpt lat="46.01247106032786" lon="-123.30152888491912"><ele>162.0</ele></trkpt>
    <trkpt lat="46.012467895537306" lon="-123.30177099139638"><ele>162.0</ele></trkpt>
    <trkpt lat="46.01245899350613" lon="-123.30245199678163"><ele>161.8</ele></trkpt>
    <trkpt lat="46.01244887294597" lon="-123.30322621963404"><ele>161.6</ele></trkpt>
    <trkpt lat="46.01244379574187" lon="-123.30361462574729"><ele>161.5</ele></trkpt>
    <trkpt lat="46.01243788926111" lon="-123.3040664715257"><ele>161.4</ele></trkpt>
    <trkpt lat="46.01243452138239" lon="-123.30432411424748"><ele>161.4</ele></trkpt>
    <trkpt lat="46.01242873336972" lon="-123.3047668972166"><ele>161.2</ele></trkpt>
    <trkpt lat="46.01242690557625" lon="-123.30490672341737"><ele>161.2</ele></trkpt>
    <trkpt lat="46.0124252300989" lon="-123.30503489743474"><ele>161.2</ele></trkpt>
    <trkpt lat="46.01242353769753" lon="-123.30516436613917"><ele>161.3</ele></trkpt>
    <trkpt lat="46.01242186222018" lon="-123.30529254015653"><ele>161.3</ele></trkpt>
    <trkpt lat="46.01241847741745" lon="-123.30555147756536"><ele>161.6</ele></trkpt>
    <trkpt lat="46.012415955739414" lon="-123.30574438593494"><ele>161.8</ele></trkpt>
    <trkpt lat="46.012414263338044" lon="-123.30587385463936"><ele>162.0</ele></trkpt>
    <trkpt lat="46.01241089545933" lon="-123.30613149736115"><ele>162.5</ele></trkpt>
    <trkpt lat="46.01241" lon="-123.3062"><ele>162.6</ele></trkpt>
    <trkpt lat="46.01241766907407" lon="-123.30638885094876"><ele>163.1</ele></trkpt>
    <trkpt lat="46.01242811572865" lon="-123.30664609981793"><ele>163.7</ele></trkpt>
    <trkpt lat="46.012443811958406" lon="-123.30703261947565"><ele>164.8</ele></trkpt>
    <trkpt lat="46.01245425861299" lon="-123.30728986834481"><ele>165.5</ele></trkpt>
    <trkpt lat="46.01246733005516" lon="-123.30761175260824"><ele>166.4</ele></trkpt>
    <trkpt lat="46.01247520441792" lon="-123.30780565879103"><ele>166.9</ele></trkpt>
    <trkpt lat="46.012480401497335" lon="-123.30793363687168"><ele>167.2</ele></trkpt>
    <trkpt lat="46.01249000000001" lon="-123.30817"><ele>167.5</ele></trkpt>
    <trkpt lat="46.012501898776044" lon="-123.30831943462844"><ele>167.8</ele></trkpt>
    <trkpt lat="46.01251716194581" lon="-123.30851112208406"><ele>168.0</ele></trkpt>
    <trkpt lat="46.01253232267819" lon="-123.30870152304666"><ele>168.1</ele></trkpt>
    <trkpt lat="46.012542361541534" lon="-123.30882759935973"><ele>168.2</ele></trkpt>
    <trkpt lat="46.012557522273916" lon="-123.30901800032234"><ele>168.1</ele></trkpt>
    <trkpt lat="46.01257760000059" lon="-123.3092701529485"><ele>168.0</ele></trkpt>
    <trkpt lat="46.01259276073297" lon="-123.3094605539111"><ele>167.8</ele></trkpt>
    <trkpt lat="46.01260792146536" lon="-123.30965095487372"><ele>167.6</ele></trkpt>
    <trkpt lat="46.01264315992442" lon="-123.31009350846249"><ele>167.1</ele></trkpt>
    <trkpt lat="46.012663340088466" lon="-123.31034694758162"><ele>166.8</ele></trkpt>
    <trkpt lat="46.01269857854753" lon="-123.31078950117039"><ele>166.4</ele></trkpt>
    <trkpt lat="46.01271373927992" lon="-123.310979902133"><ele>166.3</ele></trkpt>
    <trkpt lat="46.012723778143254" lon="-123.31110597844608"><ele>166.2</ele></trkpt>
    <trkpt lat="46.012738938875636" lon="-123.31129637940867"><ele>166.2</ele></trkpt>
    <trkpt lat="46.012748977738966" lon="-123.31142245572177"><ele>166.2</ele></trkpt>
    <trkpt lat="46.012764138471354" lon="-123.31161285668438"><ele>166.3</ele></trkpt>
    <trkpt lat="46.01277417733469" lon="-123.31173893299746"><ele>166.3</ele></trkpt>
    <trkpt lat="46.01279937693042" lon="-123.31205541027315"><ele>166.6</ele></trkpt>
    <trkpt lat="46.01280951823113" lon="-123.31218277307921"><ele>166.8</ele></trkpt>
    <trkpt lat="46.01282488383828" lon="-123.3123757470278"><ele>166.9</ele></trkpt>
    <trkpt lat="46.01283" lon="-123.31244000000001"><ele>167.0</ele></trkpt>
    <trkpt lat="46.01283" lon="-123.31269776217928"><ele>167.2</ele></trkpt>
    <trkpt lat="46.01283" lon="-123.31282595973299"><ele>167.3</ele></trkpt>
    <trkpt lat="46.01283" lon="-123.31289000000001"><ele>167.3</ele></trkpt>
    <trkpt lat="46.01283" lon="-123.31288"><ele>167.3</ele></trkpt>
    <trkpt lat="46.01281" lon="-123.31328"><ele>167.4</ele></trkpt>
    <trkpt lat="46.01274" lon="-123.31369000000001"><ele>167.6</ele></trkpt>
    <trkpt lat="46.01273854088623" lon="-123.3136962292934"><ele>167.6</ele></trkpt>
    <trkpt lat="46.01269571706854" lon="-123.31387905405357"><ele>167.6</ele></trkpt>
    <trkpt lat="46.01265289325084" lon="-123.31406187881373"><ele>167.6</ele></trkpt>
    <trkpt lat="46.01260978202497" lon="-123.31424593058571"><ele>167.5</ele></trkpt>
    <trkpt lat="46.01250976398096" lon="-123.31467293069672"><ele>167.3</ele></trkpt>
    <trkpt lat="46.012480000000004" lon="-123.3148"><ele>167.2</ele></trkpt>
    <trkpt lat="46.01244016017028" lon="-123.3149035835573"><ele>167.2</ele></trkpt>
    <trkpt lat="46.01239789789881" lon="-123.31501346546311"><ele>167.1</ele></trkpt>
    <trkpt lat="46.01238" lon="-123.31506000000002"><ele>167.0</ele></trkpt>
    <trkpt lat="46.01232043954141" lon="-123.31516537619598"><ele>166.8</ele></trkpt>
    <trkpt lat="46.01225" lon="-123.31529"><ele>166.5</ele></trkpt>
    <trkpt lat="46.01223446986858" lon="-123.31530747139784"><ele>166.5</ele></trkpt>
    <trkpt lat="46.01209" lon="-123.31547"><ele>165.8</ele></trkpt>
    <trkpt lat="46.01199064142312" lon="-123.31557520319905"><ele>165.4</ele></trkpt>
    <trkpt lat="46.01192" lon="-123.31565"><ele>165.1</ele></trkpt>
    <trkpt lat="46.011839034423815" lon="-123.31569498087566"><ele>164.9</ele></trkpt>
    <trkpt lat="46.01174" lon="-123.31575000000001"><ele>164.6</ele></trkpt>
    <trkpt lat="46.011715994479495" lon="-123.31576080248423"><ele>164.5</ele></trkpt>
    <trkpt lat="46.011540000000004" lon="-123.31584000000001"><ele>164.1</ele></trkpt>
    <trkpt lat="46.011463982930096" lon="-123.31586649557624"><ele>163.9</ele></trkpt>
    <trkpt lat="46.01137832347442" lon="-123.31589635198404"><ele>163.7</ele></trkpt>
    <trkpt lat="46.01125158244306" lon="-123.31594052728127"><ele>163.5</ele></trkpt>
    <trkpt lat="46.01103918195601" lon="-123.3160145589863"><ele>163.2</ele></trkpt>
    <trkpt lat="46.01091156684857" lon="-123.31605903894075"><ele>163.2</ele></trkpt>
    <trkpt lat="46.01074199608937" lon="-123.3161181424419"><ele>163.1</ele></trkpt>
    <trkpt lat="46.0104456842988" lon="-123.31622142124026"><ele>163.2</ele></trkpt>
    <trkpt lat="46.01031544696313" lon="-123.31626681516639"><ele>163.2</ele></trkpt>
    <trkpt lat="46.01018520962745" lon="-123.3163122090925"><ele>163.2</ele></trkpt>
    <trkpt lat="46.00962143055691" lon="-123.31650871300091"><ele>163.3</ele></trkpt>
    <trkpt lat="46.00949119322124" lon="-123.31655410692706"><ele>163.5</ele></trkpt>
    <trkpt lat="46.00923159262596" lon="-123.31664459012208"><ele>163.9</ele></trkpt>
    <trkpt lat="46.009130000000006" lon="-123.31668"><ele>164.0</ele></trkpt>
    <trkpt lat="46.00897249322732" lon="-123.31673797124273"><ele>164.1</ele></trkpt>
    <trkpt lat="46.008584763154346" lon="-123.31688067745014"><ele>164.6</ele></trkpt>
    <trkpt lat="46.00836867987772" lon="-123.31696020810057"><ele>164.8</ele></trkpt>
    <trkpt lat="46.00810990272789" lon="-123.31705545246822"><ele>165.1</ele></trkpt>
    <trkpt lat="46.008023643677944" lon="-123.31708720059078"><ele>165.2</ele></trkpt>
    <trkpt lat="46.00780843170486" lon="-123.3171664105531"><ele>165.5</ele></trkpt>
    <trkpt lat="46.007722172654915" lon="-123.31719815867564"><ele>165.7</ele></trkpt>
    <trkpt lat="46.007690000000004" lon="-123.31721000000002"><ele>165.7</ele></trkpt>
    <trkpt lat="46.00763473245454" lon="-123.3172213369324"><ele>165.7</ele></trkpt>
    <trkpt lat="46.007370304073156" lon="-123.31727557865167"><ele>165.9</ele></trkpt>
    <trkpt lat="46.00723764471683" lon="-123.31730279082734"><ele>166.0</ele></trkpt>
    <trkpt lat="46.00697321633544" lon="-123.3173570325466"><ele>166.4</ele></trkpt>
    <trkpt lat="46.006910000000005" lon="-123.31737000000001"><ele>166.5</ele></trkpt>
    <trkpt lat="46.00657560635055" lon="-123.31742206821532"><ele>167.1</ele></trkpt>
    <trkpt lat="46.006310056206225" lon="-123.31746341685373"><ele>167.5</ele></trkpt>
    <trkpt lat="46.00622153949145" lon="-123.31747719973318"><ele>167.6</ele></trkpt>
    <trkpt lat="46.00604450606188" lon="-123.3175047654921"><ele>167.9</ele></trkpt>
    <trkpt lat="46.00577895591755" lon="-123.3175461141305"><ele>168.6</ele></trkpt>
    <trkpt lat="46.005603710704456" lon="-123.31757340144742"><ele>169.0</ele></trkpt>
    <trkpt lat="46.0055160880979" lon="-123.31758704510587"><ele>169.1</ele></trkpt>
    <trkpt lat="46.00542846549135" lon="-123.31760068876434"><ele>169.2</ele></trkpt>
    <trkpt lat="46.00520851486675" lon="-123.31763493713149"><ele>169.4</ele></trkpt>
    <trkpt lat="46.0051208922602" lon="-123.31764858078995"><ele>169.6</ele></trkpt>
    <trkpt lat="46.00503326965365" lon="-123.31766222444841"><ele>169.7</ele></trkpt>
    <trkpt lat="46.004857130332326" lon="-123.31768965098632"><ele>170.1</ele></trkpt>
    <trkpt lat="46.00454955710118" lon="-123.31773754301194"><ele>170.9</ele></trkpt>
    <trkpt lat="46.00446193449463" lon="-123.31775118667039"><ele>171.1</ele></trkpt>
    <trkpt lat="46.004374311888085" lon="-123.31776483032885"><ele>171.3</ele></trkpt>
    <trkpt lat="46.004241983870024" lon="-123.31778543503755"><ele>171.5</ele></trkpt>
    <trkpt lat="46.0041105499602" lon="-123.31780590052524"><ele>171.7</ele></trkpt>
    <trkpt lat="46.004020000000004" lon="-123.31782000000001"><ele>171.8</ele></trkpt>
    <trkpt lat="46.003979344272494" lon="-123.31782889344039"><ele>171.8</ele></trkpt>
    <trkpt lat="46.00384775493504" lon="-123.31785767860798"><ele>172.0</ele></trkpt>
    <trkpt lat="46.0037" lon="-123.31789"><ele>172.0</ele></trkpt>
    <trkpt lat="46.00367419154942" lon="-123.31790048468307"><ele>172.1</ele></trkpt>
    <trkpt lat="46.00358937041317" lon="-123.31793494326965"><ele>172.1</ele></trkpt>
    <trkpt lat="46.00350454927692" lon="-123.31796940185626"><ele>172.3</ele></trkpt>
    <trkpt lat="46.00338000000001" lon="-123.31802"><ele>172.5</ele></trkpt>
    <trkpt lat="46.00334014016733" lon="-123.31805023849375"><ele>172.5</ele></trkpt>
    <trkpt lat="46.003223184305924" lon="-123.31813896362999"><ele>172.7</ele></trkpt>
    <trkpt lat="46.00314600934977" lon="-123.31819751014848"><ele>172.8</ele></trkpt>
    <trkpt lat="46.003107024062636" lon="-123.31822708519388"><ele>172.8</ele></trkpt>
    <trkpt lat="46.00309" lon="-123.31824000000002"><ele>172.8</ele></trkpt>
    <trkpt lat="46.00303415869503" lon="-123.31829584130499"><ele>172.8</ele></trkpt>
    <trkpt lat="46.00296177442339" lon="-123.31836822557662"><ele>172.7</ele></trkpt>
    <trkpt lat="46.002890128766765" lon="-123.31843987123324"><ele>172.6</ele></trkpt>
    <trkpt lat="46.00282000000001" lon="-123.31851"><ele>172.5</ele></trkpt>
    <trkpt lat="46.002818068139824" lon="-123.31851280997847"><ele>172.5</ele></trkpt>
    <trkpt lat="46.00263334006458" lon="-123.31878150536062"><ele>172.1</ele></trkpt>
    <trkpt lat="46.0026" lon="-123.31883"><ele>172.0</ele></trkpt>
    <trkpt lat="46.00257785009601" lon="-123.31887922200887"><ele>172.0</ele></trkpt>
    <trkpt lat="46.002482990321916" lon="-123.31909002150687"><ele>171.8</ele></trkpt>
    <trkpt lat="46.00243458249905" lon="-123.31919759444656"><ele>171.6</ele></trkpt>
    <trkpt lat="46.00242" lon="-123.31923"><ele>171.5</ele></trkpt>
    <trkpt lat="46.002393717169454" lon="-123.31931260318174"><ele>171.4</ele></trkpt>
    <trkpt lat="46.00235663948136" lon="-123.3194291330586"><ele>171.3</ele></trkpt>
    <trkpt lat="46.00231918727117" lon="-123.31954684000493"><ele>171.2</ele></trkpt>
    <trkpt lat="46.00228210958307" lon="-123.31966336988181"><ele>171.1</ele></trkpt>
    <trkpt lat="46.002280000000006" lon="-123.31967000000002"><ele>171.1</ele></trkpt>
    <trkpt lat="46.00218723804802" lon="-123.32002418199848"><ele>171.0</ele></trkpt>
    <trkpt lat="46.00217000000001" lon="-123.32009000000001"><ele>171.0</ele></trkpt>
    <trkpt lat="46.00214953189535" lon="-123.32020897085836"><ele>171.0</ele></trkpt>
    <trkpt lat="46.002128127419" lon="-123.32033338437708"><ele>171.0</ele></trkpt>
    <trkpt lat="46.00210650673583" lon="-123.32045905459802"><ele>171.1</ele></trkpt>
    <trkpt lat="46.002052887441565" lon="-123.32077071674598"><ele>171.4</ele></trkpt>
    <trkpt lat="46.00204207709997" lon="-123.32083355185644"><ele>171.4</ele></trkpt>
    <trkpt lat="46.002031482965215" lon="-123.32089513026469"><ele>171.4</ele></trkpt>
    <trkpt lat="46.00202067262363" lon="-123.32095796537517"><ele>171.3</ele></trkpt>
    <trkpt lat="46.002010000000006" lon="-123.32102"><ele>171.3</ele></trkpt>
    <trkpt lat="46.00200996342276" lon="-123.32102082298809"><ele>171.3</ele></trkpt>
    <trkpt lat="46.00200709224643" lon="-123.32108542445556"><ele>171.2</ele></trkpt>
    <trkpt lat="46.00200140731729" lon="-123.32121333536114"><ele>171.0</ele></trkpt>
    <trkpt lat="46.001992851211824" lon="-123.32140584773421"><ele>170.6</ele></trkpt>
    <trkpt lat="46.001990000000006" lon="-123.32147"><ele>170.5</ele></trkpt>
    <trkpt lat="46.001990000000006" lon="-123.3217267949877"><ele>170.0</ele></trkpt>
    <trkpt lat="46.001990000000006" lon="-123.32185626209254"><ele>169.8</ele></trkpt>
    <trkpt lat="46.001990000000006" lon="-123.3219197009739"><ele>169.7</ele></trkpt>
    <trkpt lat="46.001990000000006" lon="-123.32194000000001"><ele>169.7</ele></trkpt>
    <trkpt lat="46.002000931407295" lon="-123.32204802802502"><ele>169.6</ele></trkpt>
    <trkpt lat="46.00204591657252" lon="-123.32249258730488"><ele>169.2</ele></trkpt>
    <trkpt lat="46.00205888059709" lon="-123.32262070237113"><ele>169.0</ele></trkpt>
    <trkpt lat="46.0020717149814" lon="-123.3227475362867"><ele>168.8</ele></trkpt>
    <trkpt lat="46.00208454936571" lon="-123.3228743702023"><ele>168.5</ele></trkpt>
    <trkpt lat="46.00209751339027" lon="-123.32300248526855"><ele>168.1</ele></trkpt>
    <trkpt lat="46.00211034777458" lon="-123.32312931918412"><ele>167.7</ele></trkpt>
    <trkpt lat="46.00215546258006" lon="-123.32357515961466"><ele>166.2</ele></trkpt>
    <trkpt lat="46.00216" lon="-123.32362"><ele>166.1</ele></trkpt>
    <trkpt lat="46.00216" lon="-123.32370285908836"><ele>165.8</ele></trkpt>
    <trkpt lat="46.00216" lon="-123.323832326591"><ele>165.5</ele></trkpt>
    <trkpt lat="46.00216" lon="-123.32398"><ele>165.1</ele></trkpt>
    <trkpt lat="46.00215636452789" lon="-123.32402362566535"><ele>165.0</ele></trkpt>
    <trkpt lat="46.00212969128874" lon="-123.3243437045352"><ele>164.4</ele></trkpt>
    <trkpt lat="46.002120000000005" lon="-123.32446000000002"><ele>164.2</ele></trkpt>
    <trkpt lat="46.00210628273378" lon="-123.32453315875321"><ele>164.1</ele></trkpt>
    <trkpt lat="46.0020828463898" lon="-123.32465815258779"><ele>163.9</ele></trkpt>
    <trkpt lat="46.00206000000001" lon="-123.32478"><ele>163.9</ele></trkpt>
    <trkpt lat="46.00205945899235" lon="-123.32478180335886"><ele>163.9</ele></trkpt>
    <trkpt lat="46.00202415872354" lon="-123.32489947092157"><ele>163.9</ele></trkpt>
    <trkpt lat="46.002006330304944" lon="-123.32495889898355"><ele>163.9</ele></trkpt>
    <trkpt lat="46.00197103003613" lon="-123.32507656654627"><ele>164.0</ele></trkpt>
    <trkpt lat="46.001940000000005" lon="-123.32518"><ele>164.1</ele></trkpt>
    <trkpt lat="46.00193287343902" lon="-123.32519330291385"><ele>164.1</ele></trkpt>
    <trkpt lat="46.001878501203194" lon="-123.32529479775404"><ele>164.3</ele></trkpt>
    <trkpt lat="46.00185104047803" lon="-123.32534605777437"><ele>164.4</ele></trkpt>
    <trkpt lat="46.00179666824221" lon="-123.32544755261458"><ele>164.7</ele></trkpt>
    <trkpt lat="46.00179000000001" lon="-123.32546"><ele>164.7</ele></trkpt>
    <trkpt lat="46.001733512294884" lon="-123.32553767059454"><ele>165.1</ele></trkpt>
    <trkpt lat="46.001700995240704" lon="-123.32558238154405"><ele>165.3</ele></trkpt>
    <trkpt lat="46.00163661147342" lon="-123.32567090922406"><ele>165.7</ele></trkpt>
    <trkpt lat="46.001630000000006" lon="-123.32568"><ele>165.8</ele></trkpt>
    <trkpt lat="46.00134917236353" lon="-123.32596896756797"><ele>167.7</ele></trkpt>
    <trkpt lat="46.00127747178449" lon="-123.32604274642466"><ele>168.2</ele></trkpt>
    <trkpt lat="46.00116992091593" lon="-123.3261534147097"><ele>168.8</ele></trkpt>
    <trkpt lat="46.00099066946832" lon="-123.32633786185146"><ele>169.8</ele></trkpt>
    <trkpt lat="46.00094000000001" lon="-123.32639"><ele>170.1</ele></trkpt>
    <trkpt lat="46.00092066624759" lon="-123.3264147042392"><ele>170.2</ele></trkpt>
    <trkpt lat="46.00076000000001" lon="-123.32662"><ele>171.1</ele></trkpt>
    <trkpt lat="46.00069721925218" lon="-123.32671826551834"><ele>171.5</ele></trkpt>
    <trkpt lat="46.00063755742879" lon="-123.32681164924192"><ele>171.8</ele></trkpt>
    <trkpt lat="46.000530000000005" lon="-123.32698"><ele>172.4</ele></trkpt>
    <trkpt lat="46.00049366902478" lon="-123.32705134082408"><ele>172.6</ele></trkpt>
    <trkpt lat="46.000363397282264" lon="-123.32730714715484"><ele>173.5</ele></trkpt>
    <trkpt lat="46.000311820306656" lon="-123.32740842557968"><ele>173.8</ele></trkpt>
    <trkpt lat="46.00023312553975" lon="-123.3275629534856"><ele>174.5</ele></trkpt>
    <trkpt lat="46.00010232207584" lon="-123.32781980392382"><ele>175.5</ele></trkpt>
    <trkpt lat="46.000050213378834" lon="-123.32792212645612"><ele>175.9</ele></trkpt>
    <trkpt lat="46.00002415903033" lon="-123.32797328772226"><ele>176.1</ele></trkpt>
    <trkpt lat="45.99999810468183" lon="-123.32802444898842"><ele>176.3</ele></trkpt>
    <trkpt lat="45.99998" lon="-123.32806000000001"><ele>176.3</ele></trkpt>
    <trkpt lat="45.99997379407443" lon="-123.32807861777671"><ele>176.4</ele></trkpt>
    <trkpt lat="45.999954729819116" lon="-123.32813581054265"><ele>176.5</ele></trkpt>
    <trkpt lat="45.9999166013085" lon="-123.32825019607452"><ele>176.6</ele></trkpt>
    <trkpt lat="45.99989714798675" lon="-123.32830855603976"><ele>176.6</ele></trkpt>
    <trkpt lat="45.999859019476126" lon="-123.32842294157163"><ele>176.5</ele></trkpt>
    <trkpt lat="45.999839955220814" lon="-123.32848013433758"><ele>176.5</ele></trkpt>
    <trkpt lat="45.999801437643754" lon="-123.32859568706874"><ele>176.3</ele></trkpt>
    <trkpt lat="45.999790000000004" lon="-123.32863"><ele>176.2</ele></trkpt>
    <trkpt lat="45.99974204977245" lon="-123.32883434173898"><ele>175.8</ele></trkpt>
    <trkpt lat="45.99971355633952" lon="-123.32895576759927"><ele>175.6</ele></trkpt>
    <trkpt lat="45.999685350719055" lon="-123.32907596693576"><ele>175.4</ele></trkpt>
    <trkpt lat="45.99965685728613" lon="-123.32919739279606"><ele>175.3</ele></trkpt>
    <trkpt lat="45.99964275447589" lon="-123.3292574924643"><ele>175.3</ele></trkpt>
    <trkpt lat="45.999614548855426" lon="-123.32937769180074"><ele>175.3</ele></trkpt>
    <trkpt lat="45.9995860554225" lon="-123.32949911766107"><ele>175.3</ele></trkpt>
    <trkpt lat="45.99954374699179" lon="-123.32967941666577"><ele>175.5</ele></trkpt>
    <trkpt lat="45.99947179387835" lon="-123.32998604762614"><ele>175.6</ele></trkpt>
    <trkpt lat="45.99944330044542" lon="-123.33010747348646"><ele>175.7</ele></trkpt>
    <trkpt lat="45.99942890982274" lon="-123.33016879967852"><ele>175.6</ele></trkpt>
    <trkpt lat="45.999400128577356" lon="-123.33029145206268"><ele>175.6</ele></trkpt>
    <trkpt lat="45.99937163514443" lon="-123.33041287792298"><ele>175.4</ele></trkpt>
    <trkpt lat="45.99934285389905" lon="-123.33053553030715"><ele>175.2</ele></trkpt>
    <trkpt lat="45.99933162921336" lon="-123.33058336473695"><ele>175.1</ele></trkpt>
    <trkpt lat="45.99931925327784" lon="-123.33063610526213"><ele>175.2</ele></trkpt>
    <trkpt lat="45.99929075984492" lon="-123.33075753112246"><ele>174.9</ele></trkpt>
    <trkpt lat="45.99927636922223" lon="-123.33081885731453"><ele>174.8</ele></trkpt>
    <trkpt lat="45.99924758797685" lon="-123.33094150969866"><ele>174.3</ele></trkpt>
    <trkpt lat="45.99921909454393" lon="-123.33106293555898"><ele>173.9</ele></trkpt>
    <trkpt lat="45.99919031329855" lon="-123.33118558794314"><ele>173.4</ele></trkpt>
    <trkpt lat="45.99916153205318" lon="-123.33130824032727"><ele>172.8</ele></trkpt>
    <trkpt lat="45.999140000000004" lon="-123.33140000000002"><ele>172.4</ele></trkpt>
    <trkpt lat="45.99909035910625" lon="-123.33168129839801"><ele>171.2</ele></trkpt>
    <trkpt lat="45.999057366620946" lon="-123.33186825581465"><ele>170.3</ele></trkpt>
    <trkpt lat="45.99901330283187" lon="-123.33211795061945"><ele>169.4</ele></trkpt>
    <trkpt lat="45.99899116022429" lon="-123.33224342539572"><ele>169.0</ele></trkpt>
    <trkpt lat="45.998980088920504" lon="-123.33230616278385"><ele>168.8</ele></trkpt>
    <trkpt lat="45.99895794631292" lon="-123.33243163756015"><ele>168.5</ele></trkpt>
    <trkpt lat="45.99893602513142" lon="-123.33255585758866"><ele>168.3</ele></trkpt>
    <trkpt lat="45.998913882523844" lon="-123.33268133236491"><ele>168.1</ele></trkpt>
    <trkpt lat="45.998900000000006" lon="-123.33276000000001"><ele>168.0</ele></trkpt>
    <trkpt lat="45.99888934985972" lon="-123.33280579560319"><ele>167.9</ele></trkpt>
    <trkpt lat="45.998861085780895" lon="-123.33292733114222"><ele>167.8</ele></trkpt>
    <trkpt lat="45.99883253620631" lon="-123.33305009431292"><ele>167.7</ele></trkpt>
    <trkpt lat="45.9988" lon="-123.33319000000002"><ele>167.7</ele></trkpt>
    <trkpt lat="45.99871" lon="-123.33342"><ele>167.6</ele></trkpt>
    <trkpt lat="45.99865601409272" lon="-123.33348870933654"><ele>167.6</ele></trkpt>
    <trkpt lat="45.9986" lon="-123.33356"><ele>167.5</ele></trkpt>
    <trkpt lat="45.99859147609818" lon="-123.33356923422697"><ele>167.5</ele></trkpt>
    <trkpt lat="45.998522493229885" lon="-123.33364396566763"><ele>167.4</ele></trkpt>
    <trkpt lat="45.99848" lon="-123.33369"><ele>167.3</ele></trkpt>
    <trkpt lat="45.99841478260092" lon="-123.3337470652242"><ele>167.2</ele></trkpt>
    <trkpt lat="45.998377895063015" lon="-123.33377934181988"><ele>167.1</ele></trkpt>
    <trkpt lat="45.99832000000001" lon="-123.33383"><ele>166.9</ele></trkpt>
    <trkpt lat="45.99830244528857" lon="-123.33383877735572"><ele>166.9</ele></trkpt>
    <trkpt lat="45.99822088992822" lon="-123.3338795550359"><ele>166.6</ele></trkpt>
    <trkpt lat="45.99814000000001" lon="-123.33392"><ele>166.3</ele></trkpt>
    <trkpt lat="45.9980982294993" lon="-123.3339345288698"><ele>166.1</ele></trkpt>
    <trkpt lat="45.99793650889245" lon="-123.33399077951567"><ele>165.3</ele></trkpt>
    <trkpt lat="45.997910000000005" lon="-123.334"><ele>165.1</ele></trkpt>
    <trkpt lat="45.99785365010056" lon="-123.33400189093622"><ele>164.8</ele></trkpt>
    <trkpt lat="45.99764596305964" lon="-123.33400886030002"><ele>163.6</ele></trkpt>
    <trkpt lat="45.99747064283029" lon="-123.3340147435292"><ele>162.7</ele></trkpt>
    <trkpt lat="45.99738253317656" lon="-123.33401770022898"><ele>162.3</ele></trkpt>
    <trkpt lat="45.99729442352283" lon="-123.33402065692877"><ele>162.0</ele></trkpt>
    <trkpt lat="45.99720631386911" lon="-123.33402361362856"><ele>161.6</ele></trkpt>
    <trkpt lat="45.99698603973479" lon="-123.33403100537804"><ele>160.9</ele></trkpt>
    <trkpt lat="45.99667855502486" lon="-123.33404132365689"><ele>159.8</ele></trkpt>
    <trkpt lat="45.99654639054427" lon="-123.33404575870658"><ele>159.3</ele></trkpt>
    <trkpt lat="45.99642" lon="-123.33405"><ele>158.9</ele></trkpt>
    <trkpt lat="45.996327299321706" lon="-123.33406090596216"><ele>158.7</ele></trkpt>
    <trkpt lat="45.99615161792074" lon="-123.33408157436227"><ele>158.2</ele></trkpt>
    <trkpt lat="45.996080000000006" lon="-123.33409"><ele>158.1</ele></trkpt>
    <trkpt lat="45.99602023049461" lon="-123.3341019539011"><ele>158.0</ele></trkpt>
    <trkpt lat="45.99593293548317" lon="-123.33411941290339"><ele>157.8</ele></trkpt>
    <trkpt lat="45.99588000000001" lon="-123.33413000000002"><ele>157.8</ele></trkpt>
    <trkpt lat="45.995683105170016" lon="-123.33424602731054"><ele>157.6</ele></trkpt>
  </trkseg></trk>
</gpx>
