<?xml version="1.0" encoding="UTF-8"?>
<gpx version="1.1" creator="h2c-tracker" xmlns="http://www.topografix.com/GPX/1/1">
  <metadata><name>Hood to Coast 2026 — Leg 6 (7.1 mi)</name><desc>Derived from the official Hood to Coast Strava route (simplified, 515 points, ~7.08 mi). Verify against the official leg map PDF.</desc></metadata>
  <wpt lat="45.36652186784047" lon="-122.15507722250248"><name>Exchange 5 — Cherryville Dr/HWY 26</name></wpt>
  <wpt lat="45.405726229399775" lon="-122.2770252900568"><name>Exchange 6 — near Sandy HS Softball Fields</name></wpt>
  <trk><name>HTC Leg 6</name><trkseg>
    <trkpt lat="45.36652186784047" lon="-122.15507722250248"><ele>391.1</ele></trkpt>
    <trkpt lat="45.36651530644013" lon="-122.1553240951904"><ele>391.2</ele></trkpt>
    <trkpt lat="45.366510274899966" lon="-122.15551340688891"><ele>389.8</ele></trkpt>
    <trkpt lat="45.36650687521067" lon="-122.15564132019873"><ele>389.7</ele></trkpt>
    <trkpt lat="45.366501843670505" lon="-122.15583063189725"><ele>389.6</ele></trkpt>
    <trkpt lat="45.3665" lon="-122.15590000000002"><ele>389.5</ele></trkpt>
    <trkpt lat="45.36649847929779" lon="-122.15595854703531"><ele>389.5</ele></trkpt>
    <trkpt lat="45.36649356195726" lon="-122.15614786464567"><ele>389.3</ele></trkpt>
    <trkpt lat="45.366485322089346" lon="-122.15646509956035"><ele>388.9</ele></trkpt>
    <trkpt lat="45.366480371523544" lon="-122.15665569634378"><ele>388.6</ele></trkpt>
    <trkpt lat="45.36648" lon="-122.15667"><ele>388.5</ele></trkpt>
    <trkpt lat="45.366485395296614" lon="-122.15684624635603"><ele>388.2</ele></trkpt>
    <trkpt lat="45.36649122834409" lon="-122.15703679257346"><ele>387.8</ele></trkpt>
    <trkpt lat="45.366500937040556" lon="-122.15735394332464"><ele>387.2</ele></trkpt>
    <trkpt lat="45.36650677008802" lon="-122.15754448954206"><ele>386.7</ele></trkpt>
    <trkpt lat="45.366510000000005" lon="-122.15765"><ele>386.5</ele></trkpt>
    <trkpt lat="45.36652530267969" lon="-122.15779622560594"><ele>386.1</ele></trkpt>
    <trkpt lat="45.36657127904337" lon="-122.15823555530326"><ele>384.9</ele></trkpt>
    <trkpt lat="45.366584396219174" lon="-122.1583608972054"><ele>384.6</ele></trkpt>
    <trkpt lat="45.366600000000005" lon="-122.15851"><ele>384.1</ele></trkpt>
    <trkpt lat="45.36661686235727" lon="-122.15861117414356"><ele>383.8</ele></trkpt>
    <trkpt lat="45.36664779190969" lon="-122.15879675145811"><ele>383.3</ele></trkpt>
    <trkpt lat="45.36674000000001" lon="-122.15935"><ele>383.8</ele></trkpt>
    <trkpt lat="45.369702938606366" lon="-122.1719688582718"><ele>389.4</ele></trkpt>
    <trkpt lat="45.369757671657446" lon="-122.17220196084533"><ele>389.8</ele></trkpt>
    <trkpt lat="45.36980014678563" lon="-122.17238285815499"><ele>389.9</ele></trkpt>
    <trkpt lat="45.36983" lon="-122.17251000000002"><ele>389.9</ele></trkpt>
    <trkpt lat="45.36987044151365" lon="-122.17268279555834"><ele>389.9</ele></trkpt>
    <trkpt lat="45.3699267220634" lon="-122.17292326699814"><ele>389.8</ele></trkpt>
    <trkpt lat="45.370050000000006" lon="-122.17345000000002"><ele>389.6</ele></trkpt>
    <trkpt lat="45.37012695257933" lon="-122.17383048775329"><ele>389.4</ele></trkpt>
    <trkpt lat="45.370176214616656" lon="-122.17407406116013"><ele>389.3</ele></trkpt>
    <trkpt lat="45.37025010767266" lon="-122.17443942127036"><ele>389.1</ele></trkpt>
    <trkpt lat="45.37027473869133" lon="-122.17456120797378"><ele>389.0</ele></trkpt>
    <trkpt lat="45.37029936971" lon="-122.1746829946772"><ele>388.9</ele></trkpt>
    <trkpt lat="45.37041000000001" lon="-122.17523000000001"><ele>388.6</ele></trkpt>
    <trkpt lat="45.37044362287152" lon="-122.17547283184983"><ele>388.4</ele></trkpt>
    <trkpt lat="45.37048622942754" lon="-122.1757805458655"><ele>388.2</ele></trkpt>
    <trkpt lat="45.3705448351801" lon="-122.17620380963402"><ele>387.9</ele></trkpt>
    <trkpt lat="45.37058622440594" lon="-122.17650273182068"><ele>387.7</ele></trkpt>
    <trkpt lat="45.37059000000001" lon="-122.17653000000001"><ele>387.7</ele></trkpt>
    <trkpt lat="45.370607559021295" lon="-122.17668324236763"><ele>387.6</ele></trkpt>
    <trkpt lat="45.37063521005578" lon="-122.17692456048678"><ele>387.5</ele></trkpt>
    <trkpt lat="45.370655043520316" lon="-122.17709765254084"><ele>387.5</ele></trkpt>
    <trkpt lat="45.37069499998899" lon="-122.17744636354023"><ele>387.3</ele></trkpt>
    <trkpt lat="45.37070000000001" lon="-122.17749"><ele>387.2</ele></trkpt>
    <trkpt lat="45.37072069950932" lon="-122.17775909362103"><ele>387.0</ele></trkpt>
    <trkpt lat="45.370740000000005" lon="-122.17801000000001"><ele>386.8</ele></trkpt>
    <trkpt lat="45.370747059970164" lon="-122.17813611673967"><ele>386.7</ele></trkpt>
    <trkpt lat="45.37078577809692" lon="-122.17882776327683"><ele>385.9</ele></trkpt>
    <trkpt lat="45.370845641178526" lon="-122.17989713559817"><ele>384.9</ele></trkpt>
    <trkpt lat="45.37085964256754" lon="-122.18014725132008"><ele>384.8</ele></trkpt>
    <trkpt lat="45.37087021504496" lon="-122.18033611421217"><ele>384.7</ele></trkpt>
    <trkpt lat="45.37090671866632" lon="-122.18098820163006"><ele>384.0</ele></trkpt>
    <trkpt lat="45.37094229362412" lon="-122.18162369973987"><ele>383.4</ele></trkpt>
    <trkpt lat="45.37095286610154" lon="-122.18181256263195"><ele>383.1</ele></trkpt>
    <trkpt lat="45.370960000000004" lon="-122.18194000000001"><ele>382.9</ele></trkpt>
    <trkpt lat="45.37098768727944" lon="-122.18231575593522"><ele>382.4</ele></trkpt>
    <trkpt lat="45.371019677222165" lon="-122.18274990515788"><ele>381.8</ele></trkpt>
    <trkpt lat="45.371030000000005" lon="-122.18289000000001"><ele>381.7</ele></trkpt>
    <trkpt lat="45.37106752850881" lon="-122.18318340470518"><ele>381.4</ele></trkpt>
    <trkpt lat="45.371137281312144" lon="-122.18372874480403"><ele>380.5</ele></trkpt>
    <trkpt lat="45.371140000000004" lon="-122.18375"><ele>380.5</ele></trkpt>
    <trkpt lat="45.37119268125244" lon="-122.18404150293014"><ele>380.1</ele></trkpt>
    <trkpt lat="45.37129" lon="-122.18458000000001"><ele>379.1</ele></trkpt>
    <trkpt lat="45.371280000000006" lon="-122.18459000000001"><ele>379.1</ele></trkpt>
    <trkpt lat="45.37334137441928" lon="-122.193287305769"><ele>357.5</ele></trkpt>
    <trkpt lat="45.37339801139373" lon="-122.19352626725025"><ele>357.1</ele></trkpt>
    <trkpt lat="45.37344084849624" lon="-122.19370700461424"><ele>356.8</ele></trkpt>
    <trkpt lat="45.373470000000005" lon="-122.19383"><ele>356.6</ele></trkpt>
    <trkpt lat="45.37350994018391" lon="-122.19400886256273"><ele>356.3</ele></trkpt>
    <trkpt lat="45.37355053353271" lon="-122.19419065016821"><ele>356.1</ele></trkpt>
    <trkpt lat="45.37360447637205" lon="-122.19443222027485"><ele>355.9</ele></trkpt>
    <trkpt lat="45.37363144779172" lon="-122.19455300532815"><ele>355.9</ele></trkpt>
    <trkpt lat="45.37367204114052" lon="-122.19473479293363"><ele>355.9</ele></trkpt>
    <trkpt lat="45.37370000000001" lon="-122.19486"><ele>355.9</ele></trkpt>
    <trkpt lat="45.373760962183226" lon="-122.195161907955"><ele>355.9</ele></trkpt>
    <trkpt lat="45.37379773195546" lon="-122.19534400587467"><ele>356.0</ele></trkpt>
    <trkpt lat="45.373834253283306" lon="-122.195524873403"><ele>356.2</ele></trkpt>
    <trkpt lat="45.3738588492796" lon="-122.19564668214659"><ele>356.4</ele></trkpt>
    <trkpt lat="45.373895370607435" lon="-122.19582754967492"><ele>356.7</ele></trkpt>
    <trkpt lat="45.37391" lon="-122.19590000000001"><ele>356.9</ele></trkpt>
    <trkpt lat="45.37392974488062" lon="-122.19601057133147"><ele>357.1</ele></trkpt>
    <trkpt lat="45.373962314749264" lon="-122.19619296259592"><ele>357.5</ele></trkpt>
    <trkpt lat="45.374005962804546" lon="-122.19643739170544"><ele>358.1</ele></trkpt>
    <trkpt lat="45.37402789761405" lon="-122.19656022663865"><ele>358.5</ele></trkpt>
    <trkpt lat="45.3740604674827" lon="-122.19674261790311"><ele>359.0</ele></trkpt>
    <trkpt lat="45.37409348047882" lon="-122.19692749068139"><ele>359.7</ele></trkpt>
    <trkpt lat="45.37415972803479" lon="-122.19729847699482"><ele>361.0</ele></trkpt>
    <trkpt lat="45.37416" lon="-122.19730000000001"><ele>361.0</ele></trkpt>
    <trkpt lat="45.374189116419224" lon="-122.19748589713815"><ele>361.6</ele></trkpt>
    <trkpt lat="45.37428658049961" lon="-122.19810816780519"><ele>363.4</ele></trkpt>
    <trkpt lat="45.37429" lon="-122.19813"><ele>363.5</ele></trkpt>
    <trkpt lat="45.37433499688354" lon="-122.1984846813173"><ele>364.5</ele></trkpt>
    <trkpt lat="45.37439077791813" lon="-122.19892436711933"><ele>365.9</ele></trkpt>
    <trkpt lat="45.374460000000006" lon="-122.19947"><ele>367.6</ele></trkpt>
    <trkpt lat="45.3744682068121" lon="-122.19955356026858"><ele>367.8</ele></trkpt>
    <trkpt lat="45.37453644680545" lon="-122.2002483674736"><ele>370.0</ele></trkpt>
    <trkpt lat="45.374570000000006" lon="-122.20059"><ele>371.0</ele></trkpt>
    <trkpt lat="45.37457287472756" lon="-122.20062761101889"><ele>371.1</ele></trkpt>
    <trkpt lat="45.374587466416806" lon="-122.20081851895311"><ele>371.7</ele></trkpt>
    <trkpt lat="45.37459719420963" lon="-122.20094579090927"><ele>372.1</ele></trkpt>
    <trkpt lat="45.37462628031018" lon="-122.20132633405817"><ele>373.2</ele></trkpt>
    <trkpt lat="45.374646125007544" lon="-122.20158596884872"><ele>373.5</ele></trkpt>
    <trkpt lat="45.374670930879255" lon="-122.20191051233692"><ele>374.1</ele></trkpt>
    <trkpt lat="45.374689802797334" lon="-122.20215741993185"><ele>375.0</ele></trkpt>
    <trkpt lat="45.37469" lon="-122.20216"><ele>375.0</ele></trkpt>
    <trkpt lat="45.374697819036115" lon="-122.20240551773392"><ele>375.9</ele></trkpt>
    <trkpt lat="45.37472156457851" lon="-122.20315112776493"><ele>378.6</ele></trkpt>
    <trkpt lat="45.37472747041666" lon="-122.2033365710831"><ele>379.0</ele></trkpt>
    <trkpt lat="45.37473537202082" lon="-122.2035846814536"><ele>379.5</ele></trkpt>
    <trkpt lat="45.37474" lon="-122.20373000000001"><ele>379.8</ele></trkpt>
    <trkpt lat="45.374740813837214" lon="-122.20377014930261"><ele>379.9</ele></trkpt>
    <trkpt lat="45.37474333000671" lon="-122.2038942803307"><ele>380.0</ele></trkpt>
    <trkpt lat="45.374747091291" lon="-122.20407983702216"><ele>380.3</ele></trkpt>
    <trkpt lat="45.374750852575275" lon="-122.20426539371363"><ele>380.4</ele></trkpt>
    <trkpt lat="45.37475463979946" lon="-122.20445223010643"><ele>380.5</ele></trkpt>
    <trkpt lat="45.37475845296353" lon="-122.20464034620053"><ele>380.6</ele></trkpt>
    <trkpt lat="45.374770000000005" lon="-122.20521000000001"><ele>379.7</ele></trkpt>
    <trkpt lat="45.374851255777514" lon="-122.21055482447623"><ele>366.9</ele></trkpt>
    <trkpt lat="45.37485411617422" lon="-122.21074297501495"><ele>366.1</ele></trkpt>
    <trkpt lat="45.374860000000005" lon="-122.21113000000001"><ele>365.3</ele></trkpt>
    <trkpt lat="45.37486534837708" lon="-122.21124833284281"><ele>365.1</ele></trkpt>
    <trkpt lat="45.37489393186918" lon="-122.21188074260547"><ele>363.9</ele></trkpt>
    <trkpt lat="45.374913911441425" lon="-122.2123227906416"><ele>363.1</ele></trkpt>
    <trkpt lat="45.37493389101368" lon="-122.21276483867769"><ele>362.4</ele></trkpt>
    <trkpt lat="45.37494" lon="-122.2129"><ele>362.2</ele></trkpt>
    <trkpt lat="45.37495040315381" lon="-122.21301711429211"><ele>361.9</ele></trkpt>
    <trkpt lat="45.37498391204238" lon="-122.21339434314375"><ele>361.3</ele></trkpt>
    <trkpt lat="45.374995081671905" lon="-122.21352008609429"><ele>361.1</ele></trkpt>
    <trkpt lat="45.37505679669563" lon="-122.21421484764929"><ele>360.1</ele></trkpt>
    <trkpt lat="45.37507372037672" lon="-122.21440536727131"><ele>359.9</ele></trkpt>
    <trkpt lat="45.37509617246032" lon="-122.21465812330322"><ele>359.6</ele></trkpt>
    <trkpt lat="45.375135548224996" lon="-122.21510139895713"><ele>359.1</ele></trkpt>
    <trkpt lat="45.375186093619206" lon="-122.21567041756161"><ele>358.6</ele></trkpt>
    <trkpt lat="45.37522535655934" lon="-122.21611242308472"><ele>358.4</ele></trkpt>
    <trkpt lat="45.375247921467476" lon="-122.21636644924743"><ele>358.2</ele></trkpt>
    <trkpt lat="45.37526473232403" lon="-122.21655569873865"><ele>358.1</ele></trkpt>
    <trkpt lat="45.37529846686168" lon="-122.2169354678519"><ele>358.0</ele></trkpt>
    <trkpt lat="45.3753096364912" lon="-122.21706121080244"><ele>357.9</ele></trkpt>
    <trkpt lat="45.37532091894526" lon="-122.2171882238838"><ele>357.8</ele></trkpt>
    <trkpt lat="45.37534901225588" lon="-122.21750448645636"><ele>357.6</ele></trkpt>
    <trkpt lat="45.37537146433947" lon="-122.21775724248826"><ele>357.4</ele></trkpt>
    <trkpt lat="45.37538838802057" lon="-122.21794776211028"><ele>357.4</ele></trkpt>
    <trkpt lat="45.37541084010416" lon="-122.21820051814218"><ele>357.3</ele></trkpt>
    <trkpt lat="45.37542765096071" lon="-122.2183897676334"><ele>357.4</ele></trkpt>
    <trkpt lat="45.37545574427133" lon="-122.21870603020596"><ele>357.4</ele></trkpt>
    <trkpt lat="45.37547819635492" lon="-122.21895878623786"><ele>357.6</ele></trkpt>
    <trkpt lat="45.375517684944136" lon="-122.21940333202261"><ele>357.9</ele></trkpt>
    <trkpt lat="45.37555706070882" lon="-122.21984660767654"><ele>358.1</ele></trkpt>
    <trkpt lat="45.375573984389916" lon="-122.22003712729857"><ele>358.3</ele></trkpt>
    <trkpt lat="45.375585266843984" lon="-122.22016414037992"><ele>358.5</ele></trkpt>
    <trkpt lat="45.375596549298045" lon="-122.22029115346128"><ele>358.6</ele></trkpt>
    <trkpt lat="45.375600000000006" lon="-122.22033"><ele>358.7</ele></trkpt>
    <trkpt lat="45.375642663157016" lon="-122.22060426315221"><ele>359.2</ele></trkpt>
    <trkpt lat="45.37567000000001" lon="-122.22078"><ele>359.5</ele></trkpt>
    <trkpt lat="45.37568744358882" lon="-122.22087593973848"><ele>359.6</ele></trkpt>
    <trkpt lat="45.375704570013305" lon="-122.22097013507315"><ele>359.8</ele></trkpt>
    <trkpt lat="45.375783441705" lon="-122.22140392937752"><ele>360.6</ele></trkpt>
    <trkpt lat="45.37579" lon="-122.22144000000002"><ele>360.7</ele></trkpt>
    <trkpt lat="45.375800000000005" lon="-122.22145"><ele>360.7</ele></trkpt>
    <trkpt lat="45.37586945575006" lon="-122.22169492290809"><ele>361.1</ele></trkpt>
    <trkpt lat="45.37590312175429" lon="-122.22181363987039"><ele>361.3</ele></trkpt>
    <trkpt lat="45.37598728676486" lon="-122.2221104322761"><ele>362.0</ele></trkpt>
    <trkpt lat="45.37599" lon="-122.22212"><ele>362.0</ele></trkpt>
    <trkpt lat="45.3760280118334" lon="-122.22222453254186"><ele>362.2</ele></trkpt>
    <trkpt lat="45.37613095801197" lon="-122.22250763453293"><ele>362.6</ele></trkpt>
    <trkpt lat="45.376172301858794" lon="-122.22262133011168"><ele>362.9</ele></trkpt>
    <trkpt lat="45.37623431762902" lon="-122.2227918734798"><ele>363.2</ele></trkpt>
    <trkpt lat="45.376270000000005" lon="-122.22289"><ele>363.4</ele></trkpt>
    <trkpt lat="45.37627669035195" lon="-122.22290471877429"><ele>363.4</ele></trkpt>
    <trkpt lat="45.37644720261425" lon="-122.22327984575135"><ele>364.0</ele></trkpt>
    <trkpt lat="45.376470000000005" lon="-122.22333"><ele>364.1</ele></trkpt>
    <trkpt lat="45.37658264628926" lon="-122.22353507401378"><ele>364.4</ele></trkpt>
    <trkpt lat="45.37669344287805" lon="-122.22373678062415"><ele>364.7</ele></trkpt>
    <trkpt lat="45.376776540319646" lon="-122.22388806058194"><ele>364.9</ele></trkpt>
    <trkpt lat="45.37686" lon="-122.22404000000002"><ele>365.0</ele></trkpt>
    <trkpt lat="45.3768913983874" lon="-122.22408281598284"><ele>365.1</ele></trkpt>
    <trkpt lat="45.37705311143853" lon="-122.22430333377983"><ele>365.1</ele></trkpt>
    <trkpt lat="45.377190000000006" lon="-122.22449"><ele>365.3</ele></trkpt>
    <trkpt lat="45.3773010834047" lon="-122.2246324146214"><ele>365.4</ele></trkpt>
    <trkpt lat="45.377395978583635" lon="-122.22475407510723"><ele>365.5</ele></trkpt>
    <trkpt lat="45.37758" lon="-122.22499"><ele>365.4</ele></trkpt>
    <trkpt lat="45.37770048782235" lon="-122.2251057628097"><ele>365.4</ele></trkpt>
    <trkpt lat="45.37799568313074" lon="-122.2253893818315"><ele>365.3</ele></trkpt>
    <trkpt lat="45.37809" lon="-122.22548"><ele>365.3</ele></trkpt>
    <trkpt lat="45.37838238622198" lon="-122.2256992896665"><ele>365.2</ele></trkpt>
    <trkpt lat="45.37845" lon="-122.22575"><ele>365.2</ele></trkpt>
    <trkpt lat="45.37874811168024" lon="-122.22593631980016"><ele>365.0</ele></trkpt>
    <trkpt lat="45.37877" lon="-122.22595000000001"><ele>365.0</ele></trkpt>
    <trkpt lat="45.37899552563616" lon="-122.22608294142763"><ele>364.9</ele></trkpt>
    <trkpt lat="45.379202422892334" lon="-122.22620490191548"><ele>364.8</ele></trkpt>
    <trkpt lat="45.37932622888097" lon="-122.22627788228772"><ele>364.7</ele></trkpt>
    <trkpt lat="45.379720000000006" lon="-122.22651"><ele>364.3</ele></trkpt>
    <trkpt lat="45.37976499210798" lon="-122.22654249430022"><ele>364.2</ele></trkpt>
    <trkpt lat="45.380034472818984" lon="-122.22673711925816"><ele>363.9</ele></trkpt>
    <trkpt lat="45.38026000000001" lon="-122.22690000000001"><ele>363.7</ele></trkpt>
    <trkpt lat="45.38043939846306" lon="-122.22708388342465"><ele>363.6</ele></trkpt>
    <trkpt lat="45.380660000000006" lon="-122.22731000000002"><ele>363.3</ele></trkpt>
    <trkpt lat="45.38071761564808" lon="-122.22737500226964"><ele>363.3</ele></trkpt>
    <trkpt lat="45.38082052287972" lon="-122.22749110273611"><ele>363.3</ele></trkpt>
    <trkpt lat="45.38102774703111" lon="-122.22772489408639"><ele>363.5</ele></trkpt>
    <trkpt lat="45.38105" lon="-122.22775000000001"><ele>363.5</ele></trkpt>
    <trkpt lat="45.38125200930563" lon="-122.22802619856391"><ele>363.8</ele></trkpt>
    <trkpt lat="45.38131557738175" lon="-122.2281131124379"><ele>364.0</ele></trkpt>
    <trkpt lat="45.381379145457856" lon="-122.22820002631187"><ele>364.1</ele></trkpt>
    <trkpt lat="45.38144271353396" lon="-122.22828694018582"><ele>364.3</ele></trkpt>
    <trkpt lat="45.38150628161007" lon="-122.22837385405981"><ele>364.5</ele></trkpt>
    <trkpt lat="45.381728769876446" lon="-122.22867805261869"><ele>365.5</ele></trkpt>
    <trkpt lat="45.38185590602866" lon="-122.22885188036665"><ele>366.1</ele></trkpt>
    <trkpt lat="45.38204661025698" lon="-122.22911262198855"><ele>366.8</ele></trkpt>
    <trkpt lat="45.38237288313741" lon="-122.22955872074982"><ele>367.4</ele></trkpt>
    <trkpt lat="45.38243385659816" lon="-122.22964208711875"><ele>367.5</ele></trkpt>
    <trkpt lat="45.382525965443136" lon="-122.22976802354837"><ele>367.6</ele></trkpt>
    <trkpt lat="45.38267385851816" lon="-122.22997023133678"><ele>367.8</ele></trkpt>
    <trkpt lat="45.38300337466778" lon="-122.2304207644794"><ele>368.1</ele></trkpt>
    <trkpt lat="45.38319213293458" lon="-122.23067884547253"><ele>368.1</ele></trkpt>
    <trkpt lat="45.38331" lon="-122.23084000000001"><ele>368.2</ele></trkpt>
    <trkpt lat="45.38337233757812" lon="-122.23092922829811"><ele>368.2</ele></trkpt>
    <trkpt lat="45.383520745693644" lon="-122.23114165560071"><ele>368.2</ele></trkpt>
    <trkpt lat="45.383700230722226" lon="-122.23139856554359"><ele>368.1</ele></trkpt>
    <trkpt lat="45.38378965612517" lon="-122.23152656661053"><ele>368.0</ele></trkpt>
    <trkpt lat="45.38382000000001" lon="-122.23157"><ele>368.0</ele></trkpt>
    <trkpt lat="45.38388095695109" lon="-122.23165368306177"><ele>367.9</ele></trkpt>
    <trkpt lat="45.38398259955558" lon="-122.2317932202958"><ele>367.7</ele></trkpt>
    <trkpt lat="45.384227318692496" lon="-122.23212917618412"><ele>367.2</ele></trkpt>
    <trkpt lat="45.38435615231219" lon="-122.23230604185018"><ele>366.8</ele></trkpt>
    <trkpt lat="45.38442024541948" lon="-122.23239403029712"><ele>366.5</ele></trkpt>
    <trkpt lat="45.38477502342749" lon="-122.23288107745793"><ele>364.8</ele></trkpt>
    <trkpt lat="45.38503333807201" lon="-122.23323569756226"><ele>363.5</ele></trkpt>
    <trkpt lat="45.385097431179304" lon="-122.23332368600921"><ele>363.2</ele></trkpt>
    <trkpt lat="45.38522691220412" lon="-122.23350144044747"><ele>362.7</ele></trkpt>
    <trkpt lat="45.38531884373175" lon="-122.23362764609863"><ele>362.5</ele></trkpt>
    <trkpt lat="45.38544249811045" lon="-122.23379740158717"><ele>362.1</ele></trkpt>
    <trkpt lat="45.38550529640749" lon="-122.23388361248972"><ele>361.9</ele></trkpt>
    <trkpt lat="45.385726708959936" lon="-122.23418757257915"><ele>361.0</ele></trkpt>
    <trkpt lat="45.385948121512385" lon="-122.23449153266857"><ele>360.0</ele></trkpt>
    <trkpt lat="45.386040700445136" lon="-122.23461862709193"><ele>359.7</ele></trkpt>
    <trkpt lat="45.386196077674924" lon="-122.23483193241783"><ele>359.3</ele></trkpt>
    <trkpt lat="45.38638188294554" lon="-122.23508701003674"><ele>358.6</ele></trkpt>
    <trkpt lat="45.386638902779815" lon="-122.23543985259668"><ele>357.6</ele></trkpt>
    <trkpt lat="45.38669" lon="-122.23551"><ele>357.3</ele></trkpt>
    <trkpt lat="45.387008624614545" lon="-122.23599050647516"><ele>355.9</ele></trkpt>
    <trkpt lat="45.38725373291042" lon="-122.23636014559878"><ele>354.8</ele></trkpt>
    <trkpt lat="45.38752971126873" lon="-122.23677633876818"><ele>353.4</ele></trkpt>
    <trkpt lat="45.3878050722258" lon="-122.23719160085666"><ele>351.9</ele></trkpt>
    <trkpt lat="45.387897065011906" lon="-122.23733033191313"><ele>351.4</ele></trkpt>
    <trkpt lat="45.387930000000004" lon="-122.23738000000002"><ele>351.2</ele></trkpt>
    <trkpt lat="45.38801756275566" lon="-122.2375187230174"><ele>350.6</ele></trkpt>
    <trkpt lat="45.38816665132396" lon="-122.23775491951325"><ele>349.7</ele></trkpt>
    <trkpt lat="45.38840531326596" lon="-122.23813302438766"><ele>348.1</ele></trkpt>
    <trkpt lat="45.38861391702888" lon="-122.23846350900082"><ele>346.7</ele></trkpt>
    <trkpt lat="45.38870349040258" lon="-122.23860541737938"><ele>346.1</ele></trkpt>
    <trkpt lat="45.38903172571828" lon="-122.23912543063234"><ele>344.1</ele></trkpt>
    <trkpt lat="45.38912129909198" lon="-122.23926733901091"><ele>343.6</ele></trkpt>
    <trkpt lat="45.38925896555223" lon="-122.23948543980748"><ele>343.0</ele></trkpt>
    <trkpt lat="45.38942488670082" lon="-122.23974830364963"><ele>342.2</ele></trkpt>
    <trkpt lat="45.38971" lon="-122.24020000000002"><ele>340.4</ele></trkpt>
    <trkpt lat="45.38975470940158" lon="-122.24027145338154"><ele>340.2</ele></trkpt>
    <trkpt lat="45.38990427735096" lon="-122.24051048891707"><ele>339.3</ele></trkpt>
    <trkpt lat="45.39002393171047" lon="-122.24070171734552"><ele>338.5</ele></trkpt>
    <trkpt lat="45.39014358606998" lon="-122.24089294577396"><ele>337.7</ele></trkpt>
    <trkpt lat="45.39029255574757" lon="-122.24113102516736"><ele>336.8</ele></trkpt>
    <trkpt lat="45.39059169164634" lon="-122.24160909623846"><ele>334.9</ele></trkpt>
    <trkpt lat="45.39074125959573" lon="-122.24184813177402"><ele>334.0</ele></trkpt>
    <trkpt lat="45.39083100036537" lon="-122.24199155309535"><ele>333.5</ele></trkpt>
    <trkpt lat="45.391233039013315" lon="-122.2426340806149"><ele>331.4</ele></trkpt>
    <trkpt lat="45.391501663050406" lon="-122.24306338843672"><ele>329.8</ele></trkpt>
    <trkpt lat="45.39183071253906" lon="-122.24358926661495"><ele>327.9</ele></trkpt>
    <trkpt lat="45.3919204533087" lon="-122.24373268793627"><ele>327.5</ele></trkpt>
    <trkpt lat="45.391980280488454" lon="-122.24382830215049"><ele>327.2</ele></trkpt>
    <trkpt lat="45.39212984843783" lon="-122.24406733768603"><ele>326.6</ele></trkpt>
    <trkpt lat="45.392218990935675" lon="-122.24420980286524"><ele>326.3</ele></trkpt>
    <trkpt lat="45.39239847247494" lon="-122.2444966455079"><ele>325.8</ele></trkpt>
    <trkpt lat="45.39245829965469" lon="-122.24459225972211"><ele>325.7</ele></trkpt>
    <trkpt lat="45.392518126834446" lon="-122.24468787393633"><ele>325.6</ele></trkpt>
    <trkpt lat="45.39275743555346" lon="-122.24507033079321"><ele>325.4</ele></trkpt>
    <trkpt lat="45.393026657862364" lon="-122.24550059475719"><ele>325.3</ele></trkpt>
    <trkpt lat="45.39317562753995" lon="-122.2457386741506"><ele>325.2</ele></trkpt>
    <trkpt lat="45.39326536830958" lon="-122.24588209547193"><ele>325.1</ele></trkpt>
    <trkpt lat="45.39335510907921" lon="-122.24602551679327"><ele>324.9</ele></trkpt>
    <trkpt lat="45.3933814330383" lon="-122.24606758704752"><ele>324.9</ele></trkpt>
    <trkpt lat="45.39346519108996" lon="-122.24620144694742"><ele>324.7</ele></trkpt>
    <trkpt lat="45.39380022329658" lon="-122.24673688654704"><ele>323.5</ele></trkpt>
    <trkpt lat="45.394068847333685" lon="-122.24716619436889"><ele>322.7</ele></trkpt>
    <trkpt lat="45.394090000000006" lon="-122.2472"><ele>322.6</ele></trkpt>
    <trkpt lat="45.39427299070014" lon="-122.24750567764681"><ele>321.9</ele></trkpt>
    <trkpt lat="45.39436050593936" lon="-122.24765186787596"><ele>321.6</ele></trkpt>
    <trkpt lat="45.394622468222096" lon="-122.24808946396192"><ele>320.5</ele></trkpt>
    <trkpt lat="45.39479749870054" lon="-122.24838184442022"><ele>319.6</ele></trkpt>
    <trkpt lat="45.39497" lon="-122.24867"><ele>318.7</ele></trkpt>
    <trkpt lat="45.39497172595673" lon="-122.24867349300766"><ele>318.7</ele></trkpt>
    <trkpt lat="45.395023479086305" lon="-122.24877823148418"><ele>318.4</ele></trkpt>
    <trkpt lat="45.395178220943734" lon="-122.249091399529"><ele>317.7</ele></trkpt>
    <trkpt lat="45.39533348033247" lon="-122.24940561495855"><ele>316.9</ele></trkpt>
    <trkpt lat="45.395390000000006" lon="-122.24952"><ele>316.7</ele></trkpt>
    <trkpt lat="45.39554953905359" lon="-122.24987453123019"><ele>316.0</ele></trkpt>
    <trkpt lat="45.395570000000006" lon="-122.24992"><ele>316.0</ele></trkpt>
    <trkpt lat="45.395595470618304" lon="-122.24998162246362"><ele>315.9</ele></trkpt>
    <trkpt lat="45.395662075293025" lon="-122.2501427628057"><ele>315.7</ele></trkpt>
    <trkpt lat="45.395796653231685" lon="-122.25046835459278"><ele>315.3</ele></trkpt>
    <trkpt lat="45.395880000000005" lon="-122.25067000000001"><ele>315.1</ele></trkpt>
    <trkpt lat="45.39588674119465" lon="-122.25068853828527"><ele>315.1</ele></trkpt>
    <trkpt lat="45.396" lon="-122.251"><ele>314.9</ele></trkpt>
    <trkpt lat="45.39601035902395" lon="-122.25103004116946"><ele>314.9</ele></trkpt>
    <trkpt lat="45.39608924448995" lon="-122.25125880902085"><ele>314.9</ele></trkpt>
    <trkpt lat="45.39618795042478" lon="-122.25154505623188"><ele>314.8</ele></trkpt>
    <trkpt lat="45.3962" lon="-122.25158"><ele>314.7</ele></trkpt>
    <trkpt lat="45.396223942901464" lon="-122.25166236358105"><ele>314.7</ele></trkpt>
    <trkpt lat="45.39625799804736" lon="-122.25177951328293"><ele>314.6</ele></trkpt>
    <trkpt lat="45.39634399589053" lon="-122.25207534586343"><ele>314.3</ele></trkpt>
    <trkpt lat="45.39637805103642" lon="-122.2521924955653"><ele>314.1</ele></trkpt>
    <trkpt lat="45.39642964974232" lon="-122.25236999511358"><ele>313.8</ele></trkpt>
    <trkpt lat="45.39645" lon="-122.25244"><ele>313.6</ele></trkpt>
    <trkpt lat="45.39646193982987" lon="-122.25248946500945"><ele>313.5</ele></trkpt>
    <trkpt lat="45.396534735130835" lon="-122.25279104554201"><ele>312.8</ele></trkpt>
    <trkpt lat="45.39657829537117" lon="-122.25297150939484"><ele>312.4</ele></trkpt>
    <trkpt lat="45.39659" lon="-122.25302"><ele>312.3</ele></trkpt>
    <trkpt lat="45.39661559452039" lon="-122.25314939451974"><ele>312.2</ele></trkpt>
    <trkpt lat="45.396651195390334" lon="-122.2533293766956"><ele>312.0</ele></trkpt>
    <trkpt lat="45.39668752778502" lon="-122.25351305713536"><ele>311.8</ele></trkpt>
    <trkpt lat="45.39673605225845" lon="-122.25375837530657"><ele>311.4</ele></trkpt>
    <trkpt lat="45.3967648255643" lon="-122.25390384035282"><ele>311.2</ele></trkpt>
    <trkpt lat="45.396770000000004" lon="-122.25393000000001"><ele>311.2</ele></trkpt>
    <trkpt lat="45.39683309177847" lon="-122.25431643714312"><ele>310.5</ele></trkpt>
    <trkpt lat="45.39685" lon="-122.25442000000001"><ele>310.3</ele></trkpt>
    <trkpt lat="45.39686028330982" lon="-122.25449541093866"><ele>310.2</ele></trkpt>
    <trkpt lat="45.39687639895039" lon="-122.25461359230285"><ele>310.1</ele></trkpt>
    <trkpt lat="45.396892686033944" lon="-122.25473303091559"><ele>309.9</ele></trkpt>
    <trkpt lat="45.39691720238078" lon="-122.254912817459"><ele>309.8</ele></trkpt>
    <trkpt lat="45.39694480470133" lon="-122.25511523447639"><ele>310.0</ele></trkpt>
    <trkpt lat="45.396979264741276" lon="-122.25536794143598"><ele>309.8</ele></trkpt>
    <trkpt lat="45.397000000000006" lon="-122.25552"><ele>309.7</ele></trkpt>
    <trkpt lat="45.39703359655445" lon="-122.25558346015842"><ele>309.6</ele></trkpt>
    <trkpt lat="45.397083947132074" lon="-122.25567856680505"><ele>309.5</ele></trkpt>
    <trkpt lat="45.397090000000006" lon="-122.25569000000002"><ele>309.5</ele></trkpt>
    <trkpt lat="45.39711533831563" lon="-122.25584836447268"><ele>309.3</ele></trkpt>
    <trkpt lat="45.397130000000004" lon="-122.25594000000001"><ele>309.1</ele></trkpt>
    <trkpt lat="45.39713868372709" lon="-122.25604637565684"><ele>309.0</ele></trkpt>
    <trkpt lat="45.39715955776224" lon="-122.25630208258738"><ele>308.6</ele></trkpt>
    <trkpt lat="45.39716464645737" lon="-122.2563644191028"><ele>308.5</ele></trkpt>
    <trkpt lat="45.39717825092804" lon="-122.25653107386849"><ele>308.0</ele></trkpt>
    <trkpt lat="45.39719652869016" lon="-122.25675497645445"><ele>307.2</ele></trkpt>
    <trkpt lat="45.39720899080069" lon="-122.25690763730853"><ele>306.9</ele></trkpt>
    <trkpt lat="45.39721" lon="-122.25692000000001"><ele>306.8</ele></trkpt>
    <trkpt lat="45.39722058032963" lon="-122.25711573609817"><ele>306.4</ele></trkpt>
    <trkpt lat="45.39722672356837" lon="-122.25722938601487"><ele>306.1</ele></trkpt>
    <trkpt lat="45.39723831979431" lon="-122.25744391619472"><ele>305.5</ele></trkpt>
    <trkpt lat="45.397249501869325" lon="-122.25765078458241"><ele>304.6</ele></trkpt>
    <trkpt lat="45.397262340548046" lon="-122.25788830013865"><ele>303.6</ele></trkpt>
    <trkpt lat="45.397270000000006" lon="-122.25803"><ele>303.1</ele></trkpt>
    <trkpt lat="45.397270218135205" lon="-122.25806846450709"><ele>303.0</ele></trkpt>
    <trkpt lat="45.39727148915416" lon="-122.25829258751574"><ele>302.4</ele></trkpt>
    <trkpt lat="45.397272447865596" lon="-122.2584616402994"><ele>302.0</ele></trkpt>
    <trkpt lat="45.39727466307006" lon="-122.2588522546859"><ele>301.3</ele></trkpt>
    <trkpt lat="45.39727601398163" lon="-122.25909046542652"><ele>300.9</ele></trkpt>
    <trkpt lat="45.397277009007894" lon="-122.25926592172472"><ele>300.7</ele></trkpt>
    <trkpt lat="45.39727920242346" lon="-122.25965269400248"><ele>300.3</ele></trkpt>
    <trkpt lat="45.39728161372798" lon="-122.26007788736746"><ele>299.8</ele></trkpt>
    <trkpt lat="45.397285121740296" lon="-122.26069646687132"><ele>299.2</ele></trkpt>
    <trkpt lat="45.39728647265187" lon="-122.26093467761194"><ele>299.0</ele></trkpt>
    <trkpt lat="45.3972898281419" lon="-122.26152636235476"><ele>298.3</ele></trkpt>
    <trkpt lat="45.39729104105714" lon="-122.26174023974018"><ele>298.0</ele></trkpt>
    <trkpt lat="45.397293176368976" lon="-122.26211676639468"><ele>297.4</ele></trkpt>
    <trkpt lat="45.397293895402555" lon="-122.26224355598242"><ele>297.2</ele></trkpt>
    <trkpt lat="45.397296335758945" lon="-122.26267387215904"><ele>296.4</ele></trkpt>
    <trkpt lat="45.39729701847769" lon="-122.26279425823225"><ele>296.2</ele></trkpt>
    <trkpt lat="45.39729976387862" lon="-122.26327836393091"><ele>295.1</ele></trkpt>
    <trkpt lat="45.397301143842064" lon="-122.26352169748317"><ele>294.6</ele></trkpt>
    <trkpt lat="45.39730785482213" lon="-122.26470506696882"><ele>292.2</ele></trkpt>
    <trkpt lat="45.39730951804122" lon="-122.26499834793441"><ele>291.5</ele></trkpt>
    <trkpt lat="45.39731085442686" lon="-122.26523399726922"><ele>290.9</ele></trkpt>
    <trkpt lat="45.39731152988265" lon="-122.26535310263952"><ele>290.7</ele></trkpt>
    <trkpt lat="45.397312895320155" lon="-122.26559387478596"><ele>290.3</ele></trkpt>
    <trkpt lat="45.397313578038904" lon="-122.26571426085917"><ele>290.1</ele></trkpt>
    <trkpt lat="45.39731463843185" lon="-122.26590124348354"><ele>289.5</ele></trkpt>
    <trkpt lat="45.39731640333246" lon="-122.26621245428983"><ele>288.5</ele></trkpt>
    <trkpt lat="45.39731781961072" lon="-122.26646219135661"><ele>287.5</ele></trkpt>
    <trkpt lat="45.397319243151955" lon="-122.2667132091263"><ele>286.8</ele></trkpt>
    <trkpt lat="45.397320673956145" lon="-122.26696550759887"><ele>286.1</ele></trkpt>
    <trkpt lat="45.397323121575496" lon="-122.26739710447839"><ele>285.2</ele></trkpt>
    <trkpt lat="45.39732364450901" lon="-122.26748931508764"><ele>285.0</ele></trkpt>
    <trkpt lat="45.39732472669086" lon="-122.26768013982073"><ele>284.6</ele></trkpt>
    <trkpt lat="45.39732492279092" lon="-122.26771471879921"><ele>284.6</ele></trkpt>
    <trkpt lat="45.39732511162803" lon="-122.26774801707478"><ele>284.5</ele></trkpt>
    <trkpt lat="45.39732628822843" lon="-122.26795549094564"><ele>283.5</ele></trkpt>
    <trkpt lat="45.397327217888005" lon="-122.26811942091767"><ele>282.9</ele></trkpt>
    <trkpt lat="45.397328467118065" lon="-122.2683397018176"><ele>282.2</ele></trkpt>
    <trkpt lat="45.397329178888675" lon="-122.26846521070243"><ele>281.8</ele></trkpt>
    <trkpt lat="45.397329897922255" lon="-122.26859200029018"><ele>281.4</ele></trkpt>
    <trkpt lat="45.397330000000004" lon="-122.26861000000001"><ele>281.3</ele></trkpt>
    <trkpt lat="45.39734000000001" lon="-122.26899000000002"><ele>280.1</ele></trkpt>
    <trkpt lat="45.39734894750425" lon="-122.26909558055009"><ele>279.7</ele></trkpt>
    <trkpt lat="45.39737028316776" lon="-122.26934734137957"><ele>279.0</ele></trkpt>
    <trkpt lat="45.39738623103746" lon="-122.26953552624201"><ele>278.4</ele></trkpt>
    <trkpt lat="45.39739" lon="-122.26958"><ele>278.3</ele></trkpt>
    <trkpt lat="45.3974349164739" lon="-122.26984258861664"><ele>277.6</ele></trkpt>
    <trkpt lat="45.39745598871737" lon="-122.26996578019381"><ele>277.5</ele></trkpt>
    <trkpt lat="45.39747706096083" lon="-122.27008897177099"><ele>277.4</ele></trkpt>
    <trkpt lat="45.397487490657085" lon="-122.2701499453799"><ele>277.4</ele></trkpt>
    <trkpt lat="45.397498133204294" lon="-122.27021216334816"><ele>277.3</ele></trkpt>
    <trkpt lat="45.39750856290056" lon="-122.27027313695706"><ele>277.3</ele></trkpt>
    <trkpt lat="45.39752000000001" lon="-122.27034"><ele>277.4</ele></trkpt>
    <trkpt lat="45.39751128731273" lon="-122.27039663246728"><ele>277.4</ele></trkpt>
    <trkpt lat="45.3975" lon="-122.27047"><ele>277.5</ele></trkpt>
    <trkpt lat="45.397624425243414" lon="-122.2704690714534"><ele>277.7</ele></trkpt>
    <trkpt lat="45.39795537133026" lon="-122.27046660170649"><ele>277.9</ele></trkpt>
    <trkpt lat="45.39807677818278" lon="-122.2704656956852"><ele>278.0</ele></trkpt>
    <trkpt lat="45.398157716084455" lon="-122.27046509167103"><ele>278.0</ele></trkpt>
    <trkpt lat="45.39823865398613" lon="-122.27046448765682"><ele>277.9</ele></trkpt>
    <trkpt lat="45.398394234619346" lon="-122.27046332660733"><ele>277.7</ele></trkpt>
    <trkpt lat="45.39865413521472" lon="-122.27046138705064"><ele>276.7</ele></trkpt>
    <trkpt lat="45.39884000000001" lon="-122.27046000000001"><ele>276.0</ele></trkpt>
    <trkpt lat="45.39895898263398" lon="-122.27046313112196"><ele>275.6</ele></trkpt>
    <trkpt lat="45.39917208565697" lon="-122.27046873909623"><ele>275.2</ele></trkpt>
    <trkpt lat="45.39922000000001" lon="-122.27047"><ele>275.1</ele></trkpt>
    <trkpt lat="45.39931002155532" lon="-122.27048421392979"><ele>275.0</ele></trkpt>
    <trkpt lat="45.39941" lon="-122.27050000000001"><ele>274.7</ele></trkpt>
    <trkpt lat="45.399620000000006" lon="-122.27057"><ele>274.0</ele></trkpt>
    <trkpt lat="45.399659251801516" lon="-122.27059943885115"><ele>273.8</ele></trkpt>
    <trkpt lat="45.39974" lon="-122.27066"><ele>273.5</ele></trkpt>
    <trkpt lat="45.3997734418107" lon="-122.2706979007188"><ele>273.4</ele></trkpt>
    <trkpt lat="45.39984381183115" lon="-122.27077765340863"><ele>273.0</ele></trkpt>
    <trkpt lat="45.399890000000006" lon="-122.27083"><ele>272.8</ele></trkpt>
    <trkpt lat="45.39994393354032" lon="-122.27090599726137"><ele>272.5</ele></trkpt>
    <trkpt lat="45.40000786321791" lon="-122.27099607998889"><ele>272.1</ele></trkpt>
    <trkpt lat="45.40010311843751" lon="-122.27113030325286"><ele>271.4</ele></trkpt>
    <trkpt lat="45.400110000000005" lon="-122.27114000000002"><ele>271.4</ele></trkpt>
    <trkpt lat="45.40023739792781" lon="-122.27127211636959"><ele>270.5</ele></trkpt>
    <trkpt lat="45.400380000000006" lon="-122.27142"><ele>269.4</ele></trkpt>
    <trkpt lat="45.40044945459101" lon="-122.2714547272955"><ele>269.0</ele></trkpt>
    <trkpt lat="45.4005682514879" lon="-122.27151412574395"><ele>268.2</ele></trkpt>
    <trkpt lat="45.40068704838478" lon="-122.2715735241924"><ele>267.6</ele></trkpt>
    <trkpt lat="45.40087966906759" lon="-122.27166983453381"><ele>266.3</ele></trkpt>
    <trkpt lat="45.40099422321816" lon="-122.2717271116091"><ele>265.6</ele></trkpt>
    <trkpt lat="45.40114950773338" lon="-122.27180475386669"><ele>265.2</ele></trkpt>
    <trkpt lat="45.401213997477406" lon="-122.2718369987387"><ele>265.1</ele></trkpt>
    <trkpt lat="45.40134127986693" lon="-122.27190063993348"><ele>264.9</ele></trkpt>
    <trkpt lat="45.40145668256675" lon="-122.27195834128338"><ele>264.1</ele></trkpt>
    <trkpt lat="45.40158" lon="-122.27202000000001"><ele>263.4</ele></trkpt>
    <trkpt lat="45.401537951691424" lon="-122.2722302415429"><ele>262.6</ele></trkpt>
    <trkpt lat="45.40148227247813" lon="-122.27250863760939"><ele>262.1</ele></trkpt>
    <trkpt lat="45.40147" lon="-122.27257000000002"><ele>261.9</ele></trkpt>
    <trkpt lat="45.40147827999594" lon="-122.27269005994117"><ele>261.6</ele></trkpt>
    <trkpt lat="45.40149" lon="-122.27286000000001"><ele>261.3</ele></trkpt>
    <trkpt lat="45.40153779753955" lon="-122.27289186502637"><ele>261.1</ele></trkpt>
    <trkpt lat="45.40155" lon="-122.2729"><ele>261.1</ele></trkpt>
    <trkpt lat="45.40156" lon="-122.27295000000001"><ele>260.9</ele></trkpt>
    <trkpt lat="45.40153" lon="-122.27308000000001"><ele>260.6</ele></trkpt>
    <trkpt lat="45.401547518354754" lon="-122.27323891650383"><ele>260.3</ele></trkpt>
    <trkpt lat="45.40157429976705" lon="-122.27348186217245"><ele>259.8</ele></trkpt>
    <trkpt lat="45.401600941692806" lon="-122.27372354249906"><ele>259.4</ele></trkpt>
    <trkpt lat="45.40165827065349" lon="-122.27424359807094"><ele>259.4</ele></trkpt>
    <trkpt lat="45.40167" lon="-122.27435000000001"><ele>259.4</ele></trkpt>
    <trkpt lat="45.40192882832488" lon="-122.27444346578399"><ele>259.4</ele></trkpt>
    <trkpt lat="45.40201251521349" lon="-122.27447368604932"><ele>259.4</ele></trkpt>
    <trkpt lat="45.40203" lon="-122.27448000000001"><ele>259.5</ele></trkpt>
    <trkpt lat="45.402051624365136" lon="-122.27449823230786"><ele>259.5</ele></trkpt>
    <trkpt lat="45.40208877082557" lon="-122.27452955187255"><ele>259.6</ele></trkpt>
    <trkpt lat="45.40216306374644" lon="-122.27459219100191"><ele>259.8</ele></trkpt>
    <trkpt lat="45.402276824781524" lon="-122.27468810716874"><ele>259.8</ele></trkpt>
    <trkpt lat="45.40238826416282" lon="-122.27478206586278"><ele>259.6</ele></trkpt>
    <trkpt lat="45.40253685000456" lon="-122.2749073441215"><ele>259.4</ele></trkpt>
    <trkpt lat="45.40254" lon="-122.27491"><ele>259.4</ele></trkpt>
    <trkpt lat="45.40256" lon="-122.275"><ele>259.3</ele></trkpt>
    <trkpt lat="45.40261063206181" lon="-122.27504219338485"><ele>259.3</ele></trkpt>
    <trkpt lat="45.402620000000006" lon="-122.27505000000001"><ele>259.2</ele></trkpt>
    <trkpt lat="45.4026611521932" lon="-122.2751780290455"><ele>259.2</ele></trkpt>
    <trkpt lat="45.40269184845337" lon="-122.27527352852158"><ele>259.1</ele></trkpt>
    <trkpt lat="45.40271094002981" lon="-122.2753329245372"><ele>259.2</ele></trkpt>
    <trkpt lat="45.40274725145952" lon="-122.27544589342962"><ele>259.4</ele></trkpt>
    <trkpt lat="45.40276522000207" lon="-122.27550179556196"><ele>259.6</ele></trkpt>
    <trkpt lat="45.402800000000006" lon="-122.27561000000001"><ele>260.0</ele></trkpt>
    <trkpt lat="45.40281308020238" lon="-122.27567540101191"><ele>260.2</ele></trkpt>
    <trkpt lat="45.40282515249916" lon="-122.27573576249581"><ele>260.4</ele></trkpt>
    <trkpt lat="45.40283" lon="-122.27576"><ele>260.4</ele></trkpt>
    <trkpt lat="45.40284816614175" lon="-122.27578543259847"><ele>260.5</ele></trkpt>
    <trkpt lat="45.402879592592846" lon="-122.27582942962998"><ele>260.6</ele></trkpt>
    <trkpt lat="45.40288" lon="-122.27583000000001"><ele>260.6</ele></trkpt>
    <trkpt lat="45.402921009576026" lon="-122.27584640383041"><ele>260.7</ele></trkpt>
    <trkpt lat="45.402930000000005" lon="-122.27585"><ele>260.7</ele></trkpt>
    <trkpt lat="45.40296" lon="-122.27590000000001"><ele>260.8</ele></trkpt>
    <trkpt lat="45.40298806458434" lon="-122.27592104843826"><ele>260.8</ele></trkpt>
    <trkpt lat="45.403000000000006" lon="-122.27593000000002"><ele>260.8</ele></trkpt>
    <trkpt lat="45.40315546078053" lon="-122.27592120033319"><ele>260.9</ele></trkpt>
    <trkpt lat="45.40323993040162" lon="-122.27591641903388"><ele>261.0</ele></trkpt>
    <trkpt lat="45.403323501409716" lon="-122.27591168859946"><ele>261.1</ele></trkpt>
    <trkpt lat="45.40344840861536" lon="-122.27590461838027"><ele>261.4</ele></trkpt>
    <trkpt lat="45.40353" lon="-122.27590000000001"><ele>261.6</ele></trkpt>
    <trkpt lat="45.40356875005668" lon="-122.27587232138809"><ele>261.7</ele></trkpt>
    <trkpt lat="45.403670000000005" lon="-122.2758"><ele>261.6</ele></trkpt>
    <trkpt lat="45.4036907298675" lon="-122.2758"><ele>261.6</ele></trkpt>
    <trkpt lat="45.403740000000006" lon="-122.2758"><ele>261.7</ele></trkpt>
    <trkpt lat="45.403800000000004" lon="-122.27585"><ele>261.7</ele></trkpt>
    <trkpt lat="45.40391973723367" lon="-122.27597894779012"><ele>261.7</ele></trkpt>
    <trkpt lat="45.40393" lon="-122.27599000000001"><ele>261.7</ele></trkpt>
    <trkpt lat="45.403960000000005" lon="-122.27601000000001"><ele>261.7</ele></trkpt>
    <trkpt lat="45.40413789984822" lon="-122.2760154738415"><ele>261.7</ele></trkpt>
    <trkpt lat="45.404227811106736" lon="-122.27601824034177"><ele>261.7</ele></trkpt>
    <trkpt lat="45.40445169014043" lon="-122.2760251289274"><ele>261.8</ele></trkpt>
    <trkpt lat="45.40458655702819" lon="-122.2760292786778"><ele>261.8</ele></trkpt>
    <trkpt lat="45.404610000000005" lon="-122.27603"><ele>261.8</ele></trkpt>
    <trkpt lat="45.40462" lon="-122.27607"><ele>261.8</ele></trkpt>
    <trkpt lat="45.40465127674775" lon="-122.27607"><ele>261.8</ele></trkpt>
    <trkpt lat="45.40487" lon="-122.27607"><ele>262.3</ele></trkpt>
    <trkpt lat="45.404900000000005" lon="-122.27612"><ele>262.3</ele></trkpt>
    <trkpt lat="45.404970000000006" lon="-122.27637000000001"><ele>262.1</ele></trkpt>
    <trkpt lat="45.405295634514175" lon="-122.27635330079414"><ele>261.8</ele></trkpt>
    <trkpt lat="45.405429546778116" lon="-122.27634643349857"><ele>258.3</ele></trkpt>
    <trkpt lat="45.40574410578737" lon="-122.27633030226733"><ele>258.5</ele></trkpt>
    <trkpt lat="45.405750000000005" lon="-122.27633000000002"><ele>258.5</ele></trkpt>
    <trkpt lat="45.40574591278114" lon="-122.2764495511517"><ele>258.6</ele></trkpt>
    <trkpt lat="45.40574153869639" lon="-122.27657749313062"><ele>258.6</ele></trkpt>
    <trkpt lat="45.40573716461165" lon="-122.27670543510953"><ele>258.5</ele></trkpt>
    <trkpt lat="45.405726229399775" lon="-122.2770252900568"><ele>258.4</ele></trkpt>
  </trkseg></trk>
</gpx>
