<?xml version="1.0" encoding="UTF-8"?>
<gpx version="1.1" creator="h2c-tracker" xmlns="http://www.topografix.com/GPX/1/1">
  <metadata><name>Hood to Coast 2026 — Leg 20 (5.58 mi)</name><desc>Derived from the official Hood to Coast Strava route (simplified, 766 points, ~5.59 mi). Verify against the official leg map PDF.</desc></metadata>
  <wpt lat="45.90158455120839" lon="-122.93400609444338"><name>Exchange 19 — Pittsburgh Rd</name></wpt>
  <wpt lat="45.890835970610155" lon="-122.99745422659993"><name>Exchange 20 — Pittsburgh Rd</name></wpt>
  <trk><name>HTC Leg 20</name><trkseg>
    <trkpt lat="45.90158455120839" lon="-122.93400609444338"><ele>171.9</ele></trkpt>
    <trkpt lat="45.90157000000001" lon="-122.93403"><ele>172.0</ele></trkpt>
    <trkpt lat="45.90148405568313" lon="-122.93412255541818"><ele>172.6</ele></trkpt>
    <trkpt lat="45.90144" lon="-122.93417000000001"><ele>172.9</ele></trkpt>
    <trkpt lat="45.90136924916595" lon="-122.93420329451014"><ele>173.3</ele></trkpt>
    <trkpt lat="45.90128634706274" lon="-122.9342423072646"><ele>173.8</ele></trkpt>
    <trkpt lat="45.901270000000004" lon="-122.93425"><ele>173.9</ele></trkpt>
    <trkpt lat="45.901071906041714" lon="-122.93422892617465"><ele>175.1</ele></trkpt>
    <trkpt lat="45.900800000000004" lon="-122.9342"><ele>176.7</ele></trkpt>
    <trkpt lat="45.900727113601434" lon="-122.93421457727973"><ele>177.1</ele></trkpt>
    <trkpt lat="45.900600000000004" lon="-122.93424000000002"><ele>177.8</ele></trkpt>
    <trkpt lat="45.900597996674236" lon="-122.93424070705616"><ele>177.8</ele></trkpt>
    <trkpt lat="45.90043000000001" lon="-122.93430000000001"><ele>178.6</ele></trkpt>
    <trkpt lat="45.900331405865565" lon="-122.9344372585009"><ele>179.2</ele></trkpt>
    <trkpt lat="45.90026810690703" lon="-122.93452538058041"><ele>179.7</ele></trkpt>
    <trkpt lat="45.90023581152002" lon="-122.93457034082508"><ele>179.9</ele></trkpt>
    <trkpt lat="45.90020416204076" lon="-122.93461440186485"><ele>180.2</ele></trkpt>
    <trkpt lat="45.90004462282894" lon="-122.93483650547344"><ele>181.8</ele></trkpt>
    <trkpt lat="45.89992" lon="-122.93501"><ele>182.8</ele></trkpt>
    <trkpt lat="45.89988242872304" lon="-122.93505226768659"><ele>183.1</ele></trkpt>
    <trkpt lat="45.89976" lon="-122.93519"><ele>184.1</ele></trkpt>
    <trkpt lat="45.89973897412997" lon="-122.93520182705191"><ele>184.2</ele></trkpt>
    <trkpt lat="45.89965606706779" lon="-122.93524846227439"><ele>184.7</ele></trkpt>
    <trkpt lat="45.89960000000001" lon="-122.93528"><ele>185.0</ele></trkpt>
    <trkpt lat="45.89939546764508" lon="-122.93534574254267"><ele>186.1</ele></trkpt>
    <trkpt lat="45.89932" lon="-122.93537"><ele>186.5</ele></trkpt>
    <trkpt lat="45.89930803383827" lon="-122.93537566818189"><ele>186.6</ele></trkpt>
    <trkpt lat="45.89913000000001" lon="-122.93546"><ele>187.7</ele></trkpt>
    <trkpt lat="45.899101532194216" lon="-122.93549479398486"><ele>187.9</ele></trkpt>
    <trkpt lat="45.898964525288896" lon="-122.93566224686913"><ele>189.0</ele></trkpt>
    <trkpt lat="45.898950000000006" lon="-122.93568"><ele>189.1</ele></trkpt>
    <trkpt lat="45.89890232713407" lon="-122.93575358203222"><ele>189.5</ele></trkpt>
    <trkpt lat="45.898718489782325" lon="-122.93603733098817"><ele>190.8</ele></trkpt>
    <trkpt lat="45.898565291989215" lon="-122.93627378845144"><ele>191.8</ele></trkpt>
    <trkpt lat="45.89849" lon="-122.93639000000002"><ele>192.3</ele></trkpt>
    <trkpt lat="45.89845266419817" lon="-122.93647400555415"><ele>192.6</ele></trkpt>
    <trkpt lat="45.898380541303766" lon="-122.93663628206656"><ele>193.2</ele></trkpt>
    <trkpt lat="45.89833213667664" lon="-122.93674519247756"><ele>193.7</ele></trkpt>
    <trkpt lat="45.89828373204952" lon="-122.93685410288859"><ele>194.1</ele></trkpt>
    <trkpt lat="45.89821112510885" lon="-122.9370174685051"><ele>194.8</ele></trkpt>
    <trkpt lat="45.898210000000006" lon="-122.93702"><ele>194.9</ele></trkpt>
    <trkpt lat="45.89815106713427" lon="-122.93711359925734"><ele>195.3</ele></trkpt>
    <trkpt lat="45.898060564201025" lon="-122.93725733921013"><ele>196.1</ele></trkpt>
    <trkpt lat="45.89804" lon="-122.93729"><ele>196.3</ele></trkpt>
    <trkpt lat="45.89799227671412" lon="-122.937340530538"><ele>196.6</ele></trkpt>
    <trkpt lat="45.89788367778975" lon="-122.93745551763439"><ele>197.3</ele></trkpt>
    <trkpt lat="45.897870000000005" lon="-122.93747"><ele>197.3</ele></trkpt>
    <trkpt lat="45.89772000000001" lon="-122.93756"><ele>198.1</ele></trkpt>
    <trkpt lat="45.897585723085186" lon="-122.93756497321907"><ele>198.7</ele></trkpt>
    <trkpt lat="45.897450000000006" lon="-122.93757000000001"><ele>199.4</ele></trkpt>
    <trkpt lat="45.897271236965906" lon="-122.93755691977799"><ele>200.3</ele></trkpt>
    <trkpt lat="45.89718142110709" lon="-122.9375503478859"><ele>200.8</ele></trkpt>
    <trkpt lat="45.897040000000004" lon="-122.93754000000001"><ele>201.6</ele></trkpt>
    <trkpt lat="45.897001927582" lon="-122.93754543891687"><ele>201.8</ele></trkpt>
    <trkpt lat="45.89697" lon="-122.93755000000002"><ele>202.0</ele></trkpt>
    <trkpt lat="45.89683127861864" lon="-122.93748063930931"><ele>202.8</ele></trkpt>
    <trkpt lat="45.89681" lon="-122.93747"><ele>202.9</ele></trkpt>
    <trkpt lat="45.896627350087634" lon="-122.93734502900733"><ele>204.0</ele></trkpt>
    <trkpt lat="45.896620000000006" lon="-122.93734"><ele>204.0</ele></trkpt>
    <trkpt lat="45.89647333129016" lon="-122.9372116648789"><ele>204.9</ele></trkpt>
    <trkpt lat="45.896460000000005" lon="-122.9372"><ele>205.0</ele></trkpt>
    <trkpt lat="45.89629" lon="-122.93711"><ele>206.0</ele></trkpt>
    <trkpt lat="45.896262318758914" lon="-122.9371034867668"><ele>206.1</ele></trkpt>
    <trkpt lat="45.89612" lon="-122.93707"><ele>207.0</ele></trkpt>
    <trkpt lat="45.89591059703159" lon="-122.93713754934465"><ele>208.2</ele></trkpt>
    <trkpt lat="45.895810000000004" lon="-122.93717000000001"><ele>208.9</ele></trkpt>
    <trkpt lat="45.895688372317565" lon="-122.93716284543046"><ele>209.6</ele></trkpt>
    <trkpt lat="45.89564" lon="-122.93716"><ele>209.9</ele></trkpt>
    <trkpt lat="45.895602100900845" lon="-122.9371356362934"><ele>210.2</ele></trkpt>
    <trkpt lat="45.895500000000006" lon="-122.93707"><ele>210.7</ele></trkpt>
    <trkpt lat="45.89545183556858" lon="-122.93700100770634"><ele>211.1</ele></trkpt>
    <trkpt lat="45.895389420063275" lon="-122.93691160171225"><ele>211.6</ele></trkpt>
    <trkpt lat="45.89535757541772" lon="-122.93686598640916"><ele>211.8</ele></trkpt>
    <trkpt lat="45.89529324923368" lon="-122.9367738434969"><ele>212.2</ele></trkpt>
    <trkpt lat="45.89522955994256" lon="-122.9366826128907"><ele>212.5</ele></trkpt>
    <trkpt lat="45.89513" lon="-122.93654000000001"><ele>212.9</ele></trkpt>
    <trkpt lat="45.8950514218955" lon="-122.93649634549752"><ele>213.2</ele></trkpt>
    <trkpt lat="45.89500948166584" lon="-122.93647304536991"><ele>213.4</ele></trkpt>
    <trkpt lat="45.894967541436166" lon="-122.93644974524231"><ele>213.6</ele></trkpt>
    <trkpt lat="45.89495" lon="-122.93644"><ele>213.7</ele></trkpt>
    <trkpt lat="45.894879831641845" lon="-122.93642329324805"><ele>214.1</ele></trkpt>
    <trkpt lat="45.894740000000006" lon="-122.93639000000002"><ele>215.0</ele></trkpt>
    <trkpt lat="45.894701880412256" lon="-122.93639100314707"><ele>215.3</ele></trkpt>
    <trkpt lat="45.89461286242737" lon="-122.9363933457256"><ele>215.8</ele></trkpt>
    <trkpt lat="45.89456790384915" lon="-122.9363945288461"><ele>216.1</ele></trkpt>
    <trkpt lat="45.894477986692706" lon="-122.93639689508704"><ele>216.6</ele></trkpt>
    <trkpt lat="45.894360000000006" lon="-122.9364"><ele>217.1</ele></trkpt>
    <trkpt lat="45.89425332865254" lon="-122.93640820548828"><ele>217.7</ele></trkpt>
    <trkpt lat="45.89423" lon="-122.93641000000001"><ele>217.8</ele></trkpt>
    <trkpt lat="45.8941" lon="-122.93649"><ele>218.6</ele></trkpt>
    <trkpt lat="45.8940155656308" lon="-122.93657971151728"><ele>219.1</ele></trkpt>
    <trkpt lat="45.89394" lon="-122.93666"><ele>219.6</ele></trkpt>
    <trkpt lat="45.8938935309225" lon="-122.93676223197053"><ele>220.0</ele></trkpt>
    <trkpt lat="45.893844355345806" lon="-122.93687041823925"><ele>220.5</ele></trkpt>
    <trkpt lat="45.893840000000004" lon="-122.93688000000002"><ele>220.5</ele></trkpt>
    <trkpt lat="45.893800000000006" lon="-122.93712000000001"><ele>221.3</ele></trkpt>
    <trkpt lat="45.893802488785354" lon="-122.93718470841921"><ele>221.5</ele></trkpt>
    <trkpt lat="45.89381" lon="-122.93738"><ele>222.2</ele></trkpt>
    <trkpt lat="45.89387554649896" lon="-122.93761458746997"><ele>223.1</ele></trkpt>
    <trkpt lat="45.89392513387513" lon="-122.9377920580794"><ele>223.6</ele></trkpt>
    <trkpt lat="45.89397472125128" lon="-122.93796952868881"><ele>224.1</ele></trkpt>
    <trkpt lat="45.894000000000005" lon="-122.93806000000001"><ele>224.4</ele></trkpt>
    <trkpt lat="45.894080404862024" lon="-122.93824918791063"><ele>224.9</ele></trkpt>
    <trkpt lat="45.89412680518766" lon="-122.93835836514742"><ele>225.2</ele></trkpt>
    <trkpt lat="45.89417" lon="-122.93846"><ele>225.5</ele></trkpt>
    <trkpt lat="45.8943305409034" lon="-122.93869136777255"><ele>226.4</ele></trkpt>
    <trkpt lat="45.894510000000004" lon="-122.93895"><ele>227.4</ele></trkpt>
    <trkpt lat="45.894519020063896" lon="-122.93896141601837"><ele>227.5</ele></trkpt>
    <trkpt lat="45.89475184324968" lon="-122.93925608286288"><ele>228.7</ele></trkpt>
    <trkpt lat="45.89478558574037" lon="-122.93929878820266"><ele>228.9</ele></trkpt>
    <trkpt lat="45.89485172102213" lon="-122.93938249066863"><ele>229.3</ele></trkpt>
    <trkpt lat="45.89501840892615" lon="-122.93959345504716"><ele>230.7</ele></trkpt>
    <trkpt lat="45.89515" lon="-122.93976"><ele>231.5</ele></trkpt>
    <trkpt lat="45.89524894380416" lon="-122.9398992542429"><ele>232.1</ele></trkpt>
    <trkpt lat="45.895408917228565" lon="-122.94012440202539"><ele>233.2</ele></trkpt>
    <trkpt lat="45.89556889065297" lon="-122.94034954980788"><ele>234.3</ele></trkpt>
    <trkpt lat="45.89563313700815" lon="-122.94043997060406"><ele>234.8</ele></trkpt>
    <trkpt lat="45.89569" lon="-122.94052"><ele>235.3</ele></trkpt>
    <trkpt lat="45.895875320714936" lon="-122.94072591190549"><ele>236.6</ele></trkpt>
    <trkpt lat="45.895946463216156" lon="-122.94080495912905"><ele>237.1</ele></trkpt>
    <trkpt lat="45.89605" lon="-122.94092"><ele>237.8</ele></trkpt>
    <trkpt lat="45.89616" lon="-122.94114"><ele>238.7</ele></trkpt>
    <trkpt lat="45.89616402447898" lon="-122.9411963427057"><ele>238.9</ele></trkpt>
    <trkpt lat="45.896170000000005" lon="-122.94128"><ele>239.2</ele></trkpt>
    <trkpt lat="45.89615807350827" lon="-122.9413217427211"><ele>239.3</ele></trkpt>
    <trkpt lat="45.89613000000001" lon="-122.94142000000001"><ele>239.7</ele></trkpt>
    <trkpt lat="45.89604887274716" lon="-122.94151587766247"><ele>240.1</ele></trkpt>
    <trkpt lat="45.89602000000001" lon="-122.94155"><ele>240.3</ele></trkpt>
    <trkpt lat="45.89596745220797" lon="-122.94155"><ele>240.6</ele></trkpt>
    <trkpt lat="45.895900000000005" lon="-122.94155"><ele>241.0</ele></trkpt>
    <trkpt lat="45.89587828449383" lon="-122.94154164788225"><ele>241.1</ele></trkpt>
    <trkpt lat="45.89583484762653" lon="-122.94152494139482"><ele>241.4</ele></trkpt>
    <trkpt lat="45.895792279496575" lon="-122.94150856903715"><ele>241.7</ele></trkpt>
    <trkpt lat="45.895770000000006" lon="-122.9415"><ele>241.8</ele></trkpt>
    <trkpt lat="45.89567395658335" lon="-122.94141767707144"><ele>242.6</ele></trkpt>
    <trkpt lat="45.8956353396949" lon="-122.94138457688133"><ele>242.9</ele></trkpt>
    <trkpt lat="45.89556" lon="-122.94132"><ele>243.4</ele></trkpt>
    <trkpt lat="45.89555791701604" lon="-122.94131895850803"><ele>243.4</ele></trkpt>
    <trkpt lat="45.89534642510273" lon="-122.94121321255138"><ele>244.7</ele></trkpt>
    <trkpt lat="45.89528000000001" lon="-122.94118000000002"><ele>245.1</ele></trkpt>
    <trkpt lat="45.89508657159563" lon="-122.94111552386522"><ele>246.2</ele></trkpt>
    <trkpt lat="45.89504" lon="-122.9411"><ele>246.5</ele></trkpt>
    <trkpt lat="45.89499868508421" lon="-122.94108819573836"><ele>246.7</ele></trkpt>
    <trkpt lat="45.894910479824304" lon="-122.94106299423552"><ele>247.2</ele></trkpt>
    <trkpt lat="45.89490000000001" lon="-122.94106000000001"><ele>247.2</ele></trkpt>
    <trkpt lat="45.894780000000004" lon="-122.9411"><ele>247.8</ele></trkpt>
    <trkpt lat="45.89474081455547" lon="-122.94113206081826"><ele>248.0</ele></trkpt>
    <trkpt lat="45.894670000000005" lon="-122.94119"><ele>248.4</ele></trkpt>
    <trkpt lat="45.894665271764325" lon="-122.94120004750081"><ele>248.5</ele></trkpt>
    <trkpt lat="45.89464008498511" lon="-122.94125356940664"><ele>248.7</ele></trkpt>
    <trkpt lat="45.89459" lon="-122.94136"><ele>249.3</ele></trkpt>
    <trkpt lat="45.894589840074985" lon="-122.9413607036701"><ele>249.3</ele></trkpt>
    <trkpt lat="45.894540000000006" lon="-122.94158000000002"><ele>250.5</ele></trkpt>
    <trkpt lat="45.89453709806451" lon="-122.9416061174195"><ele>250.6</ele></trkpt>
    <trkpt lat="45.894522920231566" lon="-122.94173371791592"><ele>251.2</ele></trkpt>
    <trkpt lat="45.894510000000004" lon="-122.94185000000002"><ele>251.7</ele></trkpt>
    <trkpt lat="45.894507815444726" lon="-122.94192471179062"><ele>252.0</ele></trkpt>
    <trkpt lat="45.89448897857899" lon="-122.94256893259858"><ele>254.4</ele></trkpt>
    <trkpt lat="45.89448142873301" lon="-122.94282713733121"><ele>255.5</ele></trkpt>
    <trkpt lat="45.89447957902074" lon="-122.9428903974907"><ele>255.7</ele></trkpt>
    <trkpt lat="45.89447580409775" lon="-122.94301949985703"><ele>256.1</ele></trkpt>
    <trkpt lat="45.89446825425177" lon="-122.94327770458966"><ele>256.7</ele></trkpt>
    <trkpt lat="45.89446636679027" lon="-122.94334225577282"><ele>256.9</ele></trkpt>
    <trkpt lat="45.89446262961651" lon="-122.9434700671155"><ele>257.4</ele></trkpt>
    <trkpt lat="45.89446" lon="-122.94356"><ele>257.7</ele></trkpt>
    <trkpt lat="45.89444759449525" lon="-122.94372747431416"><ele>258.3</ele></trkpt>
    <trkpt lat="45.89444" lon="-122.94383"><ele>258.6</ele></trkpt>
    <trkpt lat="45.89440936361545" lon="-122.94397761167102"><ele>259.1</ele></trkpt>
    <trkpt lat="45.89437081356357" lon="-122.94416335283009"><ele>259.8</ele></trkpt>
    <trkpt lat="45.89435796354628" lon="-122.94422526654978"><ele>260.1</ele></trkpt>
    <trkpt lat="45.894332263511686" lon="-122.94434909398916"><ele>260.6</ele></trkpt>
    <trkpt lat="45.894330000000004" lon="-122.94436"><ele>260.7</ele></trkpt>
    <trkpt lat="45.894310000000004" lon="-122.94463"><ele>261.9</ele></trkpt>
    <trkpt lat="45.89431775222929" lon="-122.94466721070059"><ele>262.1</ele></trkpt>
    <trkpt lat="45.89433064691448" lon="-122.94472910518952"><ele>262.4</ele></trkpt>
    <trkpt lat="45.89435643628489" lon="-122.94485289416744"><ele>262.9</ele></trkpt>
    <trkpt lat="45.894360000000006" lon="-122.94487000000001"><ele>263.0</ele></trkpt>
    <trkpt lat="45.89439309000227" lon="-122.9449692700068"><ele>263.4</ele></trkpt>
    <trkpt lat="45.89443000000001" lon="-122.94508"><ele>263.7</ele></trkpt>
    <trkpt lat="45.89461000000001" lon="-122.94531"><ele>264.8</ele></trkpt>
    <trkpt lat="45.894800000000004" lon="-122.94553"><ele>265.9</ele></trkpt>
    <trkpt lat="45.89481239560795" lon="-122.94553697252948"><ele>266.0</ele></trkpt>
    <trkpt lat="45.894960000000005" lon="-122.94562"><ele>266.8</ele></trkpt>
    <trkpt lat="45.89506937559473" lon="-122.94564139957289"><ele>267.3</ele></trkpt>
    <trkpt lat="45.895246704288624" lon="-122.94567609431735"><ele>268.1</ele></trkpt>
    <trkpt lat="45.89542" lon="-122.94571"><ele>268.8</ele></trkpt>
    <trkpt lat="45.89542388926742" lon="-122.94571444487705"><ele>268.8</ele></trkpt>
    <trkpt lat="45.89549" lon="-122.94579000000002"><ele>269.1</ele></trkpt>
    <trkpt lat="45.89549356452377" lon="-122.94579594087297"><ele>269.1</ele></trkpt>
    <trkpt lat="45.895551699114876" lon="-122.94589283185812"><ele>269.4</ele></trkpt>
    <trkpt lat="45.89558" lon="-122.94594000000001"><ele>269.5</ele></trkpt>
    <trkpt lat="45.89562" lon="-122.94611"><ele>269.9</ele></trkpt>
    <trkpt lat="45.89562107334957" lon="-122.94612663691831"><ele>269.9</ele></trkpt>
    <trkpt lat="45.89562937446323" lon="-122.94625530418011"><ele>270.2</ele></trkpt>
    <trkpt lat="45.89563344200893" lon="-122.94631835113842"><ele>270.4</ele></trkpt>
    <trkpt lat="45.89563759256576" lon="-122.94638268476932"><ele>270.6</ele></trkpt>
    <trkpt lat="45.89564" lon="-122.94642"><ele>270.8</ele></trkpt>
    <trkpt lat="45.8956445782253" lon="-122.94644632479547"><ele>270.9</ele></trkpt>
    <trkpt lat="45.895680000000006" lon="-122.94665"><ele>271.8</ele></trkpt>
    <trkpt lat="45.89569969441702" lon="-122.94668938883403"><ele>272.0</ele></trkpt>
    <trkpt lat="45.895725930438445" lon="-122.94674186087687"><ele>272.3</ele></trkpt>
    <trkpt lat="45.89575164173944" lon="-122.94679328347887"><ele>272.5</ele></trkpt>
    <trkpt lat="45.895770000000006" lon="-122.94683"><ele>272.7</ele></trkpt>
    <trkpt lat="45.89580953919213" lon="-122.94689188743115"><ele>272.9</ele></trkpt>
    <trkpt lat="45.89596158200625" lon="-122.94712986748803"><ele>273.9</ele></trkpt>
    <trkpt lat="45.89605219952347" lon="-122.94727170360196"><ele>274.5</ele></trkpt>
    <trkpt lat="45.89617383377477" lon="-122.94746208764747"><ele>275.3</ele></trkpt>
    <trkpt lat="45.89623" lon="-122.94755"><ele>275.8</ele></trkpt>
    <trkpt lat="45.896262809040735" lon="-122.9477468542444"><ele>276.5</ele></trkpt>
    <trkpt lat="45.896280000000004" lon="-122.94785000000002"><ele>276.9</ele></trkpt>
    <trkpt lat="45.89628576342201" lon="-122.9480603649032"><ele>277.8</ele></trkpt>
    <trkpt lat="45.8962996306036" lon="-122.94856651703128"><ele>279.7</ele></trkpt>
    <trkpt lat="45.896300000000004" lon="-122.94858"><ele>279.7</ele></trkpt>
    <trkpt lat="45.896356767537114" lon="-122.94879997420631"><ele>280.3</ele></trkpt>
    <trkpt lat="45.89638" lon="-122.94889"><ele>280.5</ele></trkpt>
    <trkpt lat="45.89644699429847" lon="-122.94900774755489"><ele>280.9</ele></trkpt>
    <trkpt lat="45.89652896098354" lon="-122.9491518102135"><ele>281.4</ele></trkpt>
    <trkpt lat="45.89661377373407" lon="-122.94930087504775"><ele>282.2</ele></trkpt>
    <trkpt lat="45.896710000000006" lon="-122.94947"><ele>282.9</ele></trkpt>
    <trkpt lat="45.8967168078792" lon="-122.9495074433356"><ele>283.1</ele></trkpt>
    <trkpt lat="45.896750000000004" lon="-122.94969"><ele>283.7</ele></trkpt>
    <trkpt lat="45.896770000000004" lon="-122.94993000000001"><ele>284.5</ele></trkpt>
    <trkpt lat="45.89674724105966" lon="-122.95000586313449"><ele>284.8</ele></trkpt>
    <trkpt lat="45.896710000000006" lon="-122.95013000000002"><ele>285.2</ele></trkpt>
    <trkpt lat="45.89661" lon="-122.95027"><ele>285.8</ele></trkpt>
    <trkpt lat="45.8965761922739" lon="-122.95028408655254"><ele>286.0</ele></trkpt>
    <trkpt lat="45.89649068205443" lon="-122.95031971581066"><ele>286.4</ele></trkpt>
    <trkpt lat="45.89649000000001" lon="-122.95032"><ele>286.4</ele></trkpt>
    <trkpt lat="45.896350000000005" lon="-122.95036"><ele>287.1</ele></trkpt>
    <trkpt lat="45.89623237140473" lon="-122.95030118570236"><ele>287.8</ele></trkpt>
    <trkpt lat="45.89607" lon="-122.95022000000002"><ele>288.7</ele></trkpt>
    <trkpt lat="45.89606321425276" lon="-122.95021728570113"><ele>288.7</ele></trkpt>
    <trkpt lat="45.89597657652415" lon="-122.95018263060967"><ele>289.2</ele></trkpt>
    <trkpt lat="45.89587" lon="-122.95014"><ele>289.7</ele></trkpt>
    <trkpt lat="45.895720000000004" lon="-122.95018"><ele>290.4</ele></trkpt>
    <trkpt lat="45.895675710615166" lon="-122.95021263428356"><ele>290.7</ele></trkpt>
    <trkpt lat="45.89555647584402" lon="-122.95030049148336"><ele>291.4</ele></trkpt>
    <trkpt lat="45.89553" lon="-122.95032"><ele>291.6</ele></trkpt>
    <trkpt lat="45.89549390204343" lon="-122.95038091530171"><ele>291.9</ele></trkpt>
    <trkpt lat="45.895465916802" lon="-122.95042814039664"><ele>292.2</ele></trkpt>
    <trkpt lat="45.89537000000001" lon="-122.95059"><ele>293.4</ele></trkpt>
    <trkpt lat="45.89532241843577" lon="-122.95073274469271"><ele>294.2</ele></trkpt>
    <trkpt lat="45.895285125301974" lon="-122.9508446240941"><ele>294.8</ele></trkpt>
    <trkpt lat="45.89528000000001" lon="-122.95086"><ele>294.9</ele></trkpt>
    <trkpt lat="45.895259478127905" lon="-122.95108916090513"><ele>295.9</ele></trkpt>
    <trkpt lat="45.89523239206957" lon="-122.95139162188977"><ele>296.7</ele></trkpt>
    <trkpt lat="45.89522" lon="-122.95153"><ele>297.2</ele></trkpt>
    <trkpt lat="45.895202153176214" lon="-122.95157640174183"><ele>297.4</ele></trkpt>
    <trkpt lat="45.895180403756534" lon="-122.951632950233"><ele>297.6</ele></trkpt>
    <trkpt lat="45.89517" lon="-122.95166"><ele>297.7</ele></trkpt>
    <trkpt lat="45.89515074715288" lon="-122.95167925284713"><ele>297.8</ele></trkpt>
    <trkpt lat="45.89511383981247" lon="-122.95171616018754"><ele>297.9</ele></trkpt>
    <trkpt lat="45.895076932472044" lon="-122.95175306752796"><ele>298.1</ele></trkpt>
    <trkpt lat="45.89504" lon="-122.95179000000002"><ele>298.1</ele></trkpt>
    <trkpt lat="45.89499612952663" lon="-122.95179548380918"><ele>298.1</ele></trkpt>
    <trkpt lat="45.894960000000005" lon="-122.9518"><ele>298.1</ele></trkpt>
    <trkpt lat="45.89495228737076" lon="-122.95179421552807"><ele>298.1</ele></trkpt>
    <trkpt lat="45.89491242507752" lon="-122.95176431880815"><ele>298.0</ele></trkpt>
    <trkpt lat="45.894872562784286" lon="-122.95173442208821"><ele>297.9</ele></trkpt>
    <trkpt lat="45.89484" lon="-122.95171"><ele>297.8</ele></trkpt>
    <trkpt lat="45.89483357141838" lon="-122.95170260713114"><ele>297.8</ele></trkpt>
    <trkpt lat="45.89479846522055" lon="-122.95166223500365"><ele>297.6</ele></trkpt>
    <trkpt lat="45.89476335902272" lon="-122.95162186287612"><ele>297.4</ele></trkpt>
    <trkpt lat="45.89472825282489" lon="-122.95158149074862"><ele>297.1</ele></trkpt>
    <trkpt lat="45.89464" lon="-122.95148"><ele>296.5</ele></trkpt>
    <trkpt lat="45.89462205260602" lon="-122.95146444559188"><ele>296.3</ele></trkpt>
    <trkpt lat="45.894490000000005" lon="-122.95135"><ele>295.5</ele></trkpt>
    <trkpt lat="45.89438083925988" lon="-122.95129541962994"><ele>294.9</ele></trkpt>
    <trkpt lat="45.894310000000004" lon="-122.95126"><ele>294.4</ele></trkpt>
    <trkpt lat="45.89425114246836" lon="-122.95125425780179"><ele>294.1</ele></trkpt>
    <trkpt lat="45.89402682839031" lon="-122.95123237350148"><ele>292.7</ele></trkpt>
    <trkpt lat="45.89393710275909" lon="-122.95122361978139"><ele>292.2</ele></trkpt>
    <trkpt lat="45.8939" lon="-122.95122"><ele>292.0</ele></trkpt>
    <trkpt lat="45.89380351207505" lon="-122.95123135152059"><ele>291.5</ele></trkpt>
    <trkpt lat="45.89357943141025" lon="-122.95125771395175"><ele>290.4</ele></trkpt>
    <trkpt lat="45.89356" lon="-122.95126"><ele>290.3</ele></trkpt>
    <trkpt lat="45.89344798291995" lon="-122.9512940921548"><ele>289.7</ele></trkpt>
    <trkpt lat="45.893330000000006" lon="-122.95133000000001"><ele>289.0</ele></trkpt>
    <trkpt lat="45.89331763216498" lon="-122.95134030652919"><ele>288.9</ele></trkpt>
    <trkpt lat="45.893150000000006" lon="-122.95148"><ele>287.8</ele></trkpt>
    <trkpt lat="45.892985645119964" lon="-122.95166783414862"><ele>286.6</ele></trkpt>
    <trkpt lat="45.89294" lon="-122.95172000000001"><ele>286.3</ele></trkpt>
    <trkpt lat="45.892796769513296" lon="-122.9519417762375"><ele>285.2</ele></trkpt>
    <trkpt lat="45.892674426910276" lon="-122.95213120994539"><ele>284.2</ele></trkpt>
    <trkpt lat="45.892630000000004" lon="-122.9522"><ele>283.8</ele></trkpt>
    <trkpt lat="45.89253843387014" lon="-122.95238608600584"><ele>282.9</ele></trkpt>
    <trkpt lat="45.89240864337702" lon="-122.9526498537822"><ele>281.7</ele></trkpt>
    <trkpt lat="45.892357246341746" lon="-122.95275430582164"><ele>281.3</ele></trkpt>
    <trkpt lat="45.892320000000005" lon="-122.95283"><ele>281.0</ele></trkpt>
    <trkpt lat="45.89230844700341" lon="-122.95286251954599"><ele>280.9</ele></trkpt>
    <trkpt lat="45.89216575582982" lon="-122.95326416877535"><ele>279.5</ele></trkpt>
    <trkpt lat="45.89208398438364" lon="-122.9534943402535"><ele>278.7</ele></trkpt>
    <trkpt lat="45.892050000000005" lon="-122.95359"><ele>278.4</ele></trkpt>
    <trkpt lat="45.8919883883795" lon="-122.9537107587762"><ele>277.9</ele></trkpt>
    <trkpt lat="45.89180229807208" lon="-122.95407549577874"><ele>276.5</ele></trkpt>
    <trkpt lat="45.8918" lon="-122.95408"><ele>276.5</ele></trkpt>
    <trkpt lat="45.891693208681" lon="-122.954186791319"><ele>275.8</ele></trkpt>
    <trkpt lat="45.891670000000005" lon="-122.95421"><ele>275.7</ele></trkpt>
    <trkpt lat="45.891451803338256" lon="-122.9543587704512"><ele>274.3</ele></trkpt>
    <trkpt lat="45.89137136817966" lon="-122.95441361260478"><ele>273.9</ele></trkpt>
    <trkpt lat="45.89129012054471" lon="-122.95446900871953"><ele>273.5</ele></trkpt>
    <trkpt lat="45.891249496727234" lon="-122.9544967067769"><ele>273.3</ele></trkpt>
    <trkpt lat="45.89123000000001" lon="-122.95451000000001"><ele>273.2</ele></trkpt>
    <trkpt lat="45.89117843344473" lon="-122.95457445819412"><ele>273.0</ele></trkpt>
    <trkpt lat="45.89115" lon="-122.95461000000002"><ele>272.9</ele></trkpt>
    <trkpt lat="45.89108" lon="-122.95472000000001"><ele>272.5</ele></trkpt>
    <trkpt lat="45.89105000000001" lon="-122.95488000000002"><ele>272.2</ele></trkpt>
    <trkpt lat="45.89105000000001" lon="-122.95496203945945"><ele>272.0</ele></trkpt>
    <trkpt lat="45.89105000000001" lon="-122.95511"><ele>271.7</ele></trkpt>
    <trkpt lat="45.891070000000006" lon="-122.95529"><ele>271.4</ele></trkpt>
    <trkpt lat="45.891093636253416" lon="-122.95539636314035"><ele>271.2</ele></trkpt>
    <trkpt lat="45.891110000000005" lon="-122.95547"><ele>271.0</ele></trkpt>
    <trkpt lat="45.89115521531993" lon="-122.95556043063985"><ele>270.8</ele></trkpt>
    <trkpt lat="45.891180000000006" lon="-122.95561000000001"><ele>270.6</ele></trkpt>
    <trkpt lat="45.891216050393396" lon="-122.95565024229961"><ele>270.5</ele></trkpt>
    <trkpt lat="45.89125084850693" lon="-122.9556890867054"><ele>270.3</ele></trkpt>
    <trkpt lat="45.89149514546718" lon="-122.95596179028894"><ele>268.9</ele></trkpt>
    <trkpt lat="45.89160096013892" lon="-122.95607990899228"><ele>268.2</ele></trkpt>
    <trkpt lat="45.89161000000001" lon="-122.95609"><ele>268.1</ele></trkpt>
    <trkpt lat="45.891634977550616" lon="-122.95612211399364"><ele>267.9</ele></trkpt>
    <trkpt lat="45.89173483207597" lon="-122.9562504983834"><ele>267.2</ele></trkpt>
    <trkpt lat="45.89175" lon="-122.95627"><ele>267.1</ele></trkpt>
    <trkpt lat="45.891787552856925" lon="-122.95635261628523"><ele>266.7</ele></trkpt>
    <trkpt lat="45.891850000000005" lon="-122.95649000000002"><ele>266.1</ele></trkpt>
    <trkpt lat="45.89199000000001" lon="-122.95699"><ele>264.2</ele></trkpt>
    <trkpt lat="45.891990963039035" lon="-122.9569920330824"><ele>264.2</ele></trkpt>
    <trkpt lat="45.892066355054624" lon="-122.95715119400418"><ele>263.6</ele></trkpt>
    <trkpt lat="45.89208000000001" lon="-122.95718000000001"><ele>263.5</ele></trkpt>
    <trkpt lat="45.89219816393604" lon="-122.95732348477947"><ele>262.8</ele></trkpt>
    <trkpt lat="45.89222" lon="-122.95735"><ele>262.6</ele></trkpt>
    <trkpt lat="45.892271797174885" lon="-122.95739475678218"><ele>262.4</ele></trkpt>
    <trkpt lat="45.892310331451505" lon="-122.95742805339015"><ele>262.2</ele></trkpt>
    <trkpt lat="45.89238662931923" lon="-122.95749398067389"><ele>262.0</ele></trkpt>
    <trkpt lat="45.892463697872486" lon="-122.95756057388982"><ele>261.8</ele></trkpt>
    <trkpt lat="45.8925399957402" lon="-122.95762650117358"><ele>261.6</ele></trkpt>
    <trkpt lat="45.89261629360792" lon="-122.95769242845734"><ele>261.5</ele></trkpt>
    <trkpt lat="45.89269336216118" lon="-122.95775902167327"><ele>261.5</ele></trkpt>
    <trkpt lat="45.892769660028904" lon="-122.95782494895701"><ele>261.5</ele></trkpt>
    <trkpt lat="45.89299932431759" lon="-122.95802339674046"><ele>261.6</ele></trkpt>
    <trkpt lat="45.89325" lon="-122.95824"><ele>261.7</ele></trkpt>
    <trkpt lat="45.893264250312725" lon="-122.95825292028356"><ele>261.7</ele></trkpt>
    <trkpt lat="45.89348785325016" lon="-122.95845565361347"><ele>261.8</ele></trkpt>
    <trkpt lat="45.89356314811684" lon="-122.95852392095927"><ele>261.9</ele></trkpt>
    <trkpt lat="45.893637682429315" lon="-122.95859149873591"><ele>262.0</ele></trkpt>
    <trkpt lat="45.89371221674179" lon="-122.95865907651256"><ele>262.1</ele></trkpt>
    <trkpt lat="45.893787511608465" lon="-122.95872734385836"><ele>262.3</ele></trkpt>
    <trkpt lat="45.89397384738966" lon="-122.95889628829997"><ele>262.9</ele></trkpt>
    <trkpt lat="45.894000000000005" lon="-122.95892"><ele>263.0</ele></trkpt>
    <trkpt lat="45.89417776152145" lon="-122.95901764365263"><ele>263.4</ele></trkpt>
    <trkpt lat="45.8943844084673" lon="-122.95913115394684"><ele>264.0</ele></trkpt>
    <trkpt lat="45.89446673123435" lon="-122.95917637349494"><ele>264.2</ele></trkpt>
    <trkpt lat="45.89454989402963" lon="-122.95922205446699"><ele>264.3</ele></trkpt>
    <trkpt lat="45.89463137676845" lon="-122.95926681259114"><ele>264.4</ele></trkpt>
    <trkpt lat="45.89471" lon="-122.95931000000002"><ele>264.4</ele></trkpt>
    <trkpt lat="45.89471415087223" lon="-122.9593136320132"><ele>264.4</ele></trkpt>
    <trkpt lat="45.8948278300299" lon="-122.95941310127617"><ele>264.4</ele></trkpt>
    <trkpt lat="45.894870000000004" lon="-122.95945"><ele>264.4</ele></trkpt>
    <trkpt lat="45.89489330767706" lon="-122.95949449647438"><ele>264.3</ele></trkpt>
    <trkpt lat="45.89499984529961" lon="-122.95969788648107"><ele>264.2</ele></trkpt>
    <trkpt lat="45.89505284371083" lon="-122.95979906526613"><ele>264.1</ele></trkpt>
    <trkpt lat="45.89509" lon="-122.95987000000001"><ele>264.0</ele></trkpt>
    <trkpt lat="45.89518591623299" lon="-122.96004813014697"><ele>263.7</ele></trkpt>
    <trkpt lat="45.89531964237121" lon="-122.96029647868937"><ele>263.2</ele></trkpt>
    <trkpt lat="45.89537000000001" lon="-122.96039"><ele>263.0</ele></trkpt>
    <trkpt lat="45.89537180230077" lon="-122.96039660843614"><ele>263.0</ele></trkpt>
    <trkpt lat="45.89543545763592" lon="-122.96063001133169"><ele>262.4</ele></trkpt>
    <trkpt lat="45.89546000000001" lon="-122.96072000000001"><ele>262.2</ele></trkpt>
    <trkpt lat="45.89546213940757" lon="-122.96074852543411"><ele>262.1</ele></trkpt>
    <trkpt lat="45.89548083247991" lon="-122.9609977663988"><ele>261.4</ele></trkpt>
    <trkpt lat="45.89549" lon="-122.96112000000001"><ele>261.2</ele></trkpt>
    <trkpt lat="45.89549102595154" lon="-122.96118053114068"><ele>261.1</ele></trkpt>
    <trkpt lat="45.8954951859962" lon="-122.9614259737753"><ele>260.8</ele></trkpt>
    <trkpt lat="45.89549831697717" lon="-122.96161070165296"><ele>260.7</ele></trkpt>
    <trkpt lat="45.89550368124527" lon="-122.9619271934713"><ele>260.4</ele></trkpt>
    <trkpt lat="45.89550689980614" lon="-122.9621170885623"><ele>260.3</ele></trkpt>
    <trkpt lat="45.89551011836701" lon="-122.96230698365329"><ele>260.3</ele></trkpt>
    <trkpt lat="45.8955144097815" lon="-122.96256017710797"><ele>260.3</ele></trkpt>
    <trkpt lat="45.895522073021645" lon="-122.96301230827702"><ele>260.2</ele></trkpt>
    <trkpt lat="45.895526408226075" lon="-122.96326808533837"><ele>260.1</ele></trkpt>
    <trkpt lat="45.895527875189195" lon="-122.96335463616215"><ele>260.1</ele></trkpt>
    <trkpt lat="45.89553" lon="-122.96348"><ele>260.4</ele></trkpt>
    <trkpt lat="45.89552991302249" lon="-122.96348252234777"><ele>260.4</ele></trkpt>
    <trkpt lat="45.89552768784414" lon="-122.96354705252007"><ele>260.5</ele></trkpt>
    <trkpt lat="45.89552546266579" lon="-122.9636115826924"><ele>260.8</ele></trkpt>
    <trkpt lat="45.895521012309075" lon="-122.96374064303701"><ele>261.3</ele></trkpt>
    <trkpt lat="45.89551211159565" lon="-122.96399876372624"><ele>262.4</ele></trkpt>
    <trkpt lat="45.89551" lon="-122.96406"><ele>262.7</ele></trkpt>
    <trkpt lat="45.895511212230836" lon="-122.96412788492687"><ele>262.9</ele></trkpt>
    <trkpt lat="45.89551351894773" lon="-122.96425706107253"><ele>263.4</ele></trkpt>
    <trkpt lat="45.89551697902306" lon="-122.96445082529104"><ele>263.9</ele></trkpt>
    <trkpt lat="45.89551928573994" lon="-122.9645800014367"><ele>264.4</ele></trkpt>
    <trkpt lat="45.89552159245683" lon="-122.96470917758236"><ele>264.8</ele></trkpt>
    <trkpt lat="45.895526205890604" lon="-122.96496752987372"><ele>265.8</ele></trkpt>
    <trkpt lat="45.89552851260749" lon="-122.96509670601938"><ele>266.2</ele></trkpt>
    <trkpt lat="45.89552966596594" lon="-122.96516129409223"><ele>266.3</ele></trkpt>
    <trkpt lat="45.89553" lon="-122.96518"><ele>266.4</ele></trkpt>
    <trkpt lat="45.89553503592631" lon="-122.9652253233368"><ele>266.5</ele></trkpt>
    <trkpt lat="45.89554921401816" lon="-122.96535292616349"><ele>266.7</ele></trkpt>
    <trkpt lat="45.8956" lon="-122.96581"><ele>267.0</ele></trkpt>
    <trkpt lat="45.895663039439526" lon="-122.96604069752337"><ele>267.2</ele></trkpt>
    <trkpt lat="45.895712340459774" lon="-122.96622111827833"><ele>267.5</ele></trkpt>
    <trkpt lat="45.89574520780661" lon="-122.96634139878162"><ele>267.7</ele></trkpt>
    <trkpt lat="45.895778075153444" lon="-122.96646167928493"><ele>268.0</ele></trkpt>
    <trkpt lat="45.89579450882685" lon="-122.96652181953658"><ele>268.1</ele></trkpt>
    <trkpt lat="45.89582737617369" lon="-122.9666421000399"><ele>268.6</ele></trkpt>
    <trkpt lat="45.89586024352053" lon="-122.9667623805432"><ele>269.0</ele></trkpt>
    <trkpt lat="45.895925978214194" lon="-122.96700294154982"><ele>270.0</ele></trkpt>
    <trkpt lat="45.895958845561026" lon="-122.96712322205313"><ele>270.5</ele></trkpt>
    <trkpt lat="45.89599171290786" lon="-122.96724350255644"><ele>270.9</ele></trkpt>
    <trkpt lat="45.89607" lon="-122.96753000000001"><ele>271.8</ele></trkpt>
    <trkpt lat="45.89607368423525" lon="-122.96754431183692"><ele>271.8</ele></trkpt>
    <trkpt lat="45.896151681181635" lon="-122.9678472999748"><ele>272.8</ele></trkpt>
    <trkpt lat="45.89618287996019" lon="-122.96796849522998"><ele>273.2</ele></trkpt>
    <trkpt lat="45.89621407873875" lon="-122.96808969048513"><ele>273.6</ele></trkpt>
    <trkpt lat="45.89624527751731" lon="-122.96821088574029"><ele>273.9</ele></trkpt>
    <trkpt lat="45.89629207568514" lon="-122.96839267862303"><ele>274.3</ele></trkpt>
    <trkpt lat="45.8963232744637" lon="-122.96851387387818"><ele>274.6</ele></trkpt>
    <trkpt lat="45.896330000000006" lon="-122.96854"><ele>274.7</ele></trkpt>
    <trkpt lat="45.89636905647627" lon="-122.96862441238419"><ele>275.0</ele></trkpt>
    <trkpt lat="45.89649353062051" lon="-122.96889343714753"><ele>276.1</ele></trkpt>
    <trkpt lat="45.896543320278205" lon="-122.96900104705287"><ele>276.4</ele></trkpt>
    <trkpt lat="45.89659261203932" lon="-122.96910758085917"><ele>276.7</ele></trkpt>
    <trkpt lat="45.89661750686817" lon="-122.96916138581184"><ele>276.9</ele></trkpt>
    <trkpt lat="45.896640000000005" lon="-122.96921"><ele>277.0</ele></trkpt>
    <trkpt lat="45.89667269798279" lon="-122.96926302375586"><ele>277.1</ele></trkpt>
    <trkpt lat="45.89688144523599" lon="-122.96960153281512"><ele>277.7</ele></trkpt>
    <trkpt lat="45.89694108730834" lon="-122.9696982496892"><ele>277.9</ele></trkpt>
    <trkpt lat="45.897000729380686" lon="-122.96979496656327"><ele>278.2</ele></trkpt>
    <trkpt lat="45.89711941710465" lon="-122.96998743314268"><ele>278.8</ele></trkpt>
    <trkpt lat="45.89717965559772" lon="-122.97008511718549"><ele>279.2</ele></trkpt>
    <trkpt lat="45.89720947663389" lon="-122.97013347562253"><ele>279.4</ele></trkpt>
    <trkpt lat="45.897269118706234" lon="-122.9702301924966"><ele>279.9</ele></trkpt>
    <trkpt lat="45.897328760778585" lon="-122.97032690937067"><ele>280.4</ele></trkpt>
    <trkpt lat="45.89744804492327" lon="-122.97052034311882"><ele>281.4</ele></trkpt>
    <trkpt lat="45.897537508031796" lon="-122.97066541842993"><ele>282.2</ele></trkpt>
    <trkpt lat="45.89762697114031" lon="-122.97081049374104"><ele>282.8</ele></trkpt>
    <trkpt lat="45.89775" lon="-122.97101"><ele>283.7</ele></trkpt>
    <trkpt lat="45.89787035822934" lon="-122.97107770150402"><ele>284.3</ele></trkpt>
    <trkpt lat="45.897954102381874" lon="-122.97112480758982"><ele>284.7</ele></trkpt>
    <trkpt lat="45.898070000000004" lon="-122.97119"><ele>285.3</ele></trkpt>
    <trkpt lat="45.8981696721161" lon="-122.97120696546658"><ele>285.9</ele></trkpt>
    <trkpt lat="45.8984822495333" lon="-122.97126017013333"><ele>287.6</ele></trkpt>
    <trkpt lat="45.898540000000004" lon="-122.97127"><ele>287.9</ele></trkpt>
    <trkpt lat="45.898571167846136" lon="-122.97126109490111"><ele>288.1</ele></trkpt>
    <trkpt lat="45.89865937333018" lon="-122.97123589333424"><ele>288.7</ele></trkpt>
    <trkpt lat="45.89882" lon="-122.97119"><ele>289.8</ele></trkpt>
    <trkpt lat="45.898904842409664" lon="-122.97109863125114"><ele>290.6</ele></trkpt>
    <trkpt lat="45.898950000000006" lon="-122.97105"><ele>291.0</ele></trkpt>
    <trkpt lat="45.89898143427296" lon="-122.9710333583261"><ele>291.2</ele></trkpt>
    <trkpt lat="45.89902362778326" lon="-122.97101102058534"><ele>291.4</ele></trkpt>
    <trkpt lat="45.89910801480386" lon="-122.97096634510385"><ele>291.9</ele></trkpt>
    <trkpt lat="45.89912" lon="-122.97096"><ele>292.0</ele></trkpt>
    <trkpt lat="45.89931000000001" lon="-122.97105"><ele>292.8</ele></trkpt>
    <trkpt lat="45.899318142955195" lon="-122.9710626668192"><ele>292.9</ele></trkpt>
    <trkpt lat="45.89937916619412" lon="-122.97115759185752"><ele>293.3</ele></trkpt>
    <trkpt lat="45.89940000000001" lon="-122.97119"><ele>293.5</ele></trkpt>
    <trkpt lat="45.89940000000001" lon="-122.97121049451158"><ele>293.6</ele></trkpt>
    <trkpt lat="45.89940000000001" lon="-122.97133972219986"><ele>294.1</ele></trkpt>
    <trkpt lat="45.89940000000001" lon="-122.97146000000001"><ele>294.8</ele></trkpt>
    <trkpt lat="45.899330000000006" lon="-122.97163"><ele>295.8</ele></trkpt>
    <trkpt lat="45.89932642125813" lon="-122.97163111835684"><ele>295.8</ele></trkpt>
    <trkpt lat="45.899194604087775" lon="-122.97167231122258"><ele>296.7</ele></trkpt>
    <trkpt lat="45.899170000000005" lon="-122.97168"><ele>296.9</ele></trkpt>
    <trkpt lat="45.89910618691209" lon="-122.97168327246607"><ele>297.2</ele></trkpt>
    <trkpt lat="45.899016311893305" lon="-122.97168788144137"><ele>297.7</ele></trkpt>
    <trkpt lat="45.89883656185573" lon="-122.97169709939203"><ele>298.7</ele></trkpt>
    <trkpt lat="45.89870174932754" lon="-122.971704012855"><ele>299.4</ele></trkpt>
    <trkpt lat="45.89843302302136" lon="-122.97171779369121"><ele>300.6</ele></trkpt>
    <trkpt lat="45.898390000000006" lon="-122.97172"><ele>300.8</ele></trkpt>
    <trkpt lat="45.89830036723988" lon="-122.97174881053004"><ele>301.3</ele></trkpt>
    <trkpt lat="45.89821260398372" lon="-122.9717770201481"><ele>301.8</ele></trkpt>
    <trkpt lat="45.89811" lon="-122.97181"><ele>302.4</ele></trkpt>
    <trkpt lat="45.89795338919009" lon="-122.97187875596534"><ele>303.4</ele></trkpt>
    <trkpt lat="45.89782437817497" lon="-122.97193539494758"><ele>304.2</ele></trkpt>
    <trkpt lat="45.89773837083155" lon="-122.97197315426908"><ele>304.7</ele></trkpt>
    <trkpt lat="45.8977" lon="-122.97199"><ele>304.8</ele></trkpt>
    <trkpt lat="45.8976142199009" lon="-122.97204480395222"><ele>305.3</ele></trkpt>
    <trkpt lat="45.897408781345796" lon="-122.97217605636241"><ele>306.3</ele></trkpt>
    <trkpt lat="45.89734000000001" lon="-122.97222000000001"><ele>306.7</ele></trkpt>
    <trkpt lat="45.89722744189774" lon="-122.97236150161429"><ele>307.4</ele></trkpt>
    <trkpt lat="45.89719427672698" lon="-122.9724031949718"><ele>307.7</ele></trkpt>
    <trkpt lat="45.89709275069402" lon="-122.97253082769896"><ele>308.2</ele></trkpt>
    <trkpt lat="45.89705890868303" lon="-122.97257337194134"><ele>308.4</ele></trkpt>
    <trkpt lat="45.89699" lon="-122.97266"><ele>308.9</ele></trkpt>
    <trkpt lat="45.896941931360345" lon="-122.97276643770209"><ele>309.4</ele></trkpt>
    <trkpt lat="45.896892976949445" lon="-122.9728748367548"><ele>309.9</ele></trkpt>
    <trkpt lat="45.89685" lon="-122.97297"><ele>310.4</ele></trkpt>
    <trkpt lat="45.89681271968803" lon="-122.97317131368466"><ele>311.3</ele></trkpt>
    <trkpt lat="45.896800000000006" lon="-122.97324"><ele>311.6</ele></trkpt>
    <trkpt lat="45.896817178426055" lon="-122.97336024898235"><ele>312.1</ele></trkpt>
    <trkpt lat="45.896840000000005" lon="-122.97352000000001"><ele>312.7</ele></trkpt>
    <trkpt lat="45.89697" lon="-122.97382"><ele>313.9</ele></trkpt>
    <trkpt lat="45.89712741267216" lon="-122.97394319252604"><ele>314.9</ele></trkpt>
    <trkpt lat="45.897200000000005" lon="-122.974"><ele>315.4</ele></trkpt>
    <trkpt lat="45.897340232338806" lon="-122.97403365576132"><ele>316.2</ele></trkpt>
    <trkpt lat="45.897450000000006" lon="-122.97406000000001"><ele>316.8</ele></trkpt>
    <trkpt lat="45.897503137443216" lon="-122.97412022243564"><ele>317.2</ele></trkpt>
    <trkpt lat="45.89757374900178" lon="-122.9742002488687"><ele>317.7</ele></trkpt>
    <trkpt lat="45.897600000000004" lon="-122.97423"><ele>317.9</ele></trkpt>
    <trkpt lat="45.89764" lon="-122.97449"><ele>319.1</ele></trkpt>
    <trkpt lat="45.89762158147375" lon="-122.97455841166894"><ele>319.4</ele></trkpt>
    <trkpt lat="45.89754240960527" lon="-122.97485247860901"><ele>321.0</ele></trkpt>
    <trkpt lat="45.89751061106793" lon="-122.974970587462"><ele>321.6</ele></trkpt>
    <trkpt lat="45.89747881253059" lon="-122.97508869631498"><ele>322.2</ele></trkpt>
    <trkpt lat="45.89743111472458" lon="-122.97526585959446"><ele>322.9</ele></trkpt>
    <trkpt lat="45.897360000000006" lon="-122.97553"><ele>323.9</ele></trkpt>
    <trkpt lat="45.89734644552099" lon="-122.97555710895806"><ele>324.0</ele></trkpt>
    <trkpt lat="45.89726931019335" lon="-122.97571137961333"><ele>324.7</ele></trkpt>
    <trkpt lat="45.897200000000005" lon="-122.97585000000001"><ele>325.3</ele></trkpt>
    <trkpt lat="45.89715786702215" lon="-122.97590617730381"><ele>325.7</ele></trkpt>
    <trkpt lat="45.89709392198627" lon="-122.97599143735167"><ele>326.1</ele></trkpt>
    <trkpt lat="45.897029317723195" lon="-122.9760775763691"><ele>326.6</ele></trkpt>
    <trkpt lat="45.8969653726873" lon="-122.97616283641695"><ele>326.9</ele></trkpt>
    <trkpt lat="45.8969" lon="-122.97625000000001"><ele>327.3</ele></trkpt>
    <trkpt lat="45.89686483020098" lon="-122.97636869807171"><ele>327.6</ele></trkpt>
    <trkpt lat="45.89682995433015" lon="-122.97648640413577"><ele>328.0</ele></trkpt>
    <trkpt lat="45.896820000000005" lon="-122.97652000000001"><ele>328.1</ele></trkpt>
    <trkpt lat="45.896819687850964" lon="-122.97654809341407"><ele>328.2</ele></trkpt>
    <trkpt lat="45.896817548786984" lon="-122.9767406091722"><ele>328.9</ele></trkpt>
    <trkpt lat="45.89681611317357" lon="-122.97686981437897"><ele>329.4</ele></trkpt>
    <trkpt lat="45.89681" lon="-122.97742000000001"><ele>331.0</ele></trkpt>
    <trkpt lat="45.89679130128149" lon="-122.97757426442772"><ele>331.5</ele></trkpt>
    <trkpt lat="45.89676815489098" lon="-122.97776522214947"><ele>332.1</ele></trkpt>
    <trkpt lat="45.896730000000005" lon="-122.97808"><ele>332.9</ele></trkpt>
    <trkpt lat="45.89673020860939" lon="-122.9780822251668"><ele>332.9</ele></trkpt>
    <trkpt lat="45.89674809766116" lon="-122.97827304171898"><ele>333.5</ele></trkpt>
    <trkpt lat="45.89676" lon="-122.97840000000001"><ele>334.0</ele></trkpt>
    <trkpt lat="45.89685108442716" lon="-122.97862265082196"><ele>334.9</ele></trkpt>
    <trkpt lat="45.89694" lon="-122.97884"><ele>335.8</ele></trkpt>
    <trkpt lat="45.89718354124754" lon="-122.97913037610283"><ele>337.5</ele></trkpt>
    <trkpt lat="45.89725274974137" lon="-122.97921289392241"><ele>338.0</ele></trkpt>
    <trkpt lat="45.897425078891025" lon="-122.97941836329315"><ele>338.9</ele></trkpt>
    <trkpt lat="45.89746" lon="-122.97946"><ele>339.1</ele></trkpt>
    <trkpt lat="45.89748332879499" lon="-122.9795130199886"><ele>339.3</ele></trkpt>
    <trkpt lat="45.89760299527845" lon="-122.97978498926919"><ele>340.5</ele></trkpt>
    <trkpt lat="45.89765105410714" lon="-122.97989421387987"><ele>341.0</ele></trkpt>
    <trkpt lat="45.89768" lon="-122.97996"><ele>341.3</ele></trkpt>
    <trkpt lat="45.89770698937937" lon="-122.98006795751749"><ele>341.7</ele></trkpt>
    <trkpt lat="45.897752595019014" lon="-122.98025038007603"><ele>342.3</ele></trkpt>
    <trkpt lat="45.897780000000004" lon="-122.98036"><ele>342.7</ele></trkpt>
    <trkpt lat="45.89777974561071" lon="-122.98037144751814"><ele>342.7</ele></trkpt>
    <trkpt lat="45.89777687543119" lon="-122.98050060559655"><ele>343.1</ele></trkpt>
    <trkpt lat="45.89777403395347" lon="-122.98062847209417"><ele>343.4</ele></trkpt>
    <trkpt lat="45.89777" lon="-122.98081"><ele>343.7</ele></trkpt>
    <trkpt lat="45.897742435284655" lon="-122.98087431766913"><ele>343.9</ele></trkpt>
    <trkpt lat="45.89769527816294" lon="-122.98098435095315"><ele>344.2</ele></trkpt>
    <trkpt lat="45.897671699602085" lon="-122.98103936759516"><ele>344.4</ele></trkpt>
    <trkpt lat="45.897625014051584" lon="-122.98114830054632"><ele>344.9</ele></trkpt>
    <trkpt lat="45.897560000000006" lon="-122.9813"><ele>345.6</ele></trkpt>
    <trkpt lat="45.897506443808695" lon="-122.98131785206377"><ele>346.0</ele></trkpt>
    <trkpt lat="45.8974188379581" lon="-122.98134705401398"><ele>346.5</ele></trkpt>
    <trkpt lat="45.89741" lon="-122.98135"><ele>346.5</ele></trkpt>
    <trkpt lat="45.89729539872526" lon="-122.98142145726544"><ele>347.2</ele></trkpt>
    <trkpt lat="45.89708997526983" lon="-122.98154954483176"><ele>348.2</ele></trkpt>
    <trkpt lat="45.89696622620029" lon="-122.9816267060163"><ele>348.9</ele></trkpt>
    <trkpt lat="45.896884551814395" lon="-122.98167763239809"><ele>349.3</ele></trkpt>
    <trkpt lat="45.896761627738655" lon="-122.98175427917474"><ele>350.1</ele></trkpt>
    <trkpt lat="45.896720378048805" lon="-122.98177999956957"><ele>350.3</ele></trkpt>
    <trkpt lat="45.89656" lon="-122.98188"><ele>351.1</ele></trkpt>
    <trkpt lat="45.89655650337882" lon="-122.98188317874654"><ele>351.2</ele></trkpt>
    <trkpt lat="45.89640450622264" lon="-122.98202135797942"><ele>352.1</ele></trkpt>
    <trkpt lat="45.89629126834129" lon="-122.98212430150794"><ele>352.8</ele></trkpt>
    <trkpt lat="45.89623" lon="-122.98218000000001"><ele>353.1</ele></trkpt>
    <trkpt lat="45.89618139296389" lon="-122.98231609970115"><ele>353.6</ele></trkpt>
    <trkpt lat="45.89613000000001" lon="-122.98246"><ele>354.1</ele></trkpt>
    <trkpt lat="45.896053850680275" lon="-122.98257676229026"><ele>354.6</ele></trkpt>
    <trkpt lat="45.89598" lon="-122.98269"><ele>355.1</ele></trkpt>
    <trkpt lat="45.8958264602137" lon="-122.98262090709616"><ele>355.9</ele></trkpt>
    <trkpt lat="45.89578" lon="-122.9826"><ele>356.1</ele></trkpt>
    <trkpt lat="45.895661962571566" lon="-122.98233441578603"><ele>357.1</ele></trkpt>
    <trkpt lat="45.89561355965954" lon="-122.98222550923396"><ele>357.6</ele></trkpt>
    <trkpt lat="45.895493036408574" lon="-122.9819543319193"><ele>358.9</ele></trkpt>
    <trkpt lat="45.89538" lon="-122.9817"><ele>360.2</ele></trkpt>
    <trkpt lat="45.89532601236465" lon="-122.9816696319551"><ele>360.6</ele></trkpt>
    <trkpt lat="45.89522" lon="-122.98161"><ele>361.2</ele></trkpt>
    <trkpt lat="45.89515415656209" lon="-122.98161689059233"><ele>361.6</ele></trkpt>
    <trkpt lat="45.89479986273709" lon="-122.9816539678531"><ele>363.8</ele></trkpt>
    <trkpt lat="45.89466711467101" lon="-122.98166786009259"><ele>364.6</ele></trkpt>
    <trkpt lat="45.89453436660493" lon="-122.98168175233205"><ele>365.3</ele></trkpt>
    <trkpt lat="45.89440161853885" lon="-122.98169564457152"><ele>366.0</ele></trkpt>
    <trkpt lat="45.894360000000006" lon="-122.9817"><ele>366.2</ele></trkpt>
    <trkpt lat="45.894200000000005" lon="-122.98157"><ele>367.1</ele></trkpt>
    <trkpt lat="45.89418372102239" lon="-122.98151505845054"><ele>367.3</ele></trkpt>
    <trkpt lat="45.89412" lon="-122.9813"><ele>368.2</ele></trkpt>
    <trkpt lat="45.89412" lon="-122.9812158657996"><ele>368.5</ele></trkpt>
    <trkpt lat="45.89412" lon="-122.98108665039821"><ele>368.9</ele></trkpt>
    <trkpt lat="45.89412" lon="-122.98104000000001"><ele>369.0</ele></trkpt>
    <trkpt lat="45.894094175573784" lon="-122.9809676916066"><ele>369.2</ele></trkpt>
    <trkpt lat="45.894020000000005" lon="-122.98076"><ele>369.7</ele></trkpt>
    <trkpt lat="45.8939369987024" lon="-122.9806706139872"><ele>370.0</ele></trkpt>
    <trkpt lat="45.893890000000006" lon="-122.98062000000002"><ele>370.2</ele></trkpt>
    <trkpt lat="45.89378259578595" lon="-122.98054528402501"><ele>370.6</ele></trkpt>
    <trkpt lat="45.893660000000004" lon="-122.98046000000001"><ele>371.1</ele></trkpt>
    <trkpt lat="45.89347" lon="-122.98045"><ele>371.8</ele></trkpt>
    <trkpt lat="45.893420766190744" lon="-122.98037263258547"><ele>372.1</ele></trkpt>
    <trkpt lat="45.893330000000006" lon="-122.98023"><ele>372.6</ele></trkpt>
    <trkpt lat="45.89328820032664" lon="-122.98006976791876"><ele>373.0</ele></trkpt>
    <trkpt lat="45.89327" lon="-122.98"><ele>373.2</ele></trkpt>
    <trkpt lat="45.89322736098566" lon="-122.97991144204714"><ele>373.5</ele></trkpt>
    <trkpt lat="45.89314" lon="-122.97973"><ele>373.9</ele></trkpt>
    <trkpt lat="45.89312523510991" lon="-122.97972314487247"><ele>374.0</ele></trkpt>
    <trkpt lat="45.893004574071405" lon="-122.97966712367602"><ele>374.4</ele></trkpt>
    <trkpt lat="45.892860000000006" lon="-122.9796"><ele>374.8</ele></trkpt>
    <trkpt lat="45.89273890250692" lon="-122.97963935668525"><ele>375.1</ele></trkpt>
    <trkpt lat="45.89265995798485" lon="-122.97966501365494"><ele>375.2</ele></trkpt>
    <trkpt lat="45.89257311901055" lon="-122.97969323632158"><ele>375.3</ele></trkpt>
    <trkpt lat="45.89252926094273" lon="-122.97970749019362"><ele>375.3</ele></trkpt>
    <trkpt lat="45.89246000000001" lon="-122.97973"><ele>375.3</ele></trkpt>
    <trkpt lat="45.89244604393126" lon="-122.97974638321112"><ele>375.3</ele></trkpt>
    <trkpt lat="45.89241122284183" lon="-122.97978726014222"><ele>375.3</ele></trkpt>
    <trkpt lat="45.89234227708476" lon="-122.97986819646573"><ele>375.1</ele></trkpt>
    <trkpt lat="45.89223851023824" lon="-122.97999000972032"><ele>374.9</ele></trkpt>
    <trkpt lat="45.892230000000005" lon="-122.98"><ele>374.8</ele></trkpt>
    <trkpt lat="45.89202535478853" lon="-122.98032079519636"><ele>374.1</ele></trkpt>
    <trkpt lat="45.891965197199525" lon="-122.98041509628183"><ele>373.8</ele></trkpt>
    <trkpt lat="45.89190503961052" lon="-122.9805093973673"><ele>373.5</ele></trkpt>
    <trkpt lat="45.891874656989806" lon="-122.98055702417814"><ele>373.4</ele></trkpt>
    <trkpt lat="45.89186" lon="-122.98058"><ele>373.3</ele></trkpt>
    <trkpt lat="45.89179912155775" lon="-122.98071559289411"><ele>372.8</ele></trkpt>
    <trkpt lat="45.89175037173868" lon="-122.98082417203658"><ele>372.4</ele></trkpt>
    <trkpt lat="45.89170210941781" lon="-122.98093166538763"><ele>372.2</ele></trkpt>
    <trkpt lat="45.89164" lon="-122.98107000000002"><ele>371.9</ele></trkpt>
    <trkpt lat="45.891592019237095" lon="-122.98113168955231"><ele>371.7</ele></trkpt>
    <trkpt lat="45.891492164855656" lon="-122.98126007375703"><ele>371.4</ele></trkpt>
    <trkpt lat="45.89142514849227" lon="-122.98134623765282"><ele>371.1</ele></trkpt>
    <trkpt lat="45.891360000000006" lon="-122.98143"><ele>370.8</ele></trkpt>
    <trkpt lat="45.89135855929489" lon="-122.9814310236589"><ele>370.8</ele></trkpt>
    <trkpt lat="45.89127794627549" lon="-122.98148830133057"><ele>370.5</ele></trkpt>
    <trkpt lat="45.891198139386276" lon="-122.98154500622555"><ele>370.1</ele></trkpt>
    <trkpt lat="45.89111752636687" lon="-122.98160228389722"><ele>369.7</ele></trkpt>
    <trkpt lat="45.890980000000006" lon="-122.9817"><ele>368.8</ele></trkpt>
    <trkpt lat="45.890956878947485" lon="-122.98171224055723"><ele>368.7</ele></trkpt>
    <trkpt lat="45.89087249342086" lon="-122.9817569152478"><ele>368.2</ele></trkpt>
    <trkpt lat="45.890640000000005" lon="-122.98188"><ele>367.1</ele></trkpt>
    <trkpt lat="45.890529856627" lon="-122.98188229465362"><ele>366.6</ele></trkpt>
    <trkpt lat="45.890440833071814" lon="-122.981884149311"><ele>366.2</ele></trkpt>
    <trkpt lat="45.89026188673363" lon="-122.98188787735972"><ele>365.4</ele></trkpt>
    <trkpt lat="45.89017286317846" lon="-122.98188973201712"><ele>365.0</ele></trkpt>
    <trkpt lat="45.89016" lon="-122.98189"><ele>364.9</ele></trkpt>
    <trkpt lat="45.89008575610119" lon="-122.98191969755953"><ele>364.5</ele></trkpt>
    <trkpt lat="45.88996" lon="-122.98197"><ele>363.8</ele></trkpt>
    <trkpt lat="45.88983616829539" lon="-122.98205572964167"><ele>363.1</ele></trkpt>
    <trkpt lat="45.88975515164537" lon="-122.98211181809168"><ele>362.6</ele></trkpt>
    <trkpt lat="45.889700000000005" lon="-122.98215"><ele>362.4</ele></trkpt>
    <trkpt lat="45.889668953891515" lon="-122.98224313832546"><ele>362.2</ele></trkpt>
    <trkpt lat="45.889610000000005" lon="-122.98242"><ele>361.8</ele></trkpt>
    <trkpt lat="45.88960592072054" lon="-122.98247944092927"><ele>361.6</ele></trkpt>
    <trkpt lat="45.88959718475215" lon="-122.98260673646874"><ele>361.4</ele></trkpt>
    <trkpt lat="45.889588448783755" lon="-122.98273403200824"><ele>361.0</ele></trkpt>
    <trkpt lat="45.88957971281536" lon="-122.98286132754771"><ele>360.6</ele></trkpt>
    <trkpt lat="45.88956656474171" lon="-122.98305291376369"><ele>359.9</ele></trkpt>
    <trkpt lat="45.88955350491017" lon="-122.98324321416615"><ele>359.2</ele></trkpt>
    <trkpt lat="45.889540000000004" lon="-122.98344000000002"><ele>358.3</ele></trkpt>
    <trkpt lat="45.889526029443026" lon="-122.98349588222791"><ele>358.1</ele></trkpt>
    <trkpt lat="45.889465837947775" lon="-122.98373664820892"><ele>357.1</ele></trkpt>
    <trkpt lat="45.88943574220015" lon="-122.98385703119942"><ele>356.6</ele></trkpt>
    <trkpt lat="45.88936" lon="-122.98416000000002"><ele>355.2</ele></trkpt>
    <trkpt lat="45.889365807010634" lon="-122.98428485072864"><ele>354.7</ele></trkpt>
    <trkpt lat="45.889374741248" lon="-122.98447693683194"><ele>353.9</ele></trkpt>
    <trkpt lat="45.88938" lon="-122.98459000000001"><ele>353.5</ele></trkpt>
    <trkpt lat="45.88942" lon="-122.98474000000002"><ele>352.9</ele></trkpt>
    <trkpt lat="45.88951" lon="-122.98478000000001"><ele>352.5</ele></trkpt>
    <trkpt lat="45.88961656312346" lon="-122.98484660195217"><ele>351.9</ele></trkpt>
    <trkpt lat="45.88967" lon="-122.98488"><ele>351.6</ele></trkpt>
    <trkpt lat="45.88974428309642" lon="-122.98486708120063"><ele>351.2</ele></trkpt>
    <trkpt lat="45.889900000000004" lon="-122.98484"><ele>350.4</ele></trkpt>
    <trkpt lat="45.890011161711485" lon="-122.98468437360394"><ele>349.5</ele></trkpt>
    <trkpt lat="45.890138691805475" lon="-122.98450583147233"><ele>348.7</ele></trkpt>
    <trkpt lat="45.89020245685248" lon="-122.98441656040654"><ele>348.2</ele></trkpt>
    <trkpt lat="45.89029842646866" lon="-122.98428220294389"><ele>347.4</ele></trkpt>
    <trkpt lat="45.890350000000005" lon="-122.98421"><ele>347.0</ele></trkpt>
    <trkpt lat="45.890366958524226" lon="-122.98421211981554"><ele>346.9</ele></trkpt>
    <trkpt lat="45.89045565636327" lon="-122.98422320704542"><ele>346.4</ele></trkpt>
    <trkpt lat="45.890633052041366" lon="-122.98424538150518"><ele>345.6</ele></trkpt>
    <trkpt lat="45.89067000000001" lon="-122.98425"><ele>345.4</ele></trkpt>
    <trkpt lat="45.89077" lon="-122.98461"><ele>344.1</ele></trkpt>
    <trkpt lat="45.89070134395502" lon="-122.98485411038216"><ele>343.1</ele></trkpt>
    <trkpt lat="45.89068483443521" lon="-122.98491281089703"><ele>342.9</ele></trkpt>
    <trkpt lat="45.89068" lon="-122.98493"><ele>342.9</ele></trkpt>
    <trkpt lat="45.890607280320765" lon="-122.98506911590809"><ele>342.4</ele></trkpt>
    <trkpt lat="45.89045" lon="-122.98537"><ele>341.3</ele></trkpt>
    <trkpt lat="45.890448649855855" lon="-122.98537720076878"><ele>341.3</ele></trkpt>
    <trkpt lat="45.890390000000004" lon="-122.98569"><ele>340.2</ele></trkpt>
    <trkpt lat="45.89040265810432" lon="-122.98574696146943"><ele>340.0</ele></trkpt>
    <trkpt lat="45.89042973696769" lon="-122.98586881635458"><ele>339.6</ele></trkpt>
    <trkpt lat="45.890443139637426" lon="-122.98592912836844"><ele>339.4</ele></trkpt>
    <trkpt lat="45.89045" lon="-122.98596"><ele>339.3</ele></trkpt>
    <trkpt lat="45.89046450346778" lon="-122.9859845443301"><ele>339.3</ele></trkpt>
    <trkpt lat="45.89058000000001" lon="-122.98618"><ele>338.7</ele></trkpt>
    <trkpt lat="45.89062266317309" lon="-122.9861985492057"><ele>338.5</ele></trkpt>
    <trkpt lat="45.890707879502905" lon="-122.98623559978387"><ele>338.1</ele></trkpt>
    <trkpt lat="45.890750057282304" lon="-122.98625393794885"><ele>337.9</ele></trkpt>
    <trkpt lat="45.89081" lon="-122.98628000000001"><ele>337.5</ele></trkpt>
    <trkpt lat="45.890829393794284" lon="-122.98630380147482"><ele>337.4</ele></trkpt>
    <trkpt lat="45.89103" lon="-122.98655000000001"><ele>335.6</ele></trkpt>
    <trkpt lat="45.89103200492049" lon="-122.98655668306832"><ele>335.6</ele></trkpt>
    <trkpt lat="45.891084688087304" lon="-122.98673229362433"><ele>334.7</ele></trkpt>
    <trkpt lat="45.89112" lon="-122.98685"><ele>334.2</ele></trkpt>
    <trkpt lat="45.89097" lon="-122.98725"><ele>332.3</ele></trkpt>
    <trkpt lat="45.89077804651856" lon="-122.9875955162666"><ele>330.4</ele></trkpt>
    <trkpt lat="45.89077" lon="-122.98761"><ele>330.4</ele></trkpt>
    <trkpt lat="45.890721659776794" lon="-122.98796986610613"><ele>328.9</ele></trkpt>
    <trkpt lat="45.89068" lon="-122.98828"><ele>327.8</ele></trkpt>
    <trkpt lat="45.8906978275789" lon="-122.98847412252576"><ele>327.1</ele></trkpt>
    <trkpt lat="45.8907678235935" lon="-122.98923630135144"><ele>324.2</ele></trkpt>
    <trkpt lat="45.89077" lon="-122.98926000000002"><ele>324.1</ele></trkpt>
    <trkpt lat="45.89072155534559" lon="-122.98967870022739"><ele>322.5</ele></trkpt>
    <trkpt lat="45.8906851296282" lon="-122.98999352249912"><ele>321.3</ele></trkpt>
    <trkpt lat="45.890670529846744" lon="-122.99011970632463"><ele>320.9</ele></trkpt>
    <trkpt lat="45.89064855643827" lon="-122.99030961935495"><ele>320.1</ele></trkpt>
    <trkpt lat="45.890633956656806" lon="-122.99043580318047"><ele>319.5</ele></trkpt>
    <trkpt lat="45.89063" lon="-122.99047000000002"><ele>319.4</ele></trkpt>
    <trkpt lat="45.890664030329454" lon="-122.99054940410208"><ele>318.9</ele></trkpt>
    <trkpt lat="45.890757864548036" lon="-122.9907683506121"><ele>317.7</ele></trkpt>
    <trkpt lat="45.89080454589296" lon="-122.99087727375026"><ele>317.1</ele></trkpt>
    <trkpt lat="45.8909" lon="-122.9911"><ele>316.1</ele></trkpt>
    <trkpt lat="45.89093923180313" lon="-122.99111176954094"><ele>315.8</ele></trkpt>
    <trkpt lat="45.891070401796505" lon="-122.99115112053896"><ele>315.1</ele></trkpt>
    <trkpt lat="45.891200000000005" lon="-122.99119"><ele>314.5</ele></trkpt>
    <trkpt lat="45.891270000000006" lon="-122.99107000000001"><ele>314.0</ele></trkpt>
    <trkpt lat="45.891511682603905" lon="-122.9911208805482"><ele>313.0</ele></trkpt>
    <trkpt lat="45.891730578414936" lon="-122.99116696387684"><ele>311.9</ele></trkpt>
    <trkpt lat="45.89181867063157" lon="-122.99118550960665"><ele>311.6</ele></trkpt>
    <trkpt lat="45.89184" lon="-122.99119"><ele>311.5</ele></trkpt>
    <trkpt lat="45.89186713601608" lon="-122.99127593071759"><ele>311.3</ele></trkpt>
    <trkpt lat="45.89195891521044" lon="-122.99156656483305"><ele>310.5</ele></trkpt>
    <trkpt lat="45.891960000000005" lon="-122.99157000000001"><ele>310.5</ele></trkpt>
    <trkpt lat="45.8919294759018" lon="-122.99168337522191"><ele>310.3</ele></trkpt>
    <trkpt lat="45.89186523552244" lon="-122.99192198234525"><ele>309.8</ele></trkpt>
    <trkpt lat="45.89182" lon="-122.99209"><ele>309.5</ele></trkpt>
    <trkpt lat="45.89181416802077" lon="-122.99209506171782"><ele>309.5</ele></trkpt>
    <trkpt lat="45.89164558852108" lon="-122.99224137600056"><ele>307.9</ele></trkpt>
    <trkpt lat="45.89154474872903" lon="-122.99232889732953"><ele>307.0</ele></trkpt>
    <trkpt lat="45.8915239649551" lon="-122.99234693607671"><ele>307.1</ele></trkpt>
    <trkpt lat="45.89147854856021" lon="-122.99238635407983"><ele>307.0</ele></trkpt>
    <trkpt lat="45.89144006008996" lon="-122.9924197591672"><ele>307.1</ele></trkpt>
    <trkpt lat="45.89132536444862" lon="-122.99251930632764"><ele>307.2</ele></trkpt>
    <trkpt lat="45.891290000000005" lon="-122.99255000000001"><ele>307.2</ele></trkpt>
    <trkpt lat="45.89122219120363" lon="-122.99264077629192"><ele>307.3</ele></trkpt>
    <trkpt lat="45.89115705268284" lon="-122.99272797786008"><ele>307.4</ele></trkpt>
    <trkpt lat="45.8910912561972" lon="-122.99281606025215"><ele>307.6</ele></trkpt>
    <trkpt lat="45.8909932194336" lon="-122.99294730301634"><ele>307.9</ele></trkpt>
    <trkpt lat="45.89092742294795" lon="-122.99303538540842"><ele>308.0</ele></trkpt>
    <trkpt lat="45.89086228442716" lon="-122.99312258697657"><ele>308.1</ele></trkpt>
    <trkpt lat="45.89067000000001" lon="-122.99338000000002"><ele>308.2</ele></trkpt>
    <trkpt lat="45.890667212744994" lon="-122.9933862713238"><ele>308.2</ele></trkpt>
    <trkpt lat="45.89059509708274" lon="-122.99354853156389"><ele>308.2</ele></trkpt>
    <trkpt lat="45.890546697309404" lon="-122.99365743105386"><ele>308.2</ele></trkpt>
    <trkpt lat="45.89047458164715" lon="-122.99381969129394"><ele>308.0</ele></trkpt>
    <trkpt lat="45.89042618187382" lon="-122.99392859078392"><ele>307.9</ele></trkpt>
    <trkpt lat="45.890354066211565" lon="-122.994090851024"><ele>307.7</ele></trkpt>
    <trkpt lat="45.890350000000005" lon="-122.9941"><ele>307.6</ele></trkpt>
    <trkpt lat="45.89030185583992" lon="-122.99453329744078"><ele>307.1</ele></trkpt>
    <trkpt lat="45.890259609035596" lon="-122.9949135186797"><ele>306.7</ele></trkpt>
    <trkpt lat="45.890240000000006" lon="-122.99509"><ele>306.5</ele></trkpt>
    <trkpt lat="45.89031000000001" lon="-122.9954"><ele>306.1</ele></trkpt>
    <trkpt lat="45.89039349113344" lon="-122.99556270067028"><ele>305.8</ele></trkpt>
    <trkpt lat="45.890632577067976" lon="-122.99602861172221"><ele>305.1</ele></trkpt>
    <trkpt lat="45.89068541079012" lon="-122.99613156974485"><ele>305.0</ele></trkpt>
    <trkpt lat="45.8907" lon="-122.99616"><ele>304.9</ele></trkpt>
    <trkpt lat="45.89071149572783" lon="-122.9965106196988"><ele>304.7</ele></trkpt>
    <trkpt lat="45.890715685029825" lon="-122.99663839340974"><ele>304.6</ele></trkpt>
    <trkpt lat="45.89072" lon="-122.99677000000001"><ele>304.6</ele></trkpt>
    <trkpt lat="45.89074064593294" lon="-122.99689181100432"><ele>304.6</ele></trkpt>
    <trkpt lat="45.89079362772898" lon="-122.99720440360099"><ele>304.3</ele></trkpt>
    <trkpt lat="45.890835970610155" lon="-122.99745422659993"><ele>304.1</ele></trkpt>
  </trkseg></trk>
</gpx>
