<?xml version="1.0" encoding="UTF-8"?>
<gpx version="1.1" creator="h2c-tracker" xmlns="http://www.topografix.com/GPX/1/1">
  <metadata><name>Hood to Coast 2026 — Leg 19 (5.89 mi)</name><desc>Derived from the official Hood to Coast Strava route (simplified, 751 points, ~5.83 mi). Verify against the official leg map PDF.</desc></metadata>
  <wpt lat="45.8507072732355" lon="-122.87240902596128"><name>Exchange 18 — Columbia County Fairgrounds</name></wpt>
  <wpt lat="45.90158455120839" lon="-122.93400609444338"><name>Exchange 19 — Pittsburgh Rd</name></wpt>
  <trk><name>HTC Leg 19</name><trkseg>
    <trkpt lat="45.8507072732355" lon="-122.87240902596128"><ele>98.2</ele></trkpt>
    <trkpt lat="45.85137446850965" lon="-122.87239228167833"><ele>104.1</ele></trkpt>
    <trkpt lat="45.85154531366071" lon="-122.87238799405871"><ele>105.6</ele></trkpt>
    <trkpt lat="45.85163073623624" lon="-122.8723858502489"><ele>106.3</ele></trkpt>
    <trkpt lat="45.85193735832314" lon="-122.8723781551"><ele>109.2</ele></trkpt>
    <trkpt lat="45.852155860279495" lon="-122.87237267146017"><ele>111.3</ele></trkpt>
    <trkpt lat="45.85228714129032" lon="-122.87236937676299"><ele>112.5</ele></trkpt>
    <trkpt lat="45.852549703311944" lon="-122.87236278736862"><ele>114.8</ele></trkpt>
    <trkpt lat="45.852767306083294" lon="-122.87235732629522"><ele>116.7</ele></trkpt>
    <trkpt lat="45.852899486279114" lon="-122.87235400903161"><ele>117.7</ele></trkpt>
    <trkpt lat="45.853029868104926" lon="-122.87235073690084"><ele>118.7</ele></trkpt>
    <trkpt lat="45.85307482735521" lon="-122.8723496085799"><ele>119.0</ele></trkpt>
    <trkpt lat="45.85311888742048" lon="-122.87234850282536"><ele>119.2</ele></trkpt>
    <trkpt lat="45.853162048300746" lon="-122.87234741963725"><ele>119.5</ele></trkpt>
    <trkpt lat="45.85324926924629" lon="-122.8723452306946"><ele>119.8</ele></trkpt>
    <trkpt lat="45.85333738937683" lon="-122.87234301918554"><ele>119.8</ele></trkpt>
    <trkpt lat="45.85338144944211" lon="-122.872341913431"><ele>119.8</ele></trkpt>
    <trkpt lat="45.85342550950738" lon="-122.87234080767647"><ele>119.7</ele></trkpt>
    <trkpt lat="45.85346956957265" lon="-122.87233970192193"><ele>119.6</ele></trkpt>
    <trkpt lat="45.853514528822934" lon="-122.87233857360098"><ele>119.4</ele></trkpt>
    <trkpt lat="45.853558588888205" lon="-122.87233746784645"><ele>119.2</ele></trkpt>
    <trkpt lat="45.85364670901876" lon="-122.87233525633738"><ele>118.7</ele></trkpt>
    <trkpt lat="45.85369076908403" lon="-122.87233415058283"><ele>118.4</ele></trkpt>
    <trkpt lat="45.853823848464856" lon="-122.87233081075283"><ele>117.4</ele></trkpt>
    <trkpt lat="45.853911968595405" lon="-122.87232859924376"><ele>116.7</ele></trkpt>
    <trkpt lat="45.85400098791095" lon="-122.87232636516826"><ele>115.8</ele></trkpt>
    <trkpt lat="45.85417722817205" lon="-122.87232194215014"><ele>114.1</ele></trkpt>
    <trkpt lat="45.8542662474876" lon="-122.87231970807464"><ele>113.2</ele></trkpt>
    <trkpt lat="45.85439842768343" lon="-122.87231639081104"><ele>112.0</ele></trkpt>
    <trkpt lat="45.85448654781397" lon="-122.87231417930197"><ele>111.2</ele></trkpt>
    <trkpt lat="45.85457646631453" lon="-122.87231192266007"><ele>110.6</ele></trkpt>
    <trkpt lat="45.85466368726007" lon="-122.87230973371742"><ele>110.0</ele></trkpt>
    <trkpt lat="45.85470774732534" lon="-122.87230862796288"><ele>109.7</ele></trkpt>
    <trkpt lat="45.85475180739062" lon="-122.87230752220835"><ele>109.5</ele></trkpt>
    <trkpt lat="45.85479586745589" lon="-122.87230641645381"><ele>109.3</ele></trkpt>
    <trkpt lat="45.854840826706166" lon="-122.87230528813286"><ele>109.1</ele></trkpt>
    <trkpt lat="45.854884886771444" lon="-122.87230418237834"><ele>109.0</ele></trkpt>
    <trkpt lat="45.85492894683672" lon="-122.8723030766238"><ele>108.9</ele></trkpt>
    <trkpt lat="45.85497300690199" lon="-122.87230197086926"><ele>108.8</ele></trkpt>
    <trkpt lat="45.85506202621754" lon="-122.87229973679378"><ele>108.7</ele></trkpt>
    <trkpt lat="45.855150146348095" lon="-122.87229752528471"><ele>108.7</ele></trkpt>
    <trkpt lat="45.85519420641336" lon="-122.87229641953017"><ele>108.8</ele></trkpt>
    <trkpt lat="45.85528322572892" lon="-122.87229418545469"><ele>109.0</ele></trkpt>
    <trkpt lat="45.85537134585946" lon="-122.87229197394562"><ele>109.3</ele></trkpt>
    <trkpt lat="45.85541540592474" lon="-122.87229086819109"><ele>109.5</ele></trkpt>
    <trkpt lat="45.855450000000005" lon="-122.87229"><ele>109.6</ele></trkpt>
    <trkpt lat="45.85545025281094" lon="-122.87230358858781"><ele>109.7</ele></trkpt>
    <trkpt lat="45.85545263027558" lon="-122.87243137731204"><ele>110.2</ele></trkpt>
    <trkpt lat="45.85545498372542" lon="-122.87255787524109"><ele>110.8</ele></trkpt>
    <trkpt lat="45.855456160450345" lon="-122.87262112420558"><ele>111.2</ele></trkpt>
    <trkpt lat="45.85545851390018" lon="-122.87274762213463"><ele>111.9</ele></trkpt>
    <trkpt lat="45.855470473267744" lon="-122.87339043814134"><ele>116.2</ele></trkpt>
    <trkpt lat="45.85547887844576" lon="-122.87384221645931"><ele>119.2</ele></trkpt>
    <trkpt lat="45.85548125591039" lon="-122.87397000518354"><ele>120.0</ele></trkpt>
    <trkpt lat="45.855483657389826" lon="-122.87409908470295"><ele>120.7</ele></trkpt>
    <trkpt lat="45.85548605886926" lon="-122.87422816422236"><ele>121.4</ele></trkpt>
    <trkpt lat="45.85548843633389" lon="-122.8743559529466"><ele>122.0</ele></trkpt>
    <trkpt lat="45.85549" lon="-122.87444"><ele>122.4</ele></trkpt>
    <trkpt lat="45.855490579925274" lon="-122.87448504086242"><ele>122.6</ele></trkpt>
    <trkpt lat="45.85549224220321" lon="-122.87461414444904"><ele>123.1</ele></trkpt>
    <trkpt lat="45.85549307334218" lon="-122.87467869624233"><ele>123.3</ele></trkpt>
    <trkpt lat="45.85549390448115" lon="-122.87474324803564"><ele>123.5</ele></trkpt>
    <trkpt lat="45.85549473562012" lon="-122.87480779982896"><ele>123.6</ele></trkpt>
    <trkpt lat="45.85549555013631" lon="-122.87487106058639"><ele>123.8</ele></trkpt>
    <trkpt lat="45.85549638127527" lon="-122.87493561237969"><ele>123.9</ele></trkpt>
    <trkpt lat="45.85549721241425" lon="-122.87500016417299"><ele>123.9</ele></trkpt>
    <trkpt lat="45.85549887469219" lon="-122.87512926775959"><ele>124.0</ele></trkpt>
    <trkpt lat="45.85550218262529" lon="-122.87538618389694"><ele>124.1</ele></trkpt>
    <trkpt lat="45.85550633832014" lon="-122.87570894286347"><ele>124.3</ele></trkpt>
    <trkpt lat="45.85550798397529" lon="-122.87583675541421"><ele>124.3</ele></trkpt>
    <trkpt lat="45.85550964625323" lon="-122.87596585900081"><ele>124.3</ele></trkpt>
    <trkpt lat="45.85551130853118" lon="-122.87609496258742"><ele>124.2</ele></trkpt>
    <trkpt lat="45.85551297080911" lon="-122.87622406617402"><ele>124.0</ele></trkpt>
    <trkpt lat="45.85551461646427" lon="-122.87635187872478"><ele>123.8</ele></trkpt>
    <trkpt lat="45.855515447603246" lon="-122.87641643051808"><ele>123.6</ele></trkpt>
    <trkpt lat="45.855517109881184" lon="-122.87654553410468"><ele>123.2</ele></trkpt>
    <trkpt lat="45.85551877215912" lon="-122.87667463769128"><ele>122.7</ele></trkpt>
    <trkpt lat="45.855520000000006" lon="-122.87677000000001"><ele>122.3</ele></trkpt>
    <trkpt lat="45.855520000000006" lon="-122.87686701863593"><ele>121.9</ele></trkpt>
    <trkpt lat="45.855520000000006" lon="-122.87725439567882"><ele>120.2</ele></trkpt>
    <trkpt lat="45.855520000000006" lon="-122.87738223010298"><ele>119.6</ele></trkpt>
    <trkpt lat="45.855520000000006" lon="-122.8776404814649"><ele>118.4</ele></trkpt>
    <trkpt lat="45.855520000000006" lon="-122.87776831588903"><ele>117.7</ele></trkpt>
    <trkpt lat="45.855520000000006" lon="-122.87809113009143"><ele>115.9</ele></trkpt>
    <trkpt lat="45.855520000000006" lon="-122.87828352735607"><ele>114.7</ele></trkpt>
    <trkpt lat="45.855520000000006" lon="-122.87841265303703"><ele>114.0</ele></trkpt>
    <trkpt lat="45.855520000000006" lon="-122.87854177871799"><ele>113.1</ele></trkpt>
    <trkpt lat="45.855520000000006" lon="-122.87873417598261"><ele>111.8</ele></trkpt>
    <trkpt lat="45.855520000000006" lon="-122.87886330166357"><ele>111.0</ele></trkpt>
    <trkpt lat="45.855520000000006" lon="-122.87899113608773"><ele>110.1</ele></trkpt>
    <trkpt lat="45.85552" lon="-122.8793772218738"><ele>107.5</ele></trkpt>
    <trkpt lat="45.855520000000006" lon="-122.87969874481938"><ele>105.4</ele></trkpt>
    <trkpt lat="45.855520000000006" lon="-122.87982787050035"><ele>104.6</ele></trkpt>
    <trkpt lat="45.855520000000006" lon="-122.8799557049245"><ele>103.9</ele></trkpt>
    <trkpt lat="45.855520000000006" lon="-122.88008483060545"><ele>103.2</ele></trkpt>
    <trkpt lat="45.855520000000006" lon="-122.88021395628643"><ele>102.5</ele></trkpt>
    <trkpt lat="45.855520000000006" lon="-122.88027722787008"><ele>102.2</ele></trkpt>
    <trkpt lat="45.855520000000006" lon="-122.88034179071057"><ele>101.9</ele></trkpt>
    <trkpt lat="45.855520000000006" lon="-122.88038000000002"><ele>101.8</ele></trkpt>
    <trkpt lat="45.85551983236362" lon="-122.88040635244002"><ele>101.7</ele></trkpt>
    <trkpt lat="45.85551860851404" lon="-122.88059874159343"><ele>101.0</ele></trkpt>
    <trkpt lat="45.85551779535224" lon="-122.88072657062824"><ele>100.2</ele></trkpt>
    <trkpt lat="45.855517384664466" lon="-122.88079113074684"><ele>99.8</ele></trkpt>
    <trkpt lat="45.85551697397669" lon="-122.88085569086542"><ele>99.3</ele></trkpt>
    <trkpt lat="45.85551656328891" lon="-122.880920250984"><ele>98.8</ele></trkpt>
    <trkpt lat="45.85551574191336" lon="-122.8810493712212"><ele>97.7</ele></trkpt>
    <trkpt lat="45.85551409916225" lon="-122.88130761169556"><ele>95.3</ele></trkpt>
    <trkpt lat="45.85551163503558" lon="-122.88169497240712"><ele>91.7</ele></trkpt>
    <trkpt lat="45.855510025139495" lon="-122.88194804807199"><ele>89.6</ele></trkpt>
    <trkpt lat="45.8555092119777" lon="-122.8820758771068"><ele>88.6</ele></trkpt>
    <trkpt lat="45.855508809503675" lon="-122.88213914602302"><ele>88.2</ele></trkpt>
    <trkpt lat="45.85550840702965" lon="-122.88220241493924"><ele>87.7</ele></trkpt>
    <trkpt lat="45.85550800455563" lon="-122.88226568385546"><ele>87.4</ele></trkpt>
    <trkpt lat="45.85550760208161" lon="-122.8823289527717"><ele>87.0</ele></trkpt>
    <trkpt lat="45.855506788919804" lon="-122.8824567818065"><ele>86.4</ele></trkpt>
    <trkpt lat="45.85550598397177" lon="-122.88258331963894"><ele>85.8</ele></trkpt>
    <trkpt lat="45.855504365861925" lon="-122.88283768650619"><ele>84.8</ele></trkpt>
    <trkpt lat="45.85550234527807" lon="-122.88315532228967"><ele>83.5</ele></trkpt>
    <trkpt lat="45.855500390404245" lon="-122.88346262845417"><ele>82.5</ele></trkpt>
    <trkpt lat="45.85549960188371" lon="-122.88358658388188"><ele>82.1</ele></trkpt>
    <trkpt lat="45.85549763879614" lon="-122.88389518124873"><ele>81.2</ele></trkpt>
    <trkpt lat="45.85549646422909" lon="-122.8840798231879"><ele>80.7</ele></trkpt>
    <trkpt lat="45.85549572499109" lon="-122.88419603140139"><ele>80.4</ele></trkpt>
    <trkpt lat="45.85549497753934" lon="-122.88431353081721"><ele>80.2</ele></trkpt>
    <trkpt lat="45.85549423008758" lon="-122.88443103023305"><ele>79.8</ele></trkpt>
    <trkpt lat="45.85549349084958" lon="-122.88454723844652"><ele>79.5</ele></trkpt>
    <trkpt lat="45.85549229985503" lon="-122.88473446279045"><ele>78.8</ele></trkpt>
    <trkpt lat="45.85549110064672" lon="-122.88492297833672"><ele>78.1</ele></trkpt>
    <trkpt lat="45.85549029569867" lon="-122.88504951616918"><ele>77.5</ele></trkpt>
    <trkpt lat="45.85548949896439" lon="-122.88517476279922"><ele>76.9</ele></trkpt>
    <trkpt lat="45.855489096490366" lon="-122.88523803171546"><ele>76.6</ele></trkpt>
    <trkpt lat="45.855488299756075" lon="-122.88536327834551"><ele>75.9</ele></trkpt>
    <trkpt lat="45.855485901339456" lon="-122.88574030943809"><ele>73.6</ele></trkpt>
    <trkpt lat="45.85548509639142" lon="-122.88586684727053"><ele>73.2</ele></trkpt>
    <trkpt lat="45.85548468570364" lon="-122.88593140738914"><ele>72.9</ele></trkpt>
    <trkpt lat="45.855484283229615" lon="-122.88599467630534"><ele>72.8</ele></trkpt>
    <trkpt lat="45.85548388075559" lon="-122.88605794522157"><ele>72.6</ele></trkpt>
    <trkpt lat="45.85548347006782" lon="-122.88612250534015"><ele>72.5</ele></trkpt>
    <trkpt lat="45.85547980673284" lon="-122.886698381598"><ele>71.7</ele></trkpt>
    <trkpt lat="45.85547816398173" lon="-122.88695662207238"><ele>71.4</ele></trkpt>
    <trkpt lat="45.85547734260618" lon="-122.88708574230955"><ele>71.2</ele></trkpt>
    <trkpt lat="45.85547652944438" lon="-122.88721357134438"><ele>71.1</ele></trkpt>
    <trkpt lat="45.85547569985506" lon="-122.88734398278393"><ele>71.2</ele></trkpt>
    <trkpt lat="45.85547528916729" lon="-122.8874085429025"><ele>71.2</ele></trkpt>
    <trkpt lat="45.85547487847951" lon="-122.88747310302111"><ele>71.3</ele></trkpt>
    <trkpt lat="45.85547446779174" lon="-122.8875376631397"><ele>71.4</ele></trkpt>
    <trkpt lat="45.85547405710396" lon="-122.8876022232583"><ele>71.6</ele></trkpt>
    <trkpt lat="45.855473235728404" lon="-122.88773134349547"><ele>71.9</ele></trkpt>
    <trkpt lat="45.855471634046076" lon="-122.887983127958"><ele>73.2</ele></trkpt>
    <trkpt lat="45.855470837311785" lon="-122.88810837458806"><ele>74.0</ele></trkpt>
    <trkpt lat="45.85547003236374" lon="-122.8882349124205"><ele>74.9</ele></trkpt>
    <trkpt lat="45.855470000000004" lon="-122.88824000000001"><ele>74.9</ele></trkpt>
    <trkpt lat="45.85559773749554" lon="-122.88823674850013"><ele>76.3</ele></trkpt>
    <trkpt lat="45.855685857241355" lon="-122.88823450545203"><ele>77.2</ele></trkpt>
    <trkpt lat="45.855817137679" lon="-122.88823116376818"><ele>78.5</ele></trkpt>
    <trkpt lat="45.85590525742481" lon="-122.88822892072011"><ele>79.2</ele></trkpt>
    <trkpt lat="45.855992477989545" lon="-122.88822670056028"><ele>79.9</ele></trkpt>
    <trkpt lat="45.85608059773535" lon="-122.88822445751221"><ele>80.4</ele></trkpt>
    <trkpt lat="45.85616871748117" lon="-122.88822221446414"><ele>80.8</ele></trkpt>
    <trkpt lat="45.85621187817299" lon="-122.88822111582834"><ele>81.0</ele></trkpt>
    <trkpt lat="45.856255938045905" lon="-122.88821999430431"><ele>81.2</ele></trkpt>
    <trkpt lat="45.856344057791716" lon="-122.8882177512562"><ele>81.4</ele></trkpt>
    <trkpt lat="45.85647084232395" lon="-122.88821452401359"><ele>81.7</ele></trkpt>
    <trkpt lat="45.85663988836694" lon="-122.8882102210234"><ele>82.0</ele></trkpt>
    <trkpt lat="45.856766672899184" lon="-122.88820699378076"><ele>82.2</ele></trkpt>
    <trkpt lat="45.857027435412306" lon="-122.88820035618951"><ele>83.0</ele></trkpt>
    <trkpt lat="45.857201876541765" lon="-122.88819591586986"><ele>83.5</ele></trkpt>
    <trkpt lat="45.8572890971065" lon="-122.88819369571003"><ele>83.6</ele></trkpt>
    <trkpt lat="45.85737631767124" lon="-122.8881914755502"><ele>83.8</ele></trkpt>
    <trkpt lat="45.85746353823597" lon="-122.88818925539037"><ele>83.8</ele></trkpt>
    <trkpt lat="45.85759751621685" lon="-122.88818584504178"><ele>83.6</ele></trkpt>
    <trkpt lat="45.857687434324816" lon="-122.8881835562172"><ele>83.4</ele></trkpt>
    <trkpt lat="45.857732393378804" lon="-122.88818241180492"><ele>83.3</ele></trkpt>
    <trkpt lat="45.85777735243279" lon="-122.88818126739264"><ele>83.1</ele></trkpt>
    <trkpt lat="45.8578214123057" lon="-122.8881801458686"><ele>82.8</ele></trkpt>
    <trkpt lat="45.857866371359684" lon="-122.88817900145631"><ele>82.6</ele></trkpt>
    <trkpt lat="45.85791133041367" lon="-122.88817785704404"><ele>82.2</ele></trkpt>
    <trkpt lat="45.858001248521646" lon="-122.88817556821947"><ele>81.5</ele></trkpt>
    <trkpt lat="45.85809116662961" lon="-122.88817327939489"><ele>80.7</ele></trkpt>
    <trkpt lat="45.858180185556506" lon="-122.88817101345857"><ele>79.8</ele></trkpt>
    <trkpt lat="45.85822" lon="-122.88817000000002"><ele>79.4</ele></trkpt>
    <trkpt lat="45.85831507765541" lon="-122.88817000000003"><ele>78.3</ele></trkpt>
    <trkpt lat="45.85840500989196" lon="-122.88817000000003"><ele>77.4</ele></trkpt>
    <trkpt lat="45.85849404280614" lon="-122.88817000000002"><ele>76.5</ele></trkpt>
    <trkpt lat="45.858539008924424" lon="-122.88817000000002"><ele>76.1</ele></trkpt>
    <trkpt lat="45.85862894116098" lon="-122.88817000000002"><ele>75.3</ele></trkpt>
    <trkpt lat="45.858673907279254" lon="-122.88817"><ele>75.0</ele></trkpt>
    <trkpt lat="45.858718873397535" lon="-122.88817000000002"><ele>74.7</ele></trkpt>
    <trkpt lat="45.858807906311725" lon="-122.88817000000002"><ele>74.1</ele></trkpt>
    <trkpt lat="45.85889783854827" lon="-122.88817000000002"><ele>73.6</ele></trkpt>
    <trkpt lat="45.85898777078483" lon="-122.88817000000002"><ele>73.2</ele></trkpt>
    <trkpt lat="45.85903273690311" lon="-122.88817000000002"><ele>73.0</ele></trkpt>
    <trkpt lat="45.85905" lon="-122.88817000000002"><ele>72.9</ele></trkpt>
    <trkpt lat="45.859076795807454" lon="-122.88816906609787"><ele>72.9</ele></trkpt>
    <trkpt lat="45.85912174868677" lon="-122.88816749937554"><ele>72.8</ele></trkpt>
    <trkpt lat="45.85916670156609" lon="-122.88816593265321"><ele>72.7</ele></trkpt>
    <trkpt lat="45.85921165444541" lon="-122.88816436593088"><ele>72.7</ele></trkpt>
    <trkpt lat="45.859256607324724" lon="-122.88816279920854"><ele>72.7</ele></trkpt>
    <trkpt lat="45.85930156020404" lon="-122.8881612324862"><ele>72.7</ele></trkpt>
    <trkpt lat="45.85934651308335" lon="-122.88815966576387"><ele>72.8</ele></trkpt>
    <trkpt lat="45.859390566905084" lon="-122.88815813037597"><ele>72.9</ele></trkpt>
    <trkpt lat="45.8594355197844" lon="-122.88815656365364"><ele>73.0</ele></trkpt>
    <trkpt lat="45.859480472663726" lon="-122.88815499693132"><ele>73.2</ele></trkpt>
    <trkpt lat="45.85952542554304" lon="-122.88815343020897"><ele>73.5</ele></trkpt>
    <trkpt lat="45.859570378422355" lon="-122.88815186348663"><ele>73.7</ele></trkpt>
    <trkpt lat="45.85961533130167" lon="-122.88815029676431"><ele>74.0</ele></trkpt>
    <trkpt lat="45.85970433800272" lon="-122.88814719465407"><ele>74.6</ele></trkpt>
    <trkpt lat="45.86006306197967" lon="-122.88813469220983"><ele>77.2</ele></trkpt>
    <trkpt lat="45.86028782637625" lon="-122.88812685859816"><ele>78.7</ele></trkpt>
    <trkpt lat="45.860376833077304" lon="-122.88812375648794"><ele>79.4</ele></trkpt>
    <trkpt lat="45.86046673883594" lon="-122.88812062304326"><ele>80.2</ele></trkpt>
    <trkpt lat="45.860556644594574" lon="-122.8881174895986"><ele>81.1</ele></trkpt>
    <trkpt lat="45.86082546281288" lon="-122.88810812059903"><ele>83.9</ele></trkpt>
    <trkpt lat="45.860870415692204" lon="-122.8881065538767"><ele>84.3</ele></trkpt>
    <trkpt lat="45.86096032145083" lon="-122.88810342043203"><ele>85.1</ele></trkpt>
    <trkpt lat="45.86103853946085" lon="-122.88810069433515"><ele>85.6</ele></trkpt>
    <trkpt lat="45.86106011684292" lon="-122.88809994230843"><ele>85.8</ele></trkpt>
    <trkpt lat="45.86278" lon="-122.88804"><ele>96.0</ele></trkpt>
    <trkpt lat="45.86471857420027" lon="-122.88798496161579"><ele>107.0</ele></trkpt>
    <trkpt lat="45.86489660523842" lon="-122.8879799071068"><ele>111.6</ele></trkpt>
    <trkpt lat="45.86516365179566" lon="-122.88797232534336"><ele>112.0</ele></trkpt>
    <trkpt lat="45.86534258198048" lon="-122.88796724530656"><ele>112.3</ele></trkpt>
    <trkpt lat="45.86543159749956" lon="-122.88796471805206"><ele>112.3</ele></trkpt>
    <trkpt lat="45.86560962853772" lon="-122.88795966354309"><ele>112.4</ele></trkpt>
    <trkpt lat="45.86565458587058" lon="-122.88795838715194"><ele>112.4</ele></trkpt>
    <trkpt lat="45.86574360138966" lon="-122.88795585989746"><ele>112.5</ele></trkpt>
    <trkpt lat="45.865950000000005" lon="-122.88795"><ele>112.8</ele></trkpt>
    <trkpt lat="45.866007197371246" lon="-122.88791731578786"><ele>112.8</ele></trkpt>
    <trkpt lat="45.866020000000006" lon="-122.88791"><ele>112.9</ele></trkpt>
    <trkpt lat="45.866084430257104" lon="-122.88785416044385"><ele>113.0</ele></trkpt>
    <trkpt lat="45.866170000000004" lon="-122.88778"><ele>113.2</ele></trkpt>
    <trkpt lat="45.866200000000006" lon="-122.88767000000001"><ele>113.3</ele></trkpt>
    <trkpt lat="45.8662251748288" lon="-122.88762384614724"><ele>113.4</ele></trkpt>
    <trkpt lat="45.866260000000004" lon="-122.88756000000001"><ele>113.5</ele></trkpt>
    <trkpt lat="45.86633749729148" lon="-122.88755703562272"><ele>113.6</ele></trkpt>
    <trkpt lat="45.86642649864163" lon="-122.88755363119951"><ele>113.6</ele></trkpt>
    <trkpt lat="45.86651549999178" lon="-122.88755022677628"><ele>113.6</ele></trkpt>
    <trkpt lat="45.866604501341925" lon="-122.88754682235306"><ele>113.6</ele></trkpt>
    <trkpt lat="45.8667384528689" lon="-122.88754169852415"><ele>113.5</ele></trkpt>
    <trkpt lat="45.86690476852321" lon="-122.88753533672318"><ele>113.4</ele></trkpt>
    <trkpt lat="45.867071983181056" lon="-122.88752894053408"><ele>113.5</ele></trkpt>
    <trkpt lat="45.867328199189046" lon="-122.88751913992174"><ele>113.7</ele></trkpt>
    <trkpt lat="45.86741360452504" lon="-122.88751587305096"><ele>113.7</ele></trkpt>
    <trkpt lat="45.86749990886457" lon="-122.88751257179207"><ele>113.8</ele></trkpt>
    <trkpt lat="45.867586213204106" lon="-122.88750927053319"><ele>113.9</ele></trkpt>
    <trkpt lat="45.86767161854011" lon="-122.8875060036624"><ele>114.1</ele></trkpt>
    <trkpt lat="45.86780107504941" lon="-122.88750105177408"><ele>114.5</ele></trkpt>
    <trkpt lat="45.867929632555175" lon="-122.88749613427386"><ele>114.9</ele></trkpt>
    <trkpt lat="45.86801593689471" lon="-122.88749283301496"><ele>115.2</ele></trkpt>
    <trkpt lat="45.868145393404006" lon="-122.88748788112663"><ele>115.8</ele></trkpt>
    <trkpt lat="45.868277546923906" lon="-122.88748282607396"><ele>116.5</ele></trkpt>
    <trkpt lat="45.868453751617125" lon="-122.88747608600372"><ele>117.5</ele></trkpt>
    <trkpt lat="45.86849870179397" lon="-122.88747436659806"><ele>117.7</ele></trkpt>
    <trkpt lat="45.86867490648718" lon="-122.88746762652782"><ele>118.5</ele></trkpt>
    <trkpt lat="45.868718957660484" lon="-122.88746594151027"><ele>118.6</ele></trkpt>
    <trkpt lat="45.86876300883379" lon="-122.8874642564927"><ele>118.8</ele></trkpt>
    <trkpt lat="45.868807959010624" lon="-122.88746253708703"><ele>118.9</ele></trkpt>
    <trkpt lat="45.86889606135723" lon="-122.88745916705192"><ele>119.1</ele></trkpt>
    <trkpt lat="45.86894011253054" lon="-122.88745748203435"><ele>119.1</ele></trkpt>
    <trkpt lat="45.86898416370384" lon="-122.8874557970168"><ele>119.1</ele></trkpt>
    <trkpt lat="45.86902821487714" lon="-122.88745411199923"><ele>119.1</ele></trkpt>
    <trkpt lat="45.869072266050445" lon="-122.88745242698168"><ele>119.1</ele></trkpt>
    <trkpt lat="45.86911721622729" lon="-122.88745070757602"><ele>119.0</ele></trkpt>
    <trkpt lat="45.86916126740059" lon="-122.88744902255846"><ele>118.9</ele></trkpt>
    <trkpt lat="45.86920531857389" lon="-122.88744733754089"><ele>118.8</ele></trkpt>
    <trkpt lat="45.869249369747195" lon="-122.88744565252334"><ele>118.7</ele></trkpt>
    <trkpt lat="45.8692934209205" lon="-122.88744396750577"><ele>118.5</ele></trkpt>
    <trkpt lat="45.869337472093804" lon="-122.88744228248822"><ele>118.3</ele></trkpt>
    <trkpt lat="45.86942557444041" lon="-122.88743891245309"><ele>117.7</ele></trkpt>
    <trkpt lat="45.86951457579056" lon="-122.88743550802987"><ele>117.2</ele></trkpt>
    <trkpt lat="45.86973483165707" lon="-122.88742708294208"><ele>115.5</ele></trkpt>
    <trkpt lat="45.86982383300722" lon="-122.88742367851886"><ele>114.9</ele></trkpt>
    <trkpt lat="45.86991193535382" lon="-122.88742030848374"><ele>114.4</ele></trkpt>
    <trkpt lat="45.86992" lon="-122.88742"><ele>114.4</ele></trkpt>
    <trkpt lat="45.86995467935057" lon="-122.88740612825978"><ele>114.2</ele></trkpt>
    <trkpt lat="45.86997" lon="-122.88740000000001"><ele>114.1</ele></trkpt>
    <trkpt lat="45.87004174831184" lon="-122.88738804194804"><ele>113.8</ele></trkpt>
    <trkpt lat="45.87008641467124" lon="-122.88738059755481"><ele>113.7</ele></trkpt>
    <trkpt lat="45.870090000000005" lon="-122.88738000000001"><ele>113.7</ele></trkpt>
    <trkpt lat="45.87012953239182" lon="-122.88736764612757"><ele>113.6</ele></trkpt>
    <trkpt lat="45.87017259164905" lon="-122.88735419010968"><ele>113.5</ele></trkpt>
    <trkpt lat="45.87021565090629" lon="-122.8873407340918"><ele>113.5</ele></trkpt>
    <trkpt lat="45.870250000000006" lon="-122.88733"><ele>113.5</ele></trkpt>
    <trkpt lat="45.8702581360974" lon="-122.88732476965168"><ele>113.5</ele></trkpt>
    <trkpt lat="45.87029835742159" lon="-122.88729891308613"><ele>113.5</ele></trkpt>
    <trkpt lat="45.87033857874577" lon="-122.88727305652057"><ele>113.6</ele></trkpt>
    <trkpt lat="45.87037880006997" lon="-122.88724719995503"><ele>113.7</ele></trkpt>
    <trkpt lat="45.87039" lon="-122.88724"><ele>113.7</ele></trkpt>
    <trkpt lat="45.87053" lon="-122.88714000000002"><ele>114.1</ele></trkpt>
    <trkpt lat="45.870568272297504" lon="-122.88709813967463"><ele>114.2</ele></trkpt>
    <trkpt lat="45.87079650707223" lon="-122.88684850788977"><ele>114.8</ele></trkpt>
    <trkpt lat="45.87082727226129" lon="-122.88681485846422"><ele>114.8</ele></trkpt>
    <trkpt lat="45.870850000000004" lon="-122.88679"><ele>114.9</ele></trkpt>
    <trkpt lat="45.870896159243955" lon="-122.88676032620032"><ele>114.9</ele></trkpt>
    <trkpt lat="45.871016823459314" lon="-122.8866827563476"><ele>114.8</ele></trkpt>
    <trkpt lat="45.871097266269544" lon="-122.88663104311243"><ele>114.6</ele></trkpt>
    <trkpt lat="45.87113" lon="-122.88661"><ele>114.5</ele></trkpt>
    <trkpt lat="45.87113808201002" lon="-122.8866079794975"><ele>114.5</ele></trkpt>
    <trkpt lat="45.871224909980995" lon="-122.88658627250476"><ele>114.2</ele></trkpt>
    <trkpt lat="45.87126832396648" lon="-122.8865754190084"><ele>114.0</ele></trkpt>
    <trkpt lat="45.87129" lon="-122.88657"><ele>113.9</ele></trkpt>
    <trkpt lat="45.8713561149443" lon="-122.88656786725988"><ele>113.6</ele></trkpt>
    <trkpt lat="45.87157639336919" lon="-122.88656076150424"><ele>112.5</ele></trkpt>
    <trkpt lat="45.8716" lon="-122.88656000000002"><ele>112.4</ele></trkpt>
    <trkpt lat="45.871750000000006" lon="-122.88657"><ele>111.7</ele></trkpt>
    <trkpt lat="45.87175330457852" lon="-122.88657110152619"><ele>111.7</ele></trkpt>
    <trkpt lat="45.87196" lon="-122.88664000000001"><ele>110.8</ele></trkpt>
    <trkpt lat="45.872052100101364" lon="-122.88668029379436"><ele>110.4</ele></trkpt>
    <trkpt lat="45.87228" lon="-122.88678000000002"><ele>109.6</ele></trkpt>
    <trkpt lat="45.872428745314984" lon="-122.88685805447223"><ele>109.0</ele></trkpt>
    <trkpt lat="45.872677934274286" lon="-122.88698881699543"><ele>108.2</ele></trkpt>
    <trkpt lat="45.8728443418166" lon="-122.88707613976516"><ele>107.7</ele></trkpt>
    <trkpt lat="45.87292712323358" lon="-122.88711957951863"><ele>107.4</ele></trkpt>
    <trkpt lat="45.87296851394208" lon="-122.88714129939537"><ele>107.2</ele></trkpt>
    <trkpt lat="45.8730521400674" lon="-122.88718518241163"><ele>106.8</ele></trkpt>
    <trkpt lat="45.873290000000004" lon="-122.88731000000001"><ele>105.4</ele></trkpt>
    <trkpt lat="45.873300456828574" lon="-122.88731560866262"><ele>105.3</ele></trkpt>
    <trkpt lat="45.87338386368692" lon="-122.88736034506846"><ele>104.9</ele></trkpt>
    <trkpt lat="45.873466428051735" lon="-122.8874046295914"><ele>104.5</ele></trkpt>
    <trkpt lat="45.87354899241656" lon="-122.88744891411434"><ele>104.2</ele></trkpt>
    <trkpt lat="45.873756245822136" lon="-122.88756007730461"><ele>103.5</ele></trkpt>
    <trkpt lat="45.87404606359252" lon="-122.88771552501782"><ele>102.4</ele></trkpt>
    <trkpt lat="45.87412947045087" lon="-122.88776026142365"><ele>102.3</ele></trkpt>
    <trkpt lat="45.87425584447866" lon="-122.88782804385674"><ele>102.0</ele></trkpt>
    <trkpt lat="45.87438053351941" lon="-122.88789492252407"><ele>101.5</ele></trkpt>
    <trkpt lat="45.874390000000005" lon="-122.88790000000002"><ele>101.4</ele></trkpt>
    <trkpt lat="45.87450475871118" lon="-122.88797042011825"><ele>100.9</ele></trkpt>
    <trkpt lat="45.874587459505705" lon="-122.88802116833305"><ele>100.5</ele></trkpt>
    <trkpt lat="45.87475203408678" lon="-122.88812215728055"><ele>99.5</ele></trkpt>
    <trkpt lat="45.87483" lon="-122.88817000000002"><ele>99.0</ele></trkpt>
    <trkpt lat="45.8748337776849" lon="-122.88817279548684"><ele>99.0</ele></trkpt>
    <trkpt lat="45.87495289672883" lon="-122.88826094357934"><ele>98.1</ele></trkpt>
    <trkpt lat="45.875032842395896" lon="-122.88832010337296"><ele>97.6</ele></trkpt>
    <trkpt lat="45.875151161983155" lon="-122.88840765986754"><ele>96.9</ele></trkpt>
    <trkpt lat="45.87527108048376" lon="-122.888496399558"><ele>96.3</ele></trkpt>
    <trkpt lat="45.875330000000005" lon="-122.88854"><ele>96.0</ele></trkpt>
    <trkpt lat="45.87538572138321" lon="-122.88859751884718"><ele>95.8</ele></trkpt>
    <trkpt lat="45.87545801990366" lon="-122.88867214957799"><ele>95.4</ele></trkpt>
    <trkpt lat="45.875640000000004" lon="-122.88886000000001"><ele>94.7</ele></trkpt>
    <trkpt lat="45.87579269269872" lon="-122.88899360611138"><ele>94.3</ele></trkpt>
    <trkpt lat="45.87586872778948" lon="-122.8890601368158"><ele>94.0</ele></trkpt>
    <trkpt lat="45.87588" lon="-122.88907"><ele>94.0</ele></trkpt>
    <trkpt lat="45.87598707643587" lon="-122.88915307654509"><ele>93.6</ele></trkpt>
    <trkpt lat="45.87606541159261" lon="-122.88921385382186"><ele>93.2</ele></trkpt>
    <trkpt lat="45.87614453801356" lon="-122.88927524501052"><ele>92.9</ele></trkpt>
    <trkpt lat="45.876222873170306" lon="-122.8893360222873"><ele>92.5</ele></trkpt>
    <trkpt lat="45.876262436380784" lon="-122.88936671788164"><ele>92.2</ele></trkpt>
    <trkpt lat="45.87641989795848" lon="-122.8894888863471"><ele>91.2</ele></trkpt>
    <trkpt lat="45.876459461168956" lon="-122.88951958194144"><ele>90.9</ele></trkpt>
    <trkpt lat="45.87646" lon="-122.88952"><ele>90.9</ele></trkpt>
    <trkpt lat="45.876536391168386" lon="-122.8895839553968"><ele>90.5</ele></trkpt>
    <trkpt lat="45.87661408840785" lon="-122.88964900424844"><ele>90.1</ele></trkpt>
    <trkpt lat="45.87676870591439" lon="-122.8897784514632"><ele>89.4</ele></trkpt>
    <trkpt lat="45.87689" lon="-122.88988"><ele>88.9</ele></trkpt>
    <trkpt lat="45.877030000000005" lon="-122.8901"><ele>88.2</ele></trkpt>
    <trkpt lat="45.87703375638127" lon="-122.8901133560223"><ele>88.2</ele></trkpt>
    <trkpt lat="45.877120000000005" lon="-122.89042"><ele>87.7</ele></trkpt>
    <trkpt lat="45.87712174868517" lon="-122.89042999248667"><ele>87.7</ele></trkpt>
    <trkpt lat="45.877153318947336" lon="-122.8906103939847"><ele>87.4</ele></trkpt>
    <trkpt lat="45.87718488920949" lon="-122.89079079548273"><ele>87.2</ele></trkpt>
    <trkpt lat="45.87720593605092" lon="-122.89091106314808"><ele>87.0</ele></trkpt>
    <trkpt lat="45.87726000000001" lon="-122.89122"><ele>86.8</ele></trkpt>
    <trkpt lat="45.87734066898526" lon="-122.89135444830876"><ele>86.6</ele></trkpt>
    <trkpt lat="45.877398205577606" lon="-122.89145034262934"><ele>86.5</ele></trkpt>
    <trkpt lat="45.87753000000001" lon="-122.89167"><ele>86.0</ele></trkpt>
    <trkpt lat="45.87754558025094" lon="-122.89169054786717"><ele>86.0</ele></trkpt>
    <trkpt lat="45.87764362208097" lon="-122.89181984941114"><ele>85.8</ele></trkpt>
    <trkpt lat="45.87774232635579" lon="-122.89195002461416"><ele>85.6</ele></trkpt>
    <trkpt lat="45.877905950220764" lon="-122.8921658184071"><ele>85.3</ele></trkpt>
    <trkpt lat="45.87820140060043" lon="-122.89255547035711"><ele>85.1</ele></trkpt>
    <trkpt lat="45.878220000000006" lon="-122.89258000000001"><ele>85.0</ele></trkpt>
    <trkpt lat="45.87837545799289" lon="-122.8927535345037"><ele>84.9</ele></trkpt>
    <trkpt lat="45.87851605842874" lon="-122.89291048382742"><ele>84.7</ele></trkpt>
    <trkpt lat="45.87865" lon="-122.89306"><ele>84.4</ele></trkpt>
    <trkpt lat="45.8787755889909" lon="-122.89325804417797"><ele>84.1</ele></trkpt>
    <trkpt lat="45.878910000000005" lon="-122.89347000000001"><ele>83.9</ele></trkpt>
    <trkpt lat="45.87893626858422" lon="-122.89355931318633"><ele>83.8</ele></trkpt>
    <trkpt lat="45.878960000000006" lon="-122.89364"><ele>83.7</ele></trkpt>
    <trkpt lat="45.87897877066786" lon="-122.8937413616064"><ele>83.6</ele></trkpt>
    <trkpt lat="45.87901" lon="-122.89391"><ele>83.4</ele></trkpt>
    <trkpt lat="45.87901522569781" lon="-122.89411902791235"><ele>83.1</ele></trkpt>
    <trkpt lat="45.879020000000004" lon="-122.89431"><ele>82.9</ele></trkpt>
    <trkpt lat="45.87901431692673" lon="-122.89456573829719"><ele>82.6</ele></trkpt>
    <trkpt lat="45.87901147640754" lon="-122.89469356166076"><ele>82.5</ele></trkpt>
    <trkpt lat="45.87901" lon="-122.89476"><ele>82.3</ele></trkpt>
    <trkpt lat="45.87901508174773" lon="-122.89482098097277"><ele>82.3</ele></trkpt>
    <trkpt lat="45.87902544980652" lon="-122.89494539767816"><ele>82.2</ele></trkpt>
    <trkpt lat="45.87904" lon="-122.89512"><ele>82.2</ele></trkpt>
    <trkpt lat="45.879089774798565" lon="-122.89530961828024"><ele>82.1</ele></trkpt>
    <trkpt lat="45.879182424302996" lon="-122.89566256877329"><ele>81.9</ele></trkpt>
    <trkpt lat="45.879213518999684" lon="-122.8957810247607"><ele>81.9</ele></trkpt>
    <trkpt lat="45.879250000000006" lon="-122.89592"><ele>81.9</ele></trkpt>
    <trkpt lat="45.87927701569333" lon="-122.89608209416001"><ele>81.9</ele></trkpt>
    <trkpt lat="45.87932000000001" lon="-122.89634000000001"><ele>81.9</ele></trkpt>
    <trkpt lat="45.87937941984811" lon="-122.89656282443038"><ele>82.0</ele></trkpt>
    <trkpt lat="45.879400000000004" lon="-122.89664"><ele>81.9</ele></trkpt>
    <trkpt lat="45.87941656614098" lon="-122.89667695523758"><ele>81.9</ele></trkpt>
    <trkpt lat="45.87953" lon="-122.89693000000001"><ele>81.8</ele></trkpt>
    <trkpt lat="45.8795358753932" lon="-122.89694146418186"><ele>81.8</ele></trkpt>
    <trkpt lat="45.87966596725432" lon="-122.89719530195964"><ele>81.7</ele></trkpt>
    <trkpt lat="45.879744875432365" lon="-122.89734926913633"><ele>81.7</ele></trkpt>
    <trkpt lat="45.87979712544215" lon="-122.89745122037493"><ele>81.8</ele></trkpt>
    <trkpt lat="45.87984990861531" lon="-122.89755421193232"><ele>81.9</ele></trkpt>
    <trkpt lat="45.879940000000005" lon="-122.89773000000001"><ele>82.1</ele></trkpt>
    <trkpt lat="45.88004257249961" lon="-122.89780512352085"><ele>82.3</ele></trkpt>
    <trkpt lat="45.880161148975354" lon="-122.89789196826365"><ele>82.4</ele></trkpt>
    <trkpt lat="45.88024046702331" lon="-122.8979500603551"><ele>82.4</ele></trkpt>
    <trkpt lat="45.88031898387888" lon="-122.89800756565776"><ele>82.4</ele></trkpt>
    <trkpt lat="45.880359043499055" lon="-122.89803690509791"><ele>82.3</ele></trkpt>
    <trkpt lat="45.88043836154702" lon="-122.89809499718936"><ele>82.2</ele></trkpt>
    <trkpt lat="45.880556938022764" lon="-122.89818184193217"><ele>81.9</ele></trkpt>
    <trkpt lat="45.88063545487832" lon="-122.89823934723483"><ele>81.7</ele></trkpt>
    <trkpt lat="45.88065" lon="-122.89825"><ele>81.7</ele></trkpt>
    <trkpt lat="45.88089675806865" lon="-122.89848180303419"><ele>81.3</ele></trkpt>
    <trkpt lat="45.88098" lon="-122.89856"><ele>81.2</ele></trkpt>
    <trkpt lat="45.88100719097488" lon="-122.89859058984675"><ele>81.1</ele></trkpt>
    <trkpt lat="45.88107657774934" lon="-122.89866864996802"><ele>81.1</ele></trkpt>
    <trkpt lat="45.88114667255212" lon="-122.89874750662113"><ele>81.1</ele></trkpt>
    <trkpt lat="45.881220000000006" lon="-122.89883"><ele>81.1</ele></trkpt>
    <trkpt lat="45.88134806918721" lon="-122.89899911700363"><ele>81.2</ele></trkpt>
    <trkpt lat="45.881446057184895" lon="-122.89912851141082"><ele>81.3</ele></trkpt>
    <trkpt lat="45.88151160321038" lon="-122.89921506577781"><ele>81.4</ele></trkpt>
    <trkpt lat="45.88180689136557" lon="-122.89960499757248"><ele>81.4</ele></trkpt>
    <trkpt lat="45.88190554144432" lon="-122.8997352662662"><ele>81.4</ele></trkpt>
    <trkpt lat="45.88197174955086" lon="-122.89982269491972"><ele>81.5</ele></trkpt>
    <trkpt lat="45.882000000000005" lon="-122.89986"><ele>81.5</ele></trkpt>
    <trkpt lat="45.882094910935784" lon="-122.90001074089801"><ele>81.7</ele></trkpt>
    <trkpt lat="45.88215463338565" lon="-122.90010559420074"><ele>81.9</ele></trkpt>
    <trkpt lat="45.88217" lon="-122.90013"><ele>81.9</ele></trkpt>
    <trkpt lat="45.88220489199197" lon="-122.90021068773143"><ele>81.9</ele></trkpt>
    <trkpt lat="45.88225234649389" lon="-122.90032042626713"><ele>81.9</ele></trkpt>
    <trkpt lat="45.88229980099582" lon="-122.90043016480283"><ele>81.9</ele></trkpt>
    <trkpt lat="45.88233" lon="-122.90050000000001"><ele>81.8</ele></trkpt>
    <trkpt lat="45.882362085549765" lon="-122.9006016042409"><ele>81.7</ele></trkpt>
    <trkpt lat="45.8824178140147" lon="-122.90077807771321"><ele>81.6</ele></trkpt>
    <trkpt lat="45.88245459480156" lon="-122.90089455020494"><ele>81.6</ele></trkpt>
    <trkpt lat="45.88251" lon="-122.90107"><ele>81.6</ele></trkpt>
    <trkpt lat="45.88256160271047" lon="-122.90117717486021"><ele>81.7</ele></trkpt>
    <trkpt lat="45.88261224871713" lon="-122.9012823627202"><ele>81.7</ele></trkpt>
    <trkpt lat="45.88264" lon="-122.90134"><ele>81.6</ele></trkpt>
    <trkpt lat="45.88267347232027" lon="-122.90137437697757"><ele>81.6</ele></trkpt>
    <trkpt lat="45.88281978874049" lon="-122.90152464789564"><ele>81.5</ele></trkpt>
    <trkpt lat="45.882965373578614" lon="-122.9016741674591"><ele>81.3</ele></trkpt>
    <trkpt lat="45.88303853178873" lon="-122.90174930291815"><ele>81.2</ele></trkpt>
    <trkpt lat="45.88311022683463" lon="-122.90182293566801"><ele>81.3</ele></trkpt>
    <trkpt lat="45.88332970146497" lon="-122.9020483420451"><ele>81.4</ele></trkpt>
    <trkpt lat="45.88338" lon="-122.9021"><ele>81.4</ele></trkpt>
    <trkpt lat="45.883434176646716" lon="-122.90217042964073"><ele>81.4</ele></trkpt>
    <trkpt lat="45.883480000000006" lon="-122.90223"><ele>81.4</ele></trkpt>
    <trkpt lat="45.88353" lon="-122.90235000000001"><ele>81.3</ele></trkpt>
    <trkpt lat="45.88360106657396" lon="-122.90254740714988"><ele>81.2</ele></trkpt>
    <trkpt lat="45.8838" lon="-122.90310000000001"><ele>81.0</ele></trkpt>
    <trkpt lat="45.88383925777379" lon="-122.90316643623258"><ele>80.9</ele></trkpt>
    <trkpt lat="45.88393000000001" lon="-122.90332000000001"><ele>80.8</ele></trkpt>
    <trkpt lat="45.88400204528547" lon="-122.90338123849266"><ele>80.8</ele></trkpt>
    <trkpt lat="45.88411814280446" lon="-122.90347992138379"><ele>80.7</ele></trkpt>
    <trkpt lat="45.884130000000006" lon="-122.90349"><ele>80.7</ele></trkpt>
    <trkpt lat="45.88424108253868" lon="-122.90355604907705"><ele>80.5</ele></trkpt>
    <trkpt lat="45.8843241782079" lon="-122.9036054573128"><ele>80.4</ele></trkpt>
    <trkpt lat="45.88444799075503" lon="-122.90367907558408"><ele>80.0</ele></trkpt>
    <trkpt lat="45.8845" lon="-122.90371"><ele>79.9</ele></trkpt>
    <trkpt lat="45.884529824106494" lon="-122.90373236807987"><ele>79.8</ele></trkpt>
    <trkpt lat="45.88460954553307" lon="-122.90379215914982"><ele>79.5</ele></trkpt>
    <trkpt lat="45.88464940624636" lon="-122.90382205468478"><ele>79.3</ele></trkpt>
    <trkpt lat="45.88474" lon="-122.90389"><ele>78.8</ele></trkpt>
    <trkpt lat="45.8847623176652" lon="-122.9039225465951"><ele>78.7</ele></trkpt>
    <trkpt lat="45.8847938735741" lon="-122.90396856562889"><ele>78.5</ele></trkpt>
    <trkpt lat="45.88485698539189" lon="-122.90406060369651"><ele>78.1</ele></trkpt>
    <trkpt lat="45.88494849752769" lon="-122.90419405889455"><ele>77.8</ele></trkpt>
    <trkpt lat="45.884980000000006" lon="-122.90424000000002"><ele>77.7</ele></trkpt>
    <trkpt lat="45.885002767267885" lon="-122.90428975069649"><ele>77.6</ele></trkpt>
    <trkpt lat="45.8850269748001" lon="-122.90434264863724"><ele>77.5</ele></trkpt>
    <trkpt lat="45.88507489583324" lon="-122.90444736496895"><ele>77.5</ele></trkpt>
    <trkpt lat="45.88514603633606" lon="-122.90460282014175"><ele>77.4</ele></trkpt>
    <trkpt lat="45.885250000000006" lon="-122.90483"><ele>77.5</ele></trkpt>
    <trkpt lat="45.885294812716715" lon="-122.90498311011541"><ele>77.5</ele></trkpt>
    <trkpt lat="45.8853286242802" lon="-122.90509863295735"><ele>77.5</ele></trkpt>
    <trkpt lat="45.88537" lon="-122.90524"><ele>77.5</ele></trkpt>
    <trkpt lat="45.885380758781665" lon="-122.90527025907342"><ele>77.5</ele></trkpt>
    <trkpt lat="45.88553" lon="-122.90569"><ele>77.2</ele></trkpt>
    <trkpt lat="45.88553666101603" lon="-122.90570082415105"><ele>77.2</ele></trkpt>
    <trkpt lat="45.88567366176509" lon="-122.90592345036826"><ele>77.1</ele></trkpt>
    <trkpt lat="45.885690000000004" lon="-122.90595"><ele>77.1</ele></trkpt>
    <trkpt lat="45.88596410750559" lon="-122.90619646641258"><ele>77.2</ele></trkpt>
    <trkpt lat="45.886111997231424" lon="-122.90632944288876"><ele>77.2</ele></trkpt>
    <trkpt lat="45.88618746673069" lon="-122.90639730201836"><ele>77.3</ele></trkpt>
    <trkpt lat="45.886299527502324" lon="-122.9064980625441"><ele>77.4</ele></trkpt>
    <trkpt lat="45.88633764341104" lon="-122.90653233483178"><ele>77.5</ele></trkpt>
    <trkpt lat="45.88637499700159" lon="-122.9065659216737"><ele>77.6</ele></trkpt>
    <trkpt lat="45.886413112910304" lon="-122.90660019396137"><ele>77.8</ele></trkpt>
    <trkpt lat="45.88645122881903" lon="-122.90663446624905"><ele>77.9</ele></trkpt>
    <trkpt lat="45.88648934472775" lon="-122.90666873853672"><ele>78.1</ele></trkpt>
    <trkpt lat="45.88664028372628" lon="-122.90680445679591"><ele>79.0</ele></trkpt>
    <trkpt lat="45.886714990907365" lon="-122.90687163047974"><ele>79.4</ele></trkpt>
    <trkpt lat="45.88679046040663" lon="-122.90693948960933"><ele>79.7</ele></trkpt>
    <trkpt lat="45.88682857631535" lon="-122.906973761897"><ele>79.9</ele></trkpt>
    <trkpt lat="45.886880000000005" lon="-122.90702000000002"><ele>80.0</ele></trkpt>
    <trkpt lat="45.886901157960665" lon="-122.90704714606275"><ele>80.1</ele></trkpt>
    <trkpt lat="45.886968234490226" lon="-122.90713320651577"><ele>80.2</ele></trkpt>
    <trkpt lat="45.887034640254484" lon="-122.90721840636425"><ele>80.2</ele></trkpt>
    <trkpt lat="45.88713458428352" lon="-122.90734663643924"><ele>80.2</ele></trkpt>
    <trkpt lat="45.88730093407683" lon="-122.90756006636272"><ele>80.2</ele></trkpt>
    <trkpt lat="45.88741" lon="-122.9077"><ele>80.3</ele></trkpt>
    <trkpt lat="45.88742985986785" lon="-122.90773574776213"><ele>80.3</ele></trkpt>
    <trkpt lat="45.88753476706885" lon="-122.90792458072394"><ele>80.3</ele></trkpt>
    <trkpt lat="45.88756" lon="-122.90797"><ele>80.3</ele></trkpt>
    <trkpt lat="45.887580989656044" lon="-122.90802422327813"><ele>80.3</ele></trkpt>
    <trkpt lat="45.88764261903839" lon="-122.90818343251584"><ele>80.3</ele></trkpt>
    <trkpt lat="45.88768" lon="-122.90828"><ele>80.3</ele></trkpt>
    <trkpt lat="45.88769127360524" lon="-122.90835247317654"><ele>80.3</ele></trkpt>
    <trkpt lat="45.88771010308141" lon="-122.90847351980904"><ele>80.3</ele></trkpt>
    <trkpt lat="45.887750000000004" lon="-122.90873"><ele>80.1</ele></trkpt>
    <trkpt lat="45.88775293039484" lon="-122.90889996290039"><ele>80.1</ele></trkpt>
    <trkpt lat="45.887757183799444" lon="-122.90914666036764"><ele>80.0</ele></trkpt>
    <trkpt lat="45.88776000000001" lon="-122.90931"><ele>80.0</ele></trkpt>
    <trkpt lat="45.88776682500664" lon="-122.90936801255646"><ele>80.0</ele></trkpt>
    <trkpt lat="45.88778615890377" lon="-122.90953235068201"><ele>80.0</ele></trkpt>
    <trkpt lat="45.88780429379952" lon="-122.90968649729592"><ele>80.1</ele></trkpt>
    <trkpt lat="45.887840000000004" lon="-122.90999000000001"><ele>80.5</ele></trkpt>
    <trkpt lat="45.88784839549444" lon="-122.9101131339184"><ele>80.7</ele></trkpt>
    <trkpt lat="45.88786110791687" lon="-122.91029958278071"><ele>80.9</ele></trkpt>
    <trkpt lat="45.88786934907348" lon="-122.91042045307765"><ele>81.0</ele></trkpt>
    <trkpt lat="45.88787000000001" lon="-122.91043"><ele>81.0</ele></trkpt>
    <trkpt lat="45.887872295342916" lon="-122.91054568528244"><ele>81.1</ele></trkpt>
    <trkpt lat="45.88787475531362" lon="-122.91066966780596"><ele>81.1</ele></trkpt>
    <trkpt lat="45.88788223772451" lon="-122.91104678131497"><ele>81.1</ele></trkpt>
    <trkpt lat="45.887884800193994" lon="-122.91117592977693"><ele>81.0</ele></trkpt>
    <trkpt lat="45.88788736266348" lon="-122.91130507823894"><ele>80.9</ele></trkpt>
    <trkpt lat="45.88789246197775" lon="-122.91156208367828"><ele>80.6</ele></trkpt>
    <trkpt lat="45.88789630568198" lon="-122.91175580637125"><ele>80.5</ele></trkpt>
    <trkpt lat="45.88789886815145" lon="-122.91188495483323"><ele>80.4</ele></trkpt>
    <trkpt lat="45.88790143062094" lon="-122.91201410329523"><ele>80.3</ele></trkpt>
    <trkpt lat="45.887903993090426" lon="-122.9121432517572"><ele>80.3</ele></trkpt>
    <trkpt lat="45.88790650431052" lon="-122.91226981724995"><ele>80.4</ele></trkpt>
    <trkpt lat="45.88791419171897" lon="-122.9126572626359"><ele>80.7</ele></trkpt>
    <trkpt lat="45.88792" lon="-122.91295000000001"><ele>81.0</ele></trkpt>
    <trkpt lat="45.887918939927204" lon="-122.91314293324838"><ele>81.1</ele></trkpt>
    <trkpt lat="45.88791694518323" lon="-122.91350597665337"><ele>81.3</ele></trkpt>
    <trkpt lat="45.88791526988223" lon="-122.91381088143477"><ele>81.6</ele></trkpt>
    <trkpt lat="45.88791459550259" lon="-122.91393361852899"><ele>81.7</ele></trkpt>
    <trkpt lat="45.88791358038377" lon="-122.91411837015501"><ele>81.9</ele></trkpt>
    <trkpt lat="45.887911571442324" lon="-122.91448399749879"><ele>82.1</ele></trkpt>
    <trkpt lat="45.887910000000005" lon="-122.91477"><ele>82.1</ele></trkpt>
    <trkpt lat="45.887917493773415" lon="-122.91485671366374"><ele>82.1</ele></trkpt>
    <trkpt lat="45.88794951627064" lon="-122.91522725970302"><ele>82.3</ele></trkpt>
    <trkpt lat="45.887971123145924" lon="-122.91547728211705"><ele>82.5</ele></trkpt>
    <trkpt lat="45.887980000000006" lon="-122.91558"><ele>82.6</ele></trkpt>
    <trkpt lat="45.88801637692688" lon="-122.91572031100367"><ele>82.7</ele></trkpt>
    <trkpt lat="45.88805000000001" lon="-122.91585"><ele>82.8</ele></trkpt>
    <trkpt lat="45.888113992030895" lon="-122.91600259638136"><ele>82.9</ele></trkpt>
    <trkpt lat="45.88815900918568" lon="-122.91610994498123"><ele>83.0</ele></trkpt>
    <trkpt lat="45.888180000000006" lon="-122.91616"><ele>83.1</ele></trkpt>
    <trkpt lat="45.88820960448829" lon="-122.91621328807891"><ele>83.2</ele></trkpt>
    <trkpt lat="45.88833" lon="-122.91643"><ele>83.7</ele></trkpt>
    <trkpt lat="45.88838304469638" lon="-122.91657734637884"><ele>84.0</ele></trkpt>
    <trkpt lat="45.88842" lon="-122.91668000000001"><ele>84.2</ele></trkpt>
    <trkpt lat="45.888421015345244" lon="-122.91668964577981"><ele>84.2</ele></trkpt>
    <trkpt lat="45.88845396130584" lon="-122.91700263240546"><ele>84.5</ele></trkpt>
    <trkpt lat="45.88846" lon="-122.91706"><ele>84.5</ele></trkpt>
    <trkpt lat="45.88845944063506" lon="-122.91706391555465"><ele>84.5</ele></trkpt>
    <trkpt lat="45.8884417216699" lon="-122.91718794831077"><ele>84.8</ele></trkpt>
    <trkpt lat="45.888415143222154" lon="-122.91737399744494"><ele>85.1</ele></trkpt>
    <trkpt lat="45.888388383968646" lon="-122.91756131221948"><ele>85.4</ele></trkpt>
    <trkpt lat="45.88837" lon="-122.91769000000001"><ele>85.6</ele></trkpt>
    <trkpt lat="45.88838839803861" lon="-122.9179383735212"><ele>85.9</ele></trkpt>
    <trkpt lat="45.88839" lon="-122.91796000000001"><ele>85.9</ele></trkpt>
    <trkpt lat="45.88841738888395" lon="-122.91805859998223"><ele>86.0</ele></trkpt>
    <trkpt lat="45.88844" lon="-122.91814000000001"><ele>86.0</ele></trkpt>
    <trkpt lat="45.888456352226655" lon="-122.91817270445331"><ele>86.0</ele></trkpt>
    <trkpt lat="45.88848153664165" lon="-122.9182230732833"><ele>86.1</ele></trkpt>
    <trkpt lat="45.88853" lon="-122.91832000000001"><ele>86.1</ele></trkpt>
    <trkpt lat="45.888535771577" lon="-122.91832533598628"><ele>86.1</ele></trkpt>
    <trkpt lat="45.888827688725186" lon="-122.9185952216516"><ele>85.9</ele></trkpt>
    <trkpt lat="45.88889726483305" lon="-122.91865954673244"><ele>85.9</ele></trkpt>
    <trkpt lat="45.88906" lon="-122.91881000000001"><ele>85.6</ele></trkpt>
    <trkpt lat="45.88909320732445" lon="-122.91888194920298"><ele>85.5</ele></trkpt>
    <trkpt lat="45.889142409671535" lon="-122.91898855428835"><ele>85.5</ele></trkpt>
    <trkpt lat="45.889264173055736" lon="-122.9192523749541"><ele>85.4</ele></trkpt>
    <trkpt lat="45.889300000000006" lon="-122.91933000000002"><ele>85.3</ele></trkpt>
    <trkpt lat="45.88933661851639" lon="-122.9194825771516"><ele>85.3</ele></trkpt>
    <trkpt lat="45.88936" lon="-122.91958000000001"><ele>85.2</ele></trkpt>
    <trkpt lat="45.88936183606961" lon="-122.91966813134101"><ele>85.1</ele></trkpt>
    <trkpt lat="45.88936977319847" lon="-122.92004911352599"><ele>84.7</ele></trkpt>
    <trkpt lat="45.88937000000001" lon="-122.92006"><ele>84.7</ele></trkpt>
    <trkpt lat="45.88935682644633" lon="-122.92017417079856"><ele>84.6</ele></trkpt>
    <trkpt lat="45.88934270726744" lon="-122.92029653701562"><ele>84.5</ele></trkpt>
    <trkpt lat="45.889340000000004" lon="-122.92032"><ele>84.5</ele></trkpt>
    <trkpt lat="45.889279801949655" lon="-122.92053671298123"><ele>84.5</ele></trkpt>
    <trkpt lat="45.88918146776023" lon="-122.9208907160632"><ele>84.6</ele></trkpt>
    <trkpt lat="45.889140000000005" lon="-122.92104"><ele>84.7</ele></trkpt>
    <trkpt lat="45.88910427344847" lon="-122.92125435930922"><ele>84.7</ele></trkpt>
    <trkpt lat="45.88909" lon="-122.92134000000001"><ele>84.7</ele></trkpt>
    <trkpt lat="45.889160000000004" lon="-122.92159000000001"><ele>84.7</ele></trkpt>
    <trkpt lat="45.88924392884907" lon="-122.92176625058303"><ele>84.7</ele></trkpt>
    <trkpt lat="45.88926000000001" lon="-122.9218"><ele>84.7</ele></trkpt>
    <trkpt lat="45.88933996844522" lon="-122.92190091256182"><ele>84.7</ele></trkpt>
    <trkpt lat="45.88940753729398" lon="-122.92198617801382"><ele>84.8</ele></trkpt>
    <trkpt lat="45.88947510614273" lon="-122.92207144346582"><ele>84.9</ele></trkpt>
    <trkpt lat="45.889508890567114" lon="-122.92211407619183"><ele>85.0</ele></trkpt>
    <trkpt lat="45.88964402826463" lon="-122.92228460709585"><ele>85.3</ele></trkpt>
    <trkpt lat="45.889680000000006" lon="-122.92233000000002"><ele>85.4</ele></trkpt>
    <trkpt lat="45.88980393551797" lon="-122.9225078205258"><ele>85.8</ele></trkpt>
    <trkpt lat="45.88983575255177" lon="-122.92255347105254"><ele>85.9</ele></trkpt>
    <trkpt lat="45.88986756958556" lon="-122.9225991215793"><ele>86.0</ele></trkpt>
    <trkpt lat="45.88989938661936" lon="-122.92264477210604"><ele>86.2</ele></trkpt>
    <trkpt lat="45.88991" lon="-122.92266000000001"><ele>86.2</ele></trkpt>
    <trkpt lat="45.88992731959736" lon="-122.92269513404038"><ele>86.4</ele></trkpt>
    <trkpt lat="45.88995330843102" lon="-122.92274785424578"><ele>86.6</ele></trkpt>
    <trkpt lat="45.890238665824484" lon="-122.92332672210111"><ele>89.3</ele></trkpt>
    <trkpt lat="45.89031507299542" lon="-122.92348171950499"><ele>90.1</ele></trkpt>
    <trkpt lat="45.890419028330015" lon="-122.9236926003266"><ele>91.3</ele></trkpt>
    <trkpt lat="45.89047152577399" lon="-122.92379909514152"><ele>91.8</ele></trkpt>
    <trkpt lat="45.89049751460763" lon="-122.92385181534692"><ele>92.1</ele></trkpt>
    <trkpt lat="45.890549492274936" lon="-122.92395725575773"><ele>92.5</ele></trkpt>
    <trkpt lat="45.890601469942226" lon="-122.92406269616853"><ele>92.7</ele></trkpt>
    <trkpt lat="45.89061" lon="-122.92408"><ele>92.8</ele></trkpt>
    <trkpt lat="45.890678026210715" lon="-122.9241259636559"><ele>92.9</ele></trkpt>
    <trkpt lat="45.890798471243336" lon="-122.9242073454347"><ele>93.2</ele></trkpt>
    <trkpt lat="45.890879853022135" lon="-122.92426233312307"><ele>93.3</ele></trkpt>
    <trkpt lat="45.89096123480093" lon="-122.92431732081144"><ele>93.4</ele></trkpt>
    <trkpt lat="45.89124607102673" lon="-122.92450977772077"><ele>93.6</ele></trkpt>
    <trkpt lat="45.89135" lon="-122.92458"><ele>93.7</ele></trkpt>
    <trkpt lat="45.89136599351003" lon="-122.92459263352892"><ele>93.7</ele></trkpt>
    <trkpt lat="45.89148420393788" lon="-122.9246860098333"><ele>93.9</ele></trkpt>
    <trkpt lat="45.89152360741383" lon="-122.92471713526807"><ele>94.0</ele></trkpt>
    <trkpt lat="45.891602414365735" lon="-122.92477938613764"><ele>94.2</ele></trkpt>
    <trkpt lat="45.89168043324811" lon="-122.92484101449853"><ele>94.5</ele></trkpt>
    <trkpt lat="45.89175924020002" lon="-122.9249032653681"><ele>94.9</ele></trkpt>
    <trkpt lat="45.89183804715192" lon="-122.92496551623765"><ele>95.4</ele></trkpt>
    <trkpt lat="45.892074468007635" lon="-122.92515226884638"><ele>97.1</ele></trkpt>
    <trkpt lat="45.89230931272431" lon="-122.92533777643769"><ele>98.6</ele></trkpt>
    <trkpt lat="45.89250633010406" lon="-122.92549340361161"><ele>99.9</ele></trkpt>
    <trkpt lat="45.892540000000004" lon="-122.92552"><ele>100.1</ele></trkpt>
    <trkpt lat="45.89267" lon="-122.9257"><ele>101.1</ele></trkpt>
    <trkpt lat="45.892694848141716" lon="-122.92576371318388"><ele>101.4</ele></trkpt>
    <trkpt lat="45.89284827432495" lon="-122.92615711365372"><ele>103.3</ele></trkpt>
    <trkpt lat="45.89289179636546" lon="-122.92626870862938"><ele>103.7</ele></trkpt>
    <trkpt lat="45.8930012608916" lon="-122.92654938690154"><ele>104.9</ele></trkpt>
    <trkpt lat="45.893060000000006" lon="-122.92670000000001"><ele>105.6</ele></trkpt>
    <trkpt lat="45.89314736529212" lon="-122.92694839151679"><ele>106.7</ele></trkpt>
    <trkpt lat="45.893187927565485" lon="-122.92706371562736"><ele>107.2</ele></trkpt>
    <trkpt lat="45.89343089558292" lon="-122.92775450704949"><ele>109.8</ele></trkpt>
    <trkpt lat="45.89349092774749" lon="-122.92792518673308"><ele>110.6</ele></trkpt>
    <trkpt lat="45.893570000000004" lon="-122.92815000000002"><ele>111.6</ele></trkpt>
    <trkpt lat="45.89360587801034" lon="-122.9281990332808"><ele>111.9</ele></trkpt>
    <trkpt lat="45.89387000000001" lon="-122.92856"><ele>113.9</ele></trkpt>
    <trkpt lat="45.89390414529536" lon="-122.92858515969132"><ele>114.1</ele></trkpt>
    <trkpt lat="45.893944156728736" lon="-122.92861464180012"><ele>114.3</ele></trkpt>
    <trkpt lat="45.89402417959549" lon="-122.92867360601772"><ele>114.7</ele></trkpt>
    <trkpt lat="45.89422343653373" lon="-122.92882042691959"><ele>115.4</ele></trkpt>
    <trkpt lat="45.89425000000001" lon="-122.92884000000001"><ele>115.5</ele></trkpt>
    <trkpt lat="45.8943081966703" lon="-122.92886144087853"><ele>115.7</ele></trkpt>
    <trkpt lat="45.8946113535322" lon="-122.92897313024872"><ele>117.0</ele></trkpt>
    <trkpt lat="45.89474202459336" lon="-122.92902127221862"><ele>117.6</ele></trkpt>
    <trkpt lat="45.89482913863414" lon="-122.92905336686522"><ele>118.0</ele></trkpt>
    <trkpt lat="45.894914510394095" lon="-122.92908481961888"><ele>118.5</ele></trkpt>
    <trkpt lat="45.89517585251642" lon="-122.92918110355869"><ele>120.1</ele></trkpt>
    <trkpt lat="45.8952" lon="-122.92919"><ele>120.2</ele></trkpt>
    <trkpt lat="45.89530840153494" lon="-122.92921658905574"><ele>120.8</ele></trkpt>
    <trkpt lat="45.89544048976333" lon="-122.92924898805515"><ele>121.5</ele></trkpt>
    <trkpt lat="45.89566122780945" lon="-122.92930313134951"><ele>122.5</ele></trkpt>
    <trkpt lat="45.89579420253601" lon="-122.92933574779187"><ele>123.2</ele></trkpt>
    <trkpt lat="45.89614614231235" lon="-122.92942207264267"><ele>125.1</ele></trkpt>
    <trkpt lat="45.896260000000005" lon="-122.92945000000002"><ele>125.8</ele></trkpt>
    <trkpt lat="45.89641362037601" lon="-122.92947066238978"><ele>126.6</ele></trkpt>
    <trkpt lat="45.89668134736752" lon="-122.92950667245296"><ele>128.0</ele></trkpt>
    <trkpt lat="45.896949074359036" lon="-122.92954268251614"><ele>129.5</ele></trkpt>
    <trkpt lat="45.89703861515888" lon="-122.92955472601554"><ele>130.0</ele></trkpt>
    <trkpt lat="45.897127260550704" lon="-122.92956664907993"><ele>130.4</ele></trkpt>
    <trkpt lat="45.8973511125503" lon="-122.9295967578284"><ele>131.3</ele></trkpt>
    <trkpt lat="45.89743975794214" lon="-122.92960868089281"><ele>131.6</ele></trkpt>
    <trkpt lat="45.89748452834206" lon="-122.92961470264251"><ele>131.8</ele></trkpt>
    <trkpt lat="45.89797" lon="-122.92968"><ele>133.1</ele></trkpt>
    <trkpt lat="45.89797498029978" lon="-122.9296823164185"><ele>133.1</ele></trkpt>
    <trkpt lat="45.89806054177873" lon="-122.92972211245524"><ele>133.3</ele></trkpt>
    <trkpt lat="45.89810246690343" lon="-122.92974161251324"><ele>133.4</ele></trkpt>
    <trkpt lat="45.898188028382386" lon="-122.92978140854996"><ele>133.5</ele></trkpt>
    <trkpt lat="45.89827358986135" lon="-122.92982120458669"><ele>133.6</ele></trkpt>
    <trkpt lat="45.89835829572552" lon="-122.92986060266304"><ele>133.6</ele></trkpt>
    <trkpt lat="45.8984" lon="-122.92988000000001"><ele>133.6</ele></trkpt>
    <trkpt lat="45.89852654511282" lon="-122.92995170889728"><ele>133.6</ele></trkpt>
    <trkpt lat="45.89860937019536" lon="-122.92999864311071"><ele>133.6</ele></trkpt>
    <trkpt lat="45.89885868205999" lon="-122.930139919834"><ele>133.7</ele></trkpt>
    <trkpt lat="45.89894234375953" lon="-122.9301873281304"><ele>133.8</ele></trkpt>
    <trkpt lat="45.899" lon="-122.93022"><ele>133.9</ele></trkpt>
    <trkpt lat="45.899028829772774" lon="-122.930221695869"><ele>134.0</ele></trkpt>
    <trkpt lat="45.89911778817914" lon="-122.93022692871642"><ele>134.2</ele></trkpt>
    <trkpt lat="45.899170000000005" lon="-122.93023000000001"><ele>134.4</ele></trkpt>
    <trkpt lat="45.89931000000001" lon="-122.93022"><ele>134.9</ele></trkpt>
    <trkpt lat="45.899380294024155" lon="-122.930176742139"><ele>135.2</ele></trkpt>
    <trkpt lat="45.899440000000006" lon="-122.93014000000001"><ele>135.4</ele></trkpt>
    <trkpt lat="45.89959285642519" lon="-122.92994598992189"><ele>136.0</ele></trkpt>
    <trkpt lat="45.89969396173414" lon="-122.92981766395283"><ele>136.3</ele></trkpt>
    <trkpt lat="45.8997" lon="-122.92981"><ele>136.3</ele></trkpt>
    <trkpt lat="45.899769964999194" lon="-122.92975402800064"><ele>136.5</ele></trkpt>
    <trkpt lat="45.89984382607674" lon="-122.92969493913861"><ele>136.7</ele></trkpt>
    <trkpt lat="45.89984696910131" lon="-122.92969242471895"><ele>135.8</ele></trkpt>
    <trkpt lat="45.89985" lon="-122.92969000000001"><ele>137.0</ele></trkpt>
    <trkpt lat="45.899928272734925" lon="-122.92968440909037"><ele>137.0</ele></trkpt>
    <trkpt lat="45.899973183402516" lon="-122.92968120118555"><ele>137.0</ele></trkpt>
    <trkpt lat="45.89999" lon="-122.92968"><ele>137.0</ele></trkpt>
    <trkpt lat="45.90001733923735" lon="-122.92968950929995"><ele>137.1</ele></trkpt>
    <trkpt lat="45.900061043243085" lon="-122.92970471069324"><ele>137.2</ele></trkpt>
    <trkpt lat="45.90014757717443" lon="-122.92973480945199"><ele>137.6</ele></trkpt>
    <trkpt lat="45.90019040710004" lon="-122.92974970681742"><ele>137.8</ele></trkpt>
    <trkpt lat="45.900220000000004" lon="-122.92976000000002"><ele>138.0</ele></trkpt>
    <trkpt lat="45.90027506331863" lon="-122.92979233877445"><ele>138.3</ele></trkpt>
    <trkpt lat="45.90048151762009" lon="-122.9299135897134"><ele>139.8</ele></trkpt>
    <trkpt lat="45.90056393284527" lon="-122.92996199230595"><ele>140.3</ele></trkpt>
    <trkpt lat="45.90064634807045" lon="-122.93001039489852"><ele>140.9</ele></trkpt>
    <trkpt lat="45.90072876329563" lon="-122.93005879749109"><ele>141.3</ele></trkpt>
    <trkpt lat="45.900850000000005" lon="-122.93013"><ele>141.9</ele></trkpt>
    <trkpt lat="45.90096916276355" lon="-122.93022721172818"><ele>142.5</ele></trkpt>
    <trkpt lat="45.90108569280423" lon="-122.9303222757087"><ele>143.1</ele></trkpt>
    <trkpt lat="45.901230000000005" lon="-122.93044"><ele>143.9</ele></trkpt>
    <trkpt lat="45.90150022932796" lon="-122.93069736126472"><ele>145.6</ele></trkpt>
    <trkpt lat="45.901650000000004" lon="-122.93084"><ele>146.3</ele></trkpt>
    <trkpt lat="45.90177047786261" lon="-122.93091885823735"><ele>146.9</ele></trkpt>
    <trkpt lat="45.90185232004594" lon="-122.93097242766643"><ele>147.3</ele></trkpt>
    <trkpt lat="45.90197262805541" lon="-122.93105117472717"><ele>148.0</ele></trkpt>
    <trkpt lat="45.90221733618354" lon="-122.93121134732013"><ele>149.6</ele></trkpt>
    <trkpt lat="45.90229835994502" lon="-122.93126438105492"><ele>150.1</ele></trkpt>
    <trkpt lat="45.90242030479816" lon="-122.93134419950425"><ele>150.7</ele></trkpt>
    <trkpt lat="45.90274521826594" lon="-122.9315568701377"><ele>152.2</ele></trkpt>
    <trkpt lat="45.902750000000005" lon="-122.93156"><ele>152.3</ele></trkpt>
    <trkpt lat="45.902874444709695" lon="-122.93173230805958"><ele>153.1</ele></trkpt>
    <trkpt lat="45.90288" lon="-122.93174"><ele>153.1</ele></trkpt>
    <trkpt lat="45.90296" lon="-122.93197"><ele>154.7</ele></trkpt>
    <trkpt lat="45.902987871330154" lon="-122.93221155152794"><ele>156.1</ele></trkpt>
    <trkpt lat="45.90299" lon="-122.93223"><ele>156.2</ele></trkpt>
    <trkpt lat="45.90298003597082" lon="-122.93233960432102"><ele>156.9</ele></trkpt>
    <trkpt lat="45.90297" lon="-122.93245000000002"><ele>157.4</ele></trkpt>
    <trkpt lat="45.90295314508568" lon="-122.93252753260586"><ele>157.8</ele></trkpt>
    <trkpt lat="45.90292" lon="-122.93268"><ele>158.6</ele></trkpt>
    <trkpt lat="45.902832896512415" lon="-122.93278294048532"><ele>159.4</ele></trkpt>
    <trkpt lat="45.90281" lon="-122.93281"><ele>159.6</ele></trkpt>
    <trkpt lat="45.902761253313" lon="-122.932858746687"><ele>160.1</ele></trkpt>
    <trkpt lat="45.90261435556368" lon="-122.93300564443632"><ele>161.5</ele></trkpt>
    <trkpt lat="45.90254053759919" lon="-122.93307946240081"><ele>162.2</ele></trkpt>
    <trkpt lat="45.90254" lon="-122.93308"><ele>162.2</ele></trkpt>
    <trkpt lat="45.90242394851977" lon="-122.93317171810534"><ele>163.4</ele></trkpt>
    <trkpt lat="45.90234514759465" lon="-122.93323399625584"><ele>164.2</ele></trkpt>
    <trkpt lat="45.902148933291116" lon="-122.93338906885057"><ele>165.9</ele></trkpt>
    <trkpt lat="45.902070132366" lon="-122.93345134700107"><ele>166.7</ele></trkpt>
    <trkpt lat="45.901920000000004" lon="-122.93357"><ele>168.2</ele></trkpt>
    <trkpt lat="45.90187910639697" lon="-122.93361543733673"><ele>168.7</ele></trkpt>
    <trkpt lat="45.901830000000004" lon="-122.93367"><ele>169.2</ele></trkpt>
    <trkpt lat="45.90180775459088" lon="-122.93369409919325"><ele>169.4</ele></trkpt>
    <trkpt lat="45.90171" lon="-122.9338"><ele>170.4</ele></trkpt>
    <trkpt lat="45.90167277290933" lon="-122.93386115879184"><ele>170.9</ele></trkpt>
    <trkpt lat="45.90158455120839" lon="-122.93400609444338"><ele>171.9</ele></trkpt>
  </trkseg></trk>
</gpx>
