<?xml version="1.0" encoding="UTF-8"?>
<gpx version="1.1" creator="h2c-tracker" xmlns="http://www.topografix.com/GPX/1/1">
  <metadata><name>Hood to Coast 2026 — Leg 21 (5.06 mi)</name><desc>Derived from the official Hood to Coast Strava route (simplified, 477 points, ~5.12 mi). Verify against the official leg map PDF.</desc></metadata>
  <wpt lat="45.890835970610155" lon="-122.99745422659993"><name>Exchange 20 — Pittsburgh Rd</name></wpt>
  <wpt lat="45.94556913106773" lon="-123.04353795323235"><name>Exchange 21 — Pittsburgh Rd gravel section (GPS pin)</name></wpt>
  <trk><name>HTC Leg 21</name><trkseg>
    <trkpt lat="45.890835970610155" lon="-122.99745422659993"><ele>304.1</ele></trkpt>
    <trkpt lat="45.890867887354766" lon="-122.99764253539311"><ele>303.9</ele></trkpt>
    <trkpt lat="45.890889165184504" lon="-122.99776807458856"><ele>303.8</ele></trkpt>
    <trkpt lat="45.89092" lon="-122.99795"><ele>303.5</ele></trkpt>
    <trkpt lat="45.89092163986359" lon="-122.99795472280714"><ele>303.5</ele></trkpt>
    <trkpt lat="45.89100152996795" lon="-122.99818480630769"><ele>303.0</ele></trkpt>
    <trkpt lat="45.89104207720685" lon="-122.99830158235572"><ele>302.8</ele></trkpt>
    <trkpt lat="45.89117" lon="-122.99867"><ele>302.2</ele></trkpt>
    <trkpt lat="45.89117329939659" lon="-122.99870893287975"><ele>302.2</ele></trkpt>
    <trkpt lat="45.89121677782748" lon="-122.9992219783642"><ele>301.4</ele></trkpt>
    <trkpt lat="45.891220000000004" lon="-122.99926"><ele>301.3</ele></trkpt>
    <trkpt lat="45.89121" lon="-122.9993"><ele>301.3</ele></trkpt>
    <trkpt lat="45.89124" lon="-122.9993"><ele>301.2</ele></trkpt>
    <trkpt lat="45.891241827517305" lon="-122.99930303100432"><ele>301.2</ele></trkpt>
    <trkpt lat="45.891300711458186" lon="-122.99940069217455"><ele>301.1</ele></trkpt>
    <trkpt lat="45.89150680525127" lon="-122.9997425062704"><ele>300.7</ele></trkpt>
    <trkpt lat="45.891594542323176" lon="-122.99988802141405"><ele>300.5</ele></trkpt>
    <trkpt lat="45.891650000000006" lon="-122.99998000000001"><ele>300.4</ele></trkpt>
    <trkpt lat="45.8916934234441" lon="-123.00001618620342"><ele>300.3</ele></trkpt>
    <trkpt lat="45.89184901096226" lon="-123.00014584246856"><ele>299.9</ele></trkpt>
    <trkpt lat="45.89196570160088" lon="-123.0002430846674"><ele>299.7</ele></trkpt>
    <trkpt lat="45.892041939484784" lon="-123.00030661623731"><ele>299.5</ele></trkpt>
    <trkpt lat="45.892070000000004" lon="-123.00033"><ele>299.4</ele></trkpt>
    <trkpt lat="45.89243792012212" lon="-123.00041949408377"><ele>298.4</ele></trkpt>
    <trkpt lat="45.892525703908916" lon="-123.00044084689677"><ele>298.2</ele></trkpt>
    <trkpt lat="45.89261437440063" lon="-123.00046241539475"><ele>298.0</ele></trkpt>
    <trkpt lat="45.89292472112164" lon="-123.00053790513769"><ele>297.5</ele></trkpt>
    <trkpt lat="45.89323418113773" lon="-123.00061317919567"><ele>296.9</ele></trkpt>
    <trkpt lat="45.893322851629435" lon="-123.00063474769365"><ele>296.7</ele></trkpt>
    <trkpt lat="45.89349930590795" lon="-123.00067766900463"><ele>296.5</ele></trkpt>
    <trkpt lat="45.893898323120666" lon="-123.00077472724558"><ele>296.1</ele></trkpt>
    <trkpt lat="45.89392" lon="-123.00078"><ele>296.1</ele></trkpt>
    <trkpt lat="45.89401941946476" lon="-123.00085414332966"><ele>295.9</ele></trkpt>
    <trkpt lat="45.894139150553315" lon="-123.00094343431095"><ele>295.7</ele></trkpt>
    <trkpt lat="45.89425888164186" lon="-123.00103272529223"><ele>295.5</ele></trkpt>
    <trkpt lat="45.894510000000004" lon="-123.00122"><ele>294.7</ele></trkpt>
    <trkpt lat="45.894539215612404" lon="-123.00123460780621"><ele>294.7</ele></trkpt>
    <trkpt lat="45.89462415200317" lon="-123.00127707600159"><ele>294.5</ele></trkpt>
    <trkpt lat="45.89466662019856" lon="-123.00129831009929"><ele>294.4</ele></trkpt>
    <trkpt lat="45.8947940247847" lon="-123.00136201239236"><ele>294.2</ele></trkpt>
    <trkpt lat="45.894870000000004" lon="-123.0014"><ele>294.2</ele></trkpt>
    <trkpt lat="45.89501107814096" lon="-123.0014376208376"><ele>294.0</ele></trkpt>
    <trkpt lat="45.89502" lon="-123.00144000000002"><ele>294.0</ele></trkpt>
    <trkpt lat="45.89518485008087" lon="-123.00150415786933"><ele>293.8</ele></trkpt>
    <trkpt lat="45.895315056598285" lon="-123.00155483283825"><ele>293.7</ele></trkpt>
    <trkpt lat="45.89548779724471" lon="-123.00162206163037"><ele>293.4</ele></trkpt>
    <trkpt lat="45.895574601589665" lon="-123.00165584494302"><ele>293.3</ele></trkpt>
    <trkpt lat="45.89570480810707" lon="-123.00170651991195"><ele>293.1</ele></trkpt>
    <trkpt lat="45.896137961788334" lon="-123.00187509864196"><ele>292.8</ele></trkpt>
    <trkpt lat="45.89631157047822" lon="-123.0019426652672"><ele>292.6</ele></trkpt>
    <trkpt lat="45.896397506779714" lon="-123.0019761107467"><ele>292.5</ele></trkpt>
    <trkpt lat="45.89661451764207" lon="-123.00206056902827"><ele>292.1</ele></trkpt>
    <trkpt lat="45.89670132198701" lon="-123.00209435234089"><ele>292.0</ele></trkpt>
    <trkpt lat="45.89683152850442" lon="-123.00214502730982"><ele>291.8</ele></trkpt>
    <trkpt lat="45.89687000000001" lon="-123.00216"><ele>291.8</ele></trkpt>
    <trkpt lat="45.896910362475026" lon="-123.00220036247504"><ele>291.8</ele></trkpt>
    <trkpt lat="45.8971" lon="-123.00239"><ele>291.4</ele></trkpt>
    <trkpt lat="45.89718565396964" lon="-123.0025279980622"><ele>291.2</ele></trkpt>
    <trkpt lat="45.89727484410133" lon="-123.00267169327438"><ele>291.0</ele></trkpt>
    <trkpt lat="45.89730477367573" lon="-123.00271991314423"><ele>291.0</ele></trkpt>
    <trkpt lat="45.89736463282452" lon="-123.00281635288394"><ele>291.0</ele></trkpt>
    <trkpt lat="45.89746" lon="-123.00297"><ele>290.9</ele></trkpt>
    <trkpt lat="45.89763678206448" lon="-123.00314946058063"><ele>290.9</ele></trkpt>
    <trkpt lat="45.89785640015927" lon="-123.0033724062223"><ele>290.7</ele></trkpt>
    <trkpt lat="45.89803855831147" lon="-123.00355732434649"><ele>290.7</ele></trkpt>
    <trkpt lat="45.898120000000006" lon="-123.00364"><ele>290.7</ele></trkpt>
    <trkpt lat="45.898430000000005" lon="-123.00382"><ele>290.6</ele></trkpt>
    <trkpt lat="45.89844309972325" lon="-123.00382620513207"><ele>290.6</ele></trkpt>
    <trkpt lat="45.89869762501727" lon="-123.00394676974501"><ele>290.5</ele></trkpt>
    <trkpt lat="45.898825741776" lon="-123.00400745663075"><ele>290.4</ele></trkpt>
    <trkpt lat="45.898910298836775" lon="-123.00404750997532"><ele>290.3</ele></trkpt>
    <trkpt lat="45.89920752971703" lon="-123.00418830355018"><ele>289.7</ele></trkpt>
    <trkpt lat="45.899292940889524" lon="-123.00422876147398"><ele>289.5</ele></trkpt>
    <trkpt lat="45.899590171769795" lon="-123.00436955504885"><ele>289.1</ele></trkpt>
    <trkpt lat="45.899760140003046" lon="-123.00445006631723"><ele>289.0</ele></trkpt>
    <trkpt lat="45.89988740265005" lon="-123.00451034862371"><ele>288.9</ele></trkpt>
    <trkpt lat="45.899950000000004" lon="-123.00454"><ele>288.9</ele></trkpt>
    <trkpt lat="45.90009654455629" lon="-123.00462495336598"><ele>288.8</ele></trkpt>
    <trkpt lat="45.900262512741705" lon="-123.00472116680679"><ele>288.7</ele></trkpt>
    <trkpt lat="45.90034591383991" lon="-123.00476951526952"><ele>288.7</ele></trkpt>
    <trkpt lat="45.90051188202533" lon="-123.00486572871034"><ele>288.8</ele></trkpt>
    <trkpt lat="45.90059444911254" lon="-123.00491359368843"><ele>288.8</ele></trkpt>
    <trkpt lat="45.90064" lon="-123.00494"><ele>288.7</ele></trkpt>
    <trkpt lat="45.90070569862838" lon="-123.00501925548821"><ele>288.7</ele></trkpt>
    <trkpt lat="45.90091095658628" lon="-123.00526686826282"><ele>288.4</ele></trkpt>
    <trkpt lat="45.9010824640746" lon="-123.00547376618525"><ele>288.1</ele></trkpt>
    <trkpt lat="45.90121953230823" lon="-123.0056391183401"><ele>287.8</ele></trkpt>
    <trkpt lat="45.901270000000004" lon="-123.0057"><ele>287.7</ele></trkpt>
    <trkpt lat="45.90133309141041" lon="-123.00573685537836"><ele>287.6</ele></trkpt>
    <trkpt lat="45.90166467173168" lon="-123.00593055081356"><ele>286.8</ele></trkpt>
    <trkpt lat="45.90178880607306" lon="-123.00600306493376"><ele>286.5</ele></trkpt>
    <trkpt lat="45.90195459623369" lon="-123.00609991265137"><ele>286.3</ele></trkpt>
    <trkpt lat="45.90212038639432" lon="-123.00619676036897"><ele>286.2</ele></trkpt>
    <trkpt lat="45.902203698032835" lon="-123.00624542756374"><ele>286.2</ele></trkpt>
    <trkpt lat="45.902280000000005" lon="-123.00629"><ele>286.2</ele></trkpt>
    <trkpt lat="45.90238465406649" lon="-123.0065103243505"><ele>286.2</ele></trkpt>
    <trkpt lat="45.90241000461682" lon="-123.00656369393013"><ele>286.2</ele></trkpt>
    <trkpt lat="45.902460705717466" lon="-123.0066704330894"><ele>286.1</ele></trkpt>
    <trkpt lat="45.902586444447074" lon="-123.00693514620437"><ele>285.8</ele></trkpt>
    <trkpt lat="45.902660000000004" lon="-123.00709"><ele>285.6</ele></trkpt>
    <trkpt lat="45.90269372504521" lon="-123.00714007658227"><ele>285.5</ele></trkpt>
    <trkpt lat="45.90275626782471" lon="-123.00723294313366"><ele>285.4</ele></trkpt>
    <trkpt lat="45.9028188106042" lon="-123.00732580968503"><ele>285.3</ele></trkpt>
    <trkpt lat="45.9028807279559" lon="-123.00741774757088"><ele>285.2</ele></trkpt>
    <trkpt lat="45.90303645947685" lon="-123.00764898528382"><ele>285.0</ele></trkpt>
    <trkpt lat="45.90312964821831" lon="-123.00778735644536"><ele>284.8</ele></trkpt>
    <trkpt lat="45.90328537973926" lon="-123.0080185941583"><ele>284.5</ele></trkpt>
    <trkpt lat="45.90332" lon="-123.00807"><ele>284.4</ele></trkpt>
    <trkpt lat="45.9034009994115" lon="-123.00810313612288"><ele>284.2</ele></trkpt>
    <trkpt lat="45.903917379412846" lon="-123.00831438248707"><ele>283.1</ele></trkpt>
    <trkpt lat="45.90404625817365" lon="-123.0083671056165"><ele>282.9</ele></trkpt>
    <trkpt lat="45.90426163274707" lon="-123.00845521339653"><ele>282.6</ele></trkpt>
    <trkpt lat="45.904605886081306" lon="-123.00859604430599"><ele>282.0</ele></trkpt>
    <trkpt lat="45.904734764842104" lon="-123.0086487674354"><ele>281.8</ele></trkpt>
    <trkpt lat="45.90507901817634" lon="-123.00878959834488"><ele>281.6</ele></trkpt>
    <trkpt lat="45.905080000000005" lon="-123.00879"><ele>281.6</ele></trkpt>
    <trkpt lat="45.905208507620806" lon="-123.00883913526678"><ele>281.5</ele></trkpt>
    <trkpt lat="45.90533887084143" lon="-123.0088889800276"><ele>281.3</ele></trkpt>
    <trkpt lat="45.90542577965519" lon="-123.00892220986816"><ele>281.1</ele></trkpt>
    <trkpt lat="45.90568650609644" lon="-123.00902189938982"><ele>280.4</ele></trkpt>
    <trkpt lat="45.90576" lon="-123.00905000000002"><ele>280.3</ele></trkpt>
    <trkpt lat="45.90581650080919" lon="-123.0090736457131"><ele>280.1</ele></trkpt>
    <trkpt lat="45.90603236494104" lon="-123.00916398532777"><ele>279.8</ele></trkpt>
    <trkpt lat="45.90633457472564" lon="-123.00929046078828"><ele>279.3</ele></trkpt>
    <trkpt lat="45.90646409320475" lon="-123.00934466455706"><ele>279.2</ele></trkpt>
    <trkpt lat="45.90667995733659" lon="-123.0094350041717"><ele>279.0</ele></trkpt>
    <trkpt lat="45.907369859102" lon="-123.00972372958014"><ele>278.4</ele></trkpt>
    <trkpt lat="45.907499377581104" lon="-123.00977793334891"><ele>278.3</ele></trkpt>
    <trkpt lat="45.9078015873657" lon="-123.00990440880945"><ele>278.1</ele></trkpt>
    <trkpt lat="45.908030000000004" lon="-123.01"><ele>278.0</ele></trkpt>
    <trkpt lat="45.908351682369464" lon="-123.01018568657099"><ele>277.8</ele></trkpt>
    <trkpt lat="45.90872721910249" lon="-123.01040245980712"><ele>277.6</ele></trkpt>
    <trkpt lat="45.90893585062083" lon="-123.01052288938276"><ele>277.5</ele></trkpt>
    <trkpt lat="45.909101921309436" lon="-123.01061875132496"><ele>277.4</ele></trkpt>
    <trkpt lat="45.90926" lon="-123.01071"><ele>277.3</ele></trkpt>
    <trkpt lat="45.909304865667025" lon="-123.01075441247846"><ele>277.3</ele></trkpt>
    <trkpt lat="45.909378929909465" lon="-123.01082772859725"><ele>277.2</ele></trkpt>
    <trkpt lat="45.909638154758014" lon="-123.01108433501298"><ele>277.2</ele></trkpt>
    <trkpt lat="45.909897379606576" lon="-123.01134094142874"><ele>277.0</ele></trkpt>
    <trkpt lat="45.91004550809146" lon="-123.0114875736663"><ele>277.0</ele></trkpt>
    <trkpt lat="45.91023066869757" lon="-123.01167086396326"><ele>276.9</ele></trkpt>
    <trkpt lat="45.910250000000005" lon="-123.01169000000002"><ele>276.9</ele></trkpt>
    <trkpt lat="45.910311368915075" lon="-123.01172666194927"><ele>276.9</ele></trkpt>
    <trkpt lat="45.91047745691263" lon="-123.01182588335041"><ele>277.0</ele></trkpt>
    <trkpt lat="45.91068506690959" lon="-123.01194991010183"><ele>277.2</ele></trkpt>
    <trkpt lat="45.91080963290777" lon="-123.0120243261527"><ele>277.3</ele></trkpt>
    <trkpt lat="45.91093336846596" lon="-123.01209824609656"><ele>277.3</ele></trkpt>
    <trkpt lat="45.91102" lon="-123.01215"><ele>277.3</ele></trkpt>
    <trkpt lat="45.911135107186325" lon="-123.01223992748933"><ele>277.3</ele></trkpt>
    <trkpt lat="45.91125362779914" lon="-123.0123325217181"><ele>277.3</ele></trkpt>
    <trkpt lat="45.9115301758957" lon="-123.01254857491853"><ele>277.1</ele></trkpt>
    <trkpt lat="45.91164869650851" lon="-123.01264116914729"><ele>277.0</ele></trkpt>
    <trkpt lat="45.91180672399226" lon="-123.01276462811896"><ele>277.0</ele></trkpt>
    <trkpt lat="45.91204376521789" lon="-123.01294981657648"><ele>277.0</ele></trkpt>
    <trkpt lat="45.912320313314446" lon="-123.01316586977691"><ele>276.8</ele></trkpt>
    <trkpt lat="45.912620000000004" lon="-123.0134"><ele>276.7</ele></trkpt>
    <trkpt lat="45.912650000000006" lon="-123.01349"><ele>276.7</ele></trkpt>
    <trkpt lat="45.91268303218777" lon="-123.01351766110032"><ele>276.7</ele></trkpt>
    <trkpt lat="45.91283766666997" lon="-123.01364715176429"><ele>276.6</ele></trkpt>
    <trkpt lat="45.91307000692213" lon="-123.01384171311366"><ele>276.6</ele></trkpt>
    <trkpt lat="45.91326349428931" lon="-123.01400373912031"><ele>276.5</ele></trkpt>
    <trkpt lat="45.91353468742644" lon="-123.01423083581238"><ele>276.2</ele></trkpt>
    <trkpt lat="45.913880000000006" lon="-123.01452"><ele>275.9</ele></trkpt>
    <trkpt lat="45.914123289275636" lon="-123.01481235602029"><ele>275.6</ele></trkpt>
    <trkpt lat="45.91422678278293" lon="-123.01493672216773"><ele>275.4</ele></trkpt>
    <trkpt lat="45.91429508849775" lon="-123.01501880382504"><ele>275.3</ele></trkpt>
    <trkpt lat="45.914639376898705" lon="-123.01543252854214"><ele>274.4</ele></trkpt>
    <trkpt lat="45.914707682613525" lon="-123.01551461019943"><ele>274.2</ele></trkpt>
    <trkpt lat="45.91477667828505" lon="-123.01559752096439"><ele>274.1</ele></trkpt>
    <trkpt lat="45.91491397967141" lon="-123.01576251338665"><ele>273.9</ele></trkpt>
    <trkpt lat="45.91507000000001" lon="-123.01595"><ele>273.8</ele></trkpt>
    <trkpt lat="45.915113966390734" lon="-123.01601984983043"><ele>273.8</ele></trkpt>
    <trkpt lat="45.91520447020919" lon="-123.01616363412266"><ele>273.7</ele></trkpt>
    <trkpt lat="45.9154150424268" lon="-123.01649817224259"><ele>273.3</ele></trkpt>
    <trkpt lat="45.91556527876544" lon="-123.01673685416768"><ele>273.0</ele></trkpt>
    <trkpt lat="45.9156853471646" lon="-123.01692760799537"><ele>272.8</ele></trkpt>
    <trkpt lat="45.915805415563746" lon="-123.01711836182305"><ele>272.6</ele></trkpt>
    <trkpt lat="45.91595625526117" lon="-123.01735800231009"><ele>272.3</ele></trkpt>
    <trkpt lat="45.91616622412" lon="-123.01769158186805"><ele>271.9</ele></trkpt>
    <trkpt lat="45.91622655999897" lon="-123.01778743806288"><ele>271.8</ele></trkpt>
    <trkpt lat="45.91631" lon="-123.01792"><ele>271.7</ele></trkpt>
    <trkpt lat="45.91632005893111" lon="-123.01792447063606"><ele>271.7</ele></trkpt>
    <trkpt lat="45.9164" lon="-123.01796000000002"><ele>271.7</ele></trkpt>
    <trkpt lat="45.91659826593064" lon="-123.01823237504064"><ele>271.6</ele></trkpt>
    <trkpt lat="45.916760151558655" lon="-123.01845477131603"><ele>271.5</ele></trkpt>
    <trkpt lat="45.91685767302131" lon="-123.0185887449759"><ele>271.4</ele></trkpt>
    <trkpt lat="45.9171164299689" lon="-123.0189442217534"><ele>271.1</ele></trkpt>
    <trkpt lat="45.91744085136802" lon="-123.0193899074619"><ele>270.6</ele></trkpt>
    <trkpt lat="45.91763524415025" lon="-123.0196569616239"><ele>270.4</ele></trkpt>
    <trkpt lat="45.91769960831561" lon="-123.01974538423941"><ele>270.3</ele></trkpt>
    <trkpt lat="45.917862144086705" lon="-123.01996867367251"><ele>270.2</ele></trkpt>
    <trkpt lat="45.91795901540628" lon="-123.02010175417465"><ele>270.2</ele></trkpt>
    <trkpt lat="45.918056536868946" lon="-123.02023572783452"><ele>270.2</ele></trkpt>
    <trkpt lat="45.918218422496956" lon="-123.0204581241099"><ele>270.3</ele></trkpt>
    <trkpt lat="45.918315293816526" lon="-123.02059120461203"><ele>270.4</ele></trkpt>
    <trkpt lat="45.91846" lon="-123.02079"><ele>270.3</ele></trkpt>
    <trkpt lat="45.91869312686531" lon="-123.0210443202167"><ele>270.3</ele></trkpt>
    <trkpt lat="45.91876476472703" lon="-123.02112247061132"><ele>270.4</ele></trkpt>
    <trkpt lat="45.91890732407185" lon="-123.02127798989656"><ele>270.4</ele></trkpt>
    <trkpt lat="45.91908641872616" lon="-123.02147336588308"><ele>270.5</ele></trkpt>
    <trkpt lat="45.91912000000001" lon="-123.02151"><ele>270.4</ele></trkpt>
    <trkpt lat="45.919312729894074" lon="-123.02167922624845"><ele>270.3</ele></trkpt>
    <trkpt lat="45.919504597483346" lon="-123.02184769535123"><ele>270.2</ele></trkpt>
    <trkpt lat="45.91953" lon="-123.02187"><ele>270.2</ele></trkpt>
    <trkpt lat="45.91972239068929" lon="-123.02190764165661"><ele>270.0</ele></trkpt>
    <trkpt lat="45.9199888314256" lon="-123.02195977136589"><ele>269.9</ele></trkpt>
    <trkpt lat="45.919990000000006" lon="-123.02196"><ele>269.9</ele></trkpt>
    <trkpt lat="45.92011768451458" lon="-123.02190742402342"><ele>269.9</ele></trkpt>
    <trkpt lat="45.92033000000001" lon="-123.02182"><ele>270.0</ele></trkpt>
    <trkpt lat="45.920361307734915" lon="-123.02176592300333"><ele>270.0</ele></trkpt>
    <trkpt lat="45.92044760023606" lon="-123.02161687231956"><ele>270.0</ele></trkpt>
    <trkpt lat="45.92064837412205" lon="-123.02127008106194"><ele>269.9</ele></trkpt>
    <trkpt lat="45.92082038384099" lon="-123.02097297336559"><ele>269.8</ele></trkpt>
    <trkpt lat="45.920880000000004" lon="-123.02087000000002"><ele>269.8</ele></trkpt>
    <trkpt lat="45.921063333628624" lon="-123.02069345650577"><ele>269.7</ele></trkpt>
    <trkpt lat="45.92113805060278" lon="-123.02062150682697"><ele>269.8</ele></trkpt>
    <trkpt lat="45.921150000000004" lon="-123.02061"><ele>269.8</ele></trkpt>
    <trkpt lat="45.92135132324067" lon="-123.02052643186235"><ele>269.9</ele></trkpt>
    <trkpt lat="45.92168" lon="-123.02039"><ele>269.9</ele></trkpt>
    <trkpt lat="45.92174168349608" lon="-123.02038865905445"><ele>270.0</ele></trkpt>
    <trkpt lat="45.921966488383354" lon="-123.02038377199167"><ele>270.0</ele></trkpt>
    <trkpt lat="45.922140000000006" lon="-123.02038000000002"><ele>269.9</ele></trkpt>
    <trkpt lat="45.922185722328415" lon="-123.02041048155229"><ele>269.9</ele></trkpt>
    <trkpt lat="45.9222673081717" lon="-123.02046487211447"><ele>269.9</ele></trkpt>
    <trkpt lat="45.922410000000006" lon="-123.02056"><ele>270.0</ele></trkpt>
    <trkpt lat="45.92264027548615" lon="-123.02091260933817"><ele>270.1</ele></trkpt>
    <trkpt lat="45.922946815211986" lon="-123.02138199829335"><ele>270.4</ele></trkpt>
    <trkpt lat="45.9230391464547" lon="-123.02152338050877"><ele>270.4</ele></trkpt>
    <trkpt lat="45.92322319339853" lon="-123.0218052023915"><ele>270.3</ele></trkpt>
    <trkpt lat="45.92343801742325" lon="-123.02213415167937"><ele>270.1</ele></trkpt>
    <trkpt lat="45.92369" lon="-123.02252000000001"><ele>269.7</ele></trkpt>
    <trkpt lat="45.92390008331827" lon="-123.02258906848822"><ele>269.5</ele></trkpt>
    <trkpt lat="45.92416221322749" lon="-123.02267524818438"><ele>269.4</ele></trkpt>
    <trkpt lat="45.924420000000005" lon="-123.02276"><ele>269.1</ele></trkpt>
    <trkpt lat="45.92450947718031" lon="-123.02280319588016"><ele>269.0</ele></trkpt>
    <trkpt lat="45.92472175887316" lon="-123.02290567669739"><ele>268.7</ele></trkpt>
    <trkpt lat="45.925000000000004" lon="-123.02304000000001"><ele>268.4</ele></trkpt>
    <trkpt lat="45.925016955896" lon="-123.02305841971436"><ele>268.3</ele></trkpt>
    <trkpt lat="45.9251956158929" lon="-123.02325250359588"><ele>268.0</ele></trkpt>
    <trkpt lat="45.92526736689568" lon="-123.02333044892984"><ele>267.9</ele></trkpt>
    <trkpt lat="45.92537427588981" lon="-123.02344658747741"><ele>267.8</ele></trkpt>
    <trkpt lat="45.925517777895365" lon="-123.02360247814534"><ele>267.7</ele></trkpt>
    <trkpt lat="45.92558952889813" lon="-123.02368042347928"><ele>267.7</ele></trkpt>
    <trkpt lat="45.925660562390874" lon="-123.02375758935987"><ele>267.7</ele></trkpt>
    <trkpt lat="45.92594684889195" lon="-123.02406859124233"><ele>267.9</ele></trkpt>
    <trkpt lat="45.926090350897496" lon="-123.02422448191022"><ele>268.0</ele></trkpt>
    <trkpt lat="45.92634076189717" lon="-123.0244965111257"><ele>268.1</ele></trkpt>
    <trkpt lat="45.926390000000005" lon="-123.02455"><ele>268.1</ele></trkpt>
    <trkpt lat="45.92657890122395" lon="-123.02467233603075"><ele>268.1</ele></trkpt>
    <trkpt lat="45.926901968491215" lon="-123.02488156054669"><ele>267.8</ele></trkpt>
    <trkpt lat="45.92702332370837" lon="-123.02496015249685"><ele>267.7</ele></trkpt>
    <trkpt lat="45.92714385895783" lon="-123.0250382134203"><ele>267.5</ele></trkpt>
    <trkpt lat="45.927305392591464" lon="-123.02514282567829"><ele>267.2</ele></trkpt>
    <trkpt lat="45.9274267478086" lon="-123.02522141762843"><ele>267.0</ele></trkpt>
    <trkpt lat="45.927440000000004" lon="-123.02523000000001"><ele>266.9</ele></trkpt>
    <trkpt lat="45.92751446536207" lon="-123.02523318001548"><ele>266.9</ele></trkpt>
    <trkpt lat="45.92773560113317" lon="-123.02524262353595"><ele>266.7</ele></trkpt>
    <trkpt lat="45.92782459479715" lon="-123.02524642397711"><ele>266.6</ele></trkpt>
    <trkpt lat="45.927957635830175" lon="-123.02525210544471"><ele>266.4</ele></trkpt>
    <trkpt lat="45.92817877160128" lon="-123.02526154896518"><ele>265.9</ele></trkpt>
    <trkpt lat="45.92835586000334" lon="-123.02526911145922"><ele>265.5</ele></trkpt>
    <trkpt lat="45.92844485366732" lon="-123.02527291190039"><ele>265.4</ele></trkpt>
    <trkpt lat="45.928532948405405" lon="-123.02527667395327"><ele>265.2</ele></trkpt>
    <trkpt lat="45.92871003680746" lon="-123.0252842364473"><ele>265.0</ele></trkpt>
    <trkpt lat="45.92884307784048" lon="-123.0252899179149"><ele>264.9</ele></trkpt>
    <trkpt lat="45.92893207150446" lon="-123.02529371835607"><ele>264.9</ele></trkpt>
    <trkpt lat="45.92897611887351" lon="-123.0252955993825"><ele>264.9</ele></trkpt>
    <trkpt lat="45.92910915990653" lon="-123.0253012808501"><ele>265.0</ele></trkpt>
    <trkpt lat="45.92928624830859" lon="-123.02530884334413"><ele>265.2</ele></trkpt>
    <trkpt lat="45.929374343046675" lon="-123.025312605397"><ele>265.2</ele></trkpt>
    <trkpt lat="45.929463336710654" lon="-123.02531640583817"><ele>265.2</ele></trkpt>
    <trkpt lat="45.92959727666957" lon="-123.02532212569407"><ele>265.3</ele></trkpt>
    <trkpt lat="45.929777061849336" lon="-123.025329803353"><ele>265.3</ele></trkpt>
    <trkpt lat="45.93018067957789" lon="-123.02534703969728"><ele>265.2</ele></trkpt>
    <trkpt lat="45.93025" lon="-123.02535"><ele>265.2</ele></trkpt>
    <trkpt lat="45.9304491123496" lon="-123.02538318539162"><ele>265.3</ele></trkpt>
    <trkpt lat="45.930490000000006" lon="-123.02539000000002"><ele>265.3</ele></trkpt>
    <trkpt lat="45.93058055278939" lon="-123.02542482799592"><ele>265.3</ele></trkpt>
    <trkpt lat="45.930620000000005" lon="-123.02544"><ele>265.3</ele></trkpt>
    <trkpt lat="45.93066414395155" lon="-123.0254709007661"><ele>265.3</ele></trkpt>
    <trkpt lat="45.93094633857143" lon="-123.02566843700001"><ele>265.1</ele></trkpt>
    <trkpt lat="45.931020000000004" lon="-123.02572"><ele>265.0</ele></trkpt>
    <trkpt lat="45.93116226695798" lon="-123.0258964110279"><ele>264.9</ele></trkpt>
    <trkpt lat="45.931270000000005" lon="-123.02603"><ele>264.8</ele></trkpt>
    <trkpt lat="45.93129582184946" lon="-123.02606929411876"><ele>264.8</ele></trkpt>
    <trkpt lat="45.931418729533924" lon="-123.02625632755162"><ele>264.7</ele></trkpt>
    <trkpt lat="45.93148049218943" lon="-123.0263503142013"><ele>264.7</ele></trkpt>
    <trkpt lat="45.93150000000001" lon="-123.02638"><ele>264.7</ele></trkpt>
    <trkpt lat="45.93169" lon="-123.02677000000001"><ele>264.7</ele></trkpt>
    <trkpt lat="45.931712375295376" lon="-123.0268263240194"><ele>264.7</ele></trkpt>
    <trkpt lat="45.93175653320935" lon="-123.02693748014767"><ele>264.7</ele></trkpt>
    <trkpt lat="45.93184574111636" lon="-123.02716203798258"><ele>264.6</ele></trkpt>
    <trkpt lat="45.93189034506987" lon="-123.02727431690002"><ele>264.6</ele></trkpt>
    <trkpt lat="45.93198" lon="-123.0275"><ele>264.6</ele></trkpt>
    <trkpt lat="45.93203865682338" lon="-123.02767178069703"><ele>264.6</ele></trkpt>
    <trkpt lat="45.93207829040268" lon="-123.02778785046497"><ele>264.6</ele></trkpt>
    <trkpt lat="45.932120000000005" lon="-123.02791"><ele>264.6</ele></trkpt>
    <trkpt lat="45.932154902709115" lon="-123.02809033066373"><ele>264.5</ele></trkpt>
    <trkpt lat="45.93218" lon="-123.02822"><ele>264.4</ele></trkpt>
    <trkpt lat="45.93223029356916" lon="-123.02859440768151"><ele>264.3</ele></trkpt>
    <trkpt lat="45.93227" lon="-123.02889"><ele>264.2</ele></trkpt>
    <trkpt lat="45.932290434406895" lon="-123.02897173762759"><ele>264.2</ele></trkpt>
    <trkpt lat="45.93232085494767" lon="-123.02909341979066"><ele>264.2</ele></trkpt>
    <trkpt lat="45.93234" lon="-123.02917000000001"><ele>264.1</ele></trkpt>
    <trkpt lat="45.93235504735218" lon="-123.02921276615882"><ele>264.1</ele></trkpt>
    <trkpt lat="45.93245572738132" lon="-123.02949890939954"><ele>263.8</ele></trkpt>
    <trkpt lat="45.932496730135114" lon="-123.02961544354191"><ele>263.8</ele></trkpt>
    <trkpt lat="45.93253000000001" lon="-123.02971000000001"><ele>263.8</ele></trkpt>
    <trkpt lat="45.932535256922435" lon="-123.0297320790742"><ele>263.8</ele></trkpt>
    <trkpt lat="45.93258" lon="-123.02992"><ele>263.8</ele></trkpt>
    <trkpt lat="45.93259367492524" lon="-123.03004307432712"><ele>263.8</ele></trkpt>
    <trkpt lat="45.932607862246414" lon="-123.03017076021769"><ele>263.8</ele></trkpt>
    <trkpt lat="45.93262000000001" lon="-123.03028"><ele>263.7</ele></trkpt>
    <trkpt lat="45.93261878705888" lon="-123.03029859843069"><ele>263.7</ele></trkpt>
    <trkpt lat="45.93261047491455" lon="-123.03042605131033"><ele>263.6</ele></trkpt>
    <trkpt lat="45.93260207880917" lon="-123.03055479159279"><ele>263.4</ele></trkpt>
    <trkpt lat="45.932590000000005" lon="-123.03074000000001"><ele>263.1</ele></trkpt>
    <trkpt lat="45.9326036888674" lon="-123.03080987026067"><ele>263.0</ele></trkpt>
    <trkpt lat="45.932628073204484" lon="-123.0309343319812"><ele>262.8</ele></trkpt>
    <trkpt lat="45.93270122621573" lon="-123.03130771714278"><ele>262.5</ele></trkpt>
    <trkpt lat="45.93276194321507" lon="-123.03161762682689"><ele>262.2</ele></trkpt>
    <trkpt lat="45.93279851972069" lon="-123.03180431940771"><ele>262.0</ele></trkpt>
    <trkpt lat="45.93281071188923" lon="-123.03186655026796"><ele>262.0</ele></trkpt>
    <trkpt lat="45.93283509622631" lon="-123.03199101198848"><ele>262.0</ele></trkpt>
    <trkpt lat="45.932968966236906" lon="-123.0326743068342"><ele>262.1</ele></trkpt>
    <trkpt lat="45.93300554274253" lon="-123.03286099941498"><ele>262.1</ele></trkpt>
    <trkpt lat="45.93307" lon="-123.03319"><ele>262.0</ele></trkpt>
    <trkpt lat="45.93307595219758" lon="-123.03323399450389"><ele>262.0</ele></trkpt>
    <trkpt lat="45.93313605593137" lon="-123.03367823949274"><ele>261.8</ele></trkpt>
    <trkpt lat="45.93315322842674" lon="-123.03380516663242"><ele>261.8</ele></trkpt>
    <trkpt lat="45.9331704009221" lon="-123.03393209377208"><ele>261.7</ele></trkpt>
    <trkpt lat="45.93321316043557" lon="-123.03424814234987"><ele>261.7</ele></trkpt>
    <trkpt lat="45.93323033293094" lon="-123.03437506948953"><ele>261.7</ele></trkpt>
    <trkpt lat="45.93326467792167" lon="-123.03462892376888"><ele>261.5</ele></trkpt>
    <trkpt lat="45.93329043666473" lon="-123.03481931447838"><ele>261.4</ele></trkpt>
    <trkpt lat="45.9333" lon="-123.03489"><ele>261.3</ele></trkpt>
    <trkpt lat="45.93335087728572" lon="-123.03498757287672"><ele>261.2</ele></trkpt>
    <trkpt lat="45.9334312579744" lon="-123.03514172762213"><ele>260.9</ele></trkpt>
    <trkpt lat="45.933538612048544" lon="-123.03534761214789"><ele>260.3</ele></trkpt>
    <trkpt lat="45.93361899273722" lon="-123.0355017668933"><ele>259.9</ele></trkpt>
    <trkpt lat="45.933699912893616" lon="-123.03565695623433"><ele>259.6</ele></trkpt>
    <trkpt lat="45.933888187124154" lon="-123.03601803010112"><ele>258.8</ele></trkpt>
    <trkpt lat="45.933941594427374" lon="-123.0361204550662"><ele>258.6</ele></trkpt>
    <trkpt lat="45.93403000000001" lon="-123.03629000000001"><ele>258.3</ele></trkpt>
    <trkpt lat="45.934060507252575" lon="-123.03630178002823"><ele>258.3</ele></trkpt>
    <trkpt lat="45.934190789409534" lon="-123.03635208699973"><ele>258.1</ele></trkpt>
    <trkpt lat="45.93445048517575" lon="-123.03645236556292"><ele>257.9</ele></trkpt>
    <trkpt lat="45.934839594551214" lon="-123.03660261571781"><ele>257.4</ele></trkpt>
    <trkpt lat="45.93504" lon="-123.03668"><ele>257.2</ele></trkpt>
    <trkpt lat="45.93508713335943" lon="-123.03673656003131"><ele>257.2</ele></trkpt>
    <trkpt lat="45.935156179323954" lon="-123.03681941518875"><ele>257.1</ele></trkpt>
    <trkpt lat="45.935225225288484" lon="-123.03690227034619"><ele>256.9</ele></trkpt>
    <trkpt lat="45.935340000000004" lon="-123.03704"><ele>256.6</ele></trkpt>
    <trkpt lat="45.93541452374471" lon="-123.03717414274048"><ele>256.4</ele></trkpt>
    <trkpt lat="45.93549815702089" lon="-123.0373246826376"><ele>256.2</ele></trkpt>
    <trkpt lat="45.93554" lon="-123.0374"><ele>256.1</ele></trkpt>
    <trkpt lat="45.935551781155176" lon="-123.03742821997636"><ele>256.1</ele></trkpt>
    <trkpt lat="45.93564388987816" lon="-123.03764885249885"><ele>255.9</ele></trkpt>
    <trkpt lat="45.9356901756686" lon="-123.03775972311314"><ele>255.8</ele></trkpt>
    <trkpt lat="45.93573599860114" lon="-123.03786948502133"><ele>255.6</ele></trkpt>
    <trkpt lat="45.9358054272868" lon="-123.03803579094281"><ele>255.2</ele></trkpt>
    <trkpt lat="45.93594382180023" lon="-123.0383672940796"><ele>254.4</ele></trkpt>
    <trkpt lat="45.935970000000005" lon="-123.03843"><ele>254.3</ele></trkpt>
    <trkpt lat="45.93608228976369" lon="-123.03851864981345"><ele>253.9</ele></trkpt>
    <trkpt lat="45.93616112154325" lon="-123.03858088542889"><ele>253.6</ele></trkpt>
    <trkpt lat="45.936239165005006" lon="-123.03864249868816"><ele>253.4</ele></trkpt>
    <trkpt lat="45.93631799678457" lon="-123.03870473430361"><ele>253.2</ele></trkpt>
    <trkpt lat="45.936435456136095" lon="-123.0387974653706"><ele>253.0</ele></trkpt>
    <trkpt lat="45.93651428791566" lon="-123.03885970098605"><ele>252.9</ele></trkpt>
    <trkpt lat="45.93654" lon="-123.03888"><ele>252.8</ele></trkpt>
    <trkpt lat="45.93664903719828" lon="-123.03902734756525"><ele>252.7</ele></trkpt>
    <trkpt lat="45.936780104436615" lon="-123.03920446545489"><ele>252.5</ele></trkpt>
    <trkpt lat="45.93684498271959" lon="-123.03929213881027"><ele>252.5</ele></trkpt>
    <trkpt lat="45.936910000000005" lon="-123.03938000000001"><ele>252.5</ele></trkpt>
    <trkpt lat="45.936930499525054" lon="-123.03943869042105"><ele>252.5</ele></trkpt>
    <trkpt lat="45.93699064041079" lon="-123.03961087460074"><ele>252.5</ele></trkpt>
    <trkpt lat="45.937031003421346" lon="-123.03972643445289"><ele>252.5</ele></trkpt>
    <trkpt lat="45.93713150731763" lon="-123.04001417848472"><ele>252.7</ele></trkpt>
    <trkpt lat="45.937211829708644" lon="-123.0402441425905"><ele>252.9</ele></trkpt>
    <trkpt lat="45.93727237422448" lon="-123.04041748236872"><ele>252.9</ele></trkpt>
    <trkpt lat="45.93735269661549" lon="-123.04064744647448"><ele>253.0</ele></trkpt>
    <trkpt lat="45.937413241131324" lon="-123.04082078625271"><ele>252.9</ele></trkpt>
    <trkpt lat="45.93747338201706" lon="-123.04099297043238"><ele>252.9</ele></trkpt>
    <trkpt lat="45.93753392653289" lon="-123.04116631021061"><ele>252.8</ele></trkpt>
    <trkpt lat="45.93759406741862" lon="-123.0413384943903"><ele>252.7</ele></trkpt>
    <trkpt lat="45.937634430429185" lon="-123.04145405424245"><ele>252.6</ele></trkpt>
    <trkpt lat="45.93764" lon="-123.04147"><ele>252.5</ele></trkpt>
    <trkpt lat="45.937827357120014" lon="-123.04180958478003"><ele>252.0</ele></trkpt>
    <trkpt lat="45.93791063904911" lon="-123.04196053327652"><ele>251.8</ele></trkpt>
    <trkpt lat="45.937960000000004" lon="-123.04205"><ele>251.7</ele></trkpt>
    <trkpt lat="45.93801011294178" lon="-123.04208422347243"><ele>251.7</ele></trkpt>
    <trkpt lat="45.938171772454865" lon="-123.04219462509113"><ele>251.5</ele></trkpt>
    <trkpt lat="45.93829281399984" lon="-123.04227728760965"><ele>251.4</ele></trkpt>
    <trkpt lat="45.938370000000006" lon="-123.04233"><ele>251.3</ele></trkpt>
    <trkpt lat="45.93841903002056" lon="-123.04233924336454"><ele>251.2</ele></trkpt>
    <trkpt lat="45.93864106123618" lon="-123.04238110170849"><ele>250.9</ele></trkpt>
    <trkpt lat="45.938863092451804" lon="-123.04242296005239"><ele>250.5</ele></trkpt>
    <trkpt lat="45.9389522616147" lon="-123.04243977063228"><ele>250.3</ele></trkpt>
    <trkpt lat="45.9393517394645" lon="-123.04251508203019"><ele>249.9</ele></trkpt>
    <trkpt lat="45.93959" lon="-123.04256000000001"><ele>249.9</ele></trkpt>
    <trkpt lat="45.93960776613429" lon="-123.04259055775098"><ele>250.0</ele></trkpt>
    <trkpt lat="45.93972255604464" lon="-123.04278799639678"><ele>250.0</ele></trkpt>
    <trkpt lat="45.939840000000004" lon="-123.04299"><ele>250.1</ele></trkpt>
    <trkpt lat="45.93989273226424" lon="-123.04322969211017"><ele>250.2</ele></trkpt>
    <trkpt lat="45.93991958680413" lon="-123.04335175820057"><ele>250.2</ele></trkpt>
    <trkpt lat="45.93995" lon="-123.04349"><ele>250.2</ele></trkpt>
    <trkpt lat="45.939940364322275" lon="-123.04360149855658"><ele>250.1</ele></trkpt>
    <trkpt lat="45.93988" lon="-123.0443"><ele>249.9</ele></trkpt>
    <trkpt lat="45.939841915357704" lon="-123.04442102452998"><ele>249.8</ele></trkpt>
    <trkpt lat="45.9397495956012" lon="-123.04471439620062"><ele>249.8</ele></trkpt>
    <trkpt lat="45.93971289015585" lon="-123.0448310379492"><ele>249.8</ele></trkpt>
    <trkpt lat="45.93963910850307" lon="-123.0450654996458"><ele>249.8</ele></trkpt>
    <trkpt lat="45.93958349419192" lon="-123.04524222956789"><ele>249.8</ele></trkpt>
    <trkpt lat="45.93950971253914" lon="-123.04547669126451"><ele>249.8</ele></trkpt>
    <trkpt lat="45.93943" lon="-123.04573"><ele>249.8</ele></trkpt>
    <trkpt lat="45.93943705803626" lon="-123.04596644421481"><ele>249.7</ele></trkpt>
    <trkpt lat="45.939446622841075" lon="-123.0462868651759"><ele>249.7</ele></trkpt>
    <trkpt lat="45.93945" lon="-123.0464"><ele>249.7</ele></trkpt>
    <trkpt lat="45.93959123343754" lon="-123.04702672337908"><ele>249.8</ele></trkpt>
    <trkpt lat="45.93961" lon="-123.04711"><ele>249.7</ele></trkpt>
    <trkpt lat="45.939958326206124" lon="-123.04747732581737"><ele>249.6</ele></trkpt>
    <trkpt lat="45.940160000000006" lon="-123.04769000000002"><ele>249.6</ele></trkpt>
    <trkpt lat="45.94017768996461" lon="-123.04769399450815"><ele>249.7</ele></trkpt>
    <trkpt lat="45.940443332255285" lon="-123.04775397825121"><ele>249.5</ele></trkpt>
    <trkpt lat="45.94066366432246" lon="-123.04780373065347"><ele>249.5</ele></trkpt>
    <trkpt lat="45.94075250789793" lon="-123.04782379210599"><ele>249.5</ele></trkpt>
    <trkpt lat="45.940780000000004" lon="-123.04783"><ele>249.5</ele></trkpt>
    <trkpt lat="45.94088610801525" lon="-123.04782478157303"><ele>249.6</ele></trkpt>
    <trkpt lat="45.940975987704" lon="-123.04782036126048"><ele>249.7</ele></trkpt>
    <trkpt lat="45.94106496859587" lon="-123.04781598515103"><ele>249.8</ele></trkpt>
    <trkpt lat="45.94115215189396" lon="-123.04781169744784"><ele>251.4</ele></trkpt>
    <trkpt lat="45.94119619294145" lon="-123.04780953149469"><ele>252.3</ele></trkpt>
    <trkpt lat="45.94123933519206" lon="-123.04780740974466"><ele>253.2</ele></trkpt>
    <trkpt lat="45.94132651849014" lon="-123.04780312204147"><ele>255.3</ele></trkpt>
    <trkpt lat="45.941390000000006" lon="-123.04780000000001"><ele>256.8</ele></trkpt>
    <trkpt lat="45.9414538750141" lon="-123.04776738297154"><ele>258.5</ele></trkpt>
    <trkpt lat="45.9415360805246" lon="-123.04772540568956"><ele>260.6</ele></trkpt>
    <trkpt lat="45.94161828603511" lon="-123.04768342840761"><ele>262.6</ele></trkpt>
    <trkpt lat="45.94182337607164" lon="-123.04757870158045"><ele>267.3</ele></trkpt>
    <trkpt lat="45.94183354582552" lon="-123.04757350851465"><ele>255.6</ele></trkpt>
    <trkpt lat="45.94190727654113" lon="-123.04753585878753"><ele>268.2</ele></trkpt>
    <trkpt lat="45.941949650515625" lon="-123.0475142210133"><ele>268.7</ele></trkpt>
    <trkpt lat="45.94199117701062" lon="-123.04749301599458"><ele>269.1</ele></trkpt>
    <trkpt lat="45.942032703505625" lon="-123.04747181097588"><ele>269.4</ele></trkpt>
    <trkpt lat="45.94211660397511" lon="-123.04742896818293"><ele>270.1</ele></trkpt>
    <trkpt lat="45.942199656965116" lon="-123.04738655814549"><ele>270.6</ele></trkpt>
    <trkpt lat="45.9422835574346" lon="-123.04734371535254"><ele>271.2</ele></trkpt>
    <trkpt lat="45.94236745790409" lon="-123.04730087255962"><ele>271.7</ele></trkpt>
    <trkpt lat="45.94249203738909" lon="-123.04723725750345"><ele>272.3</ele></trkpt>
    <trkpt lat="45.942742891318076" lon="-123.04710916188014"><ele>273.4</ele></trkpt>
    <trkpt lat="45.94295221875205" lon="-123.04700227127556"><ele>274.3</ele></trkpt>
    <trkpt lat="45.94324459917603" lon="-123.04685297063352"><ele>275.8</ele></trkpt>
    <trkpt lat="45.943270000000005" lon="-123.04684"><ele>275.9</ele></trkpt>
    <trkpt lat="45.94342842236637" lon="-123.04667827716769"><ele>276.8</ele></trkpt>
    <trkpt lat="45.943609557962446" lon="-123.04649336791334"><ele>277.8</ele></trkpt>
    <trkpt lat="45.94375" lon="-123.04635"><ele>278.6</ele></trkpt>
    <trkpt lat="45.943752882638904" lon="-123.04634423472221"><ele>278.6</ele></trkpt>
    <trkpt lat="45.94383058572107" lon="-123.04618882855789"><ele>279.1</ele></trkpt>
    <trkpt lat="45.943907763782406" lon="-123.0460344724352"><ele>279.6</ele></trkpt>
    <trkpt lat="45.9440127679475" lon="-123.04582446410502"><ele>280.3</ele></trkpt>
    <trkpt lat="45.94402" lon="-123.04581"><ele>280.3</ele></trkpt>
    <trkpt lat="45.944116152200195" lon="-123.04553756876614"><ele>281.0</ele></trkpt>
    <trkpt lat="45.94417720762324" lon="-123.04536457840081"><ele>281.5</ele></trkpt>
    <trkpt lat="45.944320000000005" lon="-123.04496"><ele>282.8</ele></trkpt>
    <trkpt lat="45.94439564340724" lon="-123.04489200592607"><ele>283.2</ele></trkpt>
    <trkpt lat="45.94462442690843" lon="-123.04468635783513"><ele>284.4</ele></trkpt>
    <trkpt lat="45.944738818659026" lon="-123.04458353378965"><ele>284.9</ele></trkpt>
    <trkpt lat="45.944815079826085" lon="-123.044514984426"><ele>285.2</ele></trkpt>
    <trkpt lat="45.94489134099315" lon="-123.04444643506234"><ele>285.5</ele></trkpt>
    <trkpt lat="45.94515825507787" lon="-123.04420651228956"><ele>286.3</ele></trkpt>
    <trkpt lat="45.94521" lon="-123.04416"><ele>286.5</ele></trkpt>
    <trkpt lat="45.945331884451" lon="-123.04391623109801"><ele>287.1</ele></trkpt>
    <trkpt lat="45.94539" lon="-123.0438"><ele>287.4</ele></trkpt>
    <trkpt lat="45.94540014636205" lon="-123.0437512974622"><ele>287.5</ele></trkpt>
    <trkpt lat="45.94543860500158" lon="-123.04356669599247"><ele>288.0</ele></trkpt>
    <trkpt lat="45.945440000000005" lon="-123.04356000000001"><ele>288.0</ele></trkpt>
    <trkpt lat="45.94556913106773" lon="-123.04353795323235"><ele>288.5</ele></trkpt>
  </trkseg></trk>
</gpx>
