<?xml version="1.0" encoding="UTF-8"?>
<gpx version="1.1" creator="h2c-tracker" xmlns="http://www.topografix.com/GPX/1/1">
  <metadata><name>Hood to Coast 2026 — Leg 3 (4.08 mi)</name><desc>Derived from the official Hood to Coast Strava route (simplified, 471 points, ~4.10 mi). Verify against the official leg map PDF.</desc></metadata>
  <wpt lat="45.30788951174709" lon="-121.85469104575137"><name>Exchange 2 — Rd 35 / HWY 26 (Government Camp)</name></wpt>
  <wpt lat="45.334990000000005" lon="-121.91893"><name>Exchange 3 — 9 Rd &amp; HWY 26 (Rhododendron)</name></wpt>
  <trk><name>HTC Leg 3</name><trkseg>
    <trkpt lat="45.30788951174709" lon="-121.85469104575137"><ele>697.8</ele></trkpt>
    <trkpt lat="45.30786036028357" lon="-121.85487701198417"><ele>697.2</ele></trkpt>
    <trkpt lat="45.307831013172645" lon="-121.85506422631248"><ele>696.5</ele></trkpt>
    <trkpt lat="45.30781144843202" lon="-121.8551890358647"><ele>696.0</ele></trkpt>
    <trkpt lat="45.307762732227886" lon="-121.85549981164972"><ele>694.6</ele></trkpt>
    <trkpt lat="45.307743167487274" lon="-121.85562462120194"><ele>694.1</ele></trkpt>
    <trkpt lat="45.307723602746655" lon="-121.85574943075414"><ele>693.6</ele></trkpt>
    <trkpt lat="45.307700000000004" lon="-121.8559"><ele>693.1</ele></trkpt>
    <trkpt lat="45.30769755753159" lon="-121.85600014120499"><ele>692.8</ele></trkpt>
    <trkpt lat="45.30769" lon="-121.85631000000001"><ele>691.8</ele></trkpt>
    <trkpt lat="45.30767772330409" lon="-121.85638015254807"><ele>691.5</ele></trkpt>
    <trkpt lat="45.307623434832585" lon="-121.85669037238523"><ele>690.5</ele></trkpt>
    <trkpt lat="45.30760171944399" lon="-121.8568144603201"><ele>690.1</ele></trkpt>
    <trkpt lat="45.30756936351497" lon="-121.85699935134305"><ele>689.3</ele></trkpt>
    <trkpt lat="45.307550000000006" lon="-121.85711"><ele>688.8</ele></trkpt>
    <trkpt lat="45.30754876971985" lon="-121.85712373812846"><ele>688.8</ele></trkpt>
    <trkpt lat="45.30752048466729" lon="-121.8574395878819"><ele>687.2</ele></trkpt>
    <trkpt lat="45.30750912520844" lon="-121.85756643517243"><ele>686.5</ele></trkpt>
    <trkpt lat="45.307503445479014" lon="-121.85762985881772"><ele>686.1</ele></trkpt>
    <trkpt lat="45.30749208602016" lon="-121.85775670610825"><ele>685.3</ele></trkpt>
    <trkpt lat="45.30749" lon="-121.85778"><ele>685.2</ele></trkpt>
    <trkpt lat="45.30749854305597" lon="-121.85801066251119"><ele>683.5</ele></trkpt>
    <trkpt lat="45.307500000000005" lon="-121.85805"><ele>683.2</ele></trkpt>
    <trkpt lat="45.30750527682317" lon="-121.85807336878833"><ele>683.1</ele></trkpt>
    <trkpt lat="45.307519022808535" lon="-121.85813424386636"><ele>682.7</ele></trkpt>
    <trkpt lat="45.307532768793905" lon="-121.85819511894442"><ele>682.4</ele></trkpt>
    <trkpt lat="45.30756026076464" lon="-121.85831686910052"><ele>681.8</ele></trkpt>
    <trkpt lat="45.307570000000005" lon="-121.85836"><ele>681.6</ele></trkpt>
    <trkpt lat="45.30759743255255" lon="-121.85843132463663"><ele>681.2</ele></trkpt>
    <trkpt lat="45.30767" lon="-121.85862000000002"><ele>680.4</ele></trkpt>
    <trkpt lat="45.30767839211055" lon="-121.85865890887621"><ele>680.3</ele></trkpt>
    <trkpt lat="45.3077176805817" lon="-121.85884106451518"><ele>679.6</ele></trkpt>
    <trkpt lat="45.30775723273387" lon="-121.85902444267522"><ele>679.0</ele></trkpt>
    <trkpt lat="45.30778" lon="-121.85913000000001"><ele>678.7</ele></trkpt>
    <trkpt lat="45.30778071154742" lon="-121.85914743291178"><ele>678.6</ele></trkpt>
    <trkpt lat="45.307785869943004" lon="-121.85927381360366"><ele>678.3</ele></trkpt>
    <trkpt lat="45.30779097623359" lon="-121.8593989177229"><ele>678.1</ele></trkpt>
    <trkpt lat="45.30779603041916" lon="-121.85952274526947"><ele>678.0</ele></trkpt>
    <trkpt lat="45.30779853145945" lon="-121.85958402075646"><ele>678.0</ele></trkpt>
    <trkpt lat="45.3078" lon="-121.85962"><ele>678.0</ele></trkpt>
    <trkpt lat="45.30779796463595" lon="-121.85964645973264"><ele>678.0</ele></trkpt>
    <trkpt lat="45.30779327119575" lon="-121.85970747445533"><ele>678.0</ele></trkpt>
    <trkpt lat="45.307788479975535" lon="-121.85976976031807"><ele>678.1</ele></trkpt>
    <trkpt lat="45.30778368875532" lon="-121.85983204618081"><ele>678.2</ele></trkpt>
    <trkpt lat="45.30778" lon="-121.85988"><ele>678.4</ele></trkpt>
    <trkpt lat="45.30777658206329" lon="-121.85989220691681"><ele>678.4</ele></trkpt>
    <trkpt lat="45.30776028233819" lon="-121.85995042022077"><ele>678.7</ele></trkpt>
    <trkpt lat="45.307728015535425" lon="-121.86006565880206"><ele>679.2</ele></trkpt>
    <trkpt lat="45.30771204845777" lon="-121.8601226840794"><ele>679.5</ele></trkpt>
    <trkpt lat="45.30769574873266" lon="-121.86018089738336"><ele>679.6</ele></trkpt>
    <trkpt lat="45.30767944900756" lon="-121.8602391106873"><ele>679.7</ele></trkpt>
    <trkpt lat="45.30766348192991" lon="-121.86029613596463"><ele>679.6</ele></trkpt>
    <trkpt lat="45.307647182204796" lon="-121.86035434926859"><ele>679.5</ele></trkpt>
    <trkpt lat="45.30761491540204" lon="-121.86046958784989"><ele>679.2</ele></trkpt>
    <trkpt lat="45.30755038179651" lon="-121.86070006501248"><ele>678.5</ele></trkpt>
    <trkpt lat="45.30751811499375" lon="-121.86081530359377"><ele>678.1</ele></trkpt>
    <trkpt lat="45.307500000000005" lon="-121.86088000000001"><ele>678.0</ele></trkpt>
    <trkpt lat="45.307500000000005" lon="-121.86093440029084"><ele>677.8</ele></trkpt>
    <trkpt lat="45.307500000000005" lon="-121.8611210925531"><ele>677.5</ele></trkpt>
    <trkpt lat="45.307500000000005" lon="-121.86122"><ele>677.3</ele></trkpt>
    <trkpt lat="45.307505475136274" lon="-121.86124389150375"><ele>677.3</ele></trkpt>
    <trkpt lat="45.30753250135339" lon="-121.86136182408754"><ele>677.1</ele></trkpt>
    <trkpt lat="45.30757401585186" lon="-121.86154297826266"><ele>676.8</ele></trkpt>
    <trkpt lat="45.307601599310566" lon="-121.8616633424461"><ele>676.6</ele></trkpt>
    <trkpt lat="45.307610000000004" lon="-121.86170000000001"><ele>676.5</ele></trkpt>
    <trkpt lat="45.307623284335534" lon="-121.86178729706204"><ele>676.3</ele></trkpt>
    <trkpt lat="45.307642112791214" lon="-121.86191102691367"><ele>676.0</ele></trkpt>
    <trkpt lat="45.30765162211226" lon="-121.86197351673773"><ele>675.8</ele></trkpt>
    <trkpt lat="45.307670640754374" lon="-121.86209849638584"><ele>675.3</ele></trkpt>
    <trkpt lat="45.307680000000005" lon="-121.86216"><ele>675.1</ele></trkpt>
    <trkpt lat="45.30766922840009" lon="-121.8624777621975"><ele>673.8</ele></trkpt>
    <trkpt lat="45.307664898789156" lon="-121.86260548572"><ele>673.4</ele></trkpt>
    <trkpt lat="45.307660612474336" lon="-121.86273193200726"><ele>673.0</ele></trkpt>
    <trkpt lat="45.307660000000006" lon="-121.86275"><ele>672.9</ele></trkpt>
    <trkpt lat="45.3076989824083" lon="-121.86304515251996"><ele>672.2</ele></trkpt>
    <trkpt lat="45.30770728170006" lon="-121.86310799001465"><ele>672.0</ele></trkpt>
    <trkpt lat="45.30771558099181" lon="-121.86317082750938"><ele>671.8</ele></trkpt>
    <trkpt lat="45.30773000000001" lon="-121.86328"><ele>671.3</ele></trkpt>
    <trkpt lat="45.3077301007247" lon="-121.86329551160216"><ele>671.3</ele></trkpt>
    <trkpt lat="45.30773133787453" lon="-121.8634860326762"><ele>670.4</ele></trkpt>
    <trkpt lat="45.30773340532626" lon="-121.86380442024293"><ele>668.9</ele></trkpt>
    <trkpt lat="45.30773505762704" lon="-121.8640588745633"><ele>667.6</ele></trkpt>
    <trkpt lat="45.30773588792894" lon="-121.86418674105596"><ele>667.0</ele></trkpt>
    <trkpt lat="45.30773629477687" lon="-121.86424939563734"><ele>666.7</ele></trkpt>
    <trkpt lat="45.307737125078766" lon="-121.86437726213"><ele>666.2</ele></trkpt>
    <trkpt lat="45.30773877737955" lon="-121.86463171645038"><ele>665.3</ele></trkpt>
    <trkpt lat="45.30774" lon="-121.86482000000001"><ele>664.7</ele></trkpt>
    <trkpt lat="45.307737336085694" lon="-121.86488606507483"><ele>664.5</ele></trkpt>
    <trkpt lat="45.30773218841437" lon="-121.86501372732367"><ele>664.0</ele></trkpt>
    <trkpt lat="45.30770917832355" lon="-121.86558437757607"><ele>661.9</ele></trkpt>
    <trkpt lat="45.307696360621954" lon="-121.86590225657572"><ele>660.7</ele></trkpt>
    <trkpt lat="45.30769" lon="-121.86606"><ele>660.1</ele></trkpt>
    <trkpt lat="45.30776246327192" lon="-121.8662592739978"><ele>659.3</ele></trkpt>
    <trkpt lat="45.307770000000005" lon="-121.86628"><ele>659.2</ele></trkpt>
    <trkpt lat="45.30780719306423" lon="-121.86636869115314"><ele>658.9</ele></trkpt>
    <trkpt lat="45.30782884017232" lon="-121.86642031118015"><ele>658.8</ele></trkpt>
    <trkpt lat="45.30785048728042" lon="-121.86647193120714"><ele>658.6</ele></trkpt>
    <trkpt lat="45.307900000000004" lon="-121.86659000000002"><ele>658.3</ele></trkpt>
    <trkpt lat="45.30791404656768" lon="-121.86663916298689"><ele>658.2</ele></trkpt>
    <trkpt lat="45.307930970778074" lon="-121.86669839772327"><ele>658.1</ele></trkpt>
    <trkpt lat="45.30794" lon="-121.86673"><ele>658.0</ele></trkpt>
    <trkpt lat="45.30794" lon="-121.86674000000001"><ele>658.0</ele></trkpt>
    <trkpt lat="45.30796391140043" lon="-121.86681515011563"><ele>657.7</ele></trkpt>
    <trkpt lat="45.30800098089966" lon="-121.86693165425608"><ele>657.3</ele></trkpt>
    <trkpt lat="45.30801" lon="-121.86696"><ele>657.2</ele></trkpt>
    <trkpt lat="45.308019848759734" lon="-121.86737364790852"><ele>655.7</ele></trkpt>
    <trkpt lat="45.30802289160188" lon="-121.86750144727912"><ele>655.2</ele></trkpt>
    <trkpt lat="45.30802590401562" lon="-121.86762796865602"><ele>654.6</ele></trkpt>
    <trkpt lat="45.3080274254367" lon="-121.86769186834132"><ele>654.2</ele></trkpt>
    <trkpt lat="45.30802894685778" lon="-121.86775576802664"><ele>653.8</ele></trkpt>
    <trkpt lat="45.30803" lon="-121.86780000000002"><ele>653.4</ele></trkpt>
    <trkpt lat="45.30807008042695" lon="-121.86793471476838"><ele>652.3</ele></trkpt>
    <trkpt lat="45.30808759970072" lon="-121.86799359899408"><ele>651.9</ele></trkpt>
    <trkpt lat="45.308104768589004" lon="-121.86805130553529"><ele>651.5</ele></trkpt>
    <trkpt lat="45.30812228786277" lon="-121.86811018976101"><ele>651.2</ele></trkpt>
    <trkpt lat="45.30813980713654" lon="-121.8681690739867"><ele>650.9</ele></trkpt>
    <trkpt lat="45.30815732641031" lon="-121.86822795821243"><ele>650.7</ele></trkpt>
    <trkpt lat="45.3082270531199" lon="-121.86846231743077"><ele>650.0</ele></trkpt>
    <trkpt lat="45.30831394871778" lon="-121.8687543831903"><ele>648.9</ele></trkpt>
    <trkpt lat="45.30836650653907" lon="-121.86893103586745"><ele>648.4</ele></trkpt>
    <trkpt lat="45.30839" lon="-121.86901"><ele>648.2</ele></trkpt>
    <trkpt lat="45.30840542167814" lon="-121.86904447198641"><ele>648.0</ele></trkpt>
    <trkpt lat="45.30842955600721" lon="-121.86909841931025"><ele>647.9</ele></trkpt>
    <trkpt lat="45.30852561063696" lon="-121.8693131296591"><ele>647.4</ele></trkpt>
    <trkpt lat="45.30859753093763" lon="-121.86947389268411"><ele>647.0</ele></trkpt>
    <trkpt lat="45.30866993392488" lon="-121.86963573465562"><ele>646.6</ele></trkpt>
    <trkpt lat="45.308717719896464" lon="-121.8697425503568"><ele>646.2</ele></trkpt>
    <trkpt lat="45.308730000000004" lon="-121.86977000000002"><ele>646.1</ele></trkpt>
    <trkpt lat="45.30879" lon="-121.87013"><ele>645.1</ele></trkpt>
    <trkpt lat="45.308772738758165" lon="-121.87023356745101"><ele>644.8</ele></trkpt>
    <trkpt lat="45.30871073217169" lon="-121.87060560696987"><ele>643.6</ele></trkpt>
    <trkpt lat="45.308670000000006" lon="-121.87085"><ele>642.7</ele></trkpt>
    <trkpt lat="45.30867011797999" lon="-121.87085330343977"><ele>642.7</ele></trkpt>
    <trkpt lat="45.308674633423045" lon="-121.87097973584522"><ele>642.3</ele></trkpt>
    <trkpt lat="45.30868" lon="-121.87113000000001"><ele>641.9</ele></trkpt>
    <trkpt lat="45.30870260994925" lon="-121.87122891852795"><ele>641.6</ele></trkpt>
    <trkpt lat="45.308757926275696" lon="-121.87147092745616"><ele>640.9</ele></trkpt>
    <trkpt lat="45.30876000000001" lon="-121.87148"><ele>640.9</ele></trkpt>
    <trkpt lat="45.30874" lon="-121.87175"><ele>640.1</ele></trkpt>
    <trkpt lat="45.308690000000006" lon="-121.87192"><ele>639.6</ele></trkpt>
    <trkpt lat="45.30869478935066" lon="-121.87196310415584"><ele>639.5</ele></trkpt>
    <trkpt lat="45.30870882352454" lon="-121.8720894117208"><ele>639.2</ele></trkpt>
    <trkpt lat="45.30877" lon="-121.87264"><ele>637.9</ele></trkpt>
    <trkpt lat="45.30875679915991" lon="-121.87278080896107"><ele>637.6</ele></trkpt>
    <trkpt lat="45.30874" lon="-121.87296"><ele>637.1</ele></trkpt>
    <trkpt lat="45.30871156411306" lon="-121.87302161108838"><ele>637.0</ele></trkpt>
    <trkpt lat="45.30866222176024" lon="-121.8731285195195"><ele>636.7</ele></trkpt>
    <trkpt lat="45.308620000000005" lon="-121.87322"><ele>636.4</ele></trkpt>
    <trkpt lat="45.308521443730044" lon="-121.87337330975328"><ele>636.0</ele></trkpt>
    <trkpt lat="45.30846076795213" lon="-121.8734676942967"><ele>635.6</ele></trkpt>
    <trkpt lat="45.308440000000004" lon="-121.8735"><ele>635.4</ele></trkpt>
    <trkpt lat="45.308391616983556" lon="-121.87354838301646"><ele>635.1</ele></trkpt>
    <trkpt lat="45.308330000000005" lon="-121.87361000000001"><ele>634.7</ele></trkpt>
    <trkpt lat="45.30826752037505" lon="-121.87380311884081"><ele>633.7</ele></trkpt>
    <trkpt lat="45.3082299357947" lon="-121.87391928936187"><ele>633.2</ele></trkpt>
    <trkpt lat="45.30819235121436" lon="-121.87403545988292"><ele>632.8</ele></trkpt>
    <trkpt lat="45.30813597434385" lon="-121.87420971566449"><ele>632.3</ele></trkpt>
    <trkpt lat="45.308110000000006" lon="-121.87429000000002"><ele>632.1</ele></trkpt>
    <trkpt lat="45.30805783446511" lon="-121.87450909524657"><ele>631.6</ele></trkpt>
    <trkpt lat="45.30801" lon="-121.87471000000001"><ele>631.1</ele></trkpt>
    <trkpt lat="45.30800447315278" lon="-121.87488133226412"><ele>630.6</ele></trkpt>
    <trkpt lat="45.30800035256388" lon="-121.87500907051982"><ele>630.4</ele></trkpt>
    <trkpt lat="45.30800000000001" lon="-121.87502"><ele>630.3</ele></trkpt>
    <trkpt lat="45.30800579103817" lon="-121.8752006803907"><ele>630.0</ele></trkpt>
    <trkpt lat="45.30800988526939" lon="-121.87532842040491"><ele>629.7</ele></trkpt>
    <trkpt lat="45.308013979500615" lon="-121.87545616041913"><ele>629.4</ele></trkpt>
    <trkpt lat="45.308024215078675" lon="-121.87577551045469"><ele>628.5</ele></trkpt>
    <trkpt lat="45.30803649777235" lon="-121.87615873049737"><ele>627.5</ele></trkpt>
    <trkpt lat="45.30804059200358" lon="-121.87628647051159"><ele>627.1</ele></trkpt>
    <trkpt lat="45.308042639119186" lon="-121.87635034051871"><ele>626.9</ele></trkpt>
    <trkpt lat="45.30805" lon="-121.87658"><ele>626.0</ele></trkpt>
    <trkpt lat="45.30807897534457" lon="-121.8767280962056"><ele>625.4</ele></trkpt>
    <trkpt lat="45.30810307860972" lon="-121.87685129067191"><ele>624.9</ele></trkpt>
    <trkpt lat="45.30812718187487" lon="-121.87697448513822"><ele>624.5</ele></trkpt>
    <trkpt lat="45.30814" lon="-121.87704000000001"><ele>624.3</ele></trkpt>
    <trkpt lat="45.30821485194274" lon="-121.87719310624652"><ele>623.8</ele></trkpt>
    <trkpt lat="45.3083175154475" lon="-121.87740309977897"><ele>623.1</ele></trkpt>
    <trkpt lat="45.30836" lon="-121.87749000000001"><ele>622.8</ele></trkpt>
    <trkpt lat="45.308366576984525" lon="-121.87750853513823"><ele>622.7</ele></trkpt>
    <trkpt lat="45.308386832138545" lon="-121.877565617845"><ele>622.5</ele></trkpt>
    <trkpt lat="45.30844719249751" lon="-121.87773572431117"><ele>621.6</ele></trkpt>
    <trkpt lat="45.30847000000001" lon="-121.87780000000001"><ele>621.4</ele></trkpt>
    <trkpt lat="45.30847839835384" lon="-121.87785458929997"><ele>621.2</ele></trkpt>
    <trkpt lat="45.3084880075624" lon="-121.8779170491556"><ele>621.0</ele></trkpt>
    <trkpt lat="45.308507033795344" lon="-121.87804071966971"><ele>620.6</ele></trkpt>
    <trkpt lat="45.308510000000005" lon="-121.87806"><ele>620.6</ele></trkpt>
    <trkpt lat="45.30851000000001" lon="-121.87816813743824"><ele>620.3</ele></trkpt>
    <trkpt lat="45.30851" lon="-121.87842260608329"><ele>619.8</ele></trkpt>
    <trkpt lat="45.308510000000005" lon="-121.87854920103737"><ele>619.5</ele></trkpt>
    <trkpt lat="45.308510000000005" lon="-121.87867707472836"><ele>619.1</ele></trkpt>
    <trkpt lat="45.308510000000005" lon="-121.87880366968244"><ele>618.7</ele></trkpt>
    <trkpt lat="45.308510000000005" lon="-121.879"><ele>618.0</ele></trkpt>
    <trkpt lat="45.30851379306456" lon="-121.87905917180707"><ele>617.8</ele></trkpt>
    <trkpt lat="45.30853762959798" lon="-121.87943102172838"><ele>616.5</ele></trkpt>
    <trkpt lat="45.30854979276058" lon="-121.87962076706494"><ele>615.9</ele></trkpt>
    <trkpt lat="45.3085537927268" lon="-121.87968316653803"><ele>615.6</ele></trkpt>
    <trkpt lat="45.30856000000001" lon="-121.87978000000001"><ele>615.4</ele></trkpt>
    <trkpt lat="45.30856000000001" lon="-121.8798"><ele>615.3</ele></trkpt>
    <trkpt lat="45.3085610040642" lon="-121.87981054267401"><ele>615.3</ele></trkpt>
    <trkpt lat="45.30857295169073" lon="-121.87993599275262"><ele>615.1</ele></trkpt>
    <trkpt lat="45.308597088309995" lon="-121.88018942725488"><ele>614.7</ele></trkpt>
    <trkpt lat="45.308600000000006" lon="-121.88022000000001"><ele>614.6</ele></trkpt>
    <trkpt lat="45.30862758187038" lon="-121.88030734258953"><ele>614.4</ele></trkpt>
    <trkpt lat="45.30864600091036" lon="-121.88036566954943"><ele>614.3</ele></trkpt>
    <trkpt lat="45.30866441995032" lon="-121.88042399650935"><ele>614.1</ele></trkpt>
    <trkpt lat="45.30871930868943" lon="-121.88059781084985"><ele>613.5</ele></trkpt>
    <trkpt lat="45.3087377277294" lon="-121.88065613780977"><ele>613.3</ele></trkpt>
    <trkpt lat="45.308780000000006" lon="-121.88079"><ele>612.9</ele></trkpt>
    <trkpt lat="45.308855575164635" lon="-121.88092387600592"><ele>612.5</ele></trkpt>
    <trkpt lat="45.308939454719194" lon="-121.88107246264542"><ele>611.9</ele></trkpt>
    <trkpt lat="45.309023334273746" lon="-121.88122104928493"><ele>611.3</ele></trkpt>
    <trkpt lat="45.30913" lon="-121.88141000000002"><ele>610.5</ele></trkpt>
    <trkpt lat="45.309151927515046" lon="-121.88147943713099"><ele>610.3</ele></trkpt>
    <trkpt lat="45.30918876584919" lon="-121.8815960918558"><ele>609.9</ele></trkpt>
    <trkpt lat="45.30919" lon="-121.8816"><ele>609.9</ele></trkpt>
    <trkpt lat="45.30919554808007" lon="-121.88172205776148"><ele>609.5</ele></trkpt>
    <trkpt lat="45.309200000000004" lon="-121.88182"><ele>609.3</ele></trkpt>
    <trkpt lat="45.30918048145229" lon="-121.88190946001035"><ele>609.0</ele></trkpt>
    <trkpt lat="45.30915410077402" lon="-121.88203037145243"><ele>608.7</ele></trkpt>
    <trkpt lat="45.30911439652086" lon="-121.8822123492794"><ele>608.3</ele></trkpt>
    <trkpt lat="45.30908801584259" lon="-121.88233326072147"><ele>608.0</ele></trkpt>
    <trkpt lat="45.30908" lon="-121.88237000000001"><ele>607.9</ele></trkpt>
    <trkpt lat="45.309043565362465" lon="-121.88244286927508"><ele>607.6</ele></trkpt>
    <trkpt lat="45.309020000000004" lon="-121.88249"><ele>607.4</ele></trkpt>
    <trkpt lat="45.308980000000005" lon="-121.88250000000001"><ele>607.2</ele></trkpt>
    <trkpt lat="45.30898364952639" lon="-121.88251115021046"><ele>607.2</ele></trkpt>
    <trkpt lat="45.30907775672708" lon="-121.88279867110538"><ele>606.0</ele></trkpt>
    <trkpt lat="45.309116082643484" lon="-121.88291576630854"><ele>605.5</ele></trkpt>
    <trkpt lat="45.30921056930868" lon="-121.88320444656188"><ele>604.5</ele></trkpt>
    <trkpt lat="45.30928608274794" lon="-121.88343515889288"><ele>603.7</ele></trkpt>
    <trkpt lat="45.30934300242578" lon="-121.88360906265996"><ele>603.2</ele></trkpt>
    <trkpt lat="45.30943748909098" lon="-121.88389774291332"><ele>602.4</ele></trkpt>
    <trkpt lat="45.30962684188591" lon="-121.88447626277849"><ele>601.0</ele></trkpt>
    <trkpt lat="45.309721328551106" lon="-121.88476494303184"><ele>600.3</ele></trkpt>
    <trkpt lat="45.309759275003" lon="-121.88488087887657"><ele>600.0</ele></trkpt>
    <trkpt lat="45.309929654571974" lon="-121.88540143081934"><ele>598.3</ele></trkpt>
    <trkpt lat="45.31004311446313" lon="-121.88574807899505"><ele>597.2</ele></trkpt>
    <trkpt lat="45.310099654676435" lon="-121.8859208234037"><ele>596.6</ele></trkpt>
    <trkpt lat="45.310287110148764" lon="-121.88649354647663"><ele>594.3</ele></trkpt>
    <trkpt lat="45.310418025407785" lon="-121.8868935251409"><ele>592.8</ele></trkpt>
    <trkpt lat="45.310586507654165" lon="-121.88740828029147"><ele>590.9</ele></trkpt>
    <trkpt lat="45.31067985592581" lon="-121.88769348246949"><ele>590.0</ele></trkpt>
    <trkpt lat="45.31073639613913" lon="-121.8878662268781"><ele>590.4</ele></trkpt>
    <trkpt lat="45.3107739631265" lon="-121.88798100336439"><ele>590.7</ele></trkpt>
    <trkpt lat="45.310790000000004" lon="-121.88803000000001"><ele>590.9</ele></trkpt>
    <trkpt lat="45.31062755539238" lon="-121.88815860198105"><ele>591.8</ele></trkpt>
    <trkpt lat="45.310550000000006" lon="-121.88822"><ele>591.1</ele></trkpt>
    <trkpt lat="45.310490753477524" lon="-121.88831156280749"><ele>590.4</ele></trkpt>
    <trkpt lat="45.310460916390674" lon="-121.888357674669"><ele>590.1</ele></trkpt>
    <trkpt lat="45.31044000000001" lon="-121.88839000000002"><ele>589.9</ele></trkpt>
    <trkpt lat="45.31044975221796" lon="-121.88840259661488"><ele>589.8</ele></trkpt>
    <trkpt lat="45.31049768112058" lon="-121.88846450478076"><ele>589.5</ele></trkpt>
    <trkpt lat="45.31054694138159" lon="-121.88852813261789"><ele>589.2</ele></trkpt>
    <trkpt lat="45.31061217794347" lon="-121.88861239651033"><ele>588.8</ele></trkpt>
    <trkpt lat="45.31067741450534" lon="-121.88869666040274"><ele>588.5</ele></trkpt>
    <trkpt lat="45.310680000000005" lon="-121.88870000000001"><ele>588.5</ele></trkpt>
    <trkpt lat="45.31069" lon="-121.88870000000001"><ele>588.5</ele></trkpt>
    <trkpt lat="45.31074206499913" lon="-121.88877243825968"><ele>588.3</ele></trkpt>
    <trkpt lat="45.310830772140136" lon="-121.88889585689063"><ele>588.3</ele></trkpt>
    <trkpt lat="45.31088926742877" lon="-121.88897724164005"><ele>588.3</ele></trkpt>
    <trkpt lat="45.31092" lon="-121.88902000000002"><ele>588.2</ele></trkpt>
    <trkpt lat="45.31093749609015" lon="-121.88907073866145"><ele>588.2</ele></trkpt>
    <trkpt lat="45.3110095552352" lon="-121.88927971018211"><ele>587.9</ele></trkpt>
    <trkpt lat="45.311048752242684" lon="-121.8893933815038"><ele>587.5</ele></trkpt>
    <trkpt lat="45.31106854871111" lon="-121.88945079126223"><ele>587.2</ele></trkpt>
    <trkpt lat="45.31112" lon="-121.88960000000002"><ele>586.3</ele></trkpt>
    <trkpt lat="45.31112296013438" lon="-121.88962269436354"><ele>586.2</ele></trkpt>
    <trkpt lat="45.311131160259464" lon="-121.88968556198924"><ele>585.9</ele></trkpt>
    <trkpt lat="45.31113919638206" lon="-121.88974717226245"><ele>585.7</ele></trkpt>
    <trkpt lat="45.31114739650716" lon="-121.88981003988816"><ele>585.5</ele></trkpt>
    <trkpt lat="45.311150000000005" lon="-121.88983"><ele>585.5</ele></trkpt>
    <trkpt lat="45.3111609440217" lon="-121.8898693984781"><ele>585.4</ele></trkpt>
    <trkpt lat="45.31120000000001" lon="-121.89001"><ele>585.3</ele></trkpt>
    <trkpt lat="45.311216604861734" lon="-121.89003988875112"><ele>585.3</ele></trkpt>
    <trkpt lat="45.31124447879323" lon="-121.8900900618278"><ele>585.2</ele></trkpt>
    <trkpt lat="45.311271795246086" lon="-121.89013923144296"><ele>585.0</ele></trkpt>
    <trkpt lat="45.3113" lon="-121.89019"><ele>584.8</ele></trkpt>
    <trkpt lat="45.311322516211554" lon="-121.8902429793213"><ele>584.6</ele></trkpt>
    <trkpt lat="45.311345773601786" lon="-121.89029770259243"><ele>584.4</ele></trkpt>
    <trkpt lat="45.31136856584422" lon="-121.89035133139816"><ele>584.3</ele></trkpt>
    <trkpt lat="45.31139182323446" lon="-121.8904060546693"><ele>584.3</ele></trkpt>
    <trkpt lat="45.31141461547689" lon="-121.89045968347503"><ele>584.3</ele></trkpt>
    <trkpt lat="45.31143787286713" lon="-121.89051440674618"><ele>584.3</ele></trkpt>
    <trkpt lat="45.31147000000001" lon="-121.89059"><ele>584.4</ele></trkpt>
    <trkpt lat="45.31149730831557" lon="-121.89068316954723"><ele>584.6</ele></trkpt>
    <trkpt lat="45.311514607092946" lon="-121.8907421889053"><ele>584.6</ele></trkpt>
    <trkpt lat="45.31153155989476" lon="-121.89080002787622"><ele>584.6</ele></trkpt>
    <trkpt lat="45.311548858672126" lon="-121.8908590472343"><ele>584.5</ele></trkpt>
    <trkpt lat="45.31156581147394" lon="-121.89091688620522"><ele>584.3</ele></trkpt>
    <trkpt lat="45.31158311025131" lon="-121.8909759055633"><ele>584.1</ele></trkpt>
    <trkpt lat="45.311640000000004" lon="-121.89117000000002"><ele>583.2</ele></trkpt>
    <trkpt lat="45.311695135536596" lon="-121.8913188659488"><ele>582.5</ele></trkpt>
    <trkpt lat="45.31174" lon="-121.89144"><ele>582.0</ele></trkpt>
    <trkpt lat="45.31176929914915" lon="-121.89154857919979"><ele>581.6</ele></trkpt>
    <trkpt lat="45.31180119430569" lon="-121.89166677889754"><ele>581.2</ele></trkpt>
    <trkpt lat="45.311864984618765" lon="-121.89190317829305"><ele>580.4</ele></trkpt>
    <trkpt lat="45.31188109328368" lon="-121.8919628751101"><ele>580.2</ele></trkpt>
    <trkpt lat="45.311910000000005" lon="-121.89207"><ele>579.8</ele></trkpt>
    <trkpt lat="45.31204" lon="-121.8923"><ele>578.8</ele></trkpt>
    <trkpt lat="45.312051545356326" lon="-121.89232822198215"><ele>578.6</ele></trkpt>
    <trkpt lat="45.312073703447226" lon="-121.89238238620433"><ele>578.4</ele></trkpt>
    <trkpt lat="45.312118471834964" lon="-121.89249182004102"><ele>577.9</ele></trkpt>
    <trkpt lat="45.31222" lon="-121.89274"><ele>576.5</ele></trkpt>
    <trkpt lat="45.31222248510118" lon="-121.89276982121417"><ele>576.4</ele></trkpt>
    <trkpt lat="45.312227670672215" lon="-121.89283204806651"><ele>576.1</ele></trkpt>
    <trkpt lat="45.31223296207122" lon="-121.8928955448546"><ele>575.9</ele></trkpt>
    <trkpt lat="45.31223814764225" lon="-121.89295777170693"><ele>575.7</ele></trkpt>
    <trkpt lat="45.31224" lon="-121.89298000000001"><ele>575.6</ele></trkpt>
    <trkpt lat="45.3122474420847" lon="-121.89302018725736"><ele>575.5</ele></trkpt>
    <trkpt lat="45.312270114246104" lon="-121.89314261692897"><ele>575.2</ele></trkpt>
    <trkpt lat="45.312290000000004" lon="-121.89325000000001"><ele>574.9</ele></trkpt>
    <trkpt lat="45.312369676327435" lon="-121.89356146200721"><ele>574.3</ele></trkpt>
    <trkpt lat="45.312400000000004" lon="-121.89368"><ele>573.9</ele></trkpt>
    <trkpt lat="45.31245597470467" lon="-121.89385222986051"><ele>573.5</ele></trkpt>
    <trkpt lat="45.31251218909236" lon="-121.89402519720724"><ele>573.0</ele></trkpt>
    <trkpt lat="45.31254953959156" lon="-121.89414012182019"><ele>572.6</ele></trkpt>
    <trkpt lat="45.31258651281299" lon="-121.89425388557845"><ele>572.2</ele></trkpt>
    <trkpt lat="45.31266" lon="-121.89448000000002"><ele>571.9</ele></trkpt>
    <trkpt lat="45.31271" lon="-121.89456000000001"><ele>571.7</ele></trkpt>
    <trkpt lat="45.31277" lon="-121.89453"><ele>571.6</ele></trkpt>
    <trkpt lat="45.312903353425" lon="-121.89437644151062"><ele>571.3</ele></trkpt>
    <trkpt lat="45.31300679125795" lon="-121.89425733127874"><ele>570.8</ele></trkpt>
    <trkpt lat="45.313100000000006" lon="-121.89415000000001"><ele>570.2</ele></trkpt>
    <trkpt lat="45.313163894424804" lon="-121.89426667677573"><ele>569.8</ele></trkpt>
    <trkpt lat="45.31338325612249" lon="-121.89466725031065"><ele>568.3</ele></trkpt>
    <trkpt lat="45.31346558582767" lon="-121.89481759151138"><ele>567.7</ele></trkpt>
    <trkpt lat="45.31360261782018" lon="-121.89506782384554"><ele>566.6</ele></trkpt>
    <trkpt lat="45.313712022394846" lon="-121.89526760611233"><ele>565.8</ele></trkpt>
    <trkpt lat="45.31376727723054" lon="-121.89536850624705"><ele>565.5</ele></trkpt>
    <trkpt lat="45.313876681805205" lon="-121.89556828851384"><ele>564.8</ele></trkpt>
    <trkpt lat="45.31395901151038" lon="-121.8957186297146"><ele>564.2</ele></trkpt>
    <trkpt lat="45.314020000000006" lon="-121.89583"><ele>563.7</ele></trkpt>
    <trkpt lat="45.31421578603925" lon="-121.89615834950331"><ele>562.3</ele></trkpt>
    <trkpt lat="45.31436002722624" lon="-121.896400253994"><ele>561.3</ele></trkpt>
    <trkpt lat="45.31444668826198" lon="-121.8965455917727"><ele>560.6</ele></trkpt>
    <trkpt lat="45.31456243018219" lon="-121.89673970061806"><ele>559.7</ele></trkpt>
    <trkpt lat="45.314620010333456" lon="-121.89683626733006"><ele>559.2</ele></trkpt>
    <trkpt lat="45.31476425152046" lon="-121.89707817182075"><ele>558.0</ele></trkpt>
    <trkpt lat="45.314850912556196" lon="-121.89722350959944"><ele>557.3</ele></trkpt>
    <trkpt lat="45.31493757359193" lon="-121.89736884737813"><ele>556.6</ele></trkpt>
    <trkpt lat="45.314980000000006" lon="-121.89744"><ele>556.4</ele></trkpt>
    <trkpt lat="45.31505839676725" lon="-121.89755466989835"><ele>555.9</ele></trkpt>
    <trkpt lat="45.31512108686101" lon="-121.8976463658564"><ele>555.5</ele></trkpt>
    <trkpt lat="45.31518315005384" lon="-121.89773714485487"><ele>555.2</ele></trkpt>
    <trkpt lat="45.315400684679204" lon="-121.8980553298293"><ele>554.2</ele></trkpt>
    <trkpt lat="45.31549409291891" lon="-121.89819195680677"><ele>553.9</ele></trkpt>
    <trkpt lat="45.31574297259116" lon="-121.8985559897602"><ele>553.1</ele></trkpt>
    <trkpt lat="45.315836380830866" lon="-121.89869261673769"><ele>552.9</ele></trkpt>
    <trkpt lat="45.31589907092463" lon="-121.89878431269574"><ele>552.7</ele></trkpt>
    <trkpt lat="45.31614795059688" lon="-121.89914834564917"><ele>552.3</ele></trkpt>
    <trkpt lat="45.316320000000005" lon="-121.89940000000001"><ele>551.7</ele></trkpt>
    <trkpt lat="45.31649962106283" lon="-121.8996353035923"><ele>551.2</ele></trkpt>
    <trkpt lat="45.31656510481697" lon="-121.89972108731024"><ele>551.0</ele></trkpt>
    <trkpt lat="45.316598177420076" lon="-121.89976441242031"><ele>550.9</ele></trkpt>
    <trkpt lat="45.31666432262629" lon="-121.89985106264044"><ele>550.5</ele></trkpt>
    <trkpt lat="45.31676287898353" lon="-121.89998017146843"><ele>550.0</ele></trkpt>
    <trkpt lat="45.316926919094925" lon="-121.90019506401435"><ele>549.0</ele></trkpt>
    <trkpt lat="45.31699240284907" lon="-121.90028084773228"><ele>548.6</ele></trkpt>
    <trkpt lat="45.31715710441252" lon="-121.90049660678041"><ele>547.8</ele></trkpt>
    <trkpt lat="45.31732" lon="-121.90071"><ele>546.9</ele></trkpt>
    <trkpt lat="45.31746288069667" lon="-121.90086690579574"><ele>546.2</ele></trkpt>
    <trkpt lat="45.317710588578436" lon="-121.90113892856161"><ele>544.9</ele></trkpt>
    <trkpt lat="45.317852237625765" lon="-121.90129448180988"><ele>544.2</ele></trkpt>
    <trkpt lat="45.31799317486883" lon="-121.90144925338356"><ele>543.4</ele></trkpt>
    <trkpt lat="45.31809994550753" lon="-121.90156650457575"><ele>542.8</ele></trkpt>
    <trkpt lat="45.318240882750594" lon="-121.90172127614943"><ele>541.9</ele></trkpt>
    <trkpt lat="45.31845300041946" lon="-121.90195421518456"><ele>540.6</ele></trkpt>
    <trkpt lat="45.31855905925389" lon="-121.90207068470212"><ele>540.0</ele></trkpt>
    <trkpt lat="45.31873629851412" lon="-121.90226532168116"><ele>539.0</ele></trkpt>
    <trkpt lat="45.318948416182984" lon="-121.90249826071629"><ele>537.9</ele></trkpt>
    <trkpt lat="45.31895" lon="-121.9025"><ele>537.9</ele></trkpt>
    <trkpt lat="45.319021426827135" lon="-121.90257071963083"><ele>537.5</ele></trkpt>
    <trkpt lat="45.31909523398975" lon="-121.90264379602945"><ele>537.2</ele></trkpt>
    <trkpt lat="45.319388248425334" lon="-121.90293390933202"><ele>536.0</ele></trkpt>
    <trkpt lat="45.31957202826024" lon="-121.9031158695646"><ele>535.2</ele></trkpt>
    <trkpt lat="45.31975507002352" lon="-121.9032970990332"><ele>534.4</ele></trkpt>
    <trkpt lat="45.319849543191665" lon="-121.90339063682345"><ele>534.1</ele></trkpt>
    <trkpt lat="45.31996" lon="-121.90350000000001"><ele>533.8</ele></trkpt>
    <trkpt lat="45.3199769096334" lon="-121.9035154392305"><ele>533.7</ele></trkpt>
    <trkpt lat="45.320190000000004" lon="-121.90371"><ele>532.8</ele></trkpt>
    <trkpt lat="45.32058356678448" lon="-121.90405096132318"><ele>531.1</ele></trkpt>
    <trkpt lat="45.32085007844724" lon="-121.90428185013994"><ele>530.1</ele></trkpt>
    <trkpt lat="45.32111735815515" lon="-121.90451340434234"><ele>528.9</ele></trkpt>
    <trkpt lat="45.321346235606164" lon="-121.90471168926277"><ele>528.0</ele></trkpt>
    <trkpt lat="45.3215367108003" lon="-121.90487670490126"><ele>527.1</ele></trkpt>
    <trkpt lat="45.32180322246306" lon="-121.905107593718"><ele>526.0</ele></trkpt>
    <trkpt lat="45.32199446570234" lon="-121.90527327474213"><ele>525.2</ele></trkpt>
    <trkpt lat="45.322210000000005" lon="-121.90546"><ele>524.8</ele></trkpt>
    <trkpt lat="45.32236281974747" lon="-121.90557804639175"><ele>524.5</ele></trkpt>
    <trkpt lat="45.3224410579951" lon="-121.90563848192437"><ele>524.3</ele></trkpt>
    <trkpt lat="45.32271607728978" lon="-121.90585092197833"><ele>523.3</ele></trkpt>
    <trkpt lat="45.323069334832105" lon="-121.90612379756493"><ele>521.9</ele></trkpt>
    <trkpt lat="45.32334356384147" lon="-121.906335627159"><ele>520.9</ele></trkpt>
    <trkpt lat="45.323696821383784" lon="-121.90660850274557"><ele>519.5</ele></trkpt>
    <trkpt lat="45.32388" lon="-121.90675000000002"><ele>518.7</ele></trkpt>
    <trkpt lat="45.323936429651226" lon="-121.9067770392079"><ele>518.5</ele></trkpt>
    <trkpt lat="45.32419040209265" lon="-121.90689873433607"><ele>517.5</ele></trkpt>
    <trkpt lat="45.324316536056834" lon="-121.90695917352724"><ele>517.0</ele></trkpt>
    <trkpt lat="45.32452960018554" lon="-121.90706126675559"><ele>516.3</ele></trkpt>
    <trkpt lat="45.32465658640625" lon="-121.90712211431966"><ele>515.9</ele></trkpt>
    <trkpt lat="45.32508015789411" lon="-121.9073250756576"><ele>514.6</ele></trkpt>
    <trkpt lat="45.325163679032556" lon="-121.90736509620311"><ele>514.4</ele></trkpt>
    <trkpt lat="45.32528981299675" lon="-121.90742553539428"><ele>514.0</ele></trkpt>
    <trkpt lat="45.325320000000005" lon="-121.90744000000001"><ele>513.9</ele></trkpt>
    <trkpt lat="45.32545083020912" lon="-121.90752994576877"><ele>513.5</ele></trkpt>
    <trkpt lat="45.32557066485356" lon="-121.90761233208683"><ele>513.0</ele></trkpt>
    <trkpt lat="45.32564353727247" lon="-121.90766243187483"><ele>512.7</ele></trkpt>
    <trkpt lat="45.32579090149738" lon="-121.90776374477946"><ele>512.1</ele></trkpt>
    <trkpt lat="45.3258" lon="-121.90777000000001"><ele>512.1</ele></trkpt>
    <trkpt lat="45.32586470699818" lon="-121.9078223162964"><ele>511.9</ele></trkpt>
    <trkpt lat="45.326048438124275" lon="-121.90797086486644"><ele>511.2</ele></trkpt>
    <trkpt lat="45.32620167770178" lon="-121.90809476069508"><ele>510.3</ele></trkpt>
    <trkpt lat="45.32627" lon="-121.90815"><ele>510.0</ele></trkpt>
    <trkpt lat="45.326505706517494" lon="-121.90835106377284"><ele>508.8</ele></trkpt>
    <trkpt lat="45.326657644449575" lon="-121.90848067076966"><ele>508.0</ele></trkpt>
    <trkpt lat="45.32673322778634" lon="-121.90854514531631"><ele>507.6</ele></trkpt>
    <trkpt lat="45.32680881112311" lon="-121.90860961986294"><ele>507.3</ele></trkpt>
    <trkpt lat="45.32696074905519" lon="-121.90873922685977"><ele>506.6</ele></trkpt>
    <trkpt lat="45.32718827032404" lon="-121.90893330840322"><ele>505.6</ele></trkpt>
    <trkpt lat="45.3272638536608" lon="-121.90899778294985"><ele>505.2</ele></trkpt>
    <trkpt lat="45.3273402082561" lon="-121.90906291540003"><ele>504.8</ele></trkpt>
    <trkpt lat="45.32758701098842" lon="-121.9092734445319"><ele>504.1</ele></trkpt>
    <trkpt lat="45.32789011559403" lon="-121.90953200062202"><ele>503.7</ele></trkpt>
    <trkpt lat="45.327920194677034" lon="-121.90955765885997"><ele>504.1</ele></trkpt>
    <trkpt lat="45.32803434094073" lon="-121.90965502858344"><ele>503.3</ele></trkpt>
    <trkpt lat="45.32814848720442" lon="-121.90975239830695"><ele>502.4</ele></trkpt>
    <trkpt lat="45.328262633468114" lon="-121.90984976803045"><ele>501.5</ele></trkpt>
    <trkpt lat="45.32833898806342" lon="-121.90991490048062"><ele>500.8</ele></trkpt>
    <trkpt lat="45.32848706970281" lon="-121.91004121795974"><ele>500.0</ele></trkpt>
    <trkpt lat="45.32870919216189" lon="-121.91023069417844"><ele>498.9</ele></trkpt>
    <trkpt lat="45.32885804505981" lon="-121.91035766956111"><ele>498.1</ele></trkpt>
    <trkpt lat="45.3290061266992" lon="-121.91048398704025"><ele>497.4</ele></trkpt>
    <trkpt lat="45.3295174711102" lon="-121.91092017708536"><ele>495.8</ele></trkpt>
    <trkpt lat="45.32974" lon="-121.91111000000001"><ele>494.8</ele></trkpt>
    <trkpt lat="45.32983728516968" lon="-121.91120331434645"><ele>494.4</ele></trkpt>
    <trkpt lat="45.33001101796851" lon="-121.91136995601062"><ele>493.6</ele></trkpt>
    <trkpt lat="45.33011316987168" lon="-121.91146793844837"><ele>493.2</ele></trkpt>
    <trkpt lat="45.33023" lon="-121.91158000000001"><ele>492.7</ele></trkpt>
    <trkpt lat="45.33034821937595" lon="-121.91170180178129"><ele>492.2</ele></trkpt>
    <trkpt lat="45.330525933242534" lon="-121.91188490091656"><ele>491.7</ele></trkpt>
    <trkpt lat="45.330560000000006" lon="-121.91192000000001"><ele>491.6</ele></trkpt>
    <trkpt lat="45.33072638124489" lon="-121.9121297850479"><ele>490.9</ele></trkpt>
    <trkpt lat="45.331056146824636" lon="-121.91254557643106"><ele>489.8</ele></trkpt>
    <trkpt lat="45.331250000000004" lon="-121.91279000000002"><ele>489.0</ele></trkpt>
    <trkpt lat="45.331407900425546" lon="-121.9130247168488"><ele>488.3</ele></trkpt>
    <trkpt lat="45.33159194457944" lon="-121.91329829599647"><ele>487.6</ele></trkpt>
    <trkpt lat="45.33162" lon="-121.91334"><ele>487.5</ele></trkpt>
    <trkpt lat="45.33179306336" lon="-121.91363588251872"><ele>486.7</ele></trkpt>
    <trkpt lat="45.33199150532178" lon="-121.91397515425983"><ele>485.8</ele></trkpt>
    <trkpt lat="45.33207663404741" lon="-121.91412069691978"><ele>485.4</ele></trkpt>
    <trkpt lat="45.332240000000006" lon="-121.91440000000001"><ele>484.6</ele></trkpt>
    <trkpt lat="45.332241667967736" lon="-121.91440298586816"><ele>484.6</ele></trkpt>
    <trkpt lat="45.33242910076623" lon="-121.91473851371731"><ele>483.7</ele></trkpt>
    <trkpt lat="45.332509668894524" lon="-121.91488274061366"><ele>483.3</ele></trkpt>
    <trkpt lat="45.33261653356471" lon="-121.91507404156647"><ele>482.9</ele></trkpt>
    <trkpt lat="45.3329779711403" lon="-121.91572105944871"><ele>481.4</ele></trkpt>
    <trkpt lat="45.333339968216784" lon="-121.91636907890658"><ele>480.0</ele></trkpt>
    <trkpt lat="45.3335318770224" lon="-121.91671261936109"><ele>479.5</ele></trkpt>
    <trkpt lat="45.333614123653376" lon="-121.91685985098445"><ele>479.3</ele></trkpt>
    <trkpt lat="45.3339985007655" lon="-121.91754793346911"><ele>478.4</ele></trkpt>
    <trkpt lat="45.33413613798469" lon="-121.91779432108373"><ele>478.2</ele></trkpt>
    <trkpt lat="45.33419096907201" lon="-121.91789247549929"><ele>478.0</ele></trkpt>
    <trkpt lat="45.334410852922176" lon="-121.91828609473724"><ele>477.3</ele></trkpt>
    <trkpt lat="45.33450708707544" lon="-121.91845836575233"><ele>476.9</ele></trkpt>
    <trkpt lat="45.33467" lon="-121.91875000000002"><ele>476.4</ele></trkpt>
    <trkpt lat="45.33468675783998" lon="-121.91877979171554"><ele>476.3</ele></trkpt>
    <trkpt lat="45.33474238403528" lon="-121.9188786827294"><ele>475.9</ele></trkpt>
    <trkpt lat="45.33479857211134" lon="-121.91897857264237"><ele>475.4</ele></trkpt>
    <trkpt lat="45.33485" lon="-121.91907"><ele>475.0</ele></trkpt>
    <trkpt lat="45.33491876991759" lon="-121.91900123008242"><ele>474.6</ele></trkpt>
    <trkpt lat="45.334990000000005" lon="-121.91893"><ele>474.1</ele></trkpt>
  </trkseg></trk>
</gpx>
