<?xml version="1.0" encoding="UTF-8"?>
<gpx version="1.1" creator="h2c-tracker" xmlns="http://www.topografix.com/GPX/1/1">
  <metadata><name>Hood to Coast 2026 — Leg 27 (6.36 mi)</name><desc>Derived from the official Hood to Coast Strava route (simplified, 560 points, ~6.34 mi). Verify against the official leg map PDF.</desc></metadata>
  <wpt lat="45.97569642800513" lon="-123.41672569622366"><name>Exchange 26 — HWY 202 (5.65 mi), Clatskanie</name></wpt>
  <wpt lat="45.933960000000006" lon="-123.50597"><name>Exchange 27 — Jewell - HWY 202</name></wpt>
  <trk><name>HTC Leg 27</name><trkseg>
    <trkpt lat="45.97569642800513" lon="-123.41672569622366"><ele>152.8</ele></trkpt>
    <trkpt lat="45.97528692049793" lon="-123.41697688897293"><ele>153.3</ele></trkpt>
    <trkpt lat="45.97495931449217" lon="-123.41717784317234"><ele>153.9</ele></trkpt>
    <trkpt lat="45.97471443727574" lon="-123.41732805136179"><ele>154.2</ele></trkpt>
    <trkpt lat="45.97438517669419" lon="-123.41753002048141"><ele>154.9</ele></trkpt>
    <trkpt lat="45.974320000000006" lon="-123.41757000000001"><ele>155.0</ele></trkpt>
    <trkpt lat="45.974320000000006" lon="-123.41758000000002"><ele>155.0</ele></trkpt>
    <trkpt lat="45.97385569768966" lon="-123.41786562770854"><ele>155.7</ele></trkpt>
    <trkpt lat="45.97373166071571" lon="-123.41794193229686"><ele>155.8</ele></trkpt>
    <trkpt lat="45.97348441368095" lon="-123.41809403277622"><ele>156.1</ele></trkpt>
    <trkpt lat="45.97340254927815" lon="-123.41814439380452"><ele>156.1</ele></trkpt>
    <trkpt lat="45.973195820988224" lon="-123.41827156811837"><ele>156.2</ele></trkpt>
    <trkpt lat="45.97282536389268" lon="-123.41849946448879"><ele>156.4</ele></trkpt>
    <trkpt lat="45.972577289944766" lon="-123.41865207366541"><ele>156.5</ele></trkpt>
    <trkpt lat="45.972412734226" lon="-123.41875330441925"><ele>156.4</ele></trkpt>
    <trkpt lat="45.97216548719125" lon="-123.41890540489862"><ele>156.4</ele></trkpt>
    <trkpt lat="45.97195958581448" lon="-123.41903207051521"><ele>156.2</ele></trkpt>
    <trkpt lat="45.97183554884053" lon="-123.41910837510355"><ele>156.2</ele></trkpt>
    <trkpt lat="45.97171151186657" lon="-123.41918467969185"><ele>156.2</ele></trkpt>
    <trkpt lat="45.971505610489814" lon="-123.41931134530846"><ele>156.3</ele></trkpt>
    <trkpt lat="45.97142291917384" lon="-123.419362215034"><ele>156.2</ele></trkpt>
    <trkpt lat="45.97084573378837" lon="-123.41971728571828"><ele>155.8</ele></trkpt>
    <trkpt lat="45.970763869385564" lon="-123.41976764674656"><ele>155.8</ele></trkpt>
    <trkpt lat="45.97063000000001" lon="-123.41985000000001"><ele>155.8</ele></trkpt>
    <trkpt lat="45.970557669583464" lon="-123.4198965575095"><ele>155.8</ele></trkpt>
    <trkpt lat="45.97047639899058" lon="-123.41994886961528"><ele>155.8</ele></trkpt>
    <trkpt lat="45.97039430748261" lon="-123.42000171012616"><ele>155.7</ele></trkpt>
    <trkpt lat="45.97023012446666" lon="-123.4201073911479"><ele>155.4</ele></trkpt>
    <trkpt lat="45.970148853873766" lon="-123.42015970325367"><ele>155.4</ele></trkpt>
    <trkpt lat="45.970025716611815" lon="-123.42023896401997"><ele>155.3</ele></trkpt>
    <trkpt lat="45.96990340026494" lon="-123.42031769638119"><ele>155.2</ele></trkpt>
    <trkpt lat="45.96982130875697" lon="-123.42037053689208"><ele>155.3</ele></trkpt>
    <trkpt lat="45.96976" lon="-123.42041"><ele>155.3</ele></trkpt>
    <trkpt lat="45.96961717947975" lon="-123.42050299940853"><ele>155.4</ele></trkpt>
    <trkpt lat="45.96933000000001" lon="-123.42069000000001"><ele>155.4</ele></trkpt>
    <trkpt lat="45.96929386846787" lon="-123.42072512787848"><ele>155.4</ele></trkpt>
    <trkpt lat="45.969144839144064" lon="-123.42087001749884"><ele>155.5</ele></trkpt>
    <trkpt lat="45.968970000000006" lon="-123.42104"><ele>155.7</ele></trkpt>
    <trkpt lat="45.96892726394789" lon="-123.42109616738279"><ele>155.7</ele></trkpt>
    <trkpt lat="45.96866233304573" lon="-123.42144436228276"><ele>156.0</ele></trkpt>
    <trkpt lat="45.96862" lon="-123.42150000000001"><ele>156.0</ele></trkpt>
    <trkpt lat="45.96860061304852" lon="-123.42153607658798"><ele>156.1</ele></trkpt>
    <trkpt lat="45.96846309425801" lon="-123.42179198111987"><ele>156.4</ele></trkpt>
    <trkpt lat="45.96840808674182" lon="-123.42189434293265"><ele>156.5</ele></trkpt>
    <trkpt lat="45.96827111802648" lon="-123.42214922384642"><ele>156.6</ele></trkpt>
    <trkpt lat="45.968079141794924" lon="-123.42250646657294"><ele>156.9</ele></trkpt>
    <trkpt lat="45.96799718059578" lon="-123.42265898567395"><ele>157.0</ele></trkpt>
    <trkpt lat="45.96794217307958" lon="-123.4227613474867"><ele>157.1</ele></trkpt>
    <trkpt lat="45.96788716556338" lon="-123.42286370929946"><ele>157.1</ele></trkpt>
    <trkpt lat="45.96783215804717" lon="-123.42296607111223"><ele>157.1</ele></trkpt>
    <trkpt lat="45.96761322813269" lon="-123.42337347112701"><ele>156.9</ele></trkpt>
    <trkpt lat="45.96755822061649" lon="-123.42347583293977"><ele>157.0</ele></trkpt>
    <trkpt lat="45.96747570934219" lon="-123.4236293756589"><ele>157.1</ele></trkpt>
    <trkpt lat="45.967470000000006" lon="-123.42364"><ele>157.1</ele></trkpt>
    <trkpt lat="45.967194231673005" lon="-123.42428097503034"><ele>157.1</ele></trkpt>
    <trkpt lat="45.967147372610384" lon="-123.42438989068938"><ele>157.0</ele></trkpt>
    <trkpt lat="45.96710051354776" lon="-123.42449880634844"><ele>156.9</ele></trkpt>
    <trkpt lat="45.9671" lon="-123.42450000000001"><ele>156.9</ele></trkpt>
    <trkpt lat="45.96706450784923" lon="-123.42461594102588"><ele>156.8</ele></trkpt>
    <trkpt lat="45.96701049845862" lon="-123.42479237170184"><ele>156.4</ele></trkpt>
    <trkpt lat="45.96681330981106" lon="-123.4254365212839"><ele>155.1</ele></trkpt>
    <trkpt lat="45.96665200659751" lon="-123.42596344511482"><ele>154.2</ele></trkpt>
    <trkpt lat="45.96665" lon="-123.42597"><ele>154.1</ele></trkpt>
    <trkpt lat="45.96645" lon="-123.42637"><ele>153.3</ele></trkpt>
    <trkpt lat="45.96640990470004" lon="-123.42642123288329"><ele>153.1</ele></trkpt>
    <trkpt lat="45.96627" lon="-123.42660000000001"><ele>152.7</ele></trkpt>
    <trkpt lat="45.966241106093335" lon="-123.42662845277835"><ele>152.6</ele></trkpt>
    <trkpt lat="45.966094165416095" lon="-123.42677315008645"><ele>152.2</ele></trkpt>
    <trkpt lat="45.96587375440022" lon="-123.42699019604864"><ele>151.8</ele></trkpt>
    <trkpt lat="45.96576317782998" lon="-123.427099084427"><ele>151.6</ele></trkpt>
    <trkpt lat="45.96557987304573" lon="-123.4272795906649"><ele>151.4</ele></trkpt>
    <trkpt lat="45.96547003860012" lon="-123.42738774824875"><ele>151.4</ele></trkpt>
    <trkpt lat="45.9653965682615" lon="-123.42746009690282"><ele>151.3</ele></trkpt>
    <trkpt lat="45.96532309792287" lon="-123.42753244555688"><ele>151.2</ele></trkpt>
    <trkpt lat="45.96517615724562" lon="-123.42767714286501"><ele>151.0</ele></trkpt>
    <trkpt lat="45.96510194478237" lon="-123.42775022231355"><ele>150.9</ele></trkpt>
    <trkpt lat="45.96499211033675" lon="-123.4278583798974"><ele>150.8</ele></trkpt>
    <trkpt lat="45.964960000000005" lon="-123.42789"><ele>150.8</ele></trkpt>
    <trkpt lat="45.964874317767496" lon="-123.42794931846868"><ele>150.8</ele></trkpt>
    <trkpt lat="45.96475438260448" lon="-123.4280323505046"><ele>150.9</ele></trkpt>
    <trkpt lat="45.9647" lon="-123.42807"><ele>150.9</ele></trkpt>
    <trkpt lat="45.96454151837099" lon="-123.42812282720968"><ele>151.0</ele></trkpt>
    <trkpt lat="45.964400000000005" lon="-123.42817000000001"><ele>151.1</ele></trkpt>
    <trkpt lat="45.96405605623272" lon="-123.42820620460708"><ele>151.2</ele></trkpt>
    <trkpt lat="45.96378966962575" lon="-123.42823424530256"><ele>151.4</ele></trkpt>
    <trkpt lat="45.96370087409009" lon="-123.42824359220106"><ele>151.4</ele></trkpt>
    <trkpt lat="45.963640000000005" lon="-123.42825"><ele>151.4</ele></trkpt>
    <trkpt lat="45.96361202476379" lon="-123.42824844582022"><ele>151.4</ele></trkpt>
    <trkpt lat="45.96352305816359" lon="-123.42824350323133"><ele>151.4</ele></trkpt>
    <trkpt lat="45.963460000000005" lon="-123.42824000000002"><ele>151.3</ele></trkpt>
    <trkpt lat="45.96343585253097" lon="-123.42822641704868"><ele>151.3</ele></trkpt>
    <trkpt lat="45.96310333640099" lon="-123.42803937672556"><ele>150.9</ele></trkpt>
    <trkpt lat="45.96298021329996" lon="-123.42797011998124"><ele>150.8</ele></trkpt>
    <trkpt lat="45.96277165784312" lon="-123.42785280753677"><ele>150.8</ele></trkpt>
    <trkpt lat="45.96266000000001" lon="-123.42779000000002"><ele>150.7</ele></trkpt>
    <trkpt lat="45.96252197145054" lon="-123.42771638477362"><ele>150.6</ele></trkpt>
    <trkpt lat="45.96251" lon="-123.42771"><ele>150.6</ele></trkpt>
    <trkpt lat="45.962360000000004" lon="-123.42766"><ele>150.6</ele></trkpt>
    <trkpt lat="45.962230000000005" lon="-123.42766"><ele>150.6</ele></trkpt>
    <trkpt lat="45.96210000000001" lon="-123.42767"><ele>150.6</ele></trkpt>
    <trkpt lat="45.96199462255391" lon="-123.42770512581538"><ele>150.6</ele></trkpt>
    <trkpt lat="45.96195" lon="-123.42772000000001"><ele>150.6</ele></trkpt>
    <trkpt lat="45.96186807660251" lon="-123.42776337121045"><ele>150.5</ele></trkpt>
    <trkpt lat="45.961780000000005" lon="-123.42781000000001"><ele>150.4</ele></trkpt>
    <trkpt lat="45.961706722170604" lon="-123.42787228615501"><ele>150.4</ele></trkpt>
    <trkpt lat="45.961580000000005" lon="-123.42798"><ele>150.3</ele></trkpt>
    <trkpt lat="45.96148700798115" lon="-123.42808889854842"><ele>150.2</ele></trkpt>
    <trkpt lat="45.961417960777915" lon="-123.42816975645745"><ele>150.1</ele></trkpt>
    <trkpt lat="45.96134891357469" lon="-123.42825061436649"><ele>150.2</ele></trkpt>
    <trkpt lat="45.961070632422285" lon="-123.42857649624233"><ele>150.1</ele></trkpt>
    <trkpt lat="45.96082652614825" lon="-123.42886235753693"><ele>149.9</ele></trkpt>
    <trkpt lat="45.960820000000005" lon="-123.42887"><ele>149.9</ele></trkpt>
    <trkpt lat="45.960660000000004" lon="-123.42901"><ele>149.9</ele></trkpt>
    <trkpt lat="45.96063361816407" lon="-123.42902780773927"><ele>149.9</ele></trkpt>
    <trkpt lat="45.960470788300256" lon="-123.42913771789733"><ele>149.8</ele></trkpt>
    <trkpt lat="45.96039100166699" lon="-123.42919157387479"><ele>149.8</ele></trkpt>
    <trkpt lat="45.960260000000005" lon="-123.42928"><ele>149.8</ele></trkpt>
    <trkpt lat="45.960053636236985" lon="-123.42937138966647"><ele>149.9</ele></trkpt>
    <trkpt lat="45.95996768493107" lon="-123.42940945381625"><ele>149.9</ele></trkpt>
    <trkpt lat="45.95983875797222" lon="-123.4294665500409"><ele>149.8</ele></trkpt>
    <trkpt lat="45.959666855360396" lon="-123.4295426783404"><ele>149.8</ele></trkpt>
    <trkpt lat="45.95936602578971" lon="-123.42967590286456"><ele>149.6</ele></trkpt>
    <trkpt lat="45.95906605573209" lon="-123.42980874674723"><ele>149.3</ele></trkpt>
    <trkpt lat="45.95898010442618" lon="-123.42984681089698"><ele>149.3</ele></trkpt>
    <trkpt lat="45.95886" lon="-123.4299"><ele>149.2</ele></trkpt>
    <trkpt lat="45.958771868702826" lon="-123.42996538773662"><ele>149.2</ele></trkpt>
    <trkpt lat="45.95861201446043" lon="-123.4300839892713"><ele>149.1</ele></trkpt>
    <trkpt lat="45.95855" lon="-123.43013"><ele>149.1</ele></trkpt>
    <trkpt lat="45.958390045542906" lon="-123.43030275081367"><ele>149.1</ele></trkpt>
    <trkpt lat="45.9583" lon="-123.4304"><ele>149.0</ele></trkpt>
    <trkpt lat="45.95809372590786" lon="-123.43069565953208"><ele>148.9</ele></trkpt>
    <trkpt lat="45.95799816810226" lon="-123.43083262572011"><ele>148.9</ele></trkpt>
    <trkpt lat="45.9577751998892" lon="-123.43115221349217"><ele>149.1</ele></trkpt>
    <trkpt lat="45.9577" lon="-123.43126000000001"><ele>149.2</ele></trkpt>
    <trkpt lat="45.95764305052787" lon="-123.43132730392162"><ele>149.2</ele></trkpt>
    <trkpt lat="45.95753881929695" lon="-123.43145048628544"><ele>149.4</ele></trkpt>
    <trkpt lat="45.957370000000004" lon="-123.43165"><ele>149.7</ele></trkpt>
    <trkpt lat="45.957365391573994" lon="-123.4316541624493"><ele>149.7</ele></trkpt>
    <trkpt lat="45.95721306696397" lon="-123.43179174596804"><ele>150.0</ele></trkpt>
    <trkpt lat="45.95713690465896" lon="-123.4318605377274"><ele>150.2</ele></trkpt>
    <trkpt lat="45.957060000000006" lon="-123.43193000000001"><ele>150.5</ele></trkpt>
    <trkpt lat="45.95698335500753" lon="-123.43199522978082"><ele>150.7</ele></trkpt>
    <trkpt lat="45.95690595560311" lon="-123.43206110161438"><ele>150.9</ele></trkpt>
    <trkpt lat="45.95682855619869" lon="-123.43212697344794"><ele>151.0</ele></trkpt>
    <trkpt lat="45.95659635798541" lon="-123.4323245889486"><ele>151.4</ele></trkpt>
    <trkpt lat="45.95636493376619" lon="-123.4325215457309"><ele>151.7</ele></trkpt>
    <trkpt lat="45.956210134957345" lon="-123.43265328939802"><ele>151.9</ele></trkpt>
    <trkpt lat="45.95597793674407" lon="-123.43285090489869"><ele>152.1</ele></trkpt>
    <trkpt lat="45.95578443823301" lon="-123.43301558448256"><ele>152.3</ele></trkpt>
    <trkpt lat="45.955650000000006" lon="-123.43313"><ele>152.3</ele></trkpt>
    <trkpt lat="45.95563034963187" lon="-123.43314894856928"><ele>152.4</ele></trkpt>
    <trkpt lat="45.95551904723374" lon="-123.43325627588176"><ele>152.4</ele></trkpt>
    <trkpt lat="45.95537" lon="-123.4334"><ele>152.3</ele></trkpt>
    <trkpt lat="45.955300529639025" lon="-123.43348309814318"><ele>152.3</ele></trkpt>
    <trkpt lat="45.95519681277514" lon="-123.43360716081801"><ele>152.3</ele></trkpt>
    <trkpt lat="45.95481651760757" lon="-123.43406205729241"><ele>152.5</ele></trkpt>
    <trkpt lat="45.954644347613524" lon="-123.43426800133264"><ele>152.5</ele></trkpt>
    <trkpt lat="45.95443691388576" lon="-123.43451612668231"><ele>152.5</ele></trkpt>
    <trkpt lat="45.95429931617968" lon="-123.4346807164976"><ele>152.4</ele></trkpt>
    <trkpt lat="45.95405731016395" lon="-123.43497019607223"><ele>152.5</ele></trkpt>
    <trkpt lat="45.95398885703379" lon="-123.4350520774376"><ele>152.5</ele></trkpt>
    <trkpt lat="45.95384987643619" lon="-123.43521832142189"><ele>152.4</ele></trkpt>
    <trkpt lat="45.953746159572304" lon="-123.43534238409673"><ele>152.4</ele></trkpt>
    <trkpt lat="45.95336586440473" lon="-123.43579728057114"><ele>152.5</ele></trkpt>
    <trkpt lat="45.953262147540855" lon="-123.43592134324595"><ele>152.5</ele></trkpt>
    <trkpt lat="45.95319300296493" lon="-123.43600405169583"><ele>152.4</ele></trkpt>
    <trkpt lat="45.95305471381309" lon="-123.43616946859562"><ele>152.3</ele></trkpt>
    <trkpt lat="45.95298556923717" lon="-123.43625217704553"><ele>152.3</ele></trkpt>
    <trkpt lat="45.95267441864552" lon="-123.43662436507002"><ele>152.3</ele></trkpt>
    <trkpt lat="45.95257070178164" lon="-123.43674842774487"><ele>152.3</ele></trkpt>
    <trkpt lat="45.95243310407555" lon="-123.43691301756016"><ele>152.2</ele></trkpt>
    <trkpt lat="45.95232938721167" lon="-123.43703708023497"><ele>152.2</ele></trkpt>
    <trkpt lat="45.95222567034779" lon="-123.43716114290982"><ele>152.2</ele></trkpt>
    <trkpt lat="45.9519490920441" lon="-123.43749197670937"><ele>152.3</ele></trkpt>
    <trkpt lat="45.95170708602837" lon="-123.43778145628399"><ele>152.3</ele></trkpt>
    <trkpt lat="45.951637941452454" lon="-123.4378641647339"><ele>152.3</ele></trkpt>
    <trkpt lat="45.95153491603433" lon="-123.43798740032423"><ele>152.4</ele></trkpt>
    <trkpt lat="45.95125833773064" lon="-123.43831823412378"><ele>152.7</ele></trkpt>
    <trkpt lat="45.9511200485788" lon="-123.43848365102357"><ele>152.8</ele></trkpt>
    <trkpt lat="45.95101633171491" lon="-123.43860771369839"><ele>152.8</ele></trkpt>
    <trkpt lat="45.950912614851035" lon="-123.43873177637323"><ele>152.8</ele></trkpt>
    <trkpt lat="45.95080889798715" lon="-123.43885583904807"><ele>152.7</ele></trkpt>
    <trkpt lat="45.95070518112327" lon="-123.4389799017229"><ele>152.6</ele></trkpt>
    <trkpt lat="45.950533011129224" lon="-123.43918584576312"><ele>152.3</ele></trkpt>
    <trkpt lat="45.95042929426535" lon="-123.43930990843798"><ele>152.2</ele></trkpt>
    <trkpt lat="45.95018728824962" lon="-123.4395993880126"><ele>152.1</ele></trkpt>
    <trkpt lat="45.95011814367369" lon="-123.43968209646249"><ele>152.1</ele></trkpt>
    <trkpt lat="45.950048999097774" lon="-123.43976480491236"><ele>152.1</ele></trkpt>
    <trkpt lat="45.94994528223389" lon="-123.4398888675872"><ele>152.1</ele></trkpt>
    <trkpt lat="45.949634823088005" lon="-123.44026022852721"><ele>152.5</ele></trkpt>
    <trkpt lat="45.9492891002084" lon="-123.44067377077667"><ele>152.9</ele></trkpt>
    <trkpt lat="45.94908166648063" lon="-123.44092189612633"><ele>153.1</ele></trkpt>
    <trkpt lat="45.94870206275882" lon="-123.44137596551623"><ele>153.6</ele></trkpt>
    <trkpt lat="45.948598345894936" lon="-123.44150002819106"><ele>153.7</ele></trkpt>
    <trkpt lat="45.94842548445513" lon="-123.4417067993158"><ele>153.8</ele></trkpt>
    <trkpt lat="45.948183478439404" lon="-123.44199627889041"><ele>153.8</ele></trkpt>
    <trkpt lat="45.9480106169996" lon="-123.44220305001514"><ele>153.9</ele></trkpt>
    <trkpt lat="45.947769302429634" lon="-123.44249170250525"><ele>154.0</ele></trkpt>
    <trkpt lat="45.94749272412595" lon="-123.44282253630482"><ele>154.2</ele></trkpt>
    <trkpt lat="45.9473544349741" lon="-123.4429879532046"><ele>154.3</ele></trkpt>
    <trkpt lat="45.947285290398185" lon="-123.44307066165449"><ele>154.3</ele></trkpt>
    <trkpt lat="45.94714700124634" lon="-123.44323607855426"><ele>154.2</ele></trkpt>
    <trkpt lat="45.94704328438246" lon="-123.4433601412291"><ele>154.1</ele></trkpt>
    <trkpt lat="45.94697413980654" lon="-123.44344284967899"><ele>154.0</ele></trkpt>
    <trkpt lat="45.94676739752453" lon="-123.44369014794417"><ele>153.6</ele></trkpt>
    <trkpt lat="45.94669825294861" lon="-123.44377285639406"><ele>153.5</ele></trkpt>
    <trkpt lat="45.9465" lon="-123.44401"><ele>153.0</ele></trkpt>
    <trkpt lat="45.946491667396685" lon="-123.44402230050966"><ele>153.0</ele></trkpt>
    <trkpt lat="45.946334775940976" lon="-123.44425390218237"><ele>152.4</ele></trkpt>
    <trkpt lat="45.946290000000005" lon="-123.44432"><ele>152.3</ele></trkpt>
    <trkpt lat="45.94616164342763" lon="-123.44455104183028"><ele>151.8</ele></trkpt>
    <trkpt lat="45.946105507068665" lon="-123.44465208727642"><ele>151.5</ele></trkpt>
    <trkpt lat="45.946090000000005" lon="-123.44468"><ele>151.4</ele></trkpt>
    <trkpt lat="45.94603917315757" lon="-123.44481892670264"><ele>151.1</ele></trkpt>
    <trkpt lat="45.94594" lon="-123.44509000000001"><ele>150.7</ele></trkpt>
    <trkpt lat="45.945908288310285" lon="-123.44522636026579"><ele>150.4</ele></trkpt>
    <trkpt lat="45.94588004852688" lon="-123.44534779133444"><ele>150.3</ele></trkpt>
    <trkpt lat="45.945840000000004" lon="-123.44552000000002"><ele>150.2</ele></trkpt>
    <trkpt lat="45.945780000000006" lon="-123.44599000000001"><ele>149.9</ele></trkpt>
    <trkpt lat="45.94577493676798" lon="-123.44616721312082"><ele>149.8</ele></trkpt>
    <trkpt lat="45.94577" lon="-123.44634"><ele>149.7</ele></trkpt>
    <trkpt lat="45.945777183809426" lon="-123.44642381111"><ele>149.6</ele></trkpt>
    <trkpt lat="45.945800000000006" lon="-123.44669"><ele>149.4</ele></trkpt>
    <trkpt lat="45.9458316733398" lon="-123.4469309928028"><ele>149.2</ele></trkpt>
    <trkpt lat="45.94587326309121" lon="-123.44724743656349"><ele>149.0</ele></trkpt>
    <trkpt lat="45.9458981501312" lon="-123.44743679447649"><ele>148.9</ele></trkpt>
    <trkpt lat="45.9459562755669" lon="-123.44787905322637"><ele>148.8</ele></trkpt>
    <trkpt lat="45.94603" lon="-123.44844"><ele>148.8</ele></trkpt>
    <trkpt lat="45.94604225220417" lon="-123.44851106278416"><ele>148.7</ele></trkpt>
    <trkpt lat="45.94609592919346" lon="-123.44882238932206"><ele>148.6</ele></trkpt>
    <trkpt lat="45.946130000000004" lon="-123.44902"><ele>148.5</ele></trkpt>
    <trkpt lat="45.94614282001706" lon="-123.44907052594957"><ele>148.5</ele></trkpt>
    <trkpt lat="45.9462501029182" lon="-123.44949334679526"><ele>148.2</ele></trkpt>
    <trkpt lat="45.94629634554801" lon="-123.44967559715978"><ele>148.1</ele></trkpt>
    <trkpt lat="45.9463" lon="-123.44969"><ele>148.1</ele></trkpt>
    <trkpt lat="45.946483975311935" lon="-123.45018673334224"><ele>148.1</ele></trkpt>
    <trkpt lat="45.9465" lon="-123.45023"><ele>148.0</ele></trkpt>
    <trkpt lat="45.946710335870094" lon="-123.45066569573089"><ele>147.9</ele></trkpt>
    <trkpt lat="45.946780000000004" lon="-123.45081"><ele>147.9</ele></trkpt>
    <trkpt lat="45.94711" lon="-123.45135"><ele>147.9</ele></trkpt>
    <trkpt lat="45.94717223816258" lon="-123.45143852117043"><ele>147.9</ele></trkpt>
    <trkpt lat="45.94745423417454" lon="-123.45183960333608"><ele>147.8</ele></trkpt>
    <trkpt lat="45.94767356440607" lon="-123.45215155613158"><ele>147.9</ele></trkpt>
    <trkpt lat="45.947796977626716" lon="-123.45232708642179"><ele>147.9</ele></trkpt>
    <trkpt lat="45.94785900396042" lon="-123.45241530630855"><ele>148.0</ele></trkpt>
    <trkpt lat="45.94795236318433" lon="-123.45254809088041"><ele>148.1</ele></trkpt>
    <trkpt lat="45.9480450829615" lon="-123.45267996596888"><ele>148.2</ele></trkpt>
    <trkpt lat="45.9481691356289" lon="-123.45285640574247"><ele>148.5</ele></trkpt>
    <trkpt lat="45.9484485738539" lon="-123.45325384997463"><ele>149.5</ele></trkpt>
    <trkpt lat="45.94862953728108" lon="-123.45351123376801"><ele>150.2</ele></trkpt>
    <trkpt lat="45.94884119415173" lon="-123.4538122727631"><ele>151.0</ele></trkpt>
    <trkpt lat="45.948962689032165" lon="-123.45398507460317"><ele>151.4</ele></trkpt>
    <trkpt lat="45.94912191127021" lon="-123.45421153596203"><ele>152.0</ele></trkpt>
    <trkpt lat="45.94934571762891" lon="-123.45452985514112"><ele>152.9</ele></trkpt>
    <trkpt lat="45.94940966230283" lon="-123.45462080347801"><ele>153.2</ele></trkpt>
    <trkpt lat="45.949632829214785" lon="-123.45493821317373"><ele>154.3</ele></trkpt>
    <trkpt lat="45.94985663557348" lon="-123.45525653235282"><ele>155.4</ele></trkpt>
    <trkpt lat="45.950048469595224" lon="-123.45552937736348"><ele>156.4</ele></trkpt>
    <trkpt lat="45.950070000000004" lon="-123.45556"><ele>156.5</ele></trkpt>
    <trkpt lat="45.95023110446866" lon="-123.45581316416505"><ele>157.2</ele></trkpt>
    <trkpt lat="45.95032218238483" lon="-123.45595628660475"><ele>157.6</ele></trkpt>
    <trkpt lat="45.95035" lon="-123.456"><ele>157.7</ele></trkpt>
    <trkpt lat="45.95046462800273" lon="-123.45620633040491"><ele>158.2</ele></trkpt>
    <trkpt lat="45.95054883651427" lon="-123.4563579057257"><ele>158.5</ele></trkpt>
    <trkpt lat="45.9506" lon="-123.45645"><ele>158.7</ele></trkpt>
    <trkpt lat="45.95064931465283" lon="-123.4565716428103"><ele>158.9</ele></trkpt>
    <trkpt lat="45.95069461444798" lon="-123.45668338230502"><ele>159.1</ele></trkpt>
    <trkpt lat="45.95073991424314" lon="-123.45679512179973"><ele>159.2</ele></trkpt>
    <trkpt lat="45.950750000000006" lon="-123.45682000000001"><ele>159.3</ele></trkpt>
    <trkpt lat="45.95077520027422" lon="-123.45691240100547"><ele>159.3</ele></trkpt>
    <trkpt lat="45.950810000000004" lon="-123.45704"><ele>159.4</ele></trkpt>
    <trkpt lat="45.95083261749445" lon="-123.45715719974395"><ele>159.4</ele></trkpt>
    <trkpt lat="45.950892748740166" lon="-123.45746878892633"><ele>159.5</ele></trkpt>
    <trkpt lat="45.95091680123846" lon="-123.4575934245993"><ele>159.5</ele></trkpt>
    <trkpt lat="45.95092" lon="-123.45761000000002"><ele>159.5</ele></trkpt>
    <trkpt lat="45.95094198701393" lon="-123.45784941415162"><ele>159.4</ele></trkpt>
    <trkpt lat="45.95096542244116" lon="-123.45810459991483"><ele>159.3</ele></trkpt>
    <trkpt lat="45.95098308733606" lon="-123.45829695099263"><ele>159.1</ele></trkpt>
    <trkpt lat="45.95100664052926" lon="-123.45855341909636"><ele>158.8</ele></trkpt>
    <trkpt lat="45.951010000000004" lon="-123.45859000000002"><ele>158.8</ele></trkpt>
    <trkpt lat="45.95101538886927" lon="-123.45868212400325"><ele>158.7</ele></trkpt>
    <trkpt lat="45.95103046825399" lon="-123.45893990967542"><ele>158.3</ele></trkpt>
    <trkpt lat="45.951053011934164" lon="-123.45932529925535"><ele>157.7</ele></trkpt>
    <trkpt lat="45.95106809131889" lon="-123.45958308492754"><ele>157.4</ele></trkpt>
    <trkpt lat="45.95108317070361" lon="-123.45984087059973"><ele>157.0</ele></trkpt>
    <trkpt lat="45.95110201993451" lon="-123.46016310268996"><ele>156.7</ele></trkpt>
    <trkpt lat="45.95111332947306" lon="-123.4603564419441"><ele>156.5</ele></trkpt>
    <trkpt lat="45.95113587315322" lon="-123.46074183152402"><ele>156.0</ele></trkpt>
    <trkpt lat="45.951154722384125" lon="-123.46106406361426"><ele>155.5</ele></trkpt>
    <trkpt lat="45.951169801768856" lon="-123.46132184928643"><ele>155.1</ele></trkpt>
    <trkpt lat="45.95119619069212" lon="-123.46177297421276"><ele>154.3</ele></trkpt>
    <trkpt lat="45.95120742483373" lon="-123.46196502453853"><ele>153.8</ele></trkpt>
    <trkpt lat="45.951220000000006" lon="-123.46218"><ele>153.3</ele></trkpt>
    <trkpt lat="45.951224521913375" lon="-123.46254627498297"><ele>152.4</ele></trkpt>
    <trkpt lat="45.951227715199394" lon="-123.46280493115091"><ele>151.9</ele></trkpt>
    <trkpt lat="45.95123" lon="-123.46299"><ele>151.5</ele></trkpt>
    <trkpt lat="45.95122597964962" lon="-123.46306337139457"><ele>151.3</ele></trkpt>
    <trkpt lat="45.95121545179117" lon="-123.46325550481131"><ele>151.0</ele></trkpt>
    <trkpt lat="45.95120485327594" lon="-123.4634489277141"><ele>150.6</ele></trkpt>
    <trkpt lat="45.951197787599135" lon="-123.46357787631592"><ele>150.4</ele></trkpt>
    <trkpt lat="45.951190000000004" lon="-123.46372000000001"><ele>150.3</ele></trkpt>
    <trkpt lat="45.95118336832762" lon="-123.46377056650195"><ele>150.3</ele></trkpt>
    <trkpt lat="45.95115836371048" lon="-123.46396122670762"><ele>150.1</ele></trkpt>
    <trkpt lat="45.95111000000001" lon="-123.46433"><ele>150.0</ele></trkpt>
    <trkpt lat="45.951097658160194" lon="-123.46440405103885"><ele>150.0</ele></trkpt>
    <trkpt lat="45.951045247920916" lon="-123.46471851247455"><ele>149.9</ele></trkpt>
    <trkpt lat="45.951003319729494" lon="-123.4649700816231"><ele>149.8</ele></trkpt>
    <trkpt lat="45.950990000000004" lon="-123.46505"><ele>149.8</ele></trkpt>
    <trkpt lat="45.95098081020678" lon="-123.46509527504796"><ele>149.8</ele></trkpt>
    <trkpt lat="45.95093040558224" lon="-123.46534360183152"><ele>150.0</ele></trkpt>
    <trkpt lat="45.95082984835629" lon="-123.46583901376471"><ele>149.9</ele></trkpt>
    <trkpt lat="45.95080464604401" lon="-123.46596317715648"><ele>149.9</ele></trkpt>
    <trkpt lat="45.950779443731754" lon="-123.46608734054826"><ele>149.9</ele></trkpt>
    <trkpt lat="45.95074164026335" lon="-123.46627358563593"><ele>150.1</ele></trkpt>
    <trkpt lat="45.95071643795109" lon="-123.46639774902772"><ele>150.3</ele></trkpt>
    <trkpt lat="45.95069123563881" lon="-123.46652191241948"><ele>150.4</ele></trkpt>
    <trkpt lat="45.95066603332654" lon="-123.46664607581127"><ele>150.7</ele></trkpt>
    <trkpt lat="45.95064083101427" lon="-123.46677023920304"><ele>151.0</ele></trkpt>
    <trkpt lat="45.950615628702" lon="-123.4668944025948"><ele>151.5</ele></trkpt>
    <trkpt lat="45.95052742060906" lon="-123.46732897446603"><ele>153.4</ele></trkpt>
    <trkpt lat="45.95041401020386" lon="-123.46788770972904"><ele>155.8</ele></trkpt>
    <trkpt lat="45.950376206735456" lon="-123.4680739548167"><ele>156.5</ele></trkpt>
    <trkpt lat="45.95035100442318" lon="-123.46819811820848"><ele>156.9</ele></trkpt>
    <trkpt lat="45.95031320095478" lon="-123.46838436329614"><ele>157.5</ele></trkpt>
    <trkpt lat="45.95028799864251" lon="-123.46850852668791"><ele>157.8</ele></trkpt>
    <trkpt lat="45.95027539748638" lon="-123.4685706083838"><ele>157.9</ele></trkpt>
    <trkpt lat="45.95026279633024" lon="-123.4686326900797"><ele>158.0</ele></trkpt>
    <trkpt lat="45.95023759401798" lon="-123.46875685347148"><ele>158.1</ele></trkpt>
    <trkpt lat="45.95022524488496" lon="-123.46881769353345"><ele>158.1</ele></trkpt>
    <trkpt lat="45.950199790549576" lon="-123.46894309855914"><ele>158.1</ele></trkpt>
    <trkpt lat="45.9501745882373" lon="-123.46906726195093"><ele>158.1</ele></trkpt>
    <trkpt lat="45.95013703679202" lon="-123.46925226540466"><ele>157.9</ele></trkpt>
    <trkpt lat="45.94999842407454" lon="-123.46993516405945"><ele>157.4</ele></trkpt>
    <trkpt lat="45.94992281713774" lon="-123.47030765423477"><ele>157.2</ele></trkpt>
    <trkpt lat="45.94989761482547" lon="-123.47043181762655"><ele>157.0</ele></trkpt>
    <trkpt lat="45.9498724125132" lon="-123.47055598101834"><ele>156.9</ele></trkpt>
    <trkpt lat="45.949847210200936" lon="-123.4706801444101"><ele>156.7</ele></trkpt>
    <trkpt lat="45.949822007888656" lon="-123.47080430780188"><ele>156.5</ele></trkpt>
    <trkpt lat="45.94979680557639" lon="-123.47092847119366"><ele>156.2</ele></trkpt>
    <trkpt lat="45.949759002107996" lon="-123.47111471628132"><ele>155.7</ele></trkpt>
    <trkpt lat="45.94974640095186" lon="-123.47117679797721"><ele>155.5</ele></trkpt>
    <trkpt lat="45.949721198639594" lon="-123.471300961369"><ele>155.1</ele></trkpt>
    <trkpt lat="45.94967079401505" lon="-123.47154928815254"><ele>154.1</ele></trkpt>
    <trkpt lat="45.94964559170278" lon="-123.47167345154432"><ele>153.6</ele></trkpt>
    <trkpt lat="45.94954478245371" lon="-123.47217010511143"><ele>151.9</ele></trkpt>
    <trkpt lat="45.94951983216456" lon="-123.47229302686928"><ele>151.4</ele></trkpt>
    <trkpt lat="45.949490000000004" lon="-123.47244"><ele>151.0</ele></trkpt>
    <trkpt lat="45.94943069311074" lon="-123.47266028273155"><ele>150.4</ele></trkpt>
    <trkpt lat="45.94942" lon="-123.4727"><ele>150.3</ele></trkpt>
    <trkpt lat="45.94939136658927" lon="-123.47277635576197"><ele>150.1</ele></trkpt>
    <trkpt lat="45.949348675842785" lon="-123.47289019775258"><ele>149.9</ele></trkpt>
    <trkpt lat="45.9493" lon="-123.47302"><ele>149.6</ele></trkpt>
    <trkpt lat="45.94911025372813" lon="-123.47335653112371"><ele>148.9</ele></trkpt>
    <trkpt lat="45.94885535571942" lon="-123.47380861438444"><ele>147.9</ele></trkpt>
    <trkpt lat="45.94877" lon="-123.47396"><ele>147.6</ele></trkpt>
    <trkpt lat="45.94873450144848" lon="-123.47399822920933"><ele>147.5</ele></trkpt>
    <trkpt lat="45.948640000000005" lon="-123.4741"><ele>147.3</ele></trkpt>
    <trkpt lat="45.94854608144966" lon="-123.4741730477614"><ele>147.1</ele></trkpt>
    <trkpt lat="45.94842742301414" lon="-123.47426533765568"><ele>147.0</ele></trkpt>
    <trkpt lat="45.948370000000004" lon="-123.47431000000002"><ele>146.9</ele></trkpt>
    <trkpt lat="45.94821265219868" lon="-123.47434798050378"><ele>146.7</ele></trkpt>
    <trkpt lat="45.94785788511105" lon="-123.47443361393873"><ele>146.4</ele></trkpt>
    <trkpt lat="45.947790000000005" lon="-123.47445"><ele>146.3</ele></trkpt>
    <trkpt lat="45.94754469473149" lon="-123.47447515951472"><ele>146.1</ele></trkpt>
    <trkpt lat="45.9474" lon="-123.47449000000002"><ele>146.0</ele></trkpt>
    <trkpt lat="45.947095418511175" lon="-123.47449469389282"><ele>145.8</ele></trkpt>
    <trkpt lat="45.946916463635255" lon="-123.47449745175906"><ele>145.7</ele></trkpt>
    <trkpt lat="45.94651179180528" lon="-123.47450368814"><ele>145.6</ele></trkpt>
    <trkpt lat="45.946421864731946" lon="-123.47450507400242"><ele>145.6</ele></trkpt>
    <trkpt lat="45.94628697412196" lon="-123.47450715279608"><ele>145.7</ele></trkpt>
    <trkpt lat="45.94597312863605" lon="-123.47451198945596"><ele>145.6</ele></trkpt>
    <trkpt lat="45.9457042466868" lon="-123.47451613318464"><ele>145.6</ele></trkpt>
    <trkpt lat="45.94552439254014" lon="-123.4745189049095"><ele>145.7</ele></trkpt>
    <trkpt lat="45.94534543766422" lon="-123.47452166277573"><ele>145.7</ele></trkpt>
    <trkpt lat="45.9452555105909" lon="-123.47452304863816"><ele>145.8</ele></trkpt>
    <trkpt lat="45.945165583517564" lon="-123.4745244345006"><ele>145.9</ele></trkpt>
    <trkpt lat="45.94507565644424" lon="-123.47452582036303"><ele>146.0</ele></trkpt>
    <trkpt lat="45.944986628641644" lon="-123.47452719236684"><ele>146.2</ele></trkpt>
    <trkpt lat="45.94485173803165" lon="-123.47452927116049"><ele>146.4</ele></trkpt>
    <trkpt lat="45.94449292900907" lon="-123.47453480075157"><ele>147.4</ele></trkpt>
    <trkpt lat="45.944268111325755" lon="-123.47453826540766"><ele>148.0</ele></trkpt>
    <trkpt lat="45.9441341199865" lon="-123.47454033034268"><ele>148.3</ele></trkpt>
    <trkpt lat="45.94404419291317" lon="-123.47454171620512"><ele>148.5</ele></trkpt>
    <trkpt lat="45.94395426583984" lon="-123.47454310206754"><ele>148.7</ele></trkpt>
    <trkpt lat="45.94386433876652" lon="-123.47454448792998"><ele>148.7</ele></trkpt>
    <trkpt lat="45.943774411693184" lon="-123.47454587379241"><ele>148.8</ele></trkpt>
    <trkpt lat="45.943685383890596" lon="-123.47454724579622"><ele>148.8</ele></trkpt>
    <trkpt lat="45.943550493280604" lon="-123.47454932458987"><ele>148.7</ele></trkpt>
    <trkpt lat="45.943505529743945" lon="-123.47455001752107"><ele>148.7</ele></trkpt>
    <trkpt lat="45.94341560267061" lon="-123.47455140338351"><ele>148.6</ele></trkpt>
    <trkpt lat="45.943325675597286" lon="-123.47455278924593"><ele>148.4</ele></trkpt>
    <trkpt lat="45.94323664779469" lon="-123.47455416124974"><ele>148.3</ele></trkpt>
    <trkpt lat="45.94314672072136" lon="-123.47455554711217"><ele>148.0</ele></trkpt>
    <trkpt lat="45.942876939501375" lon="-123.47455970469946"><ele>147.3</ele></trkpt>
    <trkpt lat="45.94278791169879" lon="-123.47456107670327"><ele>147.1</ele></trkpt>
    <trkpt lat="45.942697984625454" lon="-123.47456246256571"><ele>146.9</ele></trkpt>
    <trkpt lat="45.94242910267621" lon="-123.47456660629437"><ele>146.4</ele></trkpt>
    <trkpt lat="45.94233917560288" lon="-123.4745679921568"><ele>146.3</ele></trkpt>
    <trkpt lat="45.942114357919564" lon="-123.4745714568129"><ele>146.1</ele></trkpt>
    <trkpt lat="45.9419803665803" lon="-123.47457352174791"><ele>146.0</ele></trkpt>
    <trkpt lat="45.94180051243365" lon="-123.47457629347278"><ele>146.1</ele></trkpt>
    <trkpt lat="45.94171058536032" lon="-123.47457767933521"><ele>146.1</ele></trkpt>
    <trkpt lat="45.94162065828699" lon="-123.47457906519764"><ele>146.2</ele></trkpt>
    <trkpt lat="45.94156" lon="-123.47458"><ele>146.3</ele></trkpt>
    <trkpt lat="45.941488208342186" lon="-123.47460153749736"><ele>146.4</ele></trkpt>
    <trkpt lat="45.94126000000001" lon="-123.47467"><ele>146.8</ele></trkpt>
    <trkpt lat="45.94118448547509" lon="-123.47471462221928"><ele>146.9</ele></trkpt>
    <trkpt lat="45.94104" lon="-123.47480000000002"><ele>147.2</ele></trkpt>
    <trkpt lat="45.94094447676315" lon="-123.47488597091319"><ele>147.4</ele></trkpt>
    <trkpt lat="45.94084" lon="-123.47498000000002"><ele>147.6</ele></trkpt>
    <trkpt lat="45.940760174670636" lon="-123.47506822799565"><ele>147.7</ele></trkpt>
    <trkpt lat="45.940650000000005" lon="-123.47519000000001"><ele>147.9</ele></trkpt>
    <trkpt lat="45.940624887381645" lon="-123.47523643465283"><ele>148.0</ele></trkpt>
    <trkpt lat="45.94056967803889" lon="-123.47533851985263"><ele>148.1</ele></trkpt>
    <trkpt lat="45.940487416118195" lon="-123.47549062680034"><ele>148.1</ele></trkpt>
    <trkpt lat="45.940432206775455" lon="-123.47559271200015"><ele>148.1</ele></trkpt>
    <trkpt lat="45.94040460210407" lon="-123.47564375460003"><ele>148.1</ele></trkpt>
    <trkpt lat="45.94034939276132" lon="-123.47574583979983"><ele>148.1</ele></trkpt>
    <trkpt lat="45.9402665787472" lon="-123.47589896759953"><ele>147.9</ele></trkpt>
    <trkpt lat="45.94021192149788" lon="-123.47600003194734"><ele>147.9</ele></trkpt>
    <trkpt lat="45.940129107483756" lon="-123.47615315974704"><ele>147.8</ele></trkpt>
    <trkpt lat="45.940046293469635" lon="-123.47630628754672"><ele>147.7</ele></trkpt>
    <trkpt lat="45.93993587478414" lon="-123.47651045794633"><ele>147.6</ele></trkpt>
    <trkpt lat="45.93979840352069" lon="-123.47676465009383"><ele>147.4</ele></trkpt>
    <trkpt lat="45.93959" lon="-123.47715000000001"><ele>147.2</ele></trkpt>
    <trkpt lat="45.93952" lon="-123.47732"><ele>147.1</ele></trkpt>
    <trkpt lat="45.93949327540276" lon="-123.47740017379174"><ele>147.1</ele></trkpt>
    <trkpt lat="45.93943" lon="-123.47759"><ele>147.0</ele></trkpt>
    <trkpt lat="45.93939878444868" lon="-123.4777616855323"><ele>146.9</ele></trkpt>
    <trkpt lat="45.93939" lon="-123.47781"><ele>146.9</ele></trkpt>
    <trkpt lat="45.93938643356378" lon="-123.47795265744908"><ele>146.8</ele></trkpt>
    <trkpt lat="45.93938158716266" lon="-123.47814651349402"><ele>146.8</ele></trkpt>
    <trkpt lat="45.93938000000001" lon="-123.47821"><ele>146.8</ele></trkpt>
    <trkpt lat="45.93943111742945" lon="-123.47852599865476"><ele>146.8</ele></trkpt>
    <trkpt lat="45.939490000000006" lon="-123.47889"><ele>146.8</ele></trkpt>
    <trkpt lat="45.93949116734933" lon="-123.47890284084254"><ele>146.8</ele></trkpt>
    <trkpt lat="45.93950282463345" lon="-123.47903107096793"><ele>146.8</ele></trkpt>
    <trkpt lat="45.939514481917584" lon="-123.47915930109336"><ele>146.9</ele></trkpt>
    <trkpt lat="45.939550000000004" lon="-123.47955"><ele>146.8</ele></trkpt>
    <trkpt lat="45.939551001875074" lon="-123.47960470237891"><ele>146.8</ele></trkpt>
    <trkpt lat="45.939553369575876" lon="-123.47973397884269"><ele>146.8</ele></trkpt>
    <trkpt lat="45.939555713599674" lon="-123.47986196254183"><ele>146.7</ele></trkpt>
    <trkpt lat="45.93956632089926" lon="-123.48044112109956"><ele>146.3</ele></trkpt>
    <trkpt lat="45.93957337664766" lon="-123.48082636496162"><ele>146.1</ele></trkpt>
    <trkpt lat="45.93957569699444" lon="-123.48095305589612"><ele>146.0</ele></trkpt>
    <trkpt lat="45.93958043239604" lon="-123.48121160882368"><ele>145.8</ele></trkpt>
    <trkpt lat="45.939582800096844" lon="-123.48134088528747"><ele>145.7</ele></trkpt>
    <trkpt lat="45.939589855845234" lon="-123.48172612914954"><ele>145.4</ele></trkpt>
    <trkpt lat="45.939593383719426" lon="-123.48191875108056"><ele>145.4</ele></trkpt>
    <trkpt lat="45.939595727743225" lon="-123.4820467347797"><ele>145.4</ele></trkpt>
    <trkpt lat="45.939600000000006" lon="-123.48228000000002"><ele>145.4</ele></trkpt>
    <trkpt lat="45.939591985726175" lon="-123.48249638539335"><ele>145.5</ele></trkpt>
    <trkpt lat="45.93959" lon="-123.48255"><ele>145.5</ele></trkpt>
    <trkpt lat="45.93954" lon="-123.48282"><ele>145.6</ele></trkpt>
    <trkpt lat="45.93945" lon="-123.48309"><ele>145.6</ele></trkpt>
    <trkpt lat="45.939445622580536" lon="-123.48309963032284"><ele>145.6</ele></trkpt>
    <trkpt lat="45.939350000000005" lon="-123.48331"><ele>145.8</ele></trkpt>
    <trkpt lat="45.939252757660235" lon="-123.48345300344084"><ele>145.9</ele></trkpt>
    <trkpt lat="45.93918" lon="-123.48356000000001"><ele>145.9</ele></trkpt>
    <trkpt lat="45.939093358057946" lon="-123.48367909995058"><ele>146.0</ele></trkpt>
    <trkpt lat="45.93886713484141" lon="-123.48399007144158"><ele>146.2</ele></trkpt>
    <trkpt lat="45.93880212816999" lon="-123.48407943106544"><ele>146.2</ele></trkpt>
    <trkpt lat="45.938640261558156" lon="-123.48430193652884"><ele>146.5</ele></trkpt>
    <trkpt lat="45.93844589161061" lon="-123.48456912180416"><ele>146.6</ele></trkpt>
    <trkpt lat="45.93834838160348" lon="-123.48470316123992"><ele>146.8</ele></trkpt>
    <trkpt lat="45.938186514991656" lon="-123.48492566670333"><ele>147.0</ele></trkpt>
    <trkpt lat="45.93808965505124" lon="-123.48505881254287"><ele>147.1</ele></trkpt>
    <trkpt lat="45.937741869359144" lon="-123.48553688653048"><ele>147.3</ele></trkpt>
    <trkpt lat="45.93752084667632" lon="-123.48584070925159"><ele>147.3</ele></trkpt>
    <trkpt lat="45.93735182933064" lon="-123.48607304427361"><ele>147.3</ele></trkpt>
    <trkpt lat="45.937199063652805" lon="-123.48628303938966"><ele>147.2</ele></trkpt>
    <trkpt lat="45.93713535711481" lon="-123.48637061182103"><ele>147.2</ele></trkpt>
    <trkpt lat="45.937071650576826" lon="-123.4864581842524"><ele>147.1</ele></trkpt>
    <trkpt lat="45.937007293972115" lon="-123.48654665028002"><ele>147.0</ele></trkpt>
    <trkpt lat="45.93697544070312" lon="-123.48659043649572"><ele>146.9</ele></trkpt>
    <trkpt lat="45.936879230829426" lon="-123.48672268873902"><ele>146.6</ele></trkpt>
    <trkpt lat="45.93665560787974" lon="-123.48703008584506"><ele>145.8</ele></trkpt>
    <trkpt lat="45.93659190134176" lon="-123.48711765827645"><ele>145.6</ele></trkpt>
    <trkpt lat="45.936527544737054" lon="-123.48720612430407"><ele>145.5</ele></trkpt>
    <trkpt lat="45.93643133486335" lon="-123.48733837654737"><ele>145.3</ele></trkpt>
    <trkpt lat="45.936335775056364" lon="-123.48746973519444"><ele>145.3</ele></trkpt>
    <trkpt lat="45.93620771191367" lon="-123.48764577365343"><ele>145.2</ele></trkpt>
    <trkpt lat="45.935984088963984" lon="-123.48795317075948"><ele>145.0</ele></trkpt>
    <trkpt lat="45.93587" lon="-123.48811"><ele>144.9</ele></trkpt>
    <trkpt lat="45.93582648893939" lon="-123.48817630256855"><ele>144.9</ele></trkpt>
    <trkpt lat="45.93567835888919" lon="-123.48840202454981"><ele>144.9</ele></trkpt>
    <trkpt lat="45.935660000000006" lon="-123.48843000000001"><ele>144.9</ele></trkpt>
    <trkpt lat="45.935500000000005" lon="-123.48874"><ele>145.0</ele></trkpt>
    <trkpt lat="45.935495950628855" lon="-123.48874965619277"><ele>145.0</ele></trkpt>
    <trkpt lat="45.935370000000006" lon="-123.48905"><ele>145.0</ele></trkpt>
    <trkpt lat="45.935344186056604" lon="-123.48912509510808"><ele>145.0</ele></trkpt>
    <trkpt lat="45.93526000000001" lon="-123.48937000000001"><ele>145.1</ele></trkpt>
    <trkpt lat="45.93523776294184" lon="-123.48946530167788"><ele>145.1</ele></trkpt>
    <trkpt lat="45.935190000000006" lon="-123.48967"><ele>145.0</ele></trkpt>
    <trkpt lat="45.935182439067255" lon="-123.48970996493028"><ele>145.0</ele></trkpt>
    <trkpt lat="45.9351352262897" lon="-123.48995951818304"><ele>144.9</ele></trkpt>
    <trkpt lat="45.935120000000005" lon="-123.49004000000001"><ele>144.9</ele></trkpt>
    <trkpt lat="45.93511755893104" lon="-123.49008577004298"><ele>144.8</ele></trkpt>
    <trkpt lat="45.935080000000006" lon="-123.49079"><ele>144.8</ele></trkpt>
    <trkpt lat="45.93508375497091" lon="-123.49098751146946"><ele>144.8</ele></trkpt>
    <trkpt lat="45.93509112736137" lon="-123.49137529920753"><ele>144.7</ele></trkpt>
    <trkpt lat="45.935097295594716" lon="-123.49169974828173"><ele>144.6</ele></trkpt>
    <trkpt lat="45.93510466798517" lon="-123.4920875360198"><ele>144.6</ele></trkpt>
    <trkpt lat="45.93511447326448" lon="-123.49260329371145"><ele>144.7</ele></trkpt>
    <trkpt lat="45.93512430311842" lon="-123.49312034402891"><ele>144.7</ele></trkpt>
    <trkpt lat="45.93513" lon="-123.49342000000001"><ele>144.7</ele></trkpt>
    <trkpt lat="45.93515000000001" lon="-123.4937"><ele>144.7</ele></trkpt>
    <trkpt lat="45.93521176441769" lon="-123.49407830705833"><ele>144.7</ele></trkpt>
    <trkpt lat="45.935230000000004" lon="-123.49419"><ele>144.7</ele></trkpt>
    <trkpt lat="45.93526134013699" lon="-123.49435366515978"><ele>144.7</ele></trkpt>
    <trkpt lat="45.935332244095335" lon="-123.49472394138672"><ele>144.8</ele></trkpt>
    <trkpt lat="45.93537927466704" lon="-123.4949695454834"><ele>144.9</ele></trkpt>
    <trkpt lat="45.93541436854541" lon="-123.49515281351492"><ele>144.9</ele></trkpt>
    <trkpt lat="45.93553182560773" lon="-123.4957662003959"><ele>145.0</ele></trkpt>
    <trkpt lat="45.935567158219975" lon="-123.49595071514874"><ele>145.0</ele></trkpt>
    <trkpt lat="45.935590000000005" lon="-123.49607"><ele>145.1</ele></trkpt>
    <trkpt lat="45.935599616014116" lon="-123.49613490809523"><ele>145.1</ele></trkpt>
    <trkpt lat="45.93563" lon="-123.49634"><ele>145.3</ele></trkpt>
    <trkpt lat="45.93563494300273" lon="-123.49638448702459"><ele>145.3</ele></trkpt>
    <trkpt lat="45.93566289352435" lon="-123.49663604171911"><ele>145.6</ele></trkpt>
    <trkpt lat="45.93567" lon="-123.4967"><ele>145.6</ele></trkpt>
    <trkpt lat="45.93566718449247" lon="-123.49688863900423"><ele>145.9</ele></trkpt>
    <trkpt lat="45.93566243770572" lon="-123.49720667371693"><ele>146.3</ele></trkpt>
    <trkpt lat="45.935660000000006" lon="-123.49737"><ele>146.6</ele></trkpt>
    <trkpt lat="45.935624440187155" lon="-123.49758335887711"><ele>146.9</ele></trkpt>
    <trkpt lat="45.93562000000001" lon="-123.49761000000001"><ele>147.0</ele></trkpt>
    <trkpt lat="45.93555949670514" lon="-123.49790360801373"><ele>147.4</ele></trkpt>
    <trkpt lat="45.93551172041823" lon="-123.49813545490295"><ele>147.6</ele></trkpt>
    <trkpt lat="45.935473908169776" lon="-123.49831894869764"><ele>147.8</ele></trkpt>
    <trkpt lat="45.93543609592131" lon="-123.49850244249231"><ele>147.9</ele></trkpt>
    <trkpt lat="45.935360471424396" lon="-123.49886943008167"><ele>148.1</ele></trkpt>
    <trkpt lat="45.93525393285947" lon="-123.4993864362464"><ele>148.4</ele></trkpt>
    <trkpt lat="45.935178052874384" lon="-123.4997546636587"><ele>148.6</ele></trkpt>
    <trkpt lat="45.93512721072949" lon="-123.50000138842317"><ele>148.8</ele></trkpt>
    <trkpt lat="45.935101917401134" lon="-123.50012413089394"><ele>149.0</ele></trkpt>
    <trkpt lat="45.93503855633614" lon="-123.50043160698232"><ele>149.5</ele></trkpt>
    <trkpt lat="45.93497519527116" lon="-123.5007390830707"><ele>150.0</ele></trkpt>
    <trkpt lat="45.934937127534525" lon="-123.5009238166883"><ele>150.2</ele></trkpt>
    <trkpt lat="45.93483569873291" lon="-123.50141602639431"><ele>150.9</ele></trkpt>
    <trkpt lat="45.934797630996286" lon="-123.50160076001193"><ele>151.1</ele></trkpt>
    <trkpt lat="45.93477233766792" lon="-123.50172350248269"><ele>151.2</ele></trkpt>
    <trkpt lat="45.93474704433956" lon="-123.50184624495346"><ele>151.3</ele></trkpt>
    <trkpt lat="45.93455645016826" lon="-123.50277115286447"><ele>151.6</ele></trkpt>
    <trkpt lat="45.9345311568399" lon="-123.50289389533523"><ele>151.6</ele></trkpt>
    <trkpt lat="45.93450560802337" lon="-123.50301787762893"><ele>151.6</ele></trkpt>
    <trkpt lat="45.93445451039031" lon="-123.50326584221634"><ele>151.5</ele></trkpt>
    <trkpt lat="45.9343781194289" lon="-123.5036365492745"><ele>151.4</ele></trkpt>
    <trkpt lat="45.934301728467474" lon="-123.50400725633268"><ele>151.3</ele></trkpt>
    <trkpt lat="45.934225082017896" lon="-123.50437920321379"><ele>151.1</ele></trkpt>
    <trkpt lat="45.934135916648216" lon="-123.5048119014188"><ele>151.0</ele></trkpt>
    <trkpt lat="45.934110623319846" lon="-123.50493464388957"><ele>151.0</ele></trkpt>
    <trkpt lat="45.93408507450332" lon="-123.50505862618327"><ele>151.1</ele></trkpt>
    <trkpt lat="45.93405978117496" lon="-123.50518136865404"><ele>151.0</ele></trkpt>
    <trkpt lat="45.934021457950166" lon="-123.5053673420946"><ele>150.9</ele></trkpt>
    <trkpt lat="45.93399" lon="-123.50552"><ele>151.0</ele></trkpt>
    <trkpt lat="45.93398103978631" lon="-123.50561856235068"><ele>151.0</ele></trkpt>
    <trkpt lat="45.93396355557917" lon="-123.50581088862918"><ele>151.1</ele></trkpt>
    <trkpt lat="45.933960000000006" lon="-123.50585000000001"><ele>151.1</ele></trkpt>
    <trkpt lat="45.933960000000006" lon="-123.50584"><ele>151.1</ele></trkpt>
    <trkpt lat="45.933960000000006" lon="-123.50597"><ele>151.2</ele></trkpt>
  </trkseg></trk>
</gpx>
