<?xml version="1.0" encoding="UTF-8"?>
<gpx version="1.1" creator="h2c-tracker" xmlns="http://www.topografix.com/GPX/1/1">
  <metadata><name>Hood to Coast 2026 — Leg 30 (5.31 mi)</name><desc>Derived from the official Hood to Coast Strava route (simplified, 728 points, ~5.34 mi). Verify against the official leg map PDF.</desc></metadata>
  <wpt lat="46.020680077529434" lon="-123.62504739991985"><name>Exchange 29 — HWY 202 m.p. 19.4</name></wpt>
  <wpt lat="46.06583481293467" lon="-123.69273367617295"><name>Exchange 30 — Astoria - HWY 202</name></wpt>
  <trk><name>HTC Leg 30</name><trkseg>
    <trkpt lat="46.020680077529434" lon="-123.62504739991985"><ele>237.6</ele></trkpt>
    <trkpt lat="46.02093282644721" lon="-123.62516771532933"><ele>237.5</ele></trkpt>
    <trkpt lat="46.02109762557265" lon="-123.62524616422809"><ele>237.4</ele></trkpt>
    <trkpt lat="46.02134610508302" lon="-123.62536444728268"><ele>237.4</ele></trkpt>
    <trkpt lat="46.021510904208455" lon="-123.62544289618143"><ele>237.3</ele></trkpt>
    <trkpt lat="46.02167655721538" lon="-123.62552175155116"><ele>237.2</ele></trkpt>
    <trkpt lat="46.02188319653328" lon="-123.62562011752783"><ele>236.9</ele></trkpt>
    <trkpt lat="46.02196602303674" lon="-123.6256595452127"><ele>236.9</ele></trkpt>
    <trkpt lat="46.02203" lon="-123.62569"><ele>236.9</ele></trkpt>
    <trkpt lat="46.02215984022297" lon="-123.62579889825152"><ele>236.8</ele></trkpt>
    <trkpt lat="46.02223522248973" lon="-123.62586212208817"><ele>236.8</ele></trkpt>
    <trkpt lat="46.02234000000001" lon="-123.62595"><ele>236.7</ele></trkpt>
    <trkpt lat="46.022346957496296" lon="-123.62596217561851"><ele>236.7</ele></trkpt>
    <trkpt lat="46.02246" lon="-123.62616000000001"><ele>236.5</ele></trkpt>
    <trkpt lat="46.02270991720589" lon="-123.62667352850524"><ele>236.2</ele></trkpt>
    <trkpt lat="46.022861151749694" lon="-123.62698428441718"><ele>236.1</ele></trkpt>
    <trkpt lat="46.022936510942166" lon="-123.62713913207295"><ele>236.0</ele></trkpt>
    <trkpt lat="46.0230123862935" lon="-123.6272950403291"><ele>236.1</ele></trkpt>
    <trkpt lat="46.0230624537022" lon="-123.62739791856615"><ele>236.1</ele></trkpt>
    <trkpt lat="46.023163104678446" lon="-123.62760473564065"><ele>236.2</ele></trkpt>
    <trkpt lat="46.02319000000001" lon="-123.62766"><ele>236.2</ele></trkpt>
    <trkpt lat="46.02323772586314" lon="-123.6277649968989"><ele>236.2</ele></trkpt>
    <trkpt lat="46.023336238042624" lon="-123.62798172369376"><ele>236.2</ele></trkpt>
    <trkpt lat="46.023390000000006" lon="-123.6281"><ele>236.2</ele></trkpt>
    <trkpt lat="46.02346007172487" lon="-123.62832422951956"><ele>236.2</ele></trkpt>
    <trkpt lat="46.02351580367115" lon="-123.62850257174767"><ele>236.2</ele></trkpt>
    <trkpt lat="46.023590000000006" lon="-123.62874000000001"><ele>236.1</ele></trkpt>
    <trkpt lat="46.02362950709065" lon="-123.62892436642295"><ele>236.0</ele></trkpt>
    <trkpt lat="46.023656026785034" lon="-123.62904812499681"><ele>235.9</ele></trkpt>
    <trkpt lat="46.02372232602103" lon="-123.62935752143144"><ele>235.9</ele></trkpt>
    <trkpt lat="46.023770000000006" lon="-123.62958"><ele>235.9</ele></trkpt>
    <trkpt lat="46.02381243764549" lon="-123.62972322705353"><ele>235.9</ele></trkpt>
    <trkpt lat="46.02385" lon="-123.62985"><ele>235.9</ele></trkpt>
    <trkpt lat="46.023946370769025" lon="-123.6300588033329"><ele>235.9</ele></trkpt>
    <trkpt lat="46.023970000000006" lon="-123.63011000000002"><ele>235.8</ele></trkpt>
    <trkpt lat="46.024033463313856" lon="-123.63020634884921"><ele>235.8</ele></trkpt>
    <trkpt lat="46.0240953571181" lon="-123.63030031489748"><ele>235.7</ele></trkpt>
    <trkpt lat="46.024126304020236" lon="-123.63034729792165"><ele>235.7</ele></trkpt>
    <trkpt lat="46.02421914472661" lon="-123.63048824699403"><ele>235.5</ele></trkpt>
    <trkpt lat="46.024281038530866" lon="-123.63058221304232"><ele>235.3</ele></trkpt>
    <trkpt lat="46.02434293233512" lon="-123.63067617909059"><ele>235.2</ele></trkpt>
    <trkpt lat="46.02446671994362" lon="-123.63086411118712"><ele>235.1</ele></trkpt>
    <trkpt lat="46.02462145445425" lon="-123.63109902630782"><ele>234.8</ele></trkpt>
    <trkpt lat="46.02471367622259" lon="-123.63123903571974"><ele>234.7</ele></trkpt>
    <trkpt lat="46.02480651692896" lon="-123.63137998479216"><ele>234.6</ele></trkpt>
    <trkpt lat="46.02486841073321" lon="-123.63147395084042"><ele>234.6</ele></trkpt>
    <trkpt lat="46.02496125143959" lon="-123.63161489991285"><ele>234.5</ele></trkpt>
    <trkpt lat="46.02507000000001" lon="-123.63178"><ele>234.5</ele></trkpt>
    <trkpt lat="46.025086698310446" lon="-123.63180029990681"><ele>234.6</ele></trkpt>
    <trkpt lat="46.02515542087528" lon="-123.63188384498562"><ele>234.5</ele></trkpt>
    <trkpt lat="46.02525850472253" lon="-123.63200916260385"><ele>234.5</ele></trkpt>
    <trkpt lat="46.02543031113461" lon="-123.6322180253009"><ele>234.2</ele></trkpt>
    <trkpt lat="46.02553339498186" lon="-123.63234334291913"><ele>234.0</ele></trkpt>
    <trkpt lat="46.02556775626428" lon="-123.63238511545853"><ele>233.9</ele></trkpt>
    <trkpt lat="46.025580000000005" lon="-123.6324"><ele>233.9</ele></trkpt>
    <trkpt lat="46.025647072493214" lon="-123.63244471499547"><ele>233.7</ele></trkpt>
    <trkpt lat="46.02579" lon="-123.63254"><ele>233.1</ele></trkpt>
    <trkpt lat="46.02581069318554" lon="-123.63255222779146"><ele>233.0</ele></trkpt>
    <trkpt lat="46.02597709630295" lon="-123.63265055690628"><ele>232.5</ele></trkpt>
    <trkpt lat="46.02601000000001" lon="-123.63267"><ele>232.3</ele></trkpt>
    <trkpt lat="46.02615183604723" lon="-123.63270823406489"><ele>231.8</ele></trkpt>
    <trkpt lat="46.02628443190619" lon="-123.63274397729646"><ele>231.3</ele></trkpt>
    <trkpt lat="46.02641702776515" lon="-123.63277972052799"><ele>230.7</ele></trkpt>
    <trkpt lat="46.02650542500447" lon="-123.63280354934903"><ele>230.2</ele></trkpt>
    <trkpt lat="46.02672641810274" lon="-123.63286312140161"><ele>229.0</ele></trkpt>
    <trkpt lat="46.02685901396171" lon="-123.63289886463316"><ele>228.3</ele></trkpt>
    <trkpt lat="46.026947411201014" lon="-123.63292269345419"><ele>227.9</ele></trkpt>
    <trkpt lat="46.02699160982067" lon="-123.63293460786471"><ele>227.8</ele></trkpt>
    <trkpt lat="46.027080007059986" lon="-123.63295843668573"><ele>227.6</ele></trkpt>
    <trkpt lat="46.02712420567964" lon="-123.63297035109625"><ele>227.6</ele></trkpt>
    <trkpt lat="46.02716" lon="-123.63298"><ele>227.5</ele></trkpt>
    <trkpt lat="46.027212391866286" lon="-123.63299571755988"><ele>227.5</ele></trkpt>
    <trkpt lat="46.027255532727146" lon="-123.63300865981816"><ele>227.5</ele></trkpt>
    <trkpt lat="46.02734357530034" lon="-123.63303507259012"><ele>227.5</ele></trkpt>
    <trkpt lat="46.02736" lon="-123.63304000000001"><ele>227.5</ele></trkpt>
    <trkpt lat="46.02738602124063" lon="-123.63305561274439"><ele>227.5</ele></trkpt>
    <trkpt lat="46.027469037919026" lon="-123.63310542275141"><ele>227.6</ele></trkpt>
    <trkpt lat="46.02756" lon="-123.63316"><ele>227.8</ele></trkpt>
    <trkpt lat="46.02762552392845" lon="-123.63322937827719"><ele>227.9</ele></trkpt>
    <trkpt lat="46.02769798278619" lon="-123.63330609942066"><ele>228.0</ele></trkpt>
    <trkpt lat="46.027730000000005" lon="-123.63334"><ele>228.0</ele></trkpt>
    <trkpt lat="46.027765168966454" lon="-123.6333915811508"><ele>228.1</ele></trkpt>
    <trkpt lat="46.02788" lon="-123.63356000000002"><ele>228.1</ele></trkpt>
    <trkpt lat="46.02794362269414" lon="-123.6336819434971"><ele>228.1</ele></trkpt>
    <trkpt lat="46.028000000000006" lon="-123.63379"><ele>228.2</ele></trkpt>
    <trkpt lat="46.02802284816612" lon="-123.63383912355714"><ele>228.2</ele></trkpt>
    <trkpt lat="46.028097927451014" lon="-123.63400054401967"><ele>228.3</ele></trkpt>
    <trkpt lat="46.02839824459063" lon="-123.63464622586986"><ele>228.8</ele></trkpt>
    <trkpt lat="46.02844829744723" lon="-123.63475383951155"><ele>228.8</ele></trkpt>
    <trkpt lat="46.02852337673214" lon="-123.6349152599741"><ele>228.8</ele></trkpt>
    <trkpt lat="46.02859845601704" lon="-123.63507668043663"><ele>228.6</ele></trkpt>
    <trkpt lat="46.028648508873644" lon="-123.63518429407833"><ele>228.5</ele></trkpt>
    <trkpt lat="46.02867353530194" lon="-123.63523810089919"><ele>228.4</ele></trkpt>
    <trkpt lat="46.02882369387176" lon="-123.63556094182425"><ele>227.5</ele></trkpt>
    <trkpt lat="46.02899887886986" lon="-123.63593758957019"><ele>226.6</ele></trkpt>
    <trkpt lat="46.029" lon="-123.63594"><ele>226.6</ele></trkpt>
    <trkpt lat="46.02905431371924" lon="-123.63603957515195"><ele>226.3</ele></trkpt>
    <trkpt lat="46.029120000000006" lon="-123.63616"><ele>225.9</ele></trkpt>
    <trkpt lat="46.029170310217935" lon="-123.6362354653269"><ele>225.6</ele></trkpt>
    <trkpt lat="46.029230729637376" lon="-123.63632609445607"><ele>225.3</ele></trkpt>
    <trkpt lat="46.02929177193744" lon="-123.63641765790615"><ele>225.0</ele></trkpt>
    <trkpt lat="46.029340000000005" lon="-123.63649000000001"><ele>224.8</ele></trkpt>
    <trkpt lat="46.029482762991485" lon="-123.63667699941138"><ele>224.3</ele></trkpt>
    <trkpt lat="46.029547965990176" lon="-123.63676240615615"><ele>224.1</ele></trkpt>
    <trkpt lat="46.029645105151474" lon="-123.63688964477589"><ele>223.9</ele></trkpt>
    <trkpt lat="46.02970964281344" lon="-123.63697418002323"><ele>223.7</ele></trkpt>
    <trkpt lat="46.02974224431277" lon="-123.63701688339562"><ele>223.7</ele></trkpt>
    <trkpt lat="46.02980744731146" lon="-123.63710229014038"><ele>223.6</ele></trkpt>
    <trkpt lat="46.02996978947145" lon="-123.63731493550486"><ele>223.6</ele></trkpt>
    <trkpt lat="46.03005" lon="-123.63742"><ele>223.6</ele></trkpt>
    <trkpt lat="46.03006828689686" lon="-123.63743981080492"><ele>223.6</ele></trkpt>
    <trkpt lat="46.030170000000005" lon="-123.63755"><ele>223.6</ele></trkpt>
    <trkpt lat="46.03021022049249" lon="-123.63758798602068"><ele>223.5</ele></trkpt>
    <trkpt lat="46.030350000000006" lon="-123.63772000000002"><ele>223.5</ele></trkpt>
    <trkpt lat="46.03043623496286" lon="-123.63777894541766"><ele>223.5</ele></trkpt>
    <trkpt lat="46.0305548561974" lon="-123.63786002828684"><ele>223.3</ele></trkpt>
    <trkpt lat="46.030634478669896" lon="-123.63791445377439"><ele>223.3</ele></trkpt>
    <trkpt lat="46.030714913616606" lon="-123.63796943462403"><ele>223.3</ele></trkpt>
    <trkpt lat="46.03095459350831" lon="-123.63813326644873"><ele>223.6</ele></trkpt>
    <trkpt lat="46.0310334035066" lon="-123.63818713657415"><ele>223.6</ele></trkpt>
    <trkpt lat="46.03114" lon="-123.63826000000002"><ele>223.6</ele></trkpt>
    <trkpt lat="46.03115241090886" lon="-123.63827241090887"><ele>223.6</ele></trkpt>
    <trkpt lat="46.031224807225605" lon="-123.63834480722561"><ele>223.6</ele></trkpt>
    <trkpt lat="46.031261744121906" lon="-123.63838174412192"><ele>223.5</ele></trkpt>
    <trkpt lat="46.031330000000004" lon="-123.63845"><ele>223.3</ele></trkpt>
    <trkpt lat="46.03133364593057" lon="-123.63845501315454"><ele>223.3</ele></trkpt>
    <trkpt lat="46.03139674517663" lon="-123.63854177461786"><ele>223.0</ele></trkpt>
    <trkpt lat="46.0314292705612" lon="-123.63858649702163"><ele>222.8</ele></trkpt>
    <trkpt lat="46.03146114543807" lon="-123.63863032497734"><ele>222.6</ele></trkpt>
    <trkpt lat="46.031490000000005" lon="-123.63867"><ele>222.3</ele></trkpt>
    <trkpt lat="46.03149274489106" lon="-123.63867453226197"><ele>222.3</ele></trkpt>
    <trkpt lat="46.03152171308347" lon="-123.63872236346342"><ele>221.9</ele></trkpt>
    <trkpt lat="46.03160861766072" lon="-123.6388658570677"><ele>220.9</ele></trkpt>
    <trkpt lat="46.03166714523316" lon="-123.63896249561753"><ele>220.2</ele></trkpt>
    <trkpt lat="46.03169611342557" lon="-123.63901032681895"><ele>219.9</ele></trkpt>
    <trkpt lat="46.03172449043039" lon="-123.63905718187344"><ele>219.7</ele></trkpt>
    <trkpt lat="46.03178301800282" lon="-123.63915382042327"><ele>219.3</ele></trkpt>
    <trkpt lat="46.03181198619524" lon="-123.6392016516247"><ele>219.1</ele></trkpt>
    <trkpt lat="46.03187051376767" lon="-123.63929829017454"><ele>218.9</ele></trkpt>
    <trkpt lat="46.03192000000001" lon="-123.63938000000002"><ele>218.7</ele></trkpt>
    <trkpt lat="46.03192798460165" lon="-123.63939451047801"><ele>218.6</ele></trkpt>
    <trkpt lat="46.03201065989401" lon="-123.63954475692277"><ele>218.1</ele></trkpt>
    <trkpt lat="46.032093335186374" lon="-123.63969500336755"><ele>217.5</ele></trkpt>
    <trkpt lat="46.03214863825356" lon="-123.63979550605694"><ele>217.0</ele></trkpt>
    <trkpt lat="46.03228773384678" lon="-123.64004828554849"><ele>215.7</ele></trkpt>
    <trkpt lat="46.032343036913964" lon="-123.64014878823787"><ele>215.3</ele></trkpt>
    <trkpt lat="46.03239778136431" lon="-123.6402482757486"><ele>214.9</ele></trkpt>
    <trkpt lat="46.032453084431495" lon="-123.64034877843801"><ele>214.5</ele></trkpt>
    <trkpt lat="46.0325642491827" lon="-123.64055079899549"><ele>213.8</ele></trkpt>
    <trkpt lat="46.03281339229345" lon="-123.64100356868714"><ele>212.3</ele></trkpt>
    <trkpt lat="46.03289606758581" lon="-123.6411538151319"><ele>211.7</ele></trkpt>
    <trkpt lat="46.032951929269835" lon="-123.64125533299999"><ele>211.3</ele></trkpt>
    <trkpt lat="46.03296" lon="-123.64127"><ele>211.3</ele></trkpt>
    <trkpt lat="46.03301115095909" lon="-123.6413492839866"><ele>210.9</ele></trkpt>
    <trkpt lat="46.03307237124972" lon="-123.64144417543707"><ele>210.4</ele></trkpt>
    <trkpt lat="46.03316" lon="-123.64158"><ele>209.7</ele></trkpt>
    <trkpt lat="46.03329504307559" lon="-123.64175476162723"><ele>208.6</ele></trkpt>
    <trkpt lat="46.03333000000001" lon="-123.6418"><ele>208.3</ele></trkpt>
    <trkpt lat="46.03336451619266" lon="-123.64183679198558"><ele>208.1</ele></trkpt>
    <trkpt lat="46.03372380253023" lon="-123.64221976753223"><ele>205.8</ele></trkpt>
    <trkpt lat="46.03379609354382" lon="-123.64229682498627"><ele>205.3</ele></trkpt>
    <trkpt lat="46.033868384557415" lon="-123.64237388244032"><ele>204.7</ele></trkpt>
    <trkpt lat="46.034048389181265" lon="-123.64256575550091"><ele>203.2</ele></trkpt>
    <trkpt lat="46.03412140310499" lon="-123.64264358352949"><ele>202.6</ele></trkpt>
    <trkpt lat="46.034193694118585" lon="-123.64272064098355"><ele>202.1</ele></trkpt>
    <trkpt lat="46.034240000000004" lon="-123.64277000000001"><ele>201.8</ele></trkpt>
    <trkpt lat="46.03426757633695" lon="-123.64279429803116"><ele>201.7</ele></trkpt>
    <trkpt lat="46.0343059352211" lon="-123.64282809676824"><ele>201.5</ele></trkpt>
    <trkpt lat="46.034382652989386" lon="-123.6428956942424"><ele>201.2</ele></trkpt>
    <trkpt lat="46.03445860357999" lon="-123.64296261574182"><ele>201.0</ele></trkpt>
    <trkpt lat="46.03449696246415" lon="-123.6429964144789"><ele>200.9</ele></trkpt>
    <trkpt lat="46.034573680232434" lon="-123.64306401195306"><ele>200.8</ele></trkpt>
    <trkpt lat="46.03465039800072" lon="-123.64313160942723"><ele>200.7</ele></trkpt>
    <trkpt lat="46.03472711576901" lon="-123.64319920690139"><ele>200.7</ele></trkpt>
    <trkpt lat="46.034765474653156" lon="-123.64323300563845"><ele>200.8</ele></trkpt>
    <trkpt lat="46.034803833537296" lon="-123.64326680437551"><ele>200.8</ele></trkpt>
    <trkpt lat="46.03488055130559" lon="-123.64333440184969"><ele>201.0</ele></trkpt>
    <trkpt lat="46.03514983067229" lon="-123.64357166898398"><ele>201.9</ele></trkpt>
    <trkpt lat="46.035226548440576" lon="-123.64363926645814"><ele>202.2</ele></trkpt>
    <trkpt lat="46.03534162509301" lon="-123.64374066266937"><ele>202.7</ele></trkpt>
    <trkpt lat="46.035418342861306" lon="-123.64380826014354"><ele>203.1</ele></trkpt>
    <trkpt lat="46.035495060629586" lon="-123.6438758576177"><ele>203.5</ele></trkpt>
    <trkpt lat="46.03557177839788" lon="-123.64394345509184"><ele>204.0</ele></trkpt>
    <trkpt lat="46.03567" lon="-123.64403000000001"><ele>204.7</ele></trkpt>
    <trkpt lat="46.03583365190862" lon="-123.64429184305382"><ele>206.2</ele></trkpt>
    <trkpt lat="46.03587" lon="-123.64435000000002"><ele>206.5</ele></trkpt>
    <trkpt lat="46.03597468792236" lon="-123.6445438665229"><ele>207.4</ele></trkpt>
    <trkpt lat="46.0360851218596" lon="-123.64474837381408"><ele>208.4</ele></trkpt>
    <trkpt lat="46.03614" lon="-123.64485"><ele>208.9</ele></trkpt>
    <trkpt lat="46.03620325927976" lon="-123.64494137451521"><ele>209.4</ele></trkpt>
    <trkpt lat="46.03623" lon="-123.64498"><ele>209.6</ele></trkpt>
    <trkpt lat="46.03633000000001" lon="-123.64508000000001"><ele>210.2</ele></trkpt>
    <trkpt lat="46.036349090606464" lon="-123.6450897781155"><ele>210.3</ele></trkpt>
    <trkpt lat="46.03664566380158" lon="-123.64524168145935"><ele>211.7</ele></trkpt>
    <trkpt lat="46.036688031400885" lon="-123.64526338193704"><ele>211.9</ele></trkpt>
    <trkpt lat="46.03674" lon="-123.64529000000002"><ele>212.1</ele></trkpt>
    <trkpt lat="46.03677252280636" lon="-123.64530773971256"><ele>212.3</ele></trkpt>
    <trkpt lat="46.03685" lon="-123.64535000000001"><ele>212.5</ele></trkpt>
    <trkpt lat="46.036855200848706" lon="-123.64535693446494"><ele>212.5</ele></trkpt>
    <trkpt lat="46.03694" lon="-123.64547"><ele>212.8</ele></trkpt>
    <trkpt lat="46.036951308752194" lon="-123.64549261750437"><ele>212.9</ele></trkpt>
    <trkpt lat="46.03700386904114" lon="-123.64559773808229"><ele>213.0</ele></trkpt>
    <trkpt lat="46.03701" lon="-123.64561"><ele>213.0</ele></trkpt>
    <trkpt lat="46.037040235735475" lon="-123.64571582507418"><ele>213.1</ele></trkpt>
    <trkpt lat="46.03705" lon="-123.64575"><ele>213.1</ele></trkpt>
    <trkpt lat="46.037074071578914" lon="-123.64583585529813"><ele>213.1</ele></trkpt>
    <trkpt lat="46.037139409201274" lon="-123.64606889281791"><ele>213.4</ele></trkpt>
    <trkpt lat="46.03717207801246" lon="-123.64618541157778"><ele>213.5</ele></trkpt>
    <trkpt lat="46.03720508361551" lon="-123.64630313156198"><ele>213.7</ele></trkpt>
    <trkpt lat="46.03727042123787" lon="-123.64653616908173"><ele>214.2</ele></trkpt>
    <trkpt lat="46.03735226166175" lon="-123.6468280665936"><ele>215.0</ele></trkpt>
    <trkpt lat="46.03741793607598" lon="-123.64706230533767"><ele>215.5</ele></trkpt>
    <trkpt lat="46.03746710768869" lon="-123.64723768408965"><ele>215.9</ele></trkpt>
    <trkpt lat="46.03749977649987" lon="-123.64735420284954"><ele>216.1</ele></trkpt>
    <trkpt lat="46.0375162793014" lon="-123.64741306284164"><ele>216.1</ele></trkpt>
    <trkpt lat="46.03754894811258" lon="-123.64752958160152"><ele>216.2</ele></trkpt>
    <trkpt lat="46.037581280131896" lon="-123.64764489913706"><ele>216.2</ele></trkpt>
    <trkpt lat="46.03764695454612" lon="-123.64787913788115"><ele>216.2</ele></trkpt>
    <trkpt lat="46.037650000000006" lon="-123.64789"><ele>216.2</ele></trkpt>
    <trkpt lat="46.03774358269357" lon="-123.64809588192585"><ele>216.3</ele></trkpt>
    <trkpt lat="46.03775" lon="-123.64811000000002"><ele>216.3</ele></trkpt>
    <trkpt lat="46.03782887322944" lon="-123.64824291599777"><ele>216.4</ele></trkpt>
    <trkpt lat="46.03791594272252" lon="-123.64838964421759"><ele>216.7</ele></trkpt>
    <trkpt lat="46.03803164580728" lon="-123.6485846253419"><ele>217.1</ele></trkpt>
    <trkpt lat="46.03811813094135" lon="-123.64873036880857"><ele>217.4</ele></trkpt>
    <trkpt lat="46.03829" lon="-123.64902000000001"><ele>217.9</ele></trkpt>
    <trkpt lat="46.0384" lon="-123.64911000000001"><ele>218.1</ele></trkpt>
    <trkpt lat="46.038520000000005" lon="-123.64916000000001"><ele>218.3</ele></trkpt>
    <trkpt lat="46.03853904557303" lon="-123.64916313408165"><ele>218.4</ele></trkpt>
    <trkpt lat="46.0388490941381" lon="-123.6492141547316"><ele>219.0</ele></trkpt>
    <trkpt lat="46.03898222738361" lon="-123.64923606273402"><ele>219.2</ele></trkpt>
    <trkpt lat="46.03915914270317" lon="-123.64926517538154"><ele>219.3</ele></trkpt>
    <trkpt lat="46.03924670685122" lon="-123.64927958467172"><ele>219.4</ele></trkpt>
    <trkpt lat="46.03931" lon="-123.64929000000001"><ele>219.3</ele></trkpt>
    <trkpt lat="46.03937145409583" lon="-123.64933916327668"><ele>219.3</ele></trkpt>
    <trkpt lat="46.039410000000004" lon="-123.64937"><ele>219.3</ele></trkpt>
    <trkpt lat="46.039500000000004" lon="-123.64946"><ele>219.2</ele></trkpt>
    <trkpt lat="46.039570000000005" lon="-123.64959"><ele>219.1</ele></trkpt>
    <trkpt lat="46.039570071169116" lon="-123.64959017495742"><ele>219.1</ele></trkpt>
    <trkpt lat="46.03966055383551" lon="-123.64981261151229"><ele>219.1</ele></trkpt>
    <trkpt lat="46.03970556782532" lon="-123.64992327090391"><ele>219.1</ele></trkpt>
    <trkpt lat="46.0397510365019" lon="-123.65003504806717"><ele>219.2</ele></trkpt>
    <trkpt lat="46.03979605049172" lon="-123.65014570745879"><ele>219.3</ele></trkpt>
    <trkpt lat="46.03981" lon="-123.65018"><ele>219.3</ele></trkpt>
    <trkpt lat="46.03985268674783" lon="-123.65024545301334"><ele>219.4</ele></trkpt>
    <trkpt lat="46.03991364967727" lon="-123.65033892950515"><ele>219.6</ele></trkpt>
    <trkpt lat="46.03996" lon="-123.65041000000001"><ele>219.8</ele></trkpt>
    <trkpt lat="46.03997728334347" lon="-123.65043016390072"><ele>219.8</ele></trkpt>
    <trkpt lat="46.04004647273122" lon="-123.65051088485308"><ele>220.1</ele></trkpt>
    <trkpt lat="46.04011636100168" lon="-123.65059242116862"><ele>220.4</ele></trkpt>
    <trkpt lat="46.04014" lon="-123.65062"><ele>220.5</ele></trkpt>
    <trkpt lat="46.04034369137126" lon="-123.65079616551029"><ele>221.5</ele></trkpt>
    <trkpt lat="46.040420795786474" lon="-123.65086285040992"><ele>221.8</ele></trkpt>
    <trkpt lat="46.04049712915753" lon="-123.65092886846057"><ele>222.0</ele></trkpt>
    <trkpt lat="46.040510000000005" lon="-123.65094"><ele>222.0</ele></trkpt>
    <trkpt lat="46.040534225646724" lon="-123.65096537924894"><ele>222.1</ele></trkpt>
    <trkpt lat="46.04060695948753" lon="-123.65104157660599"><ele>222.2</ele></trkpt>
    <trkpt lat="46.04064259906954" lon="-123.65107891331095"><ele>222.2</ele></trkpt>
    <trkpt lat="46.040678965989954" lon="-123.65111701198947"><ele>222.2</ele></trkpt>
    <trkpt lat="46.04072" lon="-123.65116"><ele>222.1</ele></trkpt>
    <trkpt lat="46.04075532785133" lon="-123.65118445774324"><ele>222.1</ele></trkpt>
    <trkpt lat="46.04083557544101" lon="-123.65124001376685"><ele>221.8</ele></trkpt>
    <trkpt lat="46.040850000000006" lon="-123.65125"><ele>221.8</ele></trkpt>
    <trkpt lat="46.04092269361256" lon="-123.65126938496334"><ele>221.5</ele></trkpt>
    <trkpt lat="46.041000000000004" lon="-123.65129"><ele>221.2</ele></trkpt>
    <trkpt lat="46.0410104065641" lon="-123.65128946172943"><ele>221.1</ele></trkpt>
    <trkpt lat="46.041100280891555" lon="-123.65128481305733"><ele>220.7</ele></trkpt>
    <trkpt lat="46.04118925647574" lon="-123.65128021087195"><ele>220.3</ele></trkpt>
    <trkpt lat="46.04150201913529" lon="-123.651264033493"><ele>218.5</ele></trkpt>
    <trkpt lat="46.04158" lon="-123.65126000000001"><ele>218.1</ele></trkpt>
    <trkpt lat="46.04163543626064" lon="-123.65127108725213"><ele>217.8</ele></trkpt>
    <trkpt lat="46.04172362341604" lon="-123.65128872468321"><ele>217.4</ele></trkpt>
    <trkpt lat="46.04173" lon="-123.65129"><ele>217.4</ele></trkpt>
    <trkpt lat="46.0418076120948" lon="-123.65133434976846"><ele>217.0</ele></trkpt>
    <trkpt lat="46.04184857427105" lon="-123.65135775672633"><ele>216.8</ele></trkpt>
    <trkpt lat="46.04193217054911" lon="-123.65140552602807"><ele>216.5</ele></trkpt>
    <trkpt lat="46.042010000000005" lon="-123.65145000000001"><ele>216.2</ele></trkpt>
    <trkpt lat="46.04201475115056" lon="-123.65145339863325"><ele>216.2</ele></trkpt>
    <trkpt lat="46.0420953006185" lon="-123.65151101796069"><ele>216.0</ele></trkpt>
    <trkpt lat="46.042175044591765" lon="-123.65156806109485"><ele>215.7</ele></trkpt>
    <trkpt lat="46.04269217217593" lon="-123.65193797717696"><ele>214.3</ele></trkpt>
    <trkpt lat="46.04277111065451" lon="-123.65199444411783"><ele>214.2</ele></trkpt>
    <trkpt lat="46.04281057989381" lon="-123.65202267758828"><ele>214.1</ele></trkpt>
    <trkpt lat="46.04288951837239" lon="-123.65207914452915"><ele>214.0</ele></trkpt>
    <trkpt lat="46.04304739532955" lon="-123.65219207841093"><ele>214.0</ele></trkpt>
    <trkpt lat="46.04312633380813" lon="-123.65224854535181"><ele>213.9</ele></trkpt>
    <trkpt lat="46.043380000000006" lon="-123.65243000000001"><ele>213.6</ele></trkpt>
    <trkpt lat="46.043510000000005" lon="-123.65255"><ele>213.5</ele></trkpt>
    <trkpt lat="46.04351163092472" lon="-123.6525520386559"><ele>213.5</ele></trkpt>
    <trkpt lat="46.04361148521868" lon="-123.65267685652336"><ele>213.3</ele></trkpt>
    <trkpt lat="46.04363" lon="-123.65270000000001"><ele>213.3</ele></trkpt>
    <trkpt lat="46.043687231882686" lon="-123.65283142136026"><ele>213.1</ele></trkpt>
    <trkpt lat="46.043734071350585" lon="-123.65293897865692"><ele>212.8</ele></trkpt>
    <trkpt lat="46.04380528645995" lon="-123.65310250964879"><ele>212.4</ele></trkpt>
    <trkpt lat="46.04385260388161" lon="-123.65321116446889"><ele>212.0</ele></trkpt>
    <trkpt lat="46.0439" lon="-123.65332000000001"><ele>211.6</ele></trkpt>
    <trkpt lat="46.043926919880036" lon="-123.65336999406293"><ele>211.3</ele></trkpt>
    <trkpt lat="46.043981492404086" lon="-123.65347134303616"><ele>210.8</ele></trkpt>
    <trkpt lat="46.04403551369051" lon="-123.65357166828237"><ele>210.1</ele></trkpt>
    <trkpt lat="46.04404" lon="-123.65358"><ele>210.0</ele></trkpt>
    <trkpt lat="46.044107866642676" lon="-123.65364786664269"><ele>209.4</ele></trkpt>
    <trkpt lat="46.044230000000006" lon="-123.65377000000001"><ele>208.1</ele></trkpt>
    <trkpt lat="46.04463636948662" lon="-123.65412059328257"><ele>203.9</ele></trkpt>
    <trkpt lat="46.044712753929794" lon="-123.6541864935865"><ele>203.1</ele></trkpt>
    <trkpt lat="46.044740000000004" lon="-123.65421"><ele>202.8</ele></trkpt>
    <trkpt lat="46.04485510535869" lon="-123.65434011910114"><ele>201.4</ele></trkpt>
    <trkpt lat="46.044959819251766" lon="-123.65445849132809"><ele>200.2</ele></trkpt>
    <trkpt lat="46.044970000000006" lon="-123.65447"><ele>200.1</ele></trkpt>
    <trkpt lat="46.04501754919431" lon="-123.65455558854975"><ele>199.4</ele></trkpt>
    <trkpt lat="46.04504564797298" lon="-123.65460616635136"><ele>198.9</ele></trkpt>
    <trkpt lat="46.045120000000004" lon="-123.65474"><ele>197.6</ele></trkpt>
    <trkpt lat="46.04512493901893" lon="-123.65475905050158"><ele>197.5</ele></trkpt>
    <trkpt lat="46.04515577785665" lon="-123.6548780003042"><ele>196.6</ele></trkpt>
    <trkpt lat="46.045190000000005" lon="-123.65501"><ele>195.6</ele></trkpt>
    <trkpt lat="46.04526171871422" lon="-123.6555009973512"><ele>192.4</ele></trkpt>
    <trkpt lat="46.04528005358917" lon="-123.65562652072583"><ele>191.5</ele></trkpt>
    <trkpt lat="46.04529820326336" lon="-123.65575077618759"><ele>190.6</ele></trkpt>
    <trkpt lat="46.045320000000004" lon="-123.65590000000002"><ele>189.5</ele></trkpt>
    <trkpt lat="46.04534712291875" lon="-123.65599643704445"><ele>188.8</ele></trkpt>
    <trkpt lat="46.04538055900297" lon="-123.65611532089945"><ele>187.9</ele></trkpt>
    <trkpt lat="46.045410000000004" lon="-123.65622"><ele>187.2</ele></trkpt>
    <trkpt lat="46.04541537558716" lon="-123.65623169980734"><ele>187.1</ele></trkpt>
    <trkpt lat="46.04546501649592" lon="-123.65633974178525"><ele>186.3</ele></trkpt>
    <trkpt lat="46.04558" lon="-123.65659000000001"><ele>184.3</ele></trkpt>
    <trkpt lat="46.04561736543599" lon="-123.65665538951298"><ele>183.8</ele></trkpt>
    <trkpt lat="46.045702534409344" lon="-123.65680443521636"><ele>182.5</ele></trkpt>
    <trkpt lat="46.04578" lon="-123.65694"><ele>181.4</ele></trkpt>
    <trkpt lat="46.04589000000001" lon="-123.65704000000001"><ele>180.2</ele></trkpt>
    <trkpt lat="46.046020000000006" lon="-123.65712"><ele>178.9</ele></trkpt>
    <trkpt lat="46.04616" lon="-123.65715000000002"><ele>177.7</ele></trkpt>
    <trkpt lat="46.04633823432344" lon="-123.65714230643209"><ele>176.0</ele></trkpt>
    <trkpt lat="46.04656116624137" lon="-123.65713268347162"><ele>173.8</ele></trkpt>
    <trkpt lat="46.046740051127124" lon="-123.65712496182186"><ele>172.2</ele></trkpt>
    <trkpt lat="46.046829943029515" lon="-123.65712108159588"><ele>171.3</ele></trkpt>
    <trkpt lat="46.0469647808831" lon="-123.65711526125685"><ele>170.3</ele></trkpt>
    <trkpt lat="46.04705467278549" lon="-123.65711138103086"><ele>169.6</ele></trkpt>
    <trkpt lat="46.04714366576886" lon="-123.65710753960713"><ele>168.9</ele></trkpt>
    <trkpt lat="46.04727940254146" lon="-123.65710168046584"><ele>168.0</ele></trkpt>
    <trkpt lat="46.04741334147602" lon="-123.65709589892911"><ele>167.3</ele></trkpt>
    <trkpt lat="46.047503233378414" lon="-123.65709201870311"><ele>166.8</ele></trkpt>
    <trkpt lat="46.04755" lon="-123.65709000000001"><ele>166.6</ele></trkpt>
    <trkpt lat="46.04763770043622" lon="-123.65707776272984"><ele>166.2</ele></trkpt>
    <trkpt lat="46.047682457156846" lon="-123.65707151760603"><ele>166.0</ele></trkpt>
    <trkpt lat="46.04781672731873" lon="-123.6570527822346"><ele>165.5</ele></trkpt>
    <trkpt lat="46.04790624076" lon="-123.65704029198699"><ele>165.1</ele></trkpt>
    <trkpt lat="46.04798" lon="-123.65703"><ele>164.6</ele></trkpt>
    <trkpt lat="46.04799534668101" lon="-123.65702441938872"><ele>164.6</ele></trkpt>
    <trkpt lat="46.04808254464217" lon="-123.65699271103922"><ele>164.0</ele></trkpt>
    <trkpt lat="46.0482" lon="-123.65695000000001"><ele>163.2</ele></trkpt>
    <trkpt lat="46.04821316857688" lon="-123.65694425033968"><ele>163.1</ele></trkpt>
    <trkpt lat="46.04829837512606" lon="-123.65690704748017"><ele>162.4</ele></trkpt>
    <trkpt lat="46.048384442347455" lon="-123.65686946883422"><ele>161.6</ele></trkpt>
    <trkpt lat="46.048470509568844" lon="-123.65683189018827"><ele>160.8</ele></trkpt>
    <trkpt lat="46.04855657679024" lon="-123.6567943115423"><ele>160.0</ele></trkpt>
    <trkpt lat="46.04868567762233" lon="-123.65673794357338"><ele>158.9</ele></trkpt>
    <trkpt lat="46.04891000000001" lon="-123.65664000000001"><ele>157.1</ele></trkpt>
    <trkpt lat="46.04892445718141" lon="-123.65663149577566"><ele>157.0</ele></trkpt>
    <trkpt lat="46.049080000000004" lon="-123.65654"><ele>155.7</ele></trkpt>
    <trkpt lat="46.04915081630428" lon="-123.65647543219318"><ele>155.1</ele></trkpt>
    <trkpt lat="46.04933548351056" lon="-123.65630705915214"><ele>153.6</ele></trkpt>
    <trkpt lat="46.049420000000005" lon="-123.65623000000001"><ele>152.9</ele></trkpt>
    <trkpt lat="46.04949711737943" lon="-123.65622678677587"><ele>152.4</ele></trkpt>
    <trkpt lat="46.0495843151964" lon="-123.65622315353349"><ele>151.8</ele></trkpt>
    <trkpt lat="46.04966" lon="-123.65622"><ele>151.2</ele></trkpt>
    <trkpt lat="46.04979755714677" lon="-123.65628431243226"><ele>150.1</ele></trkpt>
    <trkpt lat="46.050090109570355" lon="-123.65642109018874"><ele>147.9</ele></trkpt>
    <trkpt lat="46.050340746588226" lon="-123.65653827113215"><ele>146.0</ele></trkpt>
    <trkpt lat="46.05042457739966" lon="-123.65657746475829"><ele>145.4</ele></trkpt>
    <trkpt lat="46.050430000000006" lon="-123.65658"><ele>145.4</ele></trkpt>
    <trkpt lat="46.05046024017133" lon="-123.65661402019275"><ele>145.2</ele></trkpt>
    <trkpt lat="46.05059000000001" lon="-123.65676"><ele>144.2</ele></trkpt>
    <trkpt lat="46.05061411803379" lon="-123.65683235410137"><ele>143.9</ele></trkpt>
    <trkpt lat="46.050650000000005" lon="-123.65694"><ele>143.4</ele></trkpt>
    <trkpt lat="46.050650000000005" lon="-123.65703"><ele>143.1</ele></trkpt>
    <trkpt lat="46.05057" lon="-123.65738"><ele>141.7</ele></trkpt>
    <trkpt lat="46.050563742364375" lon="-123.65743631872064"><ele>141.5</ele></trkpt>
    <trkpt lat="46.05055" lon="-123.65756"><ele>141.0</ele></trkpt>
    <trkpt lat="46.0505571284355" lon="-123.65768831183892"><ele>140.5</ele></trkpt>
    <trkpt lat="46.050560000000004" lon="-123.65774"><ele>140.3</ele></trkpt>
    <trkpt lat="46.050610000000006" lon="-123.65789000000001"><ele>139.6</ele></trkpt>
    <trkpt lat="46.0506246456582" lon="-123.65791719907952"><ele>139.5</ele></trkpt>
    <trkpt lat="46.05068000000001" lon="-123.65802000000001"><ele>139.1</ele></trkpt>
    <trkpt lat="46.05074674811481" lon="-123.65810009773777"><ele>138.6</ele></trkpt>
    <trkpt lat="46.05078" lon="-123.65814"><ele>138.4</ele></trkpt>
    <trkpt lat="46.05089" lon="-123.65823"><ele>137.8</ele></trkpt>
    <trkpt lat="46.050939649371024" lon="-123.65824379149196"><ele>137.6</ele></trkpt>
    <trkpt lat="46.05119838669677" lon="-123.65831566297132"><ele>136.3</ele></trkpt>
    <trkpt lat="46.05132907995346" lon="-123.65835196665375"><ele>135.5</ele></trkpt>
    <trkpt lat="46.05143" lon="-123.65838000000001"><ele>134.9</ele></trkpt>
    <trkpt lat="46.05166162549831" lon="-123.65851110877264"><ele>133.4</ele></trkpt>
    <trkpt lat="46.051908555771256" lon="-123.65865088062525"><ele>131.6</ele></trkpt>
    <trkpt lat="46.05196" lon="-123.65868"><ele>131.3</ele></trkpt>
    <trkpt lat="46.05228" lon="-123.65882"><ele>129.1</ele></trkpt>
    <trkpt lat="46.05232705505944" lon="-123.65884823303568"><ele>128.8</ele></trkpt>
    <trkpt lat="46.05243" lon="-123.65891"><ele>128.1</ele></trkpt>
    <trkpt lat="46.052480763103105" lon="-123.65896999275824"><ele>127.7</ele></trkpt>
    <trkpt lat="46.05254" lon="-123.65904"><ele>127.3</ele></trkpt>
    <trkpt lat="46.05254859629168" lon="-123.65905105237502"><ele>127.3</ele></trkpt>
    <trkpt lat="46.052613686211046" lon="-123.65913473941421"><ele>126.9</ele></trkpt>
    <trkpt lat="46.05268011819061" lon="-123.65922015195935"><ele>126.6</ele></trkpt>
    <trkpt lat="46.052745208109975" lon="-123.65930383899854"><ele>126.4</ele></trkpt>
    <trkpt lat="46.05281096905944" lon="-123.6593883887907"><ele>126.2</ele></trkpt>
    <trkpt lat="46.052820000000004" lon="-123.6594"><ele>126.2</ele></trkpt>
    <trkpt lat="46.052878826804815" lon="-123.65947143254871"><ele>126.1</ele></trkpt>
    <trkpt lat="46.052945533471615" lon="-123.65955243350126"><ele>126.1</ele></trkpt>
    <trkpt lat="46.052960000000006" lon="-123.65957000000002"><ele>126.1</ele></trkpt>
    <trkpt lat="46.05302581316638" lon="-123.65960484226457"><ele>126.0</ele></trkpt>
    <trkpt lat="46.05313" lon="-123.65966000000002"><ele>126.1</ele></trkpt>
    <trkpt lat="46.05335972721231" lon="-123.65967068498662"><ele>126.4</ele></trkpt>
    <trkpt lat="46.053445118363896" lon="-123.6596746566681"><ele>126.5</ele></trkpt>
    <trkpt lat="46.053530509515475" lon="-123.65967862834957"><ele>126.7</ele></trkpt>
    <trkpt lat="46.053560000000004" lon="-123.65968000000001"><ele>126.8</ele></trkpt>
    <trkpt lat="46.05357235091238" lon="-123.65968463159214"><ele>126.8</ele></trkpt>
    <trkpt lat="46.05364" lon="-123.65971"><ele>127.0</ele></trkpt>
    <trkpt lat="46.05365472293055" lon="-123.65972051637897"><ele>127.1</ele></trkpt>
    <trkpt lat="46.05369259357712" lon="-123.6597475668408"><ele>127.3</ele></trkpt>
    <trkpt lat="46.05371" lon="-123.65976"><ele>127.4</ele></trkpt>
    <trkpt lat="46.053759252330664" lon="-123.65982332442513"><ele>127.7</ele></trkpt>
    <trkpt lat="46.05378" lon="-123.65985"><ele>127.8</ele></trkpt>
    <trkpt lat="46.05381108009197" lon="-123.65991993020691"><ele>128.1</ele></trkpt>
    <trkpt lat="46.05382" lon="-123.65994"><ele>128.2</ele></trkpt>
    <trkpt lat="46.053830000000005" lon="-123.66007"><ele>128.7</ele></trkpt>
    <trkpt lat="46.053827555082336" lon="-123.66010178392963"><ele>128.9</ele></trkpt>
    <trkpt lat="46.05382" lon="-123.6602"><ele>129.2</ele></trkpt>
    <trkpt lat="46.05381276873301" lon="-123.660221943155"><ele>129.3</ele></trkpt>
    <trkpt lat="46.05375760398221" lon="-123.66038933964019"><ele>129.9</ele></trkpt>
    <trkpt lat="46.05371979876838" lon="-123.66050405890977"><ele>130.2</ele></trkpt>
    <trkpt lat="46.05370051039398" lon="-123.66056258914934"><ele>130.4</ele></trkpt>
    <trkpt lat="46.05368122201957" lon="-123.66062111938892"><ele>130.5</ele></trkpt>
    <trkpt lat="46.05366231941265" lon="-123.66067847902369"><ele>130.6</ele></trkpt>
    <trkpt lat="46.053642645270756" lon="-123.66073817986806"><ele>130.7</ele></trkpt>
    <trkpt lat="46.05362374266384" lon="-123.66079553950286"><ele>130.7</ele></trkpt>
    <trkpt lat="46.05360484005693" lon="-123.66085289913762"><ele>130.7</ele></trkpt>
    <trkpt lat="46.05358516591503" lon="-123.660912599982"><ele>130.7</ele></trkpt>
    <trkpt lat="46.05356626330811" lon="-123.66096995961678"><ele>130.6</ele></trkpt>
    <trkpt lat="46.0535469749337" lon="-123.66102848985635"><ele>130.5</ele></trkpt>
    <trkpt lat="46.05353" lon="-123.66108000000001"><ele>130.4</ele></trkpt>
    <trkpt lat="46.053528449332134" lon="-123.66108744320577"><ele>130.4</ele></trkpt>
    <trkpt lat="46.05351577917156" lon="-123.66114825997653"><ele>130.2</ele></trkpt>
    <trkpt lat="46.053489921701" lon="-123.66127237583521"><ele>129.8</ele></trkpt>
    <trkpt lat="46.05348" lon="-123.66132"><ele>129.6</ele></trkpt>
    <trkpt lat="46.053457304606106" lon="-123.66152425854506"><ele>128.9</ele></trkpt>
    <trkpt lat="46.053450000000005" lon="-123.66159"><ele>128.6</ele></trkpt>
    <trkpt lat="46.05347853871905" lon="-123.66177550167377"><ele>127.9</ele></trkpt>
    <trkpt lat="46.05353673625048" lon="-123.66215378562805"><ele>126.3</ele></trkpt>
    <trkpt lat="46.05359000000001" lon="-123.66250000000001"><ele>124.8</ele></trkpt>
    <trkpt lat="46.053591852103004" lon="-123.66259630935566"><ele>124.4</ele></trkpt>
    <trkpt lat="46.05359434322423" lon="-123.66272584765987"><ele>123.9</ele></trkpt>
    <trkpt lat="46.05359803008366" lon="-123.66291756435012"><ele>123.2</ele></trkpt>
    <trkpt lat="46.0536" lon="-123.66302"><ele>122.9</ele></trkpt>
    <trkpt lat="46.05359503849368" lon="-123.6630448075316"><ele>122.8</ele></trkpt>
    <trkpt lat="46.0535452304293" lon="-123.66329384785352"><ele>122.2</ele></trkpt>
    <trkpt lat="46.05353" lon="-123.66337000000001"><ele>122.0</ele></trkpt>
    <trkpt lat="46.0535165701587" lon="-123.66341364698427"><ele>121.9</ele></trkpt>
    <trkpt lat="46.05349834464569" lon="-123.66347287990152"><ele>121.8</ele></trkpt>
    <trkpt lat="46.05346189361968" lon="-123.66359134573607"><ele>121.6</ele></trkpt>
    <trkpt lat="46.05326214199714" lon="-123.66424053850933"><ele>120.7</ele></trkpt>
    <trkpt lat="46.05321000000001" lon="-123.66441"><ele>120.5</ele></trkpt>
    <trkpt lat="46.053160000000005" lon="-123.66464"><ele>120.3</ele></trkpt>
    <trkpt lat="46.05314294438095" lon="-123.66479350057149"><ele>120.1</ele></trkpt>
    <trkpt lat="46.053140000000006" lon="-123.66482"><ele>120.1</ele></trkpt>
    <trkpt lat="46.053140000000006" lon="-123.66504"><ele>119.8</ele></trkpt>
    <trkpt lat="46.053171078661826" lon="-123.66517467420123"><ele>119.6</ele></trkpt>
    <trkpt lat="46.05325620993072" lon="-123.66554357636645"><ele>119.1</ele></trkpt>
    <trkpt lat="46.05332630134212" lon="-123.66584730581582"><ele>118.7</ele></trkpt>
    <trkpt lat="46.053354110889956" lon="-123.66596781385645"><ele>118.5</ele></trkpt>
    <trkpt lat="46.053395825211716" lon="-123.66614857591742"><ele>118.2</ele></trkpt>
    <trkpt lat="46.0534511605365" lon="-123.66638836232481"><ele>117.7</ele></trkpt>
    <trkpt lat="46.05347868631344" lon="-123.66650764069156"><ele>117.5</ele></trkpt>
    <trkpt lat="46.053520684406095" lon="-123.66668963242643"><ele>117.2</ele></trkpt>
    <trkpt lat="46.05358765433763" lon="-123.66697983546305"><ele>117.0</ele></trkpt>
    <trkpt lat="46.05364185457883" lon="-123.6672147031749"><ele>116.9</ele></trkpt>
    <trkpt lat="46.05366881281398" lon="-123.6673315221939"><ele>116.8</ele></trkpt>
    <trkpt lat="46.05373606651641" lon="-123.66762295490443"><ele>116.7</ele></trkpt>
    <trkpt lat="46.053740000000005" lon="-123.66764"><ele>116.7</ele></trkpt>
    <trkpt lat="46.05378863069652" lon="-123.66779197092661"><ele>116.7</ele></trkpt>
    <trkpt lat="46.05388164540436" lon="-123.66808264188862"><ele>116.5</ele></trkpt>
    <trkpt lat="46.053938132069035" lon="-123.66825916271574"><ele>116.5</ele></trkpt>
    <trkpt lat="46.05398" lon="-123.66839000000002"><ele>116.5</ele></trkpt>
    <trkpt lat="46.05399273614419" lon="-123.66843544487814"><ele>116.5</ele></trkpt>
    <trkpt lat="46.0541095908962" lon="-123.66885240387964"><ele>116.7</ele></trkpt>
    <trkpt lat="46.05424294675153" lon="-123.66932824181795"><ele>116.8</ele></trkpt>
    <trkpt lat="46.05427628571536" lon="-123.66944720130253"><ele>116.9</ele></trkpt>
    <trkpt lat="46.05429278681867" lon="-123.66950608023933"><ele>116.9</ele></trkpt>
    <trkpt lat="46.054376639364065" lon="-123.66980528136722"><ele>117.3</ele></trkpt>
    <trkpt lat="46.05442" lon="-123.66996"><ele>117.5</ele></trkpt>
    <trkpt lat="46.05443137594617" lon="-123.6699804767031"><ele>117.5</ele></trkpt>
    <trkpt lat="46.054487017345" lon="-123.67008063122098"><ele>117.6</ele></trkpt>
    <trkpt lat="46.05459830014265" lon="-123.67028094025676"><ele>117.8</ele></trkpt>
    <trkpt lat="46.05462000000001" lon="-123.67032"><ele>117.8</ele></trkpt>
    <trkpt lat="46.054696834887324" lon="-123.67040643924824"><ele>118.1</ele></trkpt>
    <trkpt lat="46.054767013112816" lon="-123.67048538975192"><ele>118.3</ele></trkpt>
    <trkpt lat="46.0548371913383" lon="-123.6705643402556"><ele>118.5</ele></trkpt>
    <trkpt lat="46.054860000000005" lon="-123.67059"><ele>118.6</ele></trkpt>
    <trkpt lat="46.05490976026208" lon="-123.67063620595765"><ele>118.8</ele></trkpt>
    <trkpt lat="46.05498460027583" lon="-123.67070570025614"><ele>119.2</ele></trkpt>
    <trkpt lat="46.05500000000001" lon="-123.67072000000002"><ele>119.3</ele></trkpt>
    <trkpt lat="46.055150000000005" lon="-123.67081"><ele>120.1</ele></trkpt>
    <trkpt lat="46.05523260247787" lon="-123.67083563525175"><ele>120.5</ele></trkpt>
    <trkpt lat="46.05531963974641" lon="-123.67086264681785"><ele>120.9</ele></trkpt>
    <trkpt lat="46.055362718798506" lon="-123.67087601617885"><ele>121.0</ele></trkpt>
    <trkpt lat="46.055406677014936" lon="-123.67088965838396"><ele>121.1</ele></trkpt>
    <trkpt lat="46.05544887690271" lon="-123.67090275490084"><ele>121.2</ele></trkpt>
    <trkpt lat="46.05549283511914" lon="-123.67091639710594"><ele>121.2</ele></trkpt>
    <trkpt lat="46.05553679333557" lon="-123.67093003931103"><ele>121.1</ele></trkpt>
    <trkpt lat="46.05557987238767" lon="-123.67094340867203"><ele>121.1</ele></trkpt>
    <trkpt lat="46.05562295143977" lon="-123.67095677803303"><ele>121.0</ele></trkpt>
    <trkpt lat="46.05566603049187" lon="-123.67097014739403"><ele>120.8</ele></trkpt>
    <trkpt lat="46.0557099887083" lon="-123.67098378959912"><ele>120.6</ele></trkpt>
    <trkpt lat="46.055753067760406" lon="-123.67099715896012"><ele>120.4</ele></trkpt>
    <trkpt lat="46.055840105028935" lon="-123.67102417052622"><ele>119.8</ele></trkpt>
    <trkpt lat="46.056013300401666" lon="-123.67107792081431"><ele>118.6</ele></trkpt>
    <trkpt lat="46.056020000000004" lon="-123.67108"><ele>118.6</ele></trkpt>
    <trkpt lat="46.05609629443427" lon="-123.67112039117109"><ele>118.0</ele></trkpt>
    <trkpt lat="46.05619" lon="-123.67117"><ele>117.4</ele></trkpt>
    <trkpt lat="46.05628092689772" lon="-123.67128786820075"><ele>116.7</ele></trkpt>
    <trkpt lat="46.0563464501994" lon="-123.67137280581406"><ele>116.2</ele></trkpt>
    <trkpt lat="46.05637988045536" lon="-123.67141614133104"><ele>115.9</ele></trkpt>
    <trkpt lat="46.05644540375704" lon="-123.67150107894433"><ele>115.6</ele></trkpt>
    <trkpt lat="46.05646" lon="-123.67152000000002"><ele>115.5</ele></trkpt>
    <trkpt lat="46.05650242041683" lon="-123.67159915028994"><ele>115.3</ele></trkpt>
    <trkpt lat="46.056529356069575" lon="-123.67164940827617"><ele>115.2</ele></trkpt>
    <trkpt lat="46.05655629172232" lon="-123.67169966626238"><ele>115.1</ele></trkpt>
    <trkpt lat="46.05661071273502" lon="-123.67180120790805"><ele>115.0</ele></trkpt>
    <trkpt lat="46.05663764838778" lon="-123.67185146589428"><ele>115.0</ele></trkpt>
    <trkpt lat="46.056692069400476" lon="-123.67195300753993"><ele>115.0</ele></trkpt>
    <trkpt lat="46.05682729737143" lon="-123.67220532314425"><ele>115.0</ele></trkpt>
    <trkpt lat="46.056881718384126" lon="-123.6723068647899"><ele>115.0</ele></trkpt>
    <trkpt lat="46.056908654036874" lon="-123.67235712277612"><ele>115.0</ele></trkpt>
    <trkpt lat="46.05696307504957" lon="-123.67245866442175"><ele>114.9</ele></trkpt>
    <trkpt lat="46.05704443171502" lon="-123.67261046405363"><ele>114.6</ele></trkpt>
    <trkpt lat="46.057152724033216" lon="-123.67281252167173"><ele>114.2</ele></trkpt>
    <trkpt lat="46.057261566058614" lon="-123.67301560496303"><ele>113.6</ele></trkpt>
    <trkpt lat="46.057280000000006" lon="-123.67305"><ele>113.5</ele></trkpt>
    <trkpt lat="46.05738600576116" lon="-123.67319677720775"><ele>113.1</ele></trkpt>
    <trkpt lat="46.05754" lon="-123.67341"><ele>112.3</ele></trkpt>
    <trkpt lat="46.05758493791968" lon="-123.67345194205836"><ele>112.1</ele></trkpt>
    <trkpt lat="46.05765966636342" lon="-123.67352168860587"><ele>111.8</ele></trkpt>
    <trkpt lat="46.05769" lon="-123.67355"><ele>111.8</ele></trkpt>
    <trkpt lat="46.057737597366405" lon="-123.67358015330542"><ele>111.6</ele></trkpt>
    <trkpt lat="46.057981289152316" lon="-123.67373453396561"><ele>111.2</ele></trkpt>
    <trkpt lat="46.05806361745838" lon="-123.67378668959407"><ele>110.9</ele></trkpt>
    <trkpt lat="46.05814429919832" lon="-123.67383780210993"><ele>110.7</ele></trkpt>
    <trkpt lat="46.05822580422131" lon="-123.6738894361821"><ele>110.3</ele></trkpt>
    <trkpt lat="46.0583073092443" lon="-123.67394107025424"><ele>109.9</ele></trkpt>
    <trkpt lat="46.05851066016025" lon="-123.6740698946565"><ele>108.8</ele></trkpt>
    <trkpt lat="46.058592165183256" lon="-123.67412152872868"><ele>108.4</ele></trkpt>
    <trkpt lat="46.05867367020625" lon="-123.67417316280083"><ele>108.0</ele></trkpt>
    <trkpt lat="46.05875435194618" lon="-123.67422427531669"><ele>107.7</ele></trkpt>
    <trkpt lat="46.058916538709106" lon="-123.67432702190473"><ele>107.3</ele></trkpt>
    <trkpt lat="46.058998043732096" lon="-123.67437865597688"><ele>107.2</ele></trkpt>
    <trkpt lat="46.059120712908125" lon="-123.67445636786326"><ele>107.0</ele></trkpt>
    <trkpt lat="46.059283722954106" lon="-123.67455963600757"><ele>106.8</ele></trkpt>
    <trkpt lat="46.05940556884707" lon="-123.67463682633768"><ele>106.6</ele></trkpt>
    <trkpt lat="46.05952823802309" lon="-123.67471453822405"><ele>106.3</ele></trkpt>
    <trkpt lat="46.0596" lon="-123.67476"><ele>106.1</ele></trkpt>
    <trkpt lat="46.05964494820384" lon="-123.67480494820386"><ele>106.0</ele></trkpt>
    <trkpt lat="46.05975503861936" lon="-123.67491503861936"><ele>105.6</ele></trkpt>
    <trkpt lat="46.059864390173026" lon="-123.67502439017302"><ele>105.2</ele></trkpt>
    <trkpt lat="46.059870000000004" lon="-123.67503"><ele>105.1</ele></trkpt>
    <trkpt lat="46.05997000000001" lon="-123.6752"><ele>104.6</ele></trkpt>
    <trkpt lat="46.0599779844574" lon="-123.67522095920066"><ele>104.5</ele></trkpt>
    <trkpt lat="46.06002083105043" lon="-123.67533343150737"><ele>104.2</ele></trkpt>
    <trkpt lat="46.06008488454305" lon="-123.67550157192551"><ele>103.8</ele></trkpt>
    <trkpt lat="46.060127731136085" lon="-123.67561404423223"><ele>103.6</ele></trkpt>
    <trkpt lat="46.06013" lon="-123.67562000000001"><ele>103.6</ele></trkpt>
    <trkpt lat="46.06014950004807" lon="-123.67573821904145"><ele>103.5</ele></trkpt>
    <trkpt lat="46.06018048960105" lon="-123.67592609320639"><ele>103.4</ele></trkpt>
    <trkpt lat="46.06020107997519" lon="-123.67605092234955"><ele>103.3</ele></trkpt>
    <trkpt lat="46.060231861544594" lon="-123.67623753561406"><ele>103.3</ele></trkpt>
    <trkpt lat="46.06028323348812" lon="-123.67654897802174"><ele>103.2</ele></trkpt>
    <trkpt lat="46.06029" lon="-123.67659"><ele>103.3</ele></trkpt>
    <trkpt lat="46.060300000000005" lon="-123.67678000000001"><ele>103.3</ele></trkpt>
    <trkpt lat="46.06028340824413" lon="-123.67699569282638"><ele>103.4</ele></trkpt>
    <trkpt lat="46.06027369760175" lon="-123.67712193117727"><ele>103.4</ele></trkpt>
    <trkpt lat="46.06027" lon="-123.67717"><ele>103.4</ele></trkpt>
    <trkpt lat="46.060279445758894" lon="-123.67737780669557"><ele>103.4</ele></trkpt>
    <trkpt lat="46.060280000000006" lon="-123.67739000000002"><ele>103.4</ele></trkpt>
    <trkpt lat="46.06030408240383" lon="-123.67750077905761"><ele>103.3</ele></trkpt>
    <trkpt lat="46.06033" lon="-123.67762"><ele>103.2</ele></trkpt>
    <trkpt lat="46.06034730463854" lon="-123.67768345034133"><ele>103.2</ele></trkpt>
    <trkpt lat="46.06039599215927" lon="-123.67786197125066"><ele>103.2</ele></trkpt>
    <trkpt lat="46.0604940251402" lon="-123.67822142551405"><ele>103.0</ele></trkpt>
    <trkpt lat="46.06052692211366" lon="-123.6783420477501"><ele>102.9</ele></trkpt>
    <trkpt lat="46.06057593860413" lon="-123.6785217748818"><ele>102.7</ele></trkpt>
    <trkpt lat="46.06064107461159" lon="-123.67876060690915"><ele>102.4</ele></trkpt>
    <trkpt lat="46.06070621061905" lon="-123.6789994389365"><ele>102.1</ele></trkpt>
    <trkpt lat="46.06073877862278" lon="-123.67911885495019"><ele>102.1</ele></trkpt>
    <trkpt lat="46.060869050637706" lon="-123.6795965190049"><ele>101.8</ele></trkpt>
    <trkpt lat="46.06091806712816" lon="-123.6797762461366"><ele>101.7</ele></trkpt>
    <trkpt lat="46.060930000000006" lon="-123.67982"><ele>101.7</ele></trkpt>
    <trkpt lat="46.060932619651005" lon="-123.67990120918103"><ele>101.6</ele></trkpt>
    <trkpt lat="46.06094" lon="-123.68013"><ele>101.3</ele></trkpt>
    <trkpt lat="46.0609021404536" lon="-123.68027602967899"><ele>101.2</ele></trkpt>
    <trkpt lat="46.06087" lon="-123.6804"><ele>101.0</ele></trkpt>
    <trkpt lat="46.06084513856359" lon="-123.6804490854001"><ele>100.9</ele></trkpt>
    <trkpt lat="46.06076613639111" lon="-123.68060506404834"><ele>100.6</ele></trkpt>
    <trkpt lat="46.06066115363841" lon="-123.68081233768828"><ele>100.2</ele></trkpt>
    <trkpt lat="46.060480000000005" lon="-123.68117000000001"><ele>99.6</ele></trkpt>
    <trkpt lat="46.060471336110695" lon="-123.68123931111452"><ele>99.5</ele></trkpt>
    <trkpt lat="46.060460000000006" lon="-123.68133000000002"><ele>99.4</ele></trkpt>
    <trkpt lat="46.06047" lon="-123.68147"><ele>99.2</ele></trkpt>
    <trkpt lat="46.06049490162594" lon="-123.6815509302843"><ele>99.1</ele></trkpt>
    <trkpt lat="46.06051" lon="-123.6816"><ele>99.1</ele></trkpt>
    <trkpt lat="46.06058" lon="-123.68169"><ele>99.0</ele></trkpt>
    <trkpt lat="46.060582717239704" lon="-123.68169163034382"><ele>99.0</ele></trkpt>
    <trkpt lat="46.0606649110508" lon="-123.68174094663048"><ele>98.9</ele></trkpt>
    <trkpt lat="46.060705592836094" lon="-123.68176535570166"><ele>98.9</ele></trkpt>
    <trkpt lat="46.06073000000001" lon="-123.68178"><ele>98.9</ele></trkpt>
    <trkpt lat="46.060792434365865" lon="-123.68179664916424"><ele>98.9</ele></trkpt>
    <trkpt lat="46.060835765589445" lon="-123.68180820415719"><ele>98.9</ele></trkpt>
    <trkpt lat="46.060880000000004" lon="-123.68182000000002"><ele>99.0</ele></trkpt>
    <trkpt lat="46.06092362946184" lon="-123.68181127410764"><ele>99.0</ele></trkpt>
    <trkpt lat="46.06103" lon="-123.68179"><ele>99.2</ele></trkpt>
    <trkpt lat="46.06109885795641" lon="-123.68176704734788"><ele>99.3</ele></trkpt>
    <trkpt lat="46.06118" lon="-123.68174"><ele>99.4</ele></trkpt>
    <trkpt lat="46.06118548118001" lon="-123.68173750224707"><ele>99.5</ele></trkpt>
    <trkpt lat="46.061228355022216" lon="-123.68171796480001"><ele>99.5</ele></trkpt>
    <trkpt lat="46.061313245229776" lon="-123.68167928065479"><ele>99.5</ele></trkpt>
    <trkpt lat="46.06135611907198" lon="-123.6816597432077"><ele>99.5</ele></trkpt>
    <trkpt lat="46.06144100927955" lon="-123.6816210590625"><ele>99.4</ele></trkpt>
    <trkpt lat="46.061651948583176" lon="-123.68152493482287"><ele>99.1</ele></trkpt>
    <trkpt lat="46.06186288788681" lon="-123.68142881058324"><ele>98.7</ele></trkpt>
    <trkpt lat="46.06197" lon="-123.68138"><ele>98.5</ele></trkpt>
    <trkpt lat="46.061989046516345" lon="-123.68136809592728"><ele>98.5</ele></trkpt>
    <trkpt lat="46.06231082641387" lon="-123.68116698349132"><ele>98.1</ele></trkpt>
    <trkpt lat="46.06239168392658" lon="-123.68111644754589"><ele>97.9</ele></trkpt>
    <trkpt lat="46.06251214511899" lon="-123.68104115930063"><ele>97.7</ele></trkpt>
    <trkpt lat="46.06271346382411" lon="-123.68091533510994"><ele>97.1</ele></trkpt>
    <trkpt lat="46.062794321336824" lon="-123.6808647991645"><ele>96.9</ele></trkpt>
    <trkpt lat="46.06287435377287" lon="-123.68081477889196"><ele>96.8</ele></trkpt>
    <trkpt lat="46.06299564004194" lon="-123.68073897497379"><ele>96.7</ele></trkpt>
    <trkpt lat="46.0630360687983" lon="-123.68071370700108"><ele>96.6</ele></trkpt>
    <trkpt lat="46.06309" lon="-123.68068000000001"><ele>96.6</ele></trkpt>
    <trkpt lat="46.06311687836923" lon="-123.6806665608154"><ele>96.6</ele></trkpt>
    <trkpt lat="46.06324177580049" lon="-123.68060411209977"><ele>96.7</ele></trkpt>
    <trkpt lat="46.06329" lon="-123.68058"><ele>96.7</ele></trkpt>
    <trkpt lat="46.06337025711828" lon="-123.68058000000002"><ele>96.8</ele></trkpt>
    <trkpt lat="46.063390000000005" lon="-123.68058"><ele>96.8</ele></trkpt>
    <trkpt lat="46.063500000000005" lon="-123.68061000000002"><ele>97.0</ele></trkpt>
    <trkpt lat="46.0636" lon="-123.68066"><ele>97.1</ele></trkpt>
    <trkpt lat="46.06362280575952" lon="-123.68068280575953"><ele>97.2</ele></trkpt>
    <trkpt lat="46.06369" lon="-123.68075"><ele>97.3</ele></trkpt>
    <trkpt lat="46.06374323097609" lon="-123.68086406637732"><ele>97.5</ele></trkpt>
    <trkpt lat="46.06376" lon="-123.68090000000001"><ele>97.5</ele></trkpt>
    <trkpt lat="46.06379309495321" lon="-123.68104065355115"><ele>97.8</ele></trkpt>
    <trkpt lat="46.0638" lon="-123.68107"><ele>97.8</ele></trkpt>
    <trkpt lat="46.063810000000004" lon="-123.68125"><ele>98.2</ele></trkpt>
    <trkpt lat="46.063786094416486" lon="-123.68135159872998"><ele>98.5</ele></trkpt>
    <trkpt lat="46.063770000000005" lon="-123.68142000000002"><ele>98.6</ele></trkpt>
    <trkpt lat="46.06375419849479" lon="-123.68146983551647"><ele>98.7</ele></trkpt>
    <trkpt lat="46.06371719374877" lon="-123.68158654279233"><ele>98.9</ele></trkpt>
    <trkpt lat="46.063661873522406" lon="-123.68176101427548"><ele>99.1</ele></trkpt>
    <trkpt lat="46.06362524256171" lon="-123.68187654269002"><ele>99.3</ele></trkpt>
    <trkpt lat="46.06355160685499" lon="-123.68210877838042"><ele>99.7</ele></trkpt>
    <trkpt lat="46.06351497589429" lon="-123.68222430679494"><ele>99.9</ele></trkpt>
    <trkpt lat="46.06351" lon="-123.68224000000001"><ele>100.0</ele></trkpt>
    <trkpt lat="46.06346808893647" lon="-123.68240240537122"><ele>100.2</ele></trkpt>
    <trkpt lat="46.06343736598823" lon="-123.68252145679561"><ele>100.3</ele></trkpt>
    <trkpt lat="46.06340664304" lon="-123.68264050822003"><ele>100.3</ele></trkpt>
    <trkpt lat="46.063375606592295" lon="-123.68276077445489"><ele>100.3</ele></trkpt>
    <trkpt lat="46.06335000000001" lon="-123.68286"><ele>100.2</ele></trkpt>
    <trkpt lat="46.063337812499064" lon="-123.68294281960864"><ele>100.2</ele></trkpt>
    <trkpt lat="46.06331952755583" lon="-123.68306707410933"><ele>100.0</ele></trkpt>
    <trkpt lat="46.06331038508421" lon="-123.68312920135966"><ele>99.9</ele></trkpt>
    <trkpt lat="46.06329210014096" lon="-123.68325345586034"><ele>99.6</ele></trkpt>
    <trkpt lat="46.06327381519771" lon="-123.68337771036101"><ele>99.3</ele></trkpt>
    <trkpt lat="46.06325534367342" lon="-123.68350323276476"><ele>98.9</ele></trkpt>
    <trkpt lat="46.063237058730174" lon="-123.68362748726544"><ele>98.5</ele></trkpt>
    <trkpt lat="46.063218773786936" lon="-123.68375174176612"><ele>98.0</ele></trkpt>
    <trkpt lat="46.06320048884369" lon="-123.68387599626679"><ele>97.5</ele></trkpt>
    <trkpt lat="46.063182203900446" lon="-123.68400025076747"><ele>96.9</ele></trkpt>
    <trkpt lat="46.06313630496128" lon="-123.68431215492222"><ele>95.4</ele></trkpt>
    <trkpt lat="46.06311802001804" lon="-123.68443640942289"><ele>94.8</ele></trkpt>
    <trkpt lat="46.0630997350748" lon="-123.68456066392358"><ele>94.3</ele></trkpt>
    <trkpt lat="46.063017266249155" lon="-123.68512107707969"><ele>92.1</ele></trkpt>
    <trkpt lat="46.06299898130591" lon="-123.68524533158036"><ele>91.6</ele></trkpt>
    <trkpt lat="46.06298069636266" lon="-123.68536958608104"><ele>91.0</ele></trkpt>
    <trkpt lat="46.062917258804475" lon="-123.68580067312419"><ele>89.6</ele></trkpt>
    <trkpt lat="46.06291" lon="-123.68585000000002"><ele>89.5</ele></trkpt>
    <trkpt lat="46.06289161362251" lon="-123.68592048111373"><ele>89.3</ele></trkpt>
    <trkpt lat="46.06286059816251" lon="-123.6860393737104"><ele>89.0</ele></trkpt>
    <trkpt lat="46.062850000000005" lon="-123.68608"><ele>88.8</ele></trkpt>
    <trkpt lat="46.06274535323716" lon="-123.68630581669876"><ele>88.2</ele></trkpt>
    <trkpt lat="46.06266" lon="-123.68649"><ele>87.8</ele></trkpt>
    <trkpt lat="46.062644007447275" lon="-123.68651111016959"><ele>87.7</ele></trkpt>
    <trkpt lat="46.06257967819323" lon="-123.68659602478495"><ele>87.5</ele></trkpt>
    <trkpt lat="46.06248285271808" lon="-123.68672383441216"><ele>87.2</ele></trkpt>
    <trkpt lat="46.06241000000001" lon="-123.68682000000001"><ele>87.0</ele></trkpt>
    <trkpt lat="46.06235" lon="-123.68694"><ele>86.8</ele></trkpt>
    <trkpt lat="46.062344032090465" lon="-123.68696586094133"><ele>86.8</ele></trkpt>
    <trkpt lat="46.06232000000001" lon="-123.68707"><ele>86.7</ele></trkpt>
    <trkpt lat="46.06233" lon="-123.68721000000001"><ele>86.5</ele></trkpt>
    <trkpt lat="46.062379859898456" lon="-123.68732055890526"><ele>86.4</ele></trkpt>
    <trkpt lat="46.062451903617976" lon="-123.68748030802246"><ele>86.2</ele></trkpt>
    <trkpt lat="46.06252443743083" lon="-123.68764114386836"><ele>86.0</ele></trkpt>
    <trkpt lat="46.06257246657718" lon="-123.68774764327983"><ele>86.0</ele></trkpt>
    <trkpt lat="46.06264451029671" lon="-123.68790739239705"><ele>85.9</ele></trkpt>
    <trkpt lat="46.06293366536146" lon="-123.68854856232326"><ele>85.9</ele></trkpt>
    <trkpt lat="46.0630434462674" lon="-123.68879198954946"><ele>85.9</ele></trkpt>
    <trkpt lat="46.06313215316015" lon="-123.68898868744208"><ele>85.8</ele></trkpt>
    <trkpt lat="46.063250000000004" lon="-123.68925000000002"><ele>85.4</ele></trkpt>
    <trkpt lat="46.06328149548497" lon="-123.68930249247495"><ele>85.4</ele></trkpt>
    <trkpt lat="46.063370000000006" lon="-123.68945000000001"><ele>85.1</ele></trkpt>
    <trkpt lat="46.06340290253783" lon="-123.68948728954288"><ele>85.0</ele></trkpt>
    <trkpt lat="46.063520000000004" lon="-123.68962"><ele>84.8</ele></trkpt>
    <trkpt lat="46.063680000000005" lon="-123.68972000000001"><ele>84.5</ele></trkpt>
    <trkpt lat="46.06383506438695" lon="-123.68978891750531"><ele>84.2</ele></trkpt>
    <trkpt lat="46.063860000000005" lon="-123.6898"><ele>84.1</ele></trkpt>
    <trkpt lat="46.06422711351797" lon="-123.68988929788276"><ele>83.4</ele></trkpt>
    <trkpt lat="46.06423" lon="-123.68989"><ele>83.4</ele></trkpt>
    <trkpt lat="46.06434732872797" lon="-123.689968219152"><ele>83.1</ele></trkpt>
    <trkpt lat="46.064350000000005" lon="-123.68997000000002"><ele>83.1</ele></trkpt>
    <trkpt lat="46.06452691825359" lon="-123.6901542898475"><ele>82.6</ele></trkpt>
    <trkpt lat="46.06466977807199" lon="-123.69030310215831"><ele>82.2</ele></trkpt>
    <trkpt lat="46.064813366767" lon="-123.69045267371563"><ele>81.9</ele></trkpt>
    <trkpt lat="46.06483" lon="-123.69047"><ele>81.9</ele></trkpt>
    <trkpt lat="46.064930000000004" lon="-123.69069"><ele>81.6</ele></trkpt>
    <trkpt lat="46.06495591733097" lon="-123.69077163959254"><ele>81.5</ele></trkpt>
    <trkpt lat="46.06504758924944" lon="-123.69106040613573"><ele>81.1</ele></trkpt>
    <trkpt lat="46.06510296657162" lon="-123.6912348447006"><ele>81.0</ele></trkpt>
    <trkpt lat="46.06519576100338" lon="-123.69152714716066"><ele>80.6</ele></trkpt>
    <trkpt lat="46.065251138325564" lon="-123.69170158572553"><ele>80.4</ele></trkpt>
    <trkpt lat="46.06533" lon="-123.69195"><ele>80.2</ele></trkpt>
    <trkpt lat="46.06542" lon="-123.69213"><ele>80.1</ele></trkpt>
    <trkpt lat="46.06566459506969" lon="-123.6925295052805"><ele>79.8</ele></trkpt>
    <trkpt lat="46.065720000000006" lon="-123.69262"><ele>79.6</ele></trkpt>
    <trkpt lat="46.06583481293467" lon="-123.69273367617295"><ele>79.5</ele></trkpt>
  </trkseg></trk>
</gpx>
