<?xml version="1.0" encoding="UTF-8"?>
<gpx version="1.1" creator="h2c-tracker" xmlns="http://www.topografix.com/GPX/1/1">
  <metadata><name>Hood to Coast 2026 — Leg 23 (4.16 mi)</name><desc>Derived from the official Hood to Coast Strava route (simplified, 381 points, ~4.17 mi). Verify against the official leg map PDF.</desc></metadata>
  <wpt lat="45.94932871939734" lon="-123.14952863999618"><name>Exchange 22 — Apiary Rd</name></wpt>
  <wpt lat="45.974301958044435" lon="-123.19898490908449"><name>Exchange 23 — Natal Grange</name></wpt>
  <trk><name>HTC Leg 23</name><trkseg>
    <trkpt lat="45.94932871939734" lon="-123.14952863999618"><ele>183.2</ele></trkpt>
    <trkpt lat="45.949310000000004" lon="-123.14973"><ele>183.0</ele></trkpt>
    <trkpt lat="45.949310000000004" lon="-123.14972000000002"><ele>183.0</ele></trkpt>
    <trkpt lat="45.949291292079295" lon="-123.14989148927319"><ele>182.9</ele></trkpt>
    <trkpt lat="45.9492703825113" lon="-123.1500831603131"><ele>182.7</ele></trkpt>
    <trkpt lat="45.949250000000006" lon="-123.15027"><ele>182.4</ele></trkpt>
    <trkpt lat="45.949207162705264" lon="-123.15038780256053"><ele>182.2</ele></trkpt>
    <trkpt lat="45.94917" lon="-123.15049"><ele>182.0</ele></trkpt>
    <trkpt lat="45.94911917637629" lon="-123.15075137863622"><ele>181.7</ele></trkpt>
    <trkpt lat="45.9491" lon="-123.15085"><ele>181.5</ele></trkpt>
    <trkpt lat="45.949046506151035" lon="-123.15105574557299"><ele>181.2</ele></trkpt>
    <trkpt lat="45.94898350808661" lon="-123.15129804582074"><ele>180.9</ele></trkpt>
    <trkpt lat="45.94897" lon="-123.15135000000001"><ele>180.8</ele></trkpt>
    <trkpt lat="45.94893448067076" lon="-123.15154535631085"><ele>180.5</ele></trkpt>
    <trkpt lat="45.948890000000006" lon="-123.15179"><ele>180.1</ele></trkpt>
    <trkpt lat="45.94881088554018" lon="-123.15202734337949"><ele>179.7</ele></trkpt>
    <trkpt lat="45.9487331305918" lon="-123.15226060822464"><ele>179.3</ele></trkpt>
    <trkpt lat="45.9487" lon="-123.15236000000002"><ele>179.2</ele></trkpt>
    <trkpt lat="45.94861854093996" lon="-123.15253649463011"><ele>178.9</ele></trkpt>
    <trkpt lat="45.94849469765168" lon="-123.1528048217547"><ele>178.5</ele></trkpt>
    <trkpt lat="45.948420093261156" lon="-123.15296646460084"><ele>178.3</ele></trkpt>
    <trkpt lat="45.94834" lon="-123.15314000000001"><ele>178.1</ele></trkpt>
    <trkpt lat="45.94825413032821" lon="-123.15326880450769"><ele>177.9</ele></trkpt>
    <trkpt lat="45.948100000000004" lon="-123.15350000000001"><ele>177.5</ele></trkpt>
    <trkpt lat="45.948072120947295" lon="-123.15355297020014"><ele>177.4</ele></trkpt>
    <trkpt lat="45.94790983067048" lon="-123.15386132172611"><ele>177.0</ele></trkpt>
    <trkpt lat="45.94772040155138" lon="-123.15422123705238"><ele>176.4</ele></trkpt>
    <trkpt lat="45.947700000000005" lon="-123.15426000000001"><ele>176.4</ele></trkpt>
    <trkpt lat="45.94763591566829" lon="-123.15437244986508"><ele>176.2</ele></trkpt>
    <trkpt lat="45.94752303958749" lon="-123.15457051544084"><ele>176.0</ele></trkpt>
    <trkpt lat="45.94743866756748" lon="-123.15471856445706"><ele>175.9</ele></trkpt>
    <trkpt lat="45.94724426987276" lon="-123.1550596773931"><ele>175.8</ele></trkpt>
    <trkpt lat="45.94717000000001" lon="-123.15519"><ele>175.7</ele></trkpt>
    <trkpt lat="45.947050000000004" lon="-123.1555"><ele>175.5</ele></trkpt>
    <trkpt lat="45.946924537896955" lon="-123.15573878271226"><ele>175.3</ele></trkpt>
    <trkpt lat="45.94687140374825" lon="-123.1558399089953"><ele>175.3</ele></trkpt>
    <trkpt lat="45.946791160339984" lon="-123.1559926303207"><ele>175.3</ele></trkpt>
    <trkpt lat="45.946740000000005" lon="-123.15609"><ele>175.2</ele></trkpt>
    <trkpt lat="45.946589515282014" lon="-123.15632786294134"><ele>175.2</ele></trkpt>
    <trkpt lat="45.94643000000001" lon="-123.15658"><ele>175.3</ele></trkpt>
    <trkpt lat="45.94637414400982" lon="-123.15672688056678"><ele>175.3</ele></trkpt>
    <trkpt lat="45.946247275717816" lon="-123.1570604971865"><ele>175.4</ele></trkpt>
    <trkpt lat="45.94618341004701" lon="-123.15722844024678"><ele>175.3</ele></trkpt>
    <trkpt lat="45.946160000000006" lon="-123.15729"><ele>175.3</ele></trkpt>
    <trkpt lat="45.946113618163565" lon="-123.15746076948872"><ele>175.2</ele></trkpt>
    <trkpt lat="45.94600891166938" lon="-123.15784627976274"><ele>175.1</ele></trkpt>
    <trkpt lat="45.9459444517339" lon="-123.15808360952519"><ele>175.1</ele></trkpt>
    <trkpt lat="45.94594" lon="-123.1581"><ele>175.1</ele></trkpt>
    <trkpt lat="45.94590602017186" lon="-123.1582668100654"><ele>175.1</ele></trkpt>
    <trkpt lat="45.94583" lon="-123.15864"><ele>174.9</ele></trkpt>
    <trkpt lat="45.94567000000001" lon="-123.15908"><ele>174.6</ele></trkpt>
    <trkpt lat="45.94565828229186" lon="-123.15915099552585"><ele>174.6</ele></trkpt>
    <trkpt lat="45.945627335691576" lon="-123.15933849551578"><ele>174.5</ele></trkpt>
    <trkpt lat="45.94555547311643" lon="-123.15977389817698"><ele>174.6</ele></trkpt>
    <trkpt lat="45.945524734211446" lon="-123.15996013977772"><ele>174.5</ele></trkpt>
    <trkpt lat="45.94550417237636" lon="-123.16008472030795"><ele>174.5</ele></trkpt>
    <trkpt lat="45.9455" lon="-123.16011"><ele>174.5</ele></trkpt>
    <trkpt lat="45.945417915415405" lon="-123.16044675727017"><ele>174.4</ele></trkpt>
    <trkpt lat="45.94531468160595" lon="-123.16087028059098"><ele>174.4</ele></trkpt>
    <trkpt lat="45.945197167615376" lon="-123.16135238927029"><ele>174.3</ele></trkpt>
    <trkpt lat="45.945138261868195" lon="-123.16159405387411"><ele>174.2</ele></trkpt>
    <trkpt lat="45.94511000000001" lon="-123.16171000000001"><ele>174.1</ele></trkpt>
    <trkpt lat="45.94510988749687" lon="-123.16171517514428"><ele>174.1</ele></trkpt>
    <trkpt lat="45.94510710535948" lon="-123.16184315346388"><ele>174.0</ele></trkpt>
    <trkpt lat="45.945104323222104" lon="-123.16197113178347"><ele>173.9</ele></trkpt>
    <trkpt lat="45.94510154108472" lon="-123.1620991101031"><ele>173.8</ele></trkpt>
    <trkpt lat="45.945100000000004" lon="-123.16217"><ele>173.8</ele></trkpt>
    <trkpt lat="45.94511612335127" lon="-123.16228823790928"><ele>173.8</ele></trkpt>
    <trkpt lat="45.945130000000006" lon="-123.16239000000002"><ele>173.8</ele></trkpt>
    <trkpt lat="45.945190000000004" lon="-123.16257000000002"><ele>173.8</ele></trkpt>
    <trkpt lat="45.945240150176694" lon="-123.16269633986823"><ele>173.8</ele></trkpt>
    <trkpt lat="45.945328429751626" lon="-123.16291873648967"><ele>173.8</ele></trkpt>
    <trkpt lat="45.94546084911402" lon="-123.16325233142186"><ele>173.9</ele></trkpt>
    <trkpt lat="45.945615115441925" lon="-123.16364096390177"><ele>174.0</ele></trkpt>
    <trkpt lat="45.945710000000005" lon="-123.16388"><ele>174.1</ele></trkpt>
    <trkpt lat="45.945786829809805" lon="-123.16401383257192"><ele>174.1</ele></trkpt>
    <trkpt lat="45.945871569084915" lon="-123.16416144292211"><ele>174.2</ele></trkpt>
    <trkpt lat="45.946020000000004" lon="-123.16442"><ele>174.1</ele></trkpt>
    <trkpt lat="45.94607672465648" lon="-123.16449892126118"><ele>174.1</ele></trkpt>
    <trkpt lat="45.946140714117846" lon="-123.16458795007702"><ele>174.1</ele></trkpt>
    <trkpt lat="45.946250000000006" lon="-123.16474000000001"><ele>174.2</ele></trkpt>
    <trkpt lat="45.946530435983" lon="-123.16500921854367"><ele>174.4</ele></trkpt>
    <trkpt lat="45.94664113816895" lon="-123.1651154926422"><ele>174.3</ele></trkpt>
    <trkpt lat="45.9467151889555" lon="-123.16518658139728"><ele>174.3</ele></trkpt>
    <trkpt lat="45.94675" lon="-123.16522"><ele>174.2</ele></trkpt>
    <trkpt lat="45.94691800203852" lon="-123.16531754957077"><ele>174.2</ele></trkpt>
    <trkpt lat="45.94704142232725" lon="-123.16538921296421"><ele>174.2</ele></trkpt>
    <trkpt lat="45.94706" lon="-123.1654"><ele>174.2</ele></trkpt>
    <trkpt lat="45.947378308481746" lon="-123.16555915424087"><ele>174.2</ele></trkpt>
    <trkpt lat="45.94750402726133" lon="-123.16562201363068"><ele>174.2</ele></trkpt>
    <trkpt lat="45.94771469116226" lon="-123.16572734558115"><ele>174.2</ele></trkpt>
    <trkpt lat="45.948" lon="-123.16587000000001"><ele>174.2</ele></trkpt>
    <trkpt lat="45.948395264271326" lon="-123.16603253857888"><ele>174.2</ele></trkpt>
    <trkpt lat="45.94848086690419" lon="-123.16606773966154"><ele>174.2</ele></trkpt>
    <trkpt lat="45.94856646953706" lon="-123.16610294074422"><ele>174.1</ele></trkpt>
    <trkpt lat="45.949036851681285" lon="-123.16629636891567"><ele>173.6</ele></trkpt>
    <trkpt lat="45.949070000000006" lon="-123.16631000000001"><ele>173.5</ele></trkpt>
    <trkpt lat="45.9495555923877" lon="-123.16648509340904"><ele>173.2</ele></trkpt>
    <trkpt lat="45.94990103357008" lon="-123.16660965152766"><ele>172.8</ele></trkpt>
    <trkpt lat="45.95003101017659" lon="-123.16665651809254"><ele>172.7</ele></trkpt>
    <trkpt lat="45.950160114456864" lon="-123.16670307011665"><ele>172.7</ele></trkpt>
    <trkpt lat="45.950290091063366" lon="-123.1667499366815"><ele>172.7</ele></trkpt>
    <trkpt lat="45.95042006766987" lon="-123.16679680324634"><ele>172.7</ele></trkpt>
    <trkpt lat="45.950506427965465" lon="-123.16682794277601"><ele>172.8</ele></trkpt>
    <trkpt lat="45.95072189254134" lon="-123.16690563432982"><ele>173.1</ele></trkpt>
    <trkpt lat="45.95085186914785" lon="-123.16695250089467"><ele>173.2</ele></trkpt>
    <trkpt lat="45.95098097342813" lon="-123.1669990529188"><ele>173.3</ele></trkpt>
    <trkpt lat="45.95106646139751" lon="-123.16702987790777"><ele>173.3</ele></trkpt>
    <trkpt lat="45.951150000000005" lon="-123.16706"><ele>173.2</ele></trkpt>
    <trkpt lat="45.95141492037264" lon="-123.16712802009569"><ele>173.1</ele></trkpt>
    <trkpt lat="45.95159021500895" lon="-123.16717302817798"><ele>173.0</ele></trkpt>
    <trkpt lat="45.951890000000006" lon="-123.16725000000001"><ele>173.0</ele></trkpt>
    <trkpt lat="45.952117018902406" lon="-123.16727837736282"><ele>173.0</ele></trkpt>
    <trkpt lat="45.95221" lon="-123.16729000000001"><ele>172.9</ele></trkpt>
    <trkpt lat="45.95252000000001" lon="-123.16728"><ele>172.8</ele></trkpt>
    <trkpt lat="45.952603668067844" lon="-123.16725908298304"><ele>172.8</ele></trkpt>
    <trkpt lat="45.95269138581979" lon="-123.16723715354506"><ele>172.8</ele></trkpt>
    <trkpt lat="45.95282251942876" lon="-123.16720437014283"><ele>172.8</ele></trkpt>
    <trkpt lat="45.95284" lon="-123.16720000000001"><ele>172.8</ele></trkpt>
    <trkpt lat="45.95307876272761" lon="-123.16709217167141"><ele>172.7</ele></trkpt>
    <trkpt lat="45.95315" lon="-123.16706"><ele>172.6</ele></trkpt>
    <trkpt lat="45.95328154728597" lon="-123.16698995534124"><ele>172.5</ele></trkpt>
    <trkpt lat="45.953402995003685" lon="-123.16692528837467"><ele>172.4</ele></trkpt>
    <trkpt lat="45.9535244427214" lon="-123.16686062140809"><ele>172.4</ele></trkpt>
    <trkpt lat="45.95376649476991" lon="-123.1667317365511"><ele>172.4</ele></trkpt>
    <trkpt lat="45.95389215942227" lon="-123.16666482420374"><ele>172.3</ele></trkpt>
    <trkpt lat="45.953920000000004" lon="-123.16665"><ele>172.3</ele></trkpt>
    <trkpt lat="45.954174051521264" lon="-123.1664668465777"><ele>172.3</ele></trkpt>
    <trkpt lat="45.954350000000005" lon="-123.16634"><ele>172.3</ele></trkpt>
    <trkpt lat="45.954491638406424" lon="-123.16622420801812"><ele>172.3</ele></trkpt>
    <trkpt lat="45.95464722907954" lon="-123.1660970098036"><ele>172.2</ele></trkpt>
    <trkpt lat="45.95472541534745" lon="-123.16603309110283"><ele>172.2</ele></trkpt>
    <trkpt lat="45.95499828542242" lon="-123.16581001483716"><ele>172.3</ele></trkpt>
    <trkpt lat="45.95523284422612" lon="-123.16561825873487"><ele>172.5</ele></trkpt>
    <trkpt lat="45.95531103049402" lon="-123.1655543400341"><ele>172.5</ele></trkpt>
    <trkpt lat="45.9554275280332" lon="-123.16545910116996"><ele>172.5</ele></trkpt>
    <trkpt lat="45.955504932438416" lon="-123.16539582165619"><ele>172.5</ele></trkpt>
    <trkpt lat="45.95569961624549" lon="-123.1652366640913"><ele>172.4</ele></trkpt>
    <trkpt lat="45.95572000000001" lon="-123.16522"><ele>172.4</ele></trkpt>
    <trkpt lat="45.955817615608765" lon="-123.16514535276978"><ele>172.3</ele></trkpt>
    <trkpt lat="45.95606" lon="-123.16496000000001"><ele>172.4</ele></trkpt>
    <trkpt lat="45.95627091053425" lon="-123.16487888056375"><ele>172.4</ele></trkpt>
    <trkpt lat="45.956320000000005" lon="-123.16486"><ele>172.4</ele></trkpt>
    <trkpt lat="45.956500000000005" lon="-123.16481000000002"><ele>172.3</ele></trkpt>
    <trkpt lat="45.95662339430574" lon="-123.1647957621955"><ele>172.3</ele></trkpt>
    <trkpt lat="45.95676" lon="-123.16478000000001"><ele>172.3</ele></trkpt>
    <trkpt lat="45.95698079320313" lon="-123.16478919971681"><ele>172.3</ele></trkpt>
    <trkpt lat="45.95729362617153" lon="-123.16480223442383"><ele>172.3</ele></trkpt>
    <trkpt lat="45.95747251628851" lon="-123.16480968817869"><ele>172.3</ele></trkpt>
    <trkpt lat="45.95772" lon="-123.16482"><ele>172.3</ele></trkpt>
    <trkpt lat="45.95782969752442" lon="-123.1648371402382"><ele>172.3</ele></trkpt>
    <trkpt lat="45.957918209793256" lon="-123.16485097028021"><ele>172.3</ele></trkpt>
    <trkpt lat="45.95800761612543" lon="-123.16486494001961"><ele>172.5</ele></trkpt>
    <trkpt lat="45.958040000000004" lon="-123.16487000000001"><ele>172.5</ele></trkpt>
    <trkpt lat="45.95805223530702" lon="-123.1648728235324"><ele>172.6</ele></trkpt>
    <trkpt lat="45.95814014415988" lon="-123.16489311019075"><ele>172.8</ele></trkpt>
    <trkpt lat="45.958228940980945" lon="-123.16491360176485"><ele>173.0</ele></trkpt>
    <trkpt lat="45.95827245142327" lon="-123.16492364263614"><ele>173.2</ele></trkpt>
    <trkpt lat="45.9583" lon="-123.16493000000001"><ele>173.3</ele></trkpt>
    <trkpt lat="45.9583585927481" lon="-123.16495929637406"><ele>173.5</ele></trkpt>
    <trkpt lat="45.958485163660285" lon="-123.16502258183016"><ele>174.1</ele></trkpt>
    <trkpt lat="45.958540000000006" lon="-123.16505000000001"><ele>174.4</ele></trkpt>
    <trkpt lat="45.958605240526055" lon="-123.16510592045091"><ele>174.8</ele></trkpt>
    <trkpt lat="45.958721125690275" lon="-123.16520525059167"><ele>175.4</ele></trkpt>
    <trkpt lat="45.95875" lon="-123.16523000000001"><ele>175.6</ele></trkpt>
    <trkpt lat="45.95889099518756" lon="-123.16541196000559"><ele>176.6</ele></trkpt>
    <trkpt lat="45.95902420810894" lon="-123.16558387668113"><ele>177.4</ele></trkpt>
    <trkpt lat="45.959091149275466" lon="-123.16567026697038"><ele>177.9</ele></trkpt>
    <trkpt lat="45.959157421030326" lon="-123.16575579335671"><ele>178.2</ele></trkpt>
    <trkpt lat="45.95922436219685" lon="-123.16584218364594"><ele>178.6</ele></trkpt>
    <trkpt lat="45.9592906339517" lon="-123.16592771003226"><ele>178.9</ele></trkpt>
    <trkpt lat="45.959357575118226" lon="-123.16601410032149"><ele>179.1</ele></trkpt>
    <trkpt lat="45.95939104570149" lon="-123.16605729546612"><ele>179.1</ele></trkpt>
    <trkpt lat="45.95942384687309" lon="-123.16609962670783"><ele>179.1</ele></trkpt>
    <trkpt lat="45.95945731745635" lon="-123.16614282185245"><ele>179.1</ele></trkpt>
    <trkpt lat="45.95952425862287" lon="-123.16622921214169"><ele>179.0</ele></trkpt>
    <trkpt lat="45.959590530377724" lon="-123.16631473852803"><ele>178.8</ele></trkpt>
    <trkpt lat="45.959657471544254" lon="-123.16640112881724"><ele>178.6</ele></trkpt>
    <trkpt lat="45.95982348563723" lon="-123.16661537673454"><ele>177.8</ele></trkpt>
    <trkpt lat="45.95989042680375" lon="-123.16670176702377"><ele>177.5</ele></trkpt>
    <trkpt lat="45.959923897387014" lon="-123.16674496216837"><ele>177.4</ele></trkpt>
    <trkpt lat="45.959990169141875" lon="-123.16683048855472"><ele>177.2</ele></trkpt>
    <trkpt lat="45.96002363972514" lon="-123.16687368369934"><ele>177.1</ele></trkpt>
    <trkpt lat="45.96008991147999" lon="-123.16695921008566"><ele>177.1</ele></trkpt>
    <trkpt lat="45.96015685264652" lon="-123.1670456003749"><ele>177.0</ele></trkpt>
    <trkpt lat="45.96019032322978" lon="-123.16708879551952"><ele>177.0</ele></trkpt>
    <trkpt lat="45.96023" lon="-123.16714"><ele>177.1</ele></trkpt>
    <trkpt lat="45.960258427480646" lon="-123.16717113485976"><ele>177.1</ele></trkpt>
    <trkpt lat="45.96029420431491" lon="-123.16721031901157"><ele>177.2</ele></trkpt>
    <trkpt lat="45.96032998114918" lon="-123.16724950316339"><ele>177.3</ele></trkpt>
    <trkpt lat="45.960400819281034" lon="-123.16732708778399"><ele>177.5</ele></trkpt>
    <trkpt lat="45.960440000000006" lon="-123.16737"><ele>177.7</ele></trkpt>
    <trkpt lat="45.960515153802376" lon="-123.16742636535179"><ele>178.0</ele></trkpt>
    <trkpt lat="45.960594101150164" lon="-123.16748557586263"><ele>178.4</ele></trkpt>
    <trkpt lat="45.96067384594589" lon="-123.16754538445942"><ele>178.9</ele></trkpt>
    <trkpt lat="45.960800000000006" lon="-123.16764"><ele>179.8</ele></trkpt>
    <trkpt lat="45.9609975436009" lon="-123.16777078118022"><ele>181.1</ele></trkpt>
    <trkpt lat="45.96120178402067" lon="-123.16790599590257"><ele>182.5</ele></trkpt>
    <trkpt lat="45.961283480188584" lon="-123.16796008179153"><ele>183.0</ele></trkpt>
    <trkpt lat="45.961323511310866" lon="-123.16798658387711"><ele>183.2</ele></trkpt>
    <trkpt lat="45.96136435939481" lon="-123.16801362682156"><ele>183.4</ele></trkpt>
    <trkpt lat="45.961405207478776" lon="-123.16804066976604"><ele>183.5</ele></trkpt>
    <trkpt lat="45.96144605556273" lon="-123.16806771271052"><ele>183.6</ele></trkpt>
    <trkpt lat="45.96148690364669" lon="-123.16809475565498"><ele>183.7</ele></trkpt>
    <trkpt lat="45.961527751730635" lon="-123.16812179859944"><ele>183.8</ele></trkpt>
    <trkpt lat="45.961609447898546" lon="-123.16817588448839"><ele>183.8</ele></trkpt>
    <trkpt lat="45.96173199215042" lon="-123.1682570133218"><ele>183.9</ele></trkpt>
    <trkpt lat="45.961813688318315" lon="-123.16831109921074"><ele>184.0</ele></trkpt>
    <trkpt lat="45.96209962490601" lon="-123.16850039982204"><ele>184.4</ele></trkpt>
    <trkpt lat="45.96218050411224" lon="-123.16855394485208"><ele>184.6</ele></trkpt>
    <trkpt lat="45.96238474453202" lon="-123.16868915957444"><ele>184.8</ele></trkpt>
    <trkpt lat="45.96246644069993" lon="-123.16874324546339"><ele>184.9</ele></trkpt>
    <trkpt lat="45.96254813686784" lon="-123.16879733135232"><ele>185.1</ele></trkpt>
    <trkpt lat="45.962588984951786" lon="-123.1688243742968"><ele>185.2</ele></trkpt>
    <trkpt lat="45.96275237728761" lon="-123.16893254607467"><ele>185.8</ele></trkpt>
    <trkpt lat="45.96279322537156" lon="-123.16895958901914"><ele>186.0</ele></trkpt>
    <trkpt lat="45.96283407345552" lon="-123.1689866319636"><ele>186.1</ele></trkpt>
    <trkpt lat="45.96287492153947" lon="-123.16901367490809"><ele>186.1</ele></trkpt>
    <trkpt lat="45.96291576962343" lon="-123.16904071785255"><ele>186.2</ele></trkpt>
    <trkpt lat="45.9629558007457" lon="-123.16906721993813"><ele>186.2</ele></trkpt>
    <trkpt lat="45.96296" lon="-123.16907"><ele>186.2</ele></trkpt>
    <trkpt lat="45.96299458920362" lon="-123.16909987249404"><ele>186.2</ele></trkpt>
    <trkpt lat="45.96303314166781" lon="-123.16913316780402"><ele>186.1</ele></trkpt>
    <trkpt lat="45.96318" lon="-123.16926000000001"><ele>185.9</ele></trkpt>
    <trkpt lat="45.96322209850554" lon="-123.16930758961497"><ele>185.8</ele></trkpt>
    <trkpt lat="45.96329281136386" lon="-123.16938752588956"><ele>185.7</ele></trkpt>
    <trkpt lat="45.96332816779301" lon="-123.16942749402688"><ele>185.7</ele></trkpt>
    <trkpt lat="45.963398880651326" lon="-123.16950743030151"><ele>185.7</ele></trkpt>
    <trkpt lat="45.96341" lon="-123.16952"><ele>185.7</ele></trkpt>
    <trkpt lat="45.963591881793725" lon="-123.16977846360162"><ele>185.7</ele></trkpt>
    <trkpt lat="45.96360000000001" lon="-123.16979"><ele>185.7</ele></trkpt>
    <trkpt lat="45.96365035772018" lon="-123.1698749786528"><ele>185.6</ele></trkpt>
    <trkpt lat="45.96367952979824" lon="-123.16992420653452"><ele>185.6</ele></trkpt>
    <trkpt lat="45.96373787395437" lon="-123.17002266229801"><ele>185.4</ele></trkpt>
    <trkpt lat="45.96376" lon="-123.17006"><ele>185.3</ele></trkpt>
    <trkpt lat="45.963832864274785" lon="-123.17016018837785"><ele>185.1</ele></trkpt>
    <trkpt lat="45.96392" lon="-123.17028"><ele>184.8</ele></trkpt>
    <trkpt lat="45.964067050201336" lon="-123.17046254507753"><ele>184.3</ele></trkpt>
    <trkpt lat="45.96416918182474" lon="-123.17058932916176"><ele>184.1</ele></trkpt>
    <trkpt lat="45.96421" lon="-123.17064"><ele>184.0</ele></trkpt>
    <trkpt lat="45.96435789401198" lon="-123.1707606503782"><ele>183.8</ele></trkpt>
    <trkpt lat="45.964436123854696" lon="-123.17082446946041"><ele>183.7</ele></trkpt>
    <trkpt lat="45.964514353697425" lon="-123.17088828854264"><ele>183.4</ele></trkpt>
    <trkpt lat="45.96459" lon="-123.17095"><ele>183.2</ele></trkpt>
    <trkpt lat="45.96471321370688" lon="-123.17103898767719"><ele>182.9</ele></trkpt>
    <trkpt lat="45.96479358663446" lon="-123.17109703479156"><ele>182.7</ele></trkpt>
    <trkpt lat="45.96487395956204" lon="-123.17115508190591"><ele>182.6</ele></trkpt>
    <trkpt lat="45.96495433248961" lon="-123.17121312902029"><ele>182.5</ele></trkpt>
    <trkpt lat="45.96497442572151" lon="-123.17122764079889"><ele>182.5</ele></trkpt>
    <trkpt lat="45.96531" lon="-123.17147000000001"><ele>181.2</ele></trkpt>
    <trkpt lat="45.96595000000001" lon="-123.17198"><ele>180.3</ele></trkpt>
    <trkpt lat="45.96913000000001" lon="-123.1739"><ele>176.1</ele></trkpt>
    <trkpt lat="45.969770000000004" lon="-123.17441000000001"><ele>175.2</ele></trkpt>
    <trkpt lat="45.97003" lon="-123.17468000000001"><ele>174.8</ele></trkpt>
    <trkpt lat="45.97021452462121" lon="-123.17488904750118"><ele>174.5</ele></trkpt>
    <trkpt lat="45.97026186579259" lon="-123.17494268020076"><ele>174.7</ele></trkpt>
    <trkpt lat="45.97033252425732" lon="-123.17502272900613"><ele>174.8</ele></trkpt>
    <trkpt lat="45.97047384118679" lon="-123.17518282661685"><ele>174.9</ele></trkpt>
    <trkpt lat="45.970578415714606" lon="-123.17530129884881"><ele>174.7</ele></trkpt>
    <trkpt lat="45.97068369682705" lon="-123.1754205715688"><ele>174.4</ele></trkpt>
    <trkpt lat="45.97075435529178" lon="-123.17550062037414"><ele>174.2</ele></trkpt>
    <trkpt lat="45.97085892981959" lon="-123.17561909260608"><ele>173.9</ele></trkpt>
    <trkpt lat="45.97092958828433" lon="-123.17569914141144"><ele>173.6</ele></trkpt>
    <trkpt lat="45.970999540164414" lon="-123.17577838972875"><ele>173.3</ele></trkpt>
    <trkpt lat="45.97121010238932" lon="-123.17601693516873"><ele>172.4</ele></trkpt>
    <trkpt lat="45.97135000614949" lon="-123.17617543180336"><ele>171.8</ele></trkpt>
    <trkpt lat="45.97145528726195" lon="-123.17629470452337"><ele>171.4</ele></trkpt>
    <trkpt lat="45.9715605683744" lon="-123.17641397724334"><ele>171.1</ele></trkpt>
    <trkpt lat="45.97173580136695" lon="-123.17661249828065"><ele>170.6</ele></trkpt>
    <trkpt lat="45.9718410824794" lon="-123.17673177100065"><ele>170.4</ele></trkpt>
    <trkpt lat="45.971946363591854" lon="-123.17685104372063"><ele>170.3</ele></trkpt>
    <trkpt lat="45.97201631547194" lon="-123.17693029203794"><ele>170.2</ele></trkpt>
    <trkpt lat="45.972156925816755" lon="-123.1770895891606"><ele>170.2</ele></trkpt>
    <trkpt lat="45.972539894695615" lon="-123.17752345368567"><ele>170.1</ele></trkpt>
    <trkpt lat="45.97288824092675" lon="-123.17791809429612"><ele>170.0</ele></trkpt>
    <trkpt lat="45.97332279048487" lon="-123.17841039444909"><ele>169.7</ele></trkpt>
    <trkpt lat="45.973490251046286" lon="-123.17860011011781"><ele>169.7</ele></trkpt>
    <trkpt lat="45.97386686066332" lon="-123.17902677025039"><ele>169.6</ele></trkpt>
    <trkpt lat="45.97442718228867" lon="-123.17966155727693"><ele>169.8</ele></trkpt>
    <trkpt lat="45.97462" lon="-123.17988000000001"><ele>169.8</ele></trkpt>
    <trkpt lat="45.97470187172371" lon="-123.17998916229828"><ele>169.8</ele></trkpt>
    <trkpt lat="45.97483248327478" lon="-123.18016331103304"><ele>169.7</ele></trkpt>
    <trkpt lat="45.97486000000001" lon="-123.18020000000001"><ele>169.7</ele></trkpt>
    <trkpt lat="45.97491883506103" lon="-123.1803100350378"><ele>169.6</ele></trkpt>
    <trkpt lat="45.975082256428756" lon="-123.1806156704202"><ele>169.4</ele></trkpt>
    <trkpt lat="45.975245129402616" lon="-123.18092028018046"><ele>169.3</ele></trkpt>
    <trkpt lat="45.97532684008648" lon="-123.18107309787167"><ele>169.2</ele></trkpt>
    <trkpt lat="45.97540855077034" lon="-123.18122591556285"><ele>169.1</ele></trkpt>
    <trkpt lat="45.97551713275291" lon="-123.18142898873637"><ele>168.8</ele></trkpt>
    <trkpt lat="45.97559884343677" lon="-123.18158180642756"><ele>168.7</ele></trkpt>
    <trkpt lat="45.97568055412063" lon="-123.18173462411873"><ele>168.5</ele></trkpt>
    <trkpt lat="45.97576226480449" lon="-123.18188744180992"><ele>168.5</ele></trkpt>
    <trkpt lat="45.97589497611653" lon="-123.18213564235535"><ele>168.4</ele></trkpt>
    <trkpt lat="45.976106656143166" lon="-123.18253153248152"><ele>168.5</ele></trkpt>
    <trkpt lat="45.97617" lon="-123.18265000000001"><ele>168.6</ele></trkpt>
    <trkpt lat="45.97618689481548" lon="-123.18268430681918"><ele>168.6</ele></trkpt>
    <trkpt lat="45.976315326881874" lon="-123.18294510254586"><ele>168.9</ele></trkpt>
    <trkpt lat="45.976444278916155" lon="-123.18320695412567"><ele>169.2</ele></trkpt>
    <trkpt lat="45.976495755736295" lon="-123.18331148358698"><ele>169.3</ele></trkpt>
    <trkpt lat="45.97654723255643" lon="-123.18341601304826"><ele>169.5</ele></trkpt>
    <trkpt lat="45.97675313983697" lon="-123.18383413089344"><ele>170.2</ele></trkpt>
    <trkpt lat="45.976830095083244" lon="-123.18399039715884"><ele>170.4</ele></trkpt>
    <trkpt lat="45.97690757029738" lon="-123.18414771927735"><ele>170.5</ele></trkpt>
    <trkpt lat="45.97706200075779" lon="-123.18446130766125"><ele>170.7</ele></trkpt>
    <trkpt lat="45.97711347757792" lon="-123.18456583712253"><ele>170.7</ele></trkpt>
    <trkpt lat="45.97715" lon="-123.18464000000002"><ele>170.7</ele></trkpt>
    <trkpt lat="45.97726054314755" lon="-123.18488659625223"><ele>170.7</ele></trkpt>
    <trkpt lat="45.97738095296071" lon="-123.18515520275851"><ele>170.8</ele></trkpt>
    <trkpt lat="45.977410000000006" lon="-123.18522000000002"><ele>170.8</ele></trkpt>
    <trkpt lat="45.9774255903624" lon="-123.18526580871914"><ele>170.8</ele></trkpt>
    <trkpt lat="45.97746474920733" lon="-123.18538086804128"><ele>170.7</ele></trkpt>
    <trkpt lat="45.97754306689719" lon="-123.18561098668557"><ele>170.6</ele></trkpt>
    <trkpt lat="45.977602002936536" lon="-123.18578415677648"><ele>170.4</ele></trkpt>
    <trkpt lat="45.97764116178146" lon="-123.18589921609862"><ele>170.2</ele></trkpt>
    <trkpt lat="45.97771947947133" lon="-123.18612933474292"><ele>169.9</ele></trkpt>
    <trkpt lat="45.97775863831626" lon="-123.18624439406506"><ele>169.7</ele></trkpt>
    <trkpt lat="45.97781717881171" lon="-123.18641640194059"><ele>169.6</ele></trkpt>
    <trkpt lat="45.977915273695984" lon="-123.18670463135363"><ele>169.5</ele></trkpt>
    <trkpt lat="45.97798884485918" lon="-123.18692080341341"><ele>169.5</ele></trkpt>
    <trkpt lat="45.97814429360725" lon="-123.18737755405587"><ele>169.5</ele></trkpt>
    <trkpt lat="45.97822" lon="-123.1876"><ele>169.5</ele></trkpt>
    <trkpt lat="45.97823914644873" lon="-123.18766926509394"><ele>169.6</ele></trkpt>
    <trkpt lat="45.97827205338567" lon="-123.1877883107776"><ele>169.6</ele></trkpt>
    <trkpt lat="45.97830529271593" lon="-123.18790855894292"><ele>169.6</ele></trkpt>
    <trkpt lat="45.978354819318" lon="-123.18808772870926"><ele>169.5</ele></trkpt>
    <trkpt lat="45.978470824580576" lon="-123.18850739480621"><ele>169.2</ele></trkpt>
    <trkpt lat="45.97850373151753" lon="-123.18862644048988"><ele>169.1</ele></trkpt>
    <trkpt lat="45.978536970847784" lon="-123.18874668865521"><ele>169.1</ele></trkpt>
    <trkpt lat="45.97856" lon="-123.18883000000001"><ele>169.1</ele></trkpt>
    <trkpt lat="45.978569042648004" lon="-123.18886756176865"><ele>169.1</ele></trkpt>
    <trkpt lat="45.97869" lon="-123.18937000000001"><ele>169.3</ele></trkpt>
    <trkpt lat="45.97870827201113" lon="-123.18947963206682"><ele>169.4</ele></trkpt>
    <trkpt lat="45.978730000000006" lon="-123.18961000000002"><ele>169.4</ele></trkpt>
    <trkpt lat="45.978730000000006" lon="-123.18985"><ele>169.5</ele></trkpt>
    <trkpt lat="45.97872131605301" lon="-123.18992526087399"><ele>169.5</ele></trkpt>
    <trkpt lat="45.9787" lon="-123.19011"><ele>169.6</ele></trkpt>
    <trkpt lat="45.97869852016053" lon="-123.19011651129371"><ele>169.6</ele></trkpt>
    <trkpt lat="45.97865686734696" lon="-123.19029978367337"><ele>169.6</ele></trkpt>
    <trkpt lat="45.97865" lon="-123.19033"><ele>169.6</ele></trkpt>
    <trkpt lat="45.978595975655836" lon="-123.19046806221287"><ele>169.6</ele></trkpt>
    <trkpt lat="45.97856" lon="-123.19056"><ele>169.6</ele></trkpt>
    <trkpt lat="45.97843648178514" lon="-123.1907731685321"><ele>169.6</ele></trkpt>
    <trkpt lat="45.97823778754926" lon="-123.1911160763263"><ele>169.4</ele></trkpt>
    <trkpt lat="45.97806731365413" lon="-123.19141028127433"><ele>169.4</ele></trkpt>
    <trkpt lat="45.977940000000004" lon="-123.19163"><ele>169.4</ele></trkpt>
    <trkpt lat="45.977854687859136" lon="-123.19185038969727"><ele>169.3</ele></trkpt>
    <trkpt lat="45.97782" lon="-123.19194000000002"><ele>169.2</ele></trkpt>
    <trkpt lat="45.97777555398457" lon="-123.19209803027707"><ele>169.2</ele></trkpt>
    <trkpt lat="45.97773" lon="-123.19226"><ele>169.2</ele></trkpt>
    <trkpt lat="45.97770588094326" lon="-123.19240069449764"><ele>169.2</ele></trkpt>
    <trkpt lat="45.97767" lon="-123.19261000000002"><ele>169.2</ele></trkpt>
    <trkpt lat="45.977624637117074" lon="-123.19302733852298"><ele>169.2</ele></trkpt>
    <trkpt lat="45.97762" lon="-123.19307"><ele>169.2</ele></trkpt>
    <trkpt lat="45.97758075238393" lon="-123.19327408760361"><ele>169.2</ele></trkpt>
    <trkpt lat="45.97757000000001" lon="-123.19333"><ele>169.2</ele></trkpt>
    <trkpt lat="45.977526566092095" lon="-123.19344944324676"><ele>169.2</ele></trkpt>
    <trkpt lat="45.97749" lon="-123.19355000000002"><ele>169.2</ele></trkpt>
    <trkpt lat="45.97736390927503" lon="-123.19375284160107"><ele>169.1</ele></trkpt>
    <trkpt lat="45.97726" lon="-123.19392"><ele>169.1</ele></trkpt>
    <trkpt lat="45.977144692633274" lon="-123.19407354705467"><ele>169.1</ele></trkpt>
    <trkpt lat="45.976947997266564" lon="-123.19433547302769"><ele>169.0</ele></trkpt>
    <trkpt lat="45.9768166470049" lon="-123.19451038332511"><ele>169.0</ele></trkpt>
    <trkpt lat="45.97675130189986" lon="-123.19459739900073"><ele>169.0</ele></trkpt>
    <trkpt lat="45.97661995163819" lon="-123.19477230929812"><ele>169.0</ele></trkpt>
    <trkpt lat="45.97655394648158" lon="-123.19486020391994"><ele>169.0</ele></trkpt>
    <trkpt lat="45.97625890343152" lon="-123.19525309287948"><ele>168.9</ele></trkpt>
    <trkpt lat="45.9761928982749" lon="-123.19534098750128"><ele>168.9</ele></trkpt>
    <trkpt lat="45.976094550591554" lon="-123.19547195048779"><ele>169.0</ele></trkpt>
    <trkpt lat="45.97593085780315" lon="-123.19568992914989"><ele>169.1</ele></trkpt>
    <trkpt lat="45.975573769905864" lon="-123.19616543905394"><ele>168.9</ele></trkpt>
    <trkpt lat="45.975313709588804" lon="-123.1965117438639"><ele>168.9</ele></trkpt>
    <trkpt lat="45.975300000000004" lon="-123.19653000000001"><ele>168.9</ele></trkpt>
    <trkpt lat="45.97501929437545" lon="-123.19714599289833"><ele>169.0</ele></trkpt>
    <trkpt lat="45.974940000000004" lon="-123.19732"><ele>169.0</ele></trkpt>
    <trkpt lat="45.97490156096814" lon="-123.19741835869917"><ele>169.0</ele></trkpt>
    <trkpt lat="45.97483720405073" lon="-123.19758303669374"><ele>169.0</ele></trkpt>
    <trkpt lat="45.974749925491494" lon="-123.19780636712473"><ele>168.9</ele></trkpt>
    <trkpt lat="45.9746" lon="-123.19819000000001"><ele>168.7</ele></trkpt>
    <trkpt lat="45.9746" lon="-123.19821"><ele>168.7</ele></trkpt>
    <trkpt lat="45.974518819174904" lon="-123.19842107014529"><ele>168.6</ele></trkpt>
    <trkpt lat="45.974301958044435" lon="-123.19898490908449"><ele>168.6</ele></trkpt>
  </trkseg></trk>
</gpx>
