<?xml version="1.0" encoding="UTF-8"?>
<gpx version="1.1" creator="h2c-tracker" xmlns="http://www.topografix.com/GPX/1/1">
  <metadata><name>Hood to Coast 2026 — Leg 1 (6.26 mi)</name><desc>Derived from the official Hood to Coast Strava route (simplified, 612 points, ~6.23 mi). Verify against the official leg map PDF.</desc></metadata>
  <wpt lat="45.33066" lon="-121.70912000000001"><name>Timberline Lodge (start)</name></wpt>
  <wpt lat="45.30468557416842" lon="-121.75928163360152"><name>Exchange 1 — HWY 26/Government Camp Loop</name></wpt>
  <trk><name>HTC Leg 1</name><trkseg>
    <trkpt lat="45.33066" lon="-121.70912000000001"><ele>1796.3</ele></trkpt>
    <trkpt lat="45.330650000000006" lon="-121.70906000000001"><ele>1796.1</ele></trkpt>
    <trkpt lat="45.3306490633552" lon="-121.70906187328961"><ele>1796.1</ele></trkpt>
    <trkpt lat="45.33061000000001" lon="-121.70914"><ele>1795.5</ele></trkpt>
    <trkpt lat="45.33059035789383" lon="-121.70914392842124"><ele>1795.4</ele></trkpt>
    <trkpt lat="45.330560000000006" lon="-121.70915000000001"><ele>1795.1</ele></trkpt>
    <trkpt lat="45.33054718228435" lon="-121.70914439224941"><ele>1794.9</ele></trkpt>
    <trkpt lat="45.33050506272737" lon="-121.70912596494323"><ele>1794.5</ele></trkpt>
    <trkpt lat="45.33042082361344" lon="-121.7090891103309"><ele>1793.5</ele></trkpt>
    <trkpt lat="45.33008" lon="-121.70894000000001"><ele>1789.4</ele></trkpt>
    <trkpt lat="45.32991073535245" lon="-121.70891178922541"><ele>1787.4</ele></trkpt>
    <trkpt lat="45.3299" lon="-121.70891"><ele>1787.3</ele></trkpt>
    <trkpt lat="45.32978040705067" lon="-121.70891"><ele>1785.9</ele></trkpt>
    <trkpt lat="45.32976" lon="-121.70891"><ele>1785.6</ele></trkpt>
    <trkpt lat="45.329431511900694" lon="-121.70891746563862"><ele>1781.6</ele></trkpt>
    <trkpt lat="45.32932" lon="-121.70892"><ele>1780.1</ele></trkpt>
    <trkpt lat="45.32918064787391" lon="-121.70899962978633"><ele>1778.2</ele></trkpt>
    <trkpt lat="45.32918" lon="-121.709"><ele>1778.2</ele></trkpt>
    <trkpt lat="45.329106872751765" lon="-121.70906581452343"><ele>1777.2</ele></trkpt>
    <trkpt lat="45.329080000000005" lon="-121.70909"><ele>1776.8</ele></trkpt>
    <trkpt lat="45.329013890520784" lon="-121.70919577516678"><ele>1775.7</ele></trkpt>
    <trkpt lat="45.32893000000001" lon="-121.70933000000001"><ele>1774.1</ele></trkpt>
    <trkpt lat="45.328928479127626" lon="-121.70933547514059"><ele>1774.1</ele></trkpt>
    <trkpt lat="45.328879238796056" lon="-121.70951274033422"><ele>1772.7</ele></trkpt>
    <trkpt lat="45.32883" lon="-121.70969000000001"><ele>1771.2</ele></trkpt>
    <trkpt lat="45.32881874432031" lon="-121.70975060750604"><ele>1770.7</ele></trkpt>
    <trkpt lat="45.32875006821563" lon="-121.71012040191584"><ele>1767.9</ele></trkpt>
    <trkpt lat="45.328716074692245" lon="-121.71030344396485"><ele>1766.4</ele></trkpt>
    <trkpt lat="45.328700000000005" lon="-121.71039"><ele>1765.6</ele></trkpt>
    <trkpt lat="45.32868382335285" lon="-121.71042073562961"><ele>1765.3</ele></trkpt>
    <trkpt lat="45.32865687528011" lon="-121.71047193696782"><ele>1764.7</ele></trkpt>
    <trkpt lat="45.32860351809608" lon="-121.71057331561745"><ele>1763.4</ele></trkpt>
    <trkpt lat="45.3286" lon="-121.71058000000001"><ele>1763.3</ele></trkpt>
    <trkpt lat="45.32849" lon="-121.71070000000002"><ele>1761.3</ele></trkpt>
    <trkpt lat="45.328370217392546" lon="-121.71074277950267"><ele>1759.5</ele></trkpt>
    <trkpt lat="45.32835" lon="-121.71075"><ele>1759.2</ele></trkpt>
    <trkpt lat="45.32823666773869" lon="-121.71076821411343"><ele>1757.6</ele></trkpt>
    <trkpt lat="45.328103515962795" lon="-121.710789613506"><ele>1755.8</ele></trkpt>
    <trkpt lat="45.32792568238291" lon="-121.71081819390275"><ele>1753.3</ele></trkpt>
    <trkpt lat="45.32779" lon="-121.71084"><ele>1751.4</ele></trkpt>
    <trkpt lat="45.3276587019233" lon="-121.71083094496024"><ele>1749.6</ele></trkpt>
    <trkpt lat="45.32734610497249" lon="-121.71080938654984"><ele>1745.1</ele></trkpt>
    <trkpt lat="45.32725717652959" lon="-121.71080325355378"><ele>1743.9</ele></trkpt>
    <trkpt lat="45.32721" lon="-121.7108"><ele>1743.3</ele></trkpt>
    <trkpt lat="45.32712340960289" lon="-121.71080787185429"><ele>1742.1</ele></trkpt>
    <trkpt lat="45.32694480887878" lon="-121.71082410828376"><ele>1739.8</ele></trkpt>
    <trkpt lat="45.32681108270846" lon="-121.71083626520833"><ele>1738.2</ele></trkpt>
    <trkpt lat="45.32677" lon="-121.71084"><ele>1737.8</ele></trkpt>
    <trkpt lat="45.326416772961025" lon="-121.71094480362697"><ele>1733.6</ele></trkpt>
    <trkpt lat="45.32628471722208" lon="-121.71098398500004"><ele>1732.0</ele></trkpt>
    <trkpt lat="45.325979228279316" lon="-121.71107462457647"><ele>1728.2</ele></trkpt>
    <trkpt lat="45.325891191120014" lon="-121.71110074549188"><ele>1727.2</ele></trkpt>
    <trkpt lat="45.325860000000006" lon="-121.71111"><ele>1726.8</ele></trkpt>
    <trkpt lat="45.325846985464594" lon="-121.71111216908923"><ele>1726.7</ele></trkpt>
    <trkpt lat="45.32575855758166" lon="-121.71112690706973"><ele>1725.7</ele></trkpt>
    <trkpt lat="45.32562" lon="-121.71115"><ele>1724.3</ele></trkpt>
    <trkpt lat="45.32558058372862" lon="-121.71114737224858"><ele>1724.0</ele></trkpt>
    <trkpt lat="45.32549164845556" lon="-121.71114144323036"><ele>1723.2</ele></trkpt>
    <trkpt lat="45.3254018148464" lon="-121.71113545432311"><ele>1722.4</ele></trkpt>
    <trkpt lat="45.325179027495686" lon="-121.71112060183306"><ele>1722.0</ele></trkpt>
    <trkpt lat="45.32517000000001" lon="-121.71112000000001"><ele>1721.9</ele></trkpt>
    <trkpt lat="45.32505065050971" lon="-121.71106316690938"><ele>1720.7</ele></trkpt>
    <trkpt lat="45.324960000000004" lon="-121.71102"><ele>1719.8</ele></trkpt>
    <trkpt lat="45.32485705809957" lon="-121.71091100269366"><ele>1718.6</ele></trkpt>
    <trkpt lat="45.32479000000001" lon="-121.71084"><ele>1717.8</ele></trkpt>
    <trkpt lat="45.324650000000005" lon="-121.71062"><ele>1715.9</ele></trkpt>
    <trkpt lat="45.32458255689638" lon="-121.71041767068911"><ele>1714.4</ele></trkpt>
    <trkpt lat="45.324560000000005" lon="-121.71035"><ele>1713.9</ele></trkpt>
    <trkpt lat="45.32453" lon="-121.71003"><ele>1711.8</ele></trkpt>
    <trkpt lat="45.324540000000006" lon="-121.70982000000001"><ele>1710.5</ele></trkpt>
    <trkpt lat="45.324546213670864" lon="-121.70979126177231"><ele>1710.3</ele></trkpt>
    <trkpt lat="45.32461229987649" lon="-121.70948561307122"><ele>1708.2</ele></trkpt>
    <trkpt lat="45.32462" lon="-121.70945"><ele>1707.9</ele></trkpt>
    <trkpt lat="45.324749681646956" lon="-121.70915821629437"><ele>1705.6</ele></trkpt>
    <trkpt lat="45.32482" lon="-121.709"><ele>1704.4</ele></trkpt>
    <trkpt lat="45.3249879572493" lon="-121.708693725016"><ele>1701.9</ele></trkpt>
    <trkpt lat="45.32499000000001" lon="-121.70869"><ele>1701.9</ele></trkpt>
    <trkpt lat="45.325070000000004" lon="-121.70842"><ele>1700.1</ele></trkpt>
    <trkpt lat="45.325071334899526" lon="-121.7083993090575"><ele>1700.0</ele></trkpt>
    <trkpt lat="45.3250795527026" lon="-121.70827193310978"><ele>1699.2</ele></trkpt>
    <trkpt lat="45.32509" lon="-121.70811"><ele>1698.1</ele></trkpt>
    <trkpt lat="45.325076951101344" lon="-121.70801865770937"><ele>1697.5</ele></trkpt>
    <trkpt lat="45.325070000000004" lon="-121.70797"><ele>1697.1</ele></trkpt>
    <trkpt lat="45.32504472283309" lon="-121.707900487791"><ele>1696.6</ele></trkpt>
    <trkpt lat="45.325003408419555" lon="-121.70778687315375"><ele>1695.7</ele></trkpt>
    <trkpt lat="45.32499000000001" lon="-121.70775"><ele>1695.4</ele></trkpt>
    <trkpt lat="45.324920000000006" lon="-121.70762"><ele>1694.1</ele></trkpt>
    <trkpt lat="45.32486325893326" lon="-121.70754056250655"><ele>1693.2</ele></trkpt>
    <trkpt lat="45.32482" lon="-121.70748"><ele>1692.6</ele></trkpt>
    <trkpt lat="45.32475618538945" lon="-121.70742615642234"><ele>1691.8</ele></trkpt>
    <trkpt lat="45.3245" lon="-121.70721"><ele>1688.8</ele></trkpt>
    <trkpt lat="45.32448560572394" lon="-121.70720009335119"><ele>1688.6</ele></trkpt>
    <trkpt lat="45.32428322464478" lon="-121.70706080754965"><ele>1686.4</ele></trkpt>
    <trkpt lat="45.324040367349795" lon="-121.7068936645878"><ele>1683.9</ele></trkpt>
    <trkpt lat="45.323797510054796" lon="-121.70672652162594"><ele>1681.3</ele></trkpt>
    <trkpt lat="45.3233935574208" lon="-121.70644850716607"><ele>1677.1</ele></trkpt>
    <trkpt lat="45.323272128773304" lon="-121.70636493568517"><ele>1675.9</ele></trkpt>
    <trkpt lat="45.32303008100263" lon="-121.70619834986653"><ele>1673.5</ele></trkpt>
    <trkpt lat="45.322827699923465" lon="-121.70605906406499"><ele>1671.7</ele></trkpt>
    <trkpt lat="45.3228" lon="-121.70604000000002"><ele>1671.5</ele></trkpt>
    <trkpt lat="45.32267202207616" lon="-121.70593121876475"><ele>1670.2</ele></trkpt>
    <trkpt lat="45.3226" lon="-121.70587"><ele>1669.5</ele></trkpt>
    <trkpt lat="45.32246276948602" lon="-121.70569356076774"><ele>1668.0</ele></trkpt>
    <trkpt lat="45.322390000000006" lon="-121.7056"><ele>1667.2</ele></trkpt>
    <trkpt lat="45.32233493822789" lon="-121.70551402635584"><ele>1666.5</ele></trkpt>
    <trkpt lat="45.3222743786444" lon="-121.70541946840967"><ele>1665.7</ele></trkpt>
    <trkpt lat="45.32221381906092" lon="-121.70532491046353"><ele>1664.8</ele></trkpt>
    <trkpt lat="45.32212297968569" lon="-121.70518307354433"><ele>1663.6</ele></trkpt>
    <trkpt lat="45.322002466114554" lon="-121.7049949032315"><ele>1661.8</ele></trkpt>
    <trkpt lat="45.32191223233516" lon="-121.70485401189174"><ele>1660.6</ele></trkpt>
    <trkpt lat="45.32182" lon="-121.70471"><ele>1659.5</ele></trkpt>
    <trkpt lat="45.321747880584006" lon="-121.70464088555968"><ele>1658.8</ele></trkpt>
    <trkpt lat="45.321636755357446" lon="-121.70453439055089"><ele>1657.6</ele></trkpt>
    <trkpt lat="45.321580000000004" lon="-121.70448"><ele>1657.0</ele></trkpt>
    <trkpt lat="45.321520637033565" lon="-121.70444042468905"><ele>1656.4</ele></trkpt>
    <trkpt lat="45.321310000000004" lon="-121.7043"><ele>1654.3</ele></trkpt>
    <trkpt lat="45.32123140307097" lon="-121.70427080685494"><ele>1653.5</ele></trkpt>
    <trkpt lat="45.3210582457448" lon="-121.70420649127664"><ele>1652.0</ele></trkpt>
    <trkpt lat="45.32096000000001" lon="-121.70417"><ele>1651.1</ele></trkpt>
    <trkpt lat="45.32088461863928" lon="-121.70414487287977"><ele>1650.5</ele></trkpt>
    <trkpt lat="45.320754155125684" lon="-121.7041013850419"><ele>1649.4</ele></trkpt>
    <trkpt lat="45.320449448395934" lon="-121.70399981613198"><ele>1646.9</ele></trkpt>
    <trkpt lat="45.320420000000006" lon="-121.70399"><ele>1646.6</ele></trkpt>
    <trkpt lat="45.32022734240549" lon="-121.7039616680008"><ele>1645.1</ele></trkpt>
    <trkpt lat="45.320080000000004" lon="-121.70394"><ele>1643.9</ele></trkpt>
    <trkpt lat="45.319900000000004" lon="-121.70394"><ele>1642.5</ele></trkpt>
    <trkpt lat="45.31987177051738" lon="-121.70394882171333"><ele>1642.3</ele></trkpt>
    <trkpt lat="45.319783933804416" lon="-121.70397627068613"><ele>1641.5</ele></trkpt>
    <trkpt lat="45.31958" lon="-121.70404"><ele>1639.7</ele></trkpt>
    <trkpt lat="45.31952738419456" lon="-121.70407858492399"><ele>1639.2</ele></trkpt>
    <trkpt lat="45.319280000000006" lon="-121.70426"><ele>1636.9</ele></trkpt>
    <trkpt lat="45.31925630053773" lon="-121.70429764032244"><ele>1636.6</ele></trkpt>
    <trkpt lat="45.319196908226765" lon="-121.70439196928692"><ele>1635.8</ele></trkpt>
    <trkpt lat="45.31911" lon="-121.70453"><ele>1634.6</ele></trkpt>
    <trkpt lat="45.319083988629" lon="-121.70458852558474"><ele>1634.2</ele></trkpt>
    <trkpt lat="45.31903641933685" lon="-121.70469555649211"><ele>1633.4</ele></trkpt>
    <trkpt lat="45.319030000000005" lon="-121.70471"><ele>1633.3</ele></trkpt>
    <trkpt lat="45.319015885045395" lon="-121.70475234486382"><ele>1633.0</ele></trkpt>
    <trkpt lat="45.318977361949536" lon="-121.70486791415141"><ele>1632.3</ele></trkpt>
    <trkpt lat="45.31897" lon="-121.70489"><ele>1632.2</ele></trkpt>
    <trkpt lat="45.318956321682094" lon="-121.70499030766467"><ele>1631.7</ele></trkpt>
    <trkpt lat="45.3189392001393" lon="-121.70511586564515"><ele>1631.2</ele></trkpt>
    <trkpt lat="45.31892224981193" lon="-121.70524016804585"><ele>1630.6</ele></trkpt>
    <trkpt lat="45.31891" lon="-121.70533"><ele>1630.3</ele></trkpt>
    <trkpt lat="45.31891657459984" lon="-121.70542861899749"><ele>1629.9</ele></trkpt>
    <trkpt lat="45.318940000000005" lon="-121.70578"><ele>1628.6</ele></trkpt>
    <trkpt lat="45.318946332805325" lon="-121.7058080452807"><ele>1628.5</ele></trkpt>
    <trkpt lat="45.319010000000006" lon="-121.70609"><ele>1627.4</ele></trkpt>
    <trkpt lat="45.31904666161414" lon="-121.70615874052652"><ele>1627.1</ele></trkpt>
    <trkpt lat="45.319250000000004" lon="-121.70654"><ele>1625.4</ele></trkpt>
    <trkpt lat="45.31949382923316" lon="-121.70675944630985"><ele>1624.0</ele></trkpt>
    <trkpt lat="45.31955000000001" lon="-121.70681"><ele>1623.7</ele></trkpt>
    <trkpt lat="45.319720000000004" lon="-121.70691000000001"><ele>1622.7</ele></trkpt>
    <trkpt lat="45.31978015529505" lon="-121.70693857376516"><ele>1622.3</ele></trkpt>
    <trkpt lat="45.319907252676074" lon="-121.70699894502114"><ele>1621.6</ele></trkpt>
    <trkpt lat="45.32011879731025" lon="-121.70709942872239"><ele>1620.5</ele></trkpt>
    <trkpt lat="45.32012" lon="-121.70710000000001"><ele>1620.5</ele></trkpt>
    <trkpt lat="45.32028689127875" lon="-121.70718678346496"><ele>1619.5</ele></trkpt>
    <trkpt lat="45.320412741747205" lon="-121.70725222570856"><ele>1618.7</ele></trkpt>
    <trkpt lat="45.320580823916494" lon="-121.70733962843659"><ele>1617.6</ele></trkpt>
    <trkpt lat="45.320620000000005" lon="-121.70736000000001"><ele>1617.3</ele></trkpt>
    <trkpt lat="45.32073227585494" lon="-121.70747227585494"><ele>1616.4</ele></trkpt>
    <trkpt lat="45.32083" lon="-121.70757"><ele>1615.6</ele></trkpt>
    <trkpt lat="45.32109796805528" lon="-121.70810593611056"><ele>1612.4</ele></trkpt>
    <trkpt lat="45.3211" lon="-121.70811"><ele>1612.3</ele></trkpt>
    <trkpt lat="45.321200000000005" lon="-121.70873000000002"><ele>1609.2</ele></trkpt>
    <trkpt lat="45.321160000000006" lon="-121.70915000000001"><ele>1607.1</ele></trkpt>
    <trkpt lat="45.32115596998428" lon="-121.70916477672434"><ele>1607.0</ele></trkpt>
    <trkpt lat="45.321058730140145" lon="-121.70952132281947"><ele>1605.0</ele></trkpt>
    <trkpt lat="45.32104" lon="-121.70959"><ele>1604.7</ele></trkpt>
    <trkpt lat="45.32087466788609" lon="-121.70987753411117"><ele>1602.7</ele></trkpt>
    <trkpt lat="45.32081" lon="-121.70999"><ele>1601.9</ele></trkpt>
    <trkpt lat="45.320745782334" lon="-121.71004993648828"><ele>1601.4</ele></trkpt>
    <trkpt lat="45.320660000000004" lon="-121.71013"><ele>1600.7</ele></trkpt>
    <trkpt lat="45.32032" lon="-121.71031"><ele>1598.2</ele></trkpt>
    <trkpt lat="45.320100000000004" lon="-121.71035"><ele>1596.7</ele></trkpt>
    <trkpt lat="45.31989" lon="-121.71034000000002"><ele>1595.2</ele></trkpt>
    <trkpt lat="45.31980801864102" lon="-121.71030052749384"><ele>1594.6</ele></trkpt>
    <trkpt lat="45.31962" lon="-121.71021"><ele>1593.2</ele></trkpt>
    <trkpt lat="45.31959874491472" lon="-121.71019014634892"><ele>1593.1</ele></trkpt>
    <trkpt lat="45.31944915890513" lon="-121.71005042315315"><ele>1591.8</ele></trkpt>
    <trkpt lat="45.319373990056086" lon="-121.70998021049195"><ele>1591.2</ele></trkpt>
    <trkpt lat="45.319224404046494" lon="-121.70984048729619"><ele>1590.0</ele></trkpt>
    <trkpt lat="45.3190755697254" lon="-121.70970146622702"><ele>1588.8</ele></trkpt>
    <trkpt lat="45.318963568140326" lon="-121.70959684936184"><ele>1587.8</ele></trkpt>
    <trkpt lat="45.31871" lon="-121.70936"><ele>1585.7</ele></trkpt>
    <trkpt lat="45.318340000000006" lon="-121.70914"><ele>1583.0</ele></trkpt>
    <trkpt lat="45.3179732725377" lon="-121.7090505542775"><ele>1580.5</ele></trkpt>
    <trkpt lat="45.317930000000004" lon="-121.70904000000002"><ele>1580.2</ele></trkpt>
    <trkpt lat="45.317615444375235" lon="-121.70901830650865"><ele>1578.0</ele></trkpt>
    <trkpt lat="45.31739087769462" lon="-121.70900281915137"><ele>1576.6</ele></trkpt>
    <trkpt lat="45.317212122616844" lon="-121.70899049121496"><ele>1575.3</ele></trkpt>
    <trkpt lat="45.316943540866816" lon="-121.70897196833565"><ele>1573.6</ele></trkpt>
    <trkpt lat="45.31685371419457" lon="-121.70896577339273"><ele>1573.0</ele></trkpt>
    <trkpt lat="45.316770000000005" lon="-121.70896"><ele>1572.4</ele></trkpt>
    <trkpt lat="45.316721064937724" lon="-121.70893914243248"><ele>1572.0</ele></trkpt>
    <trkpt lat="45.31659270727961" lon="-121.708884432611"><ele>1571.0</ele></trkpt>
    <trkpt lat="45.316248984423325" lon="-121.708737927787"><ele>1568.1</ele></trkpt>
    <trkpt lat="45.31616" lon="-121.70870000000001"><ele>1567.3</ele></trkpt>
    <trkpt lat="45.31573822055735" lon="-121.70834570526819"><ele>1563.2</ele></trkpt>
    <trkpt lat="45.31566" lon="-121.70828000000002"><ele>1562.5</ele></trkpt>
    <trkpt lat="45.315404945576034" lon="-121.70792292380645"><ele>1559.6</ele></trkpt>
    <trkpt lat="45.315181282438196" lon="-121.70760979541348"><ele>1557.0</ele></trkpt>
    <trkpt lat="45.31506" lon="-121.70744"><ele>1555.6</ele></trkpt>
    <trkpt lat="45.31498586576443" lon="-121.70734733220553"><ele>1554.7</ele></trkpt>
    <trkpt lat="45.314816999731896" lon="-121.70713624966487"><ele>1552.9</ele></trkpt>
    <trkpt lat="45.314780000000006" lon="-121.70709000000001"><ele>1552.5</ele></trkpt>
    <trkpt lat="45.31457820880436" lon="-121.70696668315821"><ele>1550.6</ele></trkpt>
    <trkpt lat="45.314420000000005" lon="-121.70687000000001"><ele>1549.2</ele></trkpt>
    <trkpt lat="45.314325681128004" lon="-121.70683968321973"><ele>1548.3</ele></trkpt>
    <trkpt lat="45.314151119733694" lon="-121.70678357420012"><ele>1546.8</ele></trkpt>
    <trkpt lat="45.31414" lon="-121.70678000000001"><ele>1546.7</ele></trkpt>
    <trkpt lat="45.314017677449776" lon="-121.70676830381991"><ele>1545.7</ele></trkpt>
    <trkpt lat="45.31374938590993" lon="-121.70674265044559"><ele>1543.5</ele></trkpt>
    <trkpt lat="45.31365965629794" lon="-121.70673407072172"><ele>1542.8</ele></trkpt>
    <trkpt lat="45.31339136475809" lon="-121.70670841734739"><ele>1540.4</ele></trkpt>
    <trkpt lat="45.31312307321824" lon="-121.70668276397308"><ele>1538.1</ele></trkpt>
    <trkpt lat="45.312855678974515" lon="-121.70665719639598"><ele>1535.7</ele></trkpt>
    <trkpt lat="45.31276594936253" lon="-121.70664861667211"><ele>1535.0</ele></trkpt>
    <trkpt lat="45.31258738743466" lon="-121.70663154302164"><ele>1533.5</ele></trkpt>
    <trkpt lat="45.312363063404696" lon="-121.70661009371202"><ele>1531.7</ele></trkpt>
    <trkpt lat="45.31205080435497" lon="-121.70658023627298"><ele>1529.1</ele></trkpt>
    <trkpt lat="45.311961074742975" lon="-121.70657165654913"><ele>1528.4</ele></trkpt>
    <trkpt lat="45.31163" lon="-121.70654"><ele>1525.8</ele></trkpt>
    <trkpt lat="45.311558974581146" lon="-121.70653626182008"><ele>1525.2</ele></trkpt>
    <trkpt lat="45.31133519654662" lon="-121.70652448402878"><ele>1523.4</ele></trkpt>
    <trkpt lat="45.311060000000005" lon="-121.70651000000001"><ele>1521.2</ele></trkpt>
    <trkpt lat="45.31098054965692" lon="-121.7065462708088"><ele>1520.5</ele></trkpt>
    <trkpt lat="45.310724523729114" lon="-121.70666315221062"><ele>1518.2</ele></trkpt>
    <trkpt lat="45.3106" lon="-121.70672"><ele>1517.0</ele></trkpt>
    <trkpt lat="45.310451372064655" lon="-121.70687200584297"><ele>1515.4</ele></trkpt>
    <trkpt lat="45.31026957973621" lon="-121.70705792981525"><ele>1513.5</ele></trkpt>
    <trkpt lat="45.310160796375015" lon="-121.70716918552557"><ele>1512.5</ele></trkpt>
    <trkpt lat="45.30990599507932" lon="-121.70742977775978"><ele>1510.2</ele></trkpt>
    <trkpt lat="45.30972420275087" lon="-121.70761570173207"><ele>1508.7</ele></trkpt>
    <trkpt lat="45.309720000000006" lon="-121.70762"><ele>1508.6</ele></trkpt>
    <trkpt lat="45.30941575683933" lon="-121.70769420564895"><ele>1506.4</ele></trkpt>
    <trkpt lat="45.30931" lon="-121.70772000000001"><ele>1505.6</ele></trkpt>
    <trkpt lat="45.3089" lon="-121.70758000000001"><ele>1502.3</ele></trkpt>
    <trkpt lat="45.308853478511665" lon="-121.70754156920529"><ele>1501.9</ele></trkpt>
    <trkpt lat="45.308670000000006" lon="-121.70739"><ele>1500.2</ele></trkpt>
    <trkpt lat="45.30866108210994" lon="-121.70737915391749"><ele>1500.1</ele></trkpt>
    <trkpt lat="45.30852508140352" lon="-121.70721374765294"><ele>1498.6</ele></trkpt>
    <trkpt lat="45.3083" lon="-121.70694"><ele>1496.1</ele></trkpt>
    <trkpt lat="45.308290801981464" lon="-121.70691853795675"><ele>1496.0</ele></trkpt>
    <trkpt lat="45.30815087547259" lon="-121.70659204276939"><ele>1493.7</ele></trkpt>
    <trkpt lat="45.307941219700105" lon="-121.70610284596692"><ele>1490.3</ele></trkpt>
    <trkpt lat="45.30794" lon="-121.7061"><ele>1490.3</ele></trkpt>
    <trkpt lat="45.30789425138035" lon="-121.70592310533733"><ele>1489.1</ele></trkpt>
    <trkpt lat="45.307790000000004" lon="-121.70552"><ele>1486.3</ele></trkpt>
    <trkpt lat="45.30775105069321" lon="-121.70532022774903"><ele>1485.0</ele></trkpt>
    <trkpt lat="45.30765519164133" lon="-121.7048285635797"><ele>1481.8</ele></trkpt>
    <trkpt lat="45.30755957283769" lon="-121.70433813165138"><ele>1478.7</ele></trkpt>
    <trkpt lat="45.30749975102336" lon="-121.70403130363593"><ele>1476.8</ele></trkpt>
    <trkpt lat="45.307439929209025" lon="-121.70372447562048"><ele>1474.9</ele></trkpt>
    <trkpt lat="45.307403891971475" lon="-121.70353963946658"><ele>1473.8</ele></trkpt>
    <trkpt lat="45.30738010739469" lon="-121.70341764760502"><ele>1473.0</ele></trkpt>
    <trkpt lat="45.30732028558036" lon="-121.70311081958957"><ele>1471.2</ele></trkpt>
    <trkpt lat="45.30728424834281" lon="-121.70292598343568"><ele>1470.2</ele></trkpt>
    <trkpt lat="45.30718838929093" lon="-121.70243431926635"><ele>1467.5</ele></trkpt>
    <trkpt lat="45.307170000000006" lon="-121.70234"><ele>1467.0</ele></trkpt>
    <trkpt lat="45.307123848995715" lon="-121.70219641909776"><ele>1466.2</ele></trkpt>
    <trkpt lat="45.30708684060685" lon="-121.70208128188796"><ele>1465.6</ele></trkpt>
    <trkpt lat="45.307080000000006" lon="-121.70206"><ele>1465.5</ele></trkpt>
    <trkpt lat="45.306970364085394" lon="-121.70188771499133"><ele>1464.2</ele></trkpt>
    <trkpt lat="45.306940000000004" lon="-121.70184"><ele>1463.8</ele></trkpt>
    <trkpt lat="45.3068630829276" lon="-121.70177706784985"><ele>1463.1</ele></trkpt>
    <trkpt lat="45.306720000000006" lon="-121.70166"><ele>1461.6</ele></trkpt>
    <trkpt lat="45.306705290725915" lon="-121.70165789867512"><ele>1461.5</ele></trkpt>
    <trkpt lat="45.30657196296856" lon="-121.70163885185265"><ele>1460.3</ele></trkpt>
    <trkpt lat="45.30644" lon="-121.70162"><ele>1459.0</ele></trkpt>
    <trkpt lat="45.30639452806998" lon="-121.70163818877202"><ele>1458.6</ele></trkpt>
    <trkpt lat="45.30619" lon="-121.70172000000001"><ele>1456.5</ele></trkpt>
    <trkpt lat="45.30618234067256" lon="-121.70173212726846"><ele>1456.4</ele></trkpt>
    <trkpt lat="45.30603212217214" lon="-121.70196997322745"><ele>1454.3</ele></trkpt>
    <trkpt lat="45.30595" lon="-121.70210000000002"><ele>1453.1</ele></trkpt>
    <trkpt lat="45.3059336631829" lon="-121.70217623847984"><ele>1452.5</ele></trkpt>
    <trkpt lat="45.30590745247827" lon="-121.70229855510144"><ele>1451.7</ele></trkpt>
    <trkpt lat="45.305890000000005" lon="-121.70238"><ele>1451.1</ele></trkpt>
    <trkpt lat="45.30588530044963" lon="-121.70254918381345"><ele>1450.0</ele></trkpt>
    <trkpt lat="45.30588175133413" lon="-121.70267695197134"><ele>1449.3</ele></trkpt>
    <trkpt lat="45.30588" lon="-121.70274"><ele>1448.9</ele></trkpt>
    <trkpt lat="45.30588740963848" lon="-121.70280390813188"><ele>1448.5</ele></trkpt>
    <trkpt lat="45.305923832966386" lon="-121.70311805933511"><ele>1446.8</ele></trkpt>
    <trkpt lat="45.3059457747302" lon="-121.70330730704794"><ele>1445.7</ele></trkpt>
    <trkpt lat="45.30597488413684" lon="-121.70355837568025"><ele>1444.1</ele></trkpt>
    <trkpt lat="45.306033249228555" lon="-121.70406177459627"><ele>1441.0</ele></trkpt>
    <trkpt lat="45.30604" lon="-121.70412"><ele>1440.7</ele></trkpt>
    <trkpt lat="45.30605880169402" lon="-121.70418345571731"><ele>1440.3</ele></trkpt>
    <trkpt lat="45.306128631765745" lon="-121.7044191322094"><ele>1438.9</ele></trkpt>
    <trkpt lat="45.30616319765125" lon="-121.70453579207296"><ele>1438.2</ele></trkpt>
    <trkpt lat="45.30619811268711" lon="-121.704653630319"><ele>1437.6</ele></trkpt>
    <trkpt lat="45.306200000000004" lon="-121.70466"><ele>1437.5</ele></trkpt>
    <trkpt lat="45.30633487614571" lon="-121.70498273934868"><ele>1435.8</ele></trkpt>
    <trkpt lat="45.306380815739345" lon="-121.70509266623344"><ele>1435.2</ele></trkpt>
    <trkpt lat="45.30648" lon="-121.70533"><ele>1434.1</ele></trkpt>
    <trkpt lat="45.306500945750834" lon="-121.70549756600664"><ele>1433.4</ele></trkpt>
    <trkpt lat="45.306516682777946" lon="-121.70562346222354"><ele>1432.8</ele></trkpt>
    <trkpt lat="45.306520000000006" lon="-121.70565"><ele>1432.7</ele></trkpt>
    <trkpt lat="45.30651542248049" lon="-121.70575070542935"><ele>1432.2</ele></trkpt>
    <trkpt lat="45.30651" lon="-121.70587"><ele>1431.7</ele></trkpt>
    <trkpt lat="45.30648861925332" lon="-121.70593414224003"><ele>1431.3</ele></trkpt>
    <trkpt lat="45.30642" lon="-121.70614"><ele>1430.2</ele></trkpt>
    <trkpt lat="45.30635131909972" lon="-121.70625975131334"><ele>1429.5</ele></trkpt>
    <trkpt lat="45.30615239699708" lon="-121.70660658985126"><ele>1427.3</ele></trkpt>
    <trkpt lat="45.306039295573015" lon="-121.70680379233426"><ele>1426.0</ele></trkpt>
    <trkpt lat="45.30603000000001" lon="-121.70682000000001"><ele>1425.9</ele></trkpt>
    <trkpt lat="45.30591724019703" lon="-121.70707057733995"><ele>1424.4</ele></trkpt>
    <trkpt lat="45.30585000000001" lon="-121.70722"><ele>1423.5</ele></trkpt>
    <trkpt lat="45.30578774750878" lon="-121.70747523521402"><ele>1422.2</ele></trkpt>
    <trkpt lat="45.30575" lon="-121.70763000000001"><ele>1421.3</ele></trkpt>
    <trkpt lat="45.30574008808217" lon="-121.70784806219234"><ele>1420.2</ele></trkpt>
    <trkpt lat="45.30572564594337" lon="-121.70816578924598"><ele>1418.6</ele></trkpt>
    <trkpt lat="45.30572" lon="-121.70829"><ele>1417.9</ele></trkpt>
    <trkpt lat="45.30574413349473" lon="-121.70841670084732"><ele>1417.3</ele></trkpt>
    <trkpt lat="45.30581442494089" lon="-121.70878573093965"><ele>1415.4</ele></trkpt>
    <trkpt lat="45.30584" lon="-121.70892"><ele>1414.7</ele></trkpt>
    <trkpt lat="45.30585948969966" lon="-121.70896331044366"><ele>1414.4</ele></trkpt>
    <trkpt lat="45.30598066142344" lon="-121.70923258094098"><ele>1412.9</ele></trkpt>
    <trkpt lat="45.306020000000004" lon="-121.70932"><ele>1412.4</ele></trkpt>
    <trkpt lat="45.306099505988044" lon="-121.70941962196093"><ele>1411.6</ele></trkpt>
    <trkpt lat="45.306268183687536" lon="-121.70963097715065"><ele>1410.0</ele></trkpt>
    <trkpt lat="45.306334980056526" lon="-121.70971467380576"><ele>1409.4</ele></trkpt>
    <trkpt lat="45.30643618667622" lon="-121.7098414869196"><ele>1408.6</ele></trkpt>
    <trkpt lat="45.30657112883581" lon="-121.71001057107138"><ele>1407.4</ele></trkpt>
    <trkpt lat="45.3067391318245" lon="-121.71022108084034"><ele>1406.0</ele></trkpt>
    <trkpt lat="45.30683966373339" lon="-121.71034704853341"><ele>1405.2</ele></trkpt>
    <trkpt lat="45.306850000000004" lon="-121.71036000000001"><ele>1405.1</ele></trkpt>
    <trkpt lat="45.306940000000004" lon="-121.71066"><ele>1403.6</ele></trkpt>
    <trkpt lat="45.306958638397795" lon="-121.71107936395033"><ele>1401.6</ele></trkpt>
    <trkpt lat="45.306960000000004" lon="-121.71111"><ele>1401.5</ele></trkpt>
    <trkpt lat="45.30687295546687" lon="-121.71137113359941"><ele>1400.0</ele></trkpt>
    <trkpt lat="45.30687" lon="-121.71138"><ele>1400.0</ele></trkpt>
    <trkpt lat="45.306720000000006" lon="-121.71161000000001"><ele>1398.4</ele></trkpt>
    <trkpt lat="45.30661153803949" lon="-121.71171527190288"><ele>1397.5</ele></trkpt>
    <trkpt lat="45.306537261652785" lon="-121.71178736368995"><ele>1396.8</ele></trkpt>
    <trkpt lat="45.306425847072745" lon="-121.71189550137058"><ele>1395.8</ele></trkpt>
    <trkpt lat="45.30624089886989" lon="-121.71207500992041"><ele>1394.1</ele></trkpt>
    <trkpt lat="45.30612948428984" lon="-121.71218314760105"><ele>1393.1</ele></trkpt>
    <trkpt lat="45.30604" lon="-121.71227"><ele>1392.2</ele></trkpt>
    <trkpt lat="45.305910000000004" lon="-121.71251000000001"><ele>1390.5</ele></trkpt>
    <trkpt lat="45.305895863944244" lon="-121.71256065419982"><ele>1390.2</ele></trkpt>
    <trkpt lat="45.30579" lon="-121.71294"><ele>1387.8</ele></trkpt>
    <trkpt lat="45.30578773279733" lon="-121.7130420241205"><ele>1387.2</ele></trkpt>
    <trkpt lat="45.305780000000006" lon="-121.71339"><ele>1385.1</ele></trkpt>
    <trkpt lat="45.30579114937686" lon="-121.71348811451631"><ele>1384.5</ele></trkpt>
    <trkpt lat="45.305826866891806" lon="-121.71380242864787"><ele>1382.5</ele></trkpt>
    <trkpt lat="45.30583" lon="-121.71383000000002"><ele>1382.4</ele></trkpt>
    <trkpt lat="45.30587309301774" lon="-121.71411523473645"><ele>1380.6</ele></trkpt>
    <trkpt lat="45.305929566231185" lon="-121.71448903362544"><ele>1378.3</ele></trkpt>
    <trkpt lat="45.30603344672414" lon="-121.71517662355501"><ele>1374.2</ele></trkpt>
    <trkpt lat="45.30608047625641" lon="-121.71548791426858"><ele>1372.3</ele></trkpt>
    <trkpt lat="45.30610899617356" lon="-121.71567668895833"><ele>1371.3</ele></trkpt>
    <trkpt lat="45.30618416787574" lon="-121.71617425403463"><ele>1368.5</ele></trkpt>
    <trkpt lat="45.30622194260045" lon="-121.7164242867363"><ele>1367.2</ele></trkpt>
    <trkpt lat="45.306250000000006" lon="-121.71661"><ele>1366.3</ele></trkpt>
    <trkpt lat="45.306255375128586" lon="-121.71680350462918"><ele>1365.4</ele></trkpt>
    <trkpt lat="45.30625892426722" lon="-121.71693127361974"><ele>1364.7</ele></trkpt>
    <trkpt lat="45.30626" lon="-121.71697"><ele>1364.5</ele></trkpt>
    <trkpt lat="45.306228890276785" lon="-121.71711517870833"><ele>1363.6</ele></trkpt>
    <trkpt lat="45.306200000000004" lon="-121.71725"><ele>1362.8</ele></trkpt>
    <trkpt lat="45.306150919032845" lon="-121.71734115036759"><ele>1362.2</ele></trkpt>
    <trkpt lat="45.30606" lon="-121.71751"><ele>1360.9</ele></trkpt>
    <trkpt lat="45.305999404460756" lon="-121.71757348104111"><ele>1360.3</ele></trkpt>
    <trkpt lat="45.30585000000001" lon="-121.71773"><ele>1358.7</ele></trkpt>
    <trkpt lat="45.30536327427913" lon="-121.71778035093665"><ele>1354.7</ele></trkpt>
    <trkpt lat="45.30522962852246" lon="-121.71779417635975"><ele>1353.6</ele></trkpt>
    <trkpt lat="45.30498" lon="-121.71782"><ele>1351.8</ele></trkpt>
    <trkpt lat="45.30474" lon="-121.71797000000001"><ele>1349.9</ele></trkpt>
    <trkpt lat="45.30469484024622" lon="-121.71804827690656"><ele>1349.4</ele></trkpt>
    <trkpt lat="45.304590000000005" lon="-121.71823"><ele>1348.2</ele></trkpt>
    <trkpt lat="45.30450982550167" lon="-121.71855069799335"><ele>1346.6</ele></trkpt>
    <trkpt lat="45.30447970547061" lon="-121.71867117811759"><ele>1346.0</ele></trkpt>
    <trkpt lat="45.30447" lon="-121.71871000000002"><ele>1345.8</ele></trkpt>
    <trkpt lat="45.30448427408119" lon="-121.71885793138692"><ele>1345.1</ele></trkpt>
    <trkpt lat="45.304502609075804" lon="-121.71904794860379"><ele>1344.3</ele></trkpt>
    <trkpt lat="45.304514832405545" lon="-121.71917462674838"><ele>1343.8</ele></trkpt>
    <trkpt lat="45.30454539072989" lon="-121.7194913221098"><ele>1342.7</ele></trkpt>
    <trkpt lat="45.3045637257245" lon="-121.71968133932668"><ele>1342.0</ele></trkpt>
    <trkpt lat="45.30458" lon="-121.71985000000001"><ele>1341.5</ele></trkpt>
    <trkpt lat="45.304577343584626" lon="-121.71986992311534"><ele>1341.5</ele></trkpt>
    <trkpt lat="45.3045522181175" lon="-121.72005836411878"><ele>1340.9</ele></trkpt>
    <trkpt lat="45.30454" lon="-121.72015"><ele>1340.6</ele></trkpt>
    <trkpt lat="45.30449420256574" lon="-121.72029884166133"><ele>1340.2</ele></trkpt>
    <trkpt lat="45.30442247363464" lon="-121.72053196068742"><ele>1339.5</ele></trkpt>
    <trkpt lat="45.30442" lon="-121.72054000000001"><ele>1339.5</ele></trkpt>
    <trkpt lat="45.30435424887038" lon="-121.72069734219735"><ele>1338.7</ele></trkpt>
    <trkpt lat="45.30428534531671" lon="-121.72086222813319"><ele>1338.1</ele></trkpt>
    <trkpt lat="45.30410206186393" lon="-121.72130082472252"><ele>1336.5</ele></trkpt>
    <trkpt lat="45.30401019045903" lon="-121.72152067263697"><ele>1335.7</ele></trkpt>
    <trkpt lat="45.30394128690535" lon="-121.7216855585728"><ele>1335.1</ele></trkpt>
    <trkpt lat="45.303574260642776" lon="-121.72256385099104"><ele>1332.3</ele></trkpt>
    <trkpt lat="45.30336800933877" lon="-121.72305740955898"><ele>1330.5</ele></trkpt>
    <trkpt lat="45.30318426652897" lon="-121.72349710538789"><ele>1329.2</ele></trkpt>
    <trkpt lat="45.30313833082652" lon="-121.7236070293451"><ele>1328.9</ele></trkpt>
    <trkpt lat="45.302978015224966" lon="-121.72399066395583"><ele>1327.5</ele></trkpt>
    <trkpt lat="45.30288614382007" lon="-121.72421051187027"><ele>1326.7</ele></trkpt>
    <trkpt lat="45.30279427241516" lon="-121.72443035978473"><ele>1326.0</ele></trkpt>
    <trkpt lat="45.30265692466484" lon="-121.72475903241684"><ele>1325.0</ele></trkpt>
    <trkpt lat="45.30254208540871" lon="-121.7250338423099"><ele>1324.1</ele></trkpt>
    <trkpt lat="45.30240427830136" lon="-121.72536361418157"><ele>1323.0</ele></trkpt>
    <trkpt lat="45.302289898402265" lon="-121.72563732483506"><ele>1322.1</ele></trkpt>
    <trkpt lat="45.30219802699736" lon="-121.72585717274953"><ele>1321.4</ele></trkpt>
    <trkpt lat="45.302129123443684" lon="-121.72602205868536"><ele>1320.9</ele></trkpt>
    <trkpt lat="45.301991316336334" lon="-121.72635183055704"><ele>1319.9</ele></trkpt>
    <trkpt lat="45.30185" lon="-121.72669"><ele>1318.9</ele></trkpt>
    <trkpt lat="45.30183830890044" lon="-121.72674020295692"><ele>1318.7</ele></trkpt>
    <trkpt lat="45.30176764315834" lon="-121.72704364996713"><ele>1317.8</ele></trkpt>
    <trkpt lat="45.301680000000005" lon="-121.72742000000001"><ele>1316.7</ele></trkpt>
    <trkpt lat="45.30167427559057" lon="-121.72759745669241"><ele>1316.1</ele></trkpt>
    <trkpt lat="45.30167" lon="-121.72773000000001"><ele>1315.8</ele></trkpt>
    <trkpt lat="45.30170518732287" lon="-121.72804082135195"><ele>1315.0</ele></trkpt>
    <trkpt lat="45.301730000000006" lon="-121.72826"><ele>1314.4</ele></trkpt>
    <trkpt lat="45.30176414337283" lon="-121.72834472614737"><ele>1314.1</ele></trkpt>
    <trkpt lat="45.30194252571798" lon="-121.72878737863351"><ele>1312.7</ele></trkpt>
    <trkpt lat="45.30200000000001" lon="-121.72893"><ele>1312.2</ele></trkpt>
    <trkpt lat="45.30219" lon="-121.72916000000001"><ele>1311.2</ele></trkpt>
    <trkpt lat="45.3023763216254" lon="-121.72932228012536"><ele>1310.3</ele></trkpt>
    <trkpt lat="45.3025" lon="-121.72943000000001"><ele>1309.6</ele></trkpt>
    <trkpt lat="45.3026209675522" lon="-121.72947337725357"><ele>1309.0</ele></trkpt>
    <trkpt lat="45.30270816906153" lon="-121.72950464648167"><ele>1308.6</ele></trkpt>
    <trkpt lat="45.302968901574445" lon="-121.72959814147367"><ele>1307.2</ele></trkpt>
    <trkpt lat="45.30323050610245" lon="-121.72969194915795"><ele>1305.9</ele></trkpt>
    <trkpt lat="45.30353571138512" lon="-121.72980139145628"><ele>1304.3</ele></trkpt>
    <trkpt lat="45.303840916667795" lon="-121.72991083375462"><ele>1302.7</ele></trkpt>
    <trkpt lat="45.303928118177126" lon="-121.7299421029827"><ele>1302.2</ele></trkpt>
    <trkpt lat="45.30414524993537" lon="-121.73001996336068"><ele>1301.0</ele></trkpt>
    <trkpt lat="45.304232451444705" lon="-121.73005123258876"><ele>1300.5</ele></trkpt>
    <trkpt lat="45.30445045521804" lon="-121.730129405659"><ele>1299.3</ele></trkpt>
    <trkpt lat="45.304480000000005" lon="-121.73014"><ele>1299.2</ele></trkpt>
    <trkpt lat="45.304912501638654" lon="-121.7303795393691"><ele>1296.7</ele></trkpt>
    <trkpt lat="45.30512116072164" lon="-121.73049510439968"><ele>1295.6</ele></trkpt>
    <trkpt lat="45.305130000000005" lon="-121.7305"><ele>1295.6</ele></trkpt>
    <trkpt lat="45.30520054933397" lon="-121.7305549628532"><ele>1295.2</ele></trkpt>
    <trkpt lat="45.3052786292052" lon="-121.73061579252033"><ele>1294.8</ele></trkpt>
    <trkpt lat="45.305396932040395" lon="-121.73070795868264"><ele>1294.1</ele></trkpt>
    <trkpt lat="45.30551444619002" lon="-121.73079951040386"><ele>1293.4</ele></trkpt>
    <trkpt lat="45.30563196033965" lon="-121.73089106212508"><ele>1292.6</ele></trkpt>
    <trkpt lat="45.30578969745324" lon="-121.73101395034149"><ele>1291.5</ele></trkpt>
    <trkpt lat="45.30586777732447" lon="-121.73107478000861"><ele>1290.9</ele></trkpt>
    <trkpt lat="45.30599" lon="-121.73117"><ele>1290.0</ele></trkpt>
    <trkpt lat="45.30609146694538" lon="-121.73128447552813"><ele>1289.1</ele></trkpt>
    <trkpt lat="45.306302108035304" lon="-121.73152212188599"><ele>1287.1</ele></trkpt>
    <trkpt lat="45.306380000000004" lon="-121.73161"><ele>1286.4</ele></trkpt>
    <trkpt lat="45.30663959464037" lon="-121.73211064680643"><ele>1283.0</ele></trkpt>
    <trkpt lat="45.30666" lon="-121.73215"><ele>1282.7</ele></trkpt>
    <trkpt lat="45.30673" lon="-121.73242"><ele>1281.3</ele></trkpt>
    <trkpt lat="45.306753670267724" lon="-121.73271824537329"><ele>1279.8</ele></trkpt>
    <trkpt lat="45.306763754655144" lon="-121.73284530865479"><ele>1279.0</ele></trkpt>
    <trkpt lat="45.30678" lon="-121.73305"><ele>1277.8</ele></trkpt>
    <trkpt lat="45.3067488893018" lon="-121.73321938046799"><ele>1276.8</ele></trkpt>
    <trkpt lat="45.30669230620935" lon="-121.73352744397135"><ele>1275.1</ele></trkpt>
    <trkpt lat="45.30669" lon="-121.73354"><ele>1275.0</ele></trkpt>
    <trkpt lat="45.306529936631804" lon="-121.73398207977884"><ele>1272.1</ele></trkpt>
    <trkpt lat="45.30648" lon="-121.73412"><ele>1271.2</ele></trkpt>
    <trkpt lat="45.30646251333002" lon="-121.73414520137733"><ele>1271.0</ele></trkpt>
    <trkpt lat="45.30621113401399" lon="-121.73450748333279"><ele>1268.2</ele></trkpt>
    <trkpt lat="45.306140000000006" lon="-121.73461"><ele>1267.4</ele></trkpt>
    <trkpt lat="45.30593108354641" lon="-121.73482413936495"><ele>1265.4</ele></trkpt>
    <trkpt lat="45.30574943357492" lon="-121.73501033058572"><ele>1263.7</ele></trkpt>
    <trkpt lat="45.30574000000001" lon="-121.73502"><ele>1263.6</ele></trkpt>
    <trkpt lat="45.30538137233525" lon="-121.73524243994396"><ele>1260.5</ele></trkpt>
    <trkpt lat="45.305012085431294" lon="-121.73547149131478"><ele>1257.2</ele></trkpt>
    <trkpt lat="45.304950000000005" lon="-121.73551"><ele>1256.7</ele></trkpt>
    <trkpt lat="45.304757750751506" lon="-121.73559418757942"><ele>1254.9</ele></trkpt>
    <trkpt lat="45.30432973017238" lon="-121.7357816214278"><ele>1251.4</ele></trkpt>
    <trkpt lat="45.30415869383654" lon="-121.7358565196925"><ele>1250.0</ele></trkpt>
    <trkpt lat="45.30403063145444" lon="-121.73591259929773"><ele>1249.0</ele></trkpt>
    <trkpt lat="45.30381662116487" lon="-121.73600631622192"><ele>1247.4</ele></trkpt>
    <trkpt lat="45.30355963692158" lon="-121.7361188518056"><ele>1245.4</ele></trkpt>
    <trkpt lat="45.30342" lon="-121.73618"><ele>1244.2</ele></trkpt>
    <trkpt lat="45.30335361148963" lon="-121.73623772913946"><ele>1243.7</ele></trkpt>
    <trkpt lat="45.303124984737515" lon="-121.73643653501085"><ele>1241.5</ele></trkpt>
    <trkpt lat="45.302960000000006" lon="-121.73658"><ele>1240.1</ele></trkpt>
    <trkpt lat="45.30284817362227" lon="-121.7367533308855"><ele>1238.9</ele></trkpt>
    <trkpt lat="45.3027879908612" lon="-121.73684661416517"><ele>1238.2</ele></trkpt>
    <trkpt lat="45.302760000000006" lon="-121.73689000000002"><ele>1237.8</ele></trkpt>
    <trkpt lat="45.30263059343423" lon="-121.73715600238522"><ele>1236.0</ele></trkpt>
    <trkpt lat="45.302580000000006" lon="-121.73726"><ele>1235.3</ele></trkpt>
    <trkpt lat="45.30256271668503" lon="-121.73731916211665"><ele>1234.9</ele></trkpt>
    <trkpt lat="45.302510973668106" lon="-121.7374962824438"><ele>1233.9</ele></trkpt>
    <trkpt lat="45.30242508026002" lon="-121.73779030218687"><ele>1232.2</ele></trkpt>
    <trkpt lat="45.30232228413307" lon="-121.7381421812368"><ele>1230.1</ele></trkpt>
    <trkpt lat="45.30232" lon="-121.73815"><ele>1230.1</ele></trkpt>
    <trkpt lat="45.30227726104073" lon="-121.7383216033971"><ele>1229.0</ele></trkpt>
    <trkpt lat="45.30224754335848" lon="-121.73844092439398"><ele>1228.2</ele></trkpt>
    <trkpt lat="45.30215809013315" lon="-121.73880009264721"><ele>1226.1</ele></trkpt>
    <trkpt lat="45.30209865476867" lon="-121.73903873464097"><ele>1224.8</ele></trkpt>
    <trkpt lat="45.302009201543335" lon="-121.73939790289421"><ele>1223.0</ele></trkpt>
    <trkpt lat="45.30196447493067" lon="-121.73957748702082"><ele>1222.0</ele></trkpt>
    <trkpt lat="45.301934757248425" lon="-121.7396968080177"><ele>1221.4</ele></trkpt>
    <trkpt lat="45.30186001277491" lon="-121.73999691840379"><ele>1219.7</ele></trkpt>
    <trkpt lat="45.30183029509267" lon="-121.74011623940068"><ele>1219.0</ele></trkpt>
    <trkpt lat="45.30177055954958" lon="-121.74035608665703"><ele>1217.7</ele></trkpt>
    <trkpt lat="45.30172643329413" lon="-121.74053326025846"><ele>1216.8</ele></trkpt>
    <trkpt lat="45.30168350775311" lon="-121.7407056128095"><ele>1216.5</ele></trkpt>
    <trkpt lat="45.30166939935851" lon="-121.74076226015146"><ele>1216.4</ele></trkpt>
    <trkpt lat="45.301660000000005" lon="-121.74080000000001"><ele>1216.4</ele></trkpt>
    <trkpt lat="45.30163295230706" lon="-121.74087032400166"><ele>1216.3</ele></trkpt>
    <trkpt lat="45.30161267326199" lon="-121.74092304951883"><ele>1216.3</ele></trkpt>
    <trkpt lat="45.301610000000004" lon="-121.74093"><ele>1216.3</ele></trkpt>
    <trkpt lat="45.301581765617044" lon="-121.74096529297871"><ele>1216.3</ele></trkpt>
    <trkpt lat="45.30151827852703" lon="-121.74104465184124"><ele>1216.4</ele></trkpt>
    <trkpt lat="45.30145479143701" lon="-121.74112401070376"><ele>1216.5</ele></trkpt>
    <trkpt lat="45.30145" lon="-121.74113000000001"><ele>1216.5</ele></trkpt>
    <trkpt lat="45.30151490088667" lon="-121.74147181133648"><ele>1216.7</ele></trkpt>
    <trkpt lat="45.30159623040031" lon="-121.74190014677492"><ele>1217.3</ele></trkpt>
    <trkpt lat="45.301677559913934" lon="-121.74232848221337"><ele>1217.7</ele></trkpt>
    <trkpt lat="45.301700763435115" lon="-121.74245068742492"><ele>1217.7</ele></trkpt>
    <trkpt lat="45.30174740485648" lon="-121.74269633224408"><ele>1217.8</ele></trkpt>
    <trkpt lat="45.301750000000006" lon="-121.74271000000002"><ele>1217.8</ele></trkpt>
    <trkpt lat="45.30176631242023" lon="-121.74281739009979"><ele>1217.7</ele></trkpt>
    <trkpt lat="45.30178491665933" lon="-121.74293986800721"><ele>1217.5</ele></trkpt>
    <trkpt lat="45.30182193529835" lon="-121.74318357404746"><ele>1217.1</ele></trkpt>
    <trkpt lat="45.301840349698274" lon="-121.7433048021803"><ele>1216.8</ele></trkpt>
    <trkpt lat="45.30186806621775" lon="-121.74348726926686"><ele>1216.4</ele></trkpt>
    <trkpt lat="45.30187" lon="-121.74350000000001"><ele>1216.3</ele></trkpt>
    <trkpt lat="45.30188700683938" lon="-121.74367195804265"><ele>1215.8</ele></trkpt>
    <trkpt lat="45.30189915336747" lon="-121.74379477293775"><ele>1215.4</ele></trkpt>
    <trkpt lat="45.30191731054863" lon="-121.74397836221394"><ele>1214.7</ele></trkpt>
    <trkpt lat="45.30194761425788" lon="-121.7442847663852"><ele>1213.4</ele></trkpt>
    <trkpt lat="45.30195938512015" lon="-121.74440378288149"><ele>1212.9</ele></trkpt>
    <trkpt lat="45.30196" lon="-121.74441000000002"><ele>1214.5</ele></trkpt>
    <trkpt lat="45.302060000000004" lon="-121.74440000000001"><ele>1214.0</ele></trkpt>
    <trkpt lat="45.30206301966499" lon="-121.74440405767484"><ele>1214.0</ele></trkpt>
    <trkpt lat="45.30214210391729" lon="-121.74451032713887"><ele>1213.6</ele></trkpt>
    <trkpt lat="45.302300272421895" lon="-121.74472286606692"><ele>1212.8</ele></trkpt>
    <trkpt lat="45.30238000000001" lon="-121.74483000000001"><ele>1212.4</ele></trkpt>
    <trkpt lat="45.30238816831839" lon="-121.74485842574798"><ele>1212.3</ele></trkpt>
    <trkpt lat="45.30248816479328" lon="-121.74520641348063"><ele>1211.7</ele></trkpt>
    <trkpt lat="45.30253816303073" lon="-121.74538040734694"><ele>1211.1</ele></trkpt>
    <trkpt lat="45.302587821144115" lon="-121.74555321758153"><ele>1210.7</ele></trkpt>
    <trkpt lat="45.30263" lon="-121.74570000000001"><ele>1210.3</ele></trkpt>
    <trkpt lat="45.30262902810014" lon="-121.74570491065194"><ele>1210.3</ele></trkpt>
    <trkpt lat="45.30259760413731" lon="-121.74586368435887"><ele>1210.0</ele></trkpt>
    <trkpt lat="45.30256618017449" lon="-121.7460224580658"><ele>1209.5</ele></trkpt>
    <trkpt lat="45.30253475621166" lon="-121.74618123177271"><ele>1209.1</ele></trkpt>
    <trkpt lat="45.302503332248826" lon="-121.74634000547964"><ele>1208.9</ele></trkpt>
    <trkpt lat="45.302471908285995" lon="-121.74649877918657"><ele>1208.5</ele></trkpt>
    <trkpt lat="45.302440000000004" lon="-121.74666"><ele>1207.9</ele></trkpt>
    <trkpt lat="45.302440163390976" lon="-121.74667279895989"><ele>1207.8</ele></trkpt>
    <trkpt lat="45.3024424644926" lon="-121.74685305192001"><ele>1207.3</ele></trkpt>
    <trkpt lat="45.30244708301571" lon="-121.74721483623004"><ele>1206.5</ele></trkpt>
    <trkpt lat="45.302449384117324" lon="-121.74739508919015"><ele>1206.2</ele></trkpt>
    <trkpt lat="45.302451701538814" lon="-121.74757662054006"><ele>1205.6</ele></trkpt>
    <trkpt lat="45.30245400264043" lon="-121.74775687350018"><ele>1205.1</ele></trkpt>
    <trkpt lat="45.30245630374205" lon="-121.74793712646031"><ele>1204.6</ele></trkpt>
    <trkpt lat="45.30245862116354" lon="-121.74811865781021"><ele>1204.1</ele></trkpt>
    <trkpt lat="45.30246322336678" lon="-121.74847916373048"><ele>1203.1</ele></trkpt>
    <trkpt lat="45.30246554078826" lon="-121.74866069508037"><ele>1202.8</ele></trkpt>
    <trkpt lat="45.302467841889886" lon="-121.7488409480405"><ele>1202.7</ele></trkpt>
    <trkpt lat="45.30247000000001" lon="-121.74901000000001"><ele>1202.4</ele></trkpt>
    <trkpt lat="45.30247244536172" lon="-121.74902331363603"><ele>1202.4</ele></trkpt>
    <trkpt lat="45.30250516590664" lon="-121.749201458825"><ele>1202.0</ele></trkpt>
    <trkpt lat="45.302537886451546" lon="-121.74937960401397"><ele>1201.8</ele></trkpt>
    <trkpt lat="45.302570606996454" lon="-121.74955774920292"><ele>1201.5</ele></trkpt>
    <trkpt lat="45.30260332754137" lon="-121.74973589439188"><ele>1201.4</ele></trkpt>
    <trkpt lat="45.302635820860274" lon="-121.74991280246148"><ele>1201.3</ele></trkpt>
    <trkpt lat="45.30266854140518" lon="-121.75009094765045"><ele>1200.9</ele></trkpt>
    <trkpt lat="45.30270126195009" lon="-121.7502690928394"><ele>1200.7</ele></trkpt>
    <trkpt lat="45.302733982495006" lon="-121.75044723802839"><ele>1200.1</ele></trkpt>
    <trkpt lat="45.302766703039914" lon="-121.75062538321734"><ele>1199.6</ele></trkpt>
    <trkpt lat="45.30279942358483" lon="-121.75080352840631"><ele>1198.8</ele></trkpt>
    <trkpt lat="45.30283" lon="-121.75097000000001"><ele>1198.0</ele></trkpt>
    <trkpt lat="45.30283252190962" lon="-121.75097595450885"><ele>1198.0</ele></trkpt>
    <trkpt lat="45.30289793434861" lon="-121.75113040054534"><ele>1197.1</ele></trkpt>
    <trkpt lat="45.30296334678759" lon="-121.75128484658183"><ele>1196.5</ele></trkpt>
    <trkpt lat="45.30302875922657" lon="-121.75143929261829"><ele>1196.1</ele></trkpt>
    <trkpt lat="45.30309370774755" lon="-121.75159264329282"><ele>1196.3</ele></trkpt>
    <trkpt lat="45.30315912018653" lon="-121.75174708932931"><ele>1196.1</ele></trkpt>
    <trkpt lat="45.303224532625514" lon="-121.75190153536579"><ele>1194.3</ele></trkpt>
    <trkpt lat="45.30328994506449" lon="-121.7520559814023"><ele>1193.7</ele></trkpt>
    <trkpt lat="45.30335489358547" lon="-121.7522093320768"><ele>1192.8</ele></trkpt>
    <trkpt lat="45.30342030602445" lon="-121.7523637781133"><ele>1192.2</ele></trkpt>
    <trkpt lat="45.303485718463435" lon="-121.75251822414978"><ele>1191.8</ele></trkpt>
    <trkpt lat="45.30354556388633" lon="-121.75265952584274"><ele>1191.1</ele></trkpt>
    <trkpt lat="45.30355" lon="-121.75267000000001"><ele>1191.0</ele></trkpt>
    <trkpt lat="45.30373738998922" lon="-121.75307392953235"><ele>1189.6</ele></trkpt>
    <trkpt lat="45.30380126657262" lon="-121.75321161905653"><ele>1189.2</ele></trkpt>
    <trkpt lat="45.30386563832332" lon="-121.75335037594138"><ele>1188.6</ele></trkpt>
    <trkpt lat="45.30392951490671" lon="-121.75348806546559"><ele>1188.3</ele></trkpt>
    <trkpt lat="45.304" lon="-121.75364"><ele>1187.7</ele></trkpt>
    <trkpt lat="45.304000016023636" lon="-121.75364083589955"><ele>1187.7</ele></trkpt>
    <trkpt lat="45.30400354423866" lon="-121.75382489111634"><ele>1187.1</ele></trkpt>
    <trkpt lat="45.30401060066869" lon="-121.75419300154994"><ele>1186.0</ele></trkpt>
    <trkpt lat="45.30401412888371" lon="-121.75437705676673"><ele>1185.5</ele></trkpt>
    <trkpt lat="45.304017657098726" lon="-121.75456111198352"><ele>1184.9</ele></trkpt>
    <trkpt lat="45.304021185313744" lon="-121.7547451672003"><ele>1184.3</ele></trkpt>
    <trkpt lat="45.30402471352876" lon="-121.7549292224171"><ele>1183.8</ele></trkpt>
    <trkpt lat="45.304028241743794" lon="-121.7551132776339"><ele>1183.3</ele></trkpt>
    <trkpt lat="45.30403529817382" lon="-121.75548138806747"><ele>1182.1</ele></trkpt>
    <trkpt lat="45.30403882638884" lon="-121.75566544328427"><ele>1181.4</ele></trkpt>
    <trkpt lat="45.30404235460386" lon="-121.75584949850106"><ele>1180.5</ele></trkpt>
    <trkpt lat="45.304045882818876" lon="-121.75603355371786"><ele>1179.8</ele></trkpt>
    <trkpt lat="45.304049411033894" lon="-121.75621760893463"><ele>1179.0</ele></trkpt>
    <trkpt lat="45.30405293924891" lon="-121.75640166415144"><ele>1177.9</ele></trkpt>
    <trkpt lat="45.30405646746393" lon="-121.75658571936823"><ele>1177.1</ele></trkpt>
    <trkpt lat="45.30406000000001" lon="-121.75677"><ele>1176.3</ele></trkpt>
    <trkpt lat="45.30406114787602" lon="-121.75677460863652"><ele>1176.2</ele></trkpt>
    <trkpt lat="45.30410587841331" lon="-121.75695419840564"><ele>1175.1</ele></trkpt>
    <trkpt lat="45.30415030874565" lon="-121.7571325828743"><ele>1174.4</ele></trkpt>
    <trkpt lat="45.304195039282945" lon="-121.75731217264342"><ele>1173.5</ele></trkpt>
    <trkpt lat="45.30428420015258" lon="-121.75767014688122"><ele>1171.9</ele></trkpt>
    <trkpt lat="45.304328630484925" lon="-121.75784853134988"><ele>1171.3</ele></trkpt>
    <trkpt lat="45.304373361022215" lon="-121.75802812111901"><ele>1170.8</ele></trkpt>
    <trkpt lat="45.30441779135456" lon="-121.75820650558768"><ele>1170.4</ele></trkpt>
    <trkpt lat="45.30446252189185" lon="-121.7583860953568"><ele>1169.8</ele></trkpt>
    <trkpt lat="45.304506952224195" lon="-121.75856447982548"><ele>1169.4</ele></trkpt>
    <trkpt lat="45.304551682761485" lon="-121.7587440695946"><ele>1168.9</ele></trkpt>
    <trkpt lat="45.30459611309382" lon="-121.75892245406325"><ele>1168.6</ele></trkpt>
    <trkpt lat="45.30464084363112" lon="-121.75910204383239"><ele>1168.1</ele></trkpt>
    <trkpt lat="45.30468557416842" lon="-121.75928163360152"><ele>1167.8</ele></trkpt>
  </trkseg></trk>
</gpx>
