<?xml version="1.0" encoding="UTF-8"?>
<gpx version="1.1" creator="h2c-tracker" xmlns="http://www.topografix.com/GPX/1/1">
  <metadata><name>Hood to Coast 2026 — Leg 11 (3.92 mi)</name><desc>Derived from the official Hood to Coast Strava route (simplified, 366 points, ~3.96 mi). Verify against the official leg map PDF.</desc></metadata>
  <wpt lat="45.47805468401784" lon="-122.54863860529261"><name>Exchange 10 — Springwater Trail near Shaw's Automotive / SE 111th Ave</name></wpt>
  <wpt lat="45.461735031466404" lon="-122.61694525163256"><name>Exchange 11 — Springwater Trail near SE 45th Ave / Johnson Creek Blvd</name></wpt>
  <trk><name>HTC Leg 11</name><trkseg>
    <trkpt lat="45.47805468401784" lon="-122.54863860529261"><ele>63.6</ele></trkpt>
    <trkpt lat="45.47804000000001" lon="-122.54871000000001"><ele>63.6</ele></trkpt>
    <trkpt lat="45.47793" lon="-122.54918"><ele>63.6</ele></trkpt>
    <trkpt lat="45.477929306153236" lon="-122.54918327338997"><ele>63.6</ele></trkpt>
    <trkpt lat="45.47776093790708" lon="-122.54997759132549"><ele>63.7</ele></trkpt>
    <trkpt lat="45.47755379552077" lon="-122.55095483564801"><ele>63.7</ele></trkpt>
    <trkpt lat="45.47752829306617" lon="-122.5510751496475"><ele>63.7</ele></trkpt>
    <trkpt lat="45.47745048455674" lon="-122.55144223011538"><ele>63.9</ele></trkpt>
    <trkpt lat="45.47737267604731" lon="-122.55180931058327"><ele>64.0</ele></trkpt>
    <trkpt lat="45.47733390190716" lon="-122.55199223697026"><ele>64.1</ele></trkpt>
    <trkpt lat="45.47726910485416" lon="-122.55229793274452"><ele>64.3</ele></trkpt>
    <trkpt lat="45.47724334217043" lon="-122.5524194744379"><ele>64.4</ele></trkpt>
    <trkpt lat="45.477217579486705" lon="-122.55254101613127"><ele>64.5</ele></trkpt>
    <trkpt lat="45.47717412122225" lon="-122.55274604100799"><ele>64.6</ele></trkpt>
    <trkpt lat="45.477124677687826" lon="-122.55297930284377"><ele>64.6</ele></trkpt>
    <trkpt lat="45.477077576215564" lon="-122.5532015154347"><ele>64.6</ele></trkpt>
    <trkpt lat="45.47705025215707" lon="-122.5533304232913"><ele>64.5</ele></trkpt>
    <trkpt lat="45.47693445019487" lon="-122.55387674706455"><ele>64.4</ele></trkpt>
    <trkpt lat="45.47684519160378" lon="-122.55429784606282"><ele>64.2</ele></trkpt>
    <trkpt lat="45.476806677692764" lon="-122.55447954475595"><ele>64.2</ele></trkpt>
    <trkpt lat="45.476768424010864" lon="-122.55466001575522"><ele>64.2</ele></trkpt>
    <trkpt lat="45.47670492810351" lon="-122.55495957306012"><ele>64.4</ele></trkpt>
    <trkpt lat="45.476690000000005" lon="-122.55503000000002"><ele>64.4</ele></trkpt>
    <trkpt lat="45.47666" lon="-122.55521000000002"><ele>64.4</ele></trkpt>
    <trkpt lat="45.47665603029906" lon="-122.55525631317767"><ele>64.4</ele></trkpt>
    <trkpt lat="45.476634424470966" lon="-122.55550838117213"><ele>64.4</ele></trkpt>
    <trkpt lat="45.47663000000001" lon="-122.55556000000001"><ele>64.4</ele></trkpt>
    <trkpt lat="45.476600000000005" lon="-122.55557"><ele>64.4</ele></trkpt>
    <trkpt lat="45.476560000000006" lon="-122.55567"><ele>64.4</ele></trkpt>
    <trkpt lat="45.4764475173819" lon="-122.55584383677345"><ele>64.5</ele></trkpt>
    <trkpt lat="45.47634" lon="-122.55601000000001"><ele>64.3</ele></trkpt>
    <trkpt lat="45.47634" lon="-122.55609812282232"><ele>64.2</ele></trkpt>
    <trkpt lat="45.47634" lon="-122.5562"><ele>64.2</ele></trkpt>
    <trkpt lat="45.47633394756942" lon="-122.55622219224547"><ele>64.2</ele></trkpt>
    <trkpt lat="45.476310000000005" lon="-122.55631000000001"><ele>64.2</ele></trkpt>
    <trkpt lat="45.476312504657876" lon="-122.55634256055234"><ele>64.2</ele></trkpt>
    <trkpt lat="45.47632211537535" lon="-122.55646749987949"><ele>64.2</ele></trkpt>
    <trkpt lat="45.476330000000004" lon="-122.55657000000001"><ele>64.3</ele></trkpt>
    <trkpt lat="45.47631856625596" lon="-122.5566538474563"><ele>64.3</ele></trkpt>
    <trkpt lat="45.476301742050396" lon="-122.55677722496381"><ele>64.4</ele></trkpt>
    <trkpt lat="45.4763" lon="-122.55679"><ele>64.4</ele></trkpt>
    <trkpt lat="45.47627781703809" lon="-122.55689814193934"><ele>64.5</ele></trkpt>
    <trkpt lat="45.47621898409962" lon="-122.55718495251442"><ele>64.5</ele></trkpt>
    <trkpt lat="45.47615838364796" lon="-122.55748037971621"><ele>64.3</ele></trkpt>
    <trkpt lat="45.47612227587886" lon="-122.5576564050906"><ele>64.3</ele></trkpt>
    <trkpt lat="45.476061675427204" lon="-122.5579518322924"><ele>64.3</ele></trkpt>
    <trkpt lat="45.476060000000004" lon="-122.55796000000001"><ele>64.3</ele></trkpt>
    <trkpt lat="45.476022188296156" lon="-122.55812637149694"><ele>64.4</ele></trkpt>
    <trkpt lat="45.47596922711381" lon="-122.55835940069929"><ele>64.5</ele></trkpt>
    <trkpt lat="45.475910000000006" lon="-122.55862"><ele>64.5</ele></trkpt>
    <trkpt lat="45.47589819320473" lon="-122.55866216712602"><ele>64.5</ele></trkpt>
    <trkpt lat="45.475765459329736" lon="-122.55913621667952"><ele>64.4</ele></trkpt>
    <trkpt lat="45.47571543399997" lon="-122.55931487857154"><ele>64.4</ele></trkpt>
    <trkpt lat="45.47568241728233" lon="-122.55943279542029"><ele>64.4</ele></trkpt>
    <trkpt lat="45.47563272545475" lon="-122.55961026623302"><ele>64.4</ele></trkpt>
    <trkpt lat="45.47556" lon="-122.55987"><ele>64.4</ele></trkpt>
    <trkpt lat="45.47541308755487" lon="-122.56029282118352"><ele>64.2</ele></trkpt>
    <trkpt lat="45.47523739991233" lon="-122.56079845878892"><ele>64.3</ele></trkpt>
    <trkpt lat="45.475150000000006" lon="-122.56105000000001"><ele>64.3</ele></trkpt>
    <trkpt lat="45.47511811095316" lon="-122.56113200040616"><ele>64.3</ele></trkpt>
    <trkpt lat="45.475031313403974" lon="-122.56135519410408"><ele>64.1</ele></trkpt>
    <trkpt lat="45.475010000000005" lon="-122.56141000000001"><ele>64.1</ele></trkpt>
    <trkpt lat="45.47491125249387" lon="-122.56162612661721"><ele>63.9</ele></trkpt>
    <trkpt lat="45.474763967035955" lon="-122.56194848724206"><ele>63.9</ele></trkpt>
    <trkpt lat="45.474641229154365" lon="-122.56221712109613"><ele>63.7</ele></trkpt>
    <trkpt lat="45.47449394369646" lon="-122.56253948172099"><ele>63.6</ele></trkpt>
    <trkpt lat="45.47448000000001" lon="-122.56257000000001"><ele>63.6</ele></trkpt>
    <trkpt lat="45.474333023739085" lon="-122.56284820506531"><ele>63.5</ele></trkpt>
    <trkpt lat="45.4742" lon="-122.5631"><ele>63.5</ele></trkpt>
    <trkpt lat="45.47416707079262" lon="-122.56315122321149"><ele>63.5</ele></trkpt>
    <trkpt lat="45.47410629824931" lon="-122.56324575827884"><ele>63.5</ele></trkpt>
    <trkpt lat="45.47401453170893" lon="-122.56338850623057"><ele>63.4</ele></trkpt>
    <trkpt lat="45.473954366891064" lon="-122.56348209594725"><ele>63.3</ele></trkpt>
    <trkpt lat="45.47393" lon="-122.56352000000001"><ele>63.3</ele></trkpt>
    <trkpt lat="45.47389474393554" lon="-122.5635780896901"><ele>63.3</ele></trkpt>
    <trkpt lat="45.47374761014092" lon="-122.56382051483494"><ele>63.4</ele></trkpt>
    <trkpt lat="45.473688756623076" lon="-122.56391748489287"><ele>63.4</ele></trkpt>
    <trkpt lat="45.4736304916404" lon="-122.56401348525021"><ele>63.3</ele></trkpt>
    <trkpt lat="45.47357222665774" lon="-122.56410948560757"><ele>63.1</ele></trkpt>
    <trkpt lat="45.47348630052167" lon="-122.56425106189215"><ele>62.8</ele></trkpt>
    <trkpt lat="45.47342744700383" lon="-122.56434803195009"><ele>62.6</ele></trkpt>
    <trkpt lat="45.47334093233259" lon="-122.56449057793526"><ele>62.4</ele></trkpt>
    <trkpt lat="45.47322499090242" lon="-122.56468160894937"><ele>62.2</ele></trkpt>
    <trkpt lat="45.473021946265845" lon="-122.56501615564923"><ele>62.0</ele></trkpt>
    <trkpt lat="45.472848328388196" lon="-122.56530221732014"><ele>61.7</ele></trkpt>
    <trkpt lat="45.47267471051053" lon="-122.56558827899103"><ele>61.6</ele></trkpt>
    <trkpt lat="45.47261703406305" lon="-122.56568330964782"><ele>61.6</ele></trkpt>
    <trkpt lat="45.47252993085663" lon="-122.56582682533355"><ele>61.6</ele></trkpt>
    <trkpt lat="45.47247225440914" lon="-122.56592185599033"><ele>61.6</ele></trkpt>
    <trkpt lat="45.47241398942647" lon="-122.56601785634768"><ele>61.8</ele></trkpt>
    <trkpt lat="45.4723857397379" lon="-122.56606440197548"><ele>61.9</ele></trkpt>
    <trkpt lat="45.472356312978974" lon="-122.56611288700446"><ele>62.0</ele></trkpt>
    <trkpt lat="45.472298636531484" lon="-122.56620791766122"><ele>62.2</ele></trkpt>
    <trkpt lat="45.47220741357882" lon="-122.56635822125102"><ele>62.2</ele></trkpt>
    <trkpt lat="45.47216033076454" lon="-122.56643579729736"><ele>62.1</ele></trkpt>
    <trkpt lat="45.47213208107597" lon="-122.56648234292516"><ele>62.1</ele></trkpt>
    <trkpt lat="45.47208676386723" lon="-122.56655700986977"><ele>62.0</ele></trkpt>
    <trkpt lat="45.47194198421332" lon="-122.5667955562123"><ele>61.5</ele></trkpt>
    <trkpt lat="45.471913145989575" lon="-122.56684307154066"><ele>61.4</ele></trkpt>
    <trkpt lat="45.471855469542085" lon="-122.56693810219744"><ele>61.3</ele></trkpt>
    <trkpt lat="45.47173893957674" lon="-122.56713010291216"><ele>61.1</ele></trkpt>
    <trkpt lat="45.47165183637033" lon="-122.56727361859791"><ele>61.0</ele></trkpt>
    <trkpt lat="45.47136227706251" lon="-122.56775071128293"><ele>60.8</ele></trkpt>
    <trkpt lat="45.47118807064968" lon="-122.5680377426544"><ele>60.8</ele></trkpt>
    <trkpt lat="45.471013864236845" lon="-122.56832477402588"><ele>60.8</ele></trkpt>
    <trkpt lat="45.47095" lon="-122.56843"><ele>60.8</ele></trkpt>
    <trkpt lat="45.470880791695635" lon="-122.56857610642035"><ele>60.8</ele></trkpt>
    <trkpt lat="45.47077" lon="-122.56881000000001"><ele>60.8</ele></trkpt>
    <trkpt lat="45.47071007074494" lon="-122.56885661164281"><ele>60.8</ele></trkpt>
    <trkpt lat="45.47068" lon="-122.56888000000001"><ele>60.8</ele></trkpt>
    <trkpt lat="45.47061" lon="-122.56897000000001"><ele>60.8</ele></trkpt>
    <trkpt lat="45.47054933293097" lon="-122.56906999686093"><ele>60.9</ele></trkpt>
    <trkpt lat="45.47043342240962" lon="-122.56926105089518"><ele>60.9</ele></trkpt>
    <trkpt lat="45.47037576133808" lon="-122.56935609300358"><ele>60.9</ele></trkpt>
    <trkpt lat="45.47025985081674" lon="-122.56954714703782"><ele>61.1</ele></trkpt>
    <trkpt lat="45.47017218245287" lon="-122.56969164983529"><ele>61.0</ele></trkpt>
    <trkpt lat="45.470113933003056" lon="-122.56978766176113"><ele>61.0</ele></trkpt>
    <trkpt lat="45.470056271931526" lon="-122.56988270386954"><ele>61.1</ele></trkpt>
    <trkpt lat="45.46996919194594" lon="-122.57002623684957"><ele>61.3</ele></trkpt>
    <trkpt lat="45.469892702769414" lon="-122.57015231311581"><ele>61.3</ele></trkpt>
    <trkpt lat="45.46982798115851" lon="-122.5702589930334"><ele>61.3</ele></trkpt>
    <trkpt lat="45.469748550090586" lon="-122.57038991838682"><ele>61.3</ele></trkpt>
    <trkpt lat="45.469660881726725" lon="-122.57053442118429"><ele>61.0</ele></trkpt>
    <trkpt lat="45.46960204389862" lon="-122.57063140292756"><ele>60.9</ele></trkpt>
    <trkpt lat="45.46948613337727" lon="-122.5708224569618"><ele>60.8</ele></trkpt>
    <trkpt lat="45.469427295549174" lon="-122.57091943870506"><ele>60.8</ele></trkpt>
    <trkpt lat="45.469339038807036" lon="-122.57106491131998"><ele>60.8</ele></trkpt>
    <trkpt lat="45.46922195152913" lon="-122.5712579049891"><ele>60.9</ele></trkpt>
    <trkpt lat="45.46910545262949" lon="-122.57144992884076"><ele>61.0</ele></trkpt>
    <trkpt lat="45.46901131210454" lon="-122.57160509962999"><ele>60.9</ele></trkpt>
    <trkpt lat="45.46892540887552" lon="-122.57174669297515"><ele>60.8</ele></trkpt>
    <trkpt lat="45.4688395056465" lon="-122.57188828632033"><ele>60.8</ele></trkpt>
    <trkpt lat="45.468753014039194" lon="-122.57203084948293"><ele>60.8</ele></trkpt>
    <trkpt lat="45.46858120758115" lon="-122.57231403617328"><ele>60.9</ele></trkpt>
    <trkpt lat="45.46837998220906" lon="-122.57264571373526"><ele>60.9</ele></trkpt>
    <trkpt lat="45.4682370062868" lon="-122.5728813793714"><ele>61.0</ele></trkpt>
    <trkpt lat="45.468102267660456" lon="-122.57310346756348"><ele>61.0</ele></trkpt>
    <trkpt lat="45.46801401091831" lon="-122.57324894017839"><ele>60.8</ele></trkpt>
    <trkpt lat="45.467955761468495" lon="-122.57334495210422"><ele>60.7</ele></trkpt>
    <trkpt lat="45.467809255276535" lon="-122.57358643664497"><ele>60.6</ele></trkpt>
    <trkpt lat="45.467721586912674" lon="-122.57373093944244"><ele>60.6</ele></trkpt>
    <trkpt lat="45.467487412356846" lon="-122.57411692678065"><ele>60.4</ele></trkpt>
    <trkpt lat="45.46719439997293" lon="-122.57459989586212"><ele>60.3</ele></trkpt>
    <trkpt lat="45.4670190632452" lon="-122.57488890145707"><ele>60.3</ele></trkpt>
    <trkpt lat="45.466813130846866" lon="-122.57522833755851"><ele>60.3</ele></trkpt>
    <trkpt lat="45.46649187630547" lon="-122.57575785787677"><ele>60.4</ele></trkpt>
    <trkpt lat="45.46640420794159" lon="-122.57590236067422"><ele>60.4</ele></trkpt>
    <trkpt lat="45.46631653957773" lon="-122.57604686347169"><ele>60.5</ele></trkpt>
    <trkpt lat="45.46619945229982" lon="-122.5762398571408"><ele>60.7</ele></trkpt>
    <trkpt lat="45.46611119555768" lon="-122.57638532975571"><ele>60.8</ele></trkpt>
    <trkpt lat="45.466052946107865" lon="-122.57648134168154"><ele>61.0</ele></trkpt>
    <trkpt lat="45.465965277744" lon="-122.57662584447901"><ele>61.3</ele></trkpt>
    <trkpt lat="45.46584230668328" lon="-122.57682853632244"><ele>61.4</ele></trkpt>
    <trkpt lat="45.46578464561175" lon="-122.57692357843084"><ele>61.4</ele></trkpt>
    <trkpt lat="45.465632255636976" lon="-122.57717476114591"><ele>61.3</ele></trkpt>
    <trkpt lat="45.465485749445016" lon="-122.57741624568665"><ele>60.9</ele></trkpt>
    <trkpt lat="45.46536866216711" lon="-122.57760923935575"><ele>60.7</ele></trkpt>
    <trkpt lat="45.46535" lon="-122.57764000000002"><ele>60.6</ele></trkpt>
    <trkpt lat="45.46530956506641" lon="-122.57770418243429"><ele>60.6</ele></trkpt>
    <trkpt lat="45.46527951622864" lon="-122.57775187900218"><ele>60.5</ele></trkpt>
    <trkpt lat="45.46518997069209" lon="-122.57789401477447"><ele>60.5</ele></trkpt>
    <trkpt lat="45.465040327480004" lon="-122.57813154368256"><ele>60.5</ele></trkpt>
    <trkpt lat="45.46498083078123" lon="-122.57822598288698"><ele>60.5</ele></trkpt>
    <trkpt lat="45.464920733105686" lon="-122.57832137602273"><ele>60.6</ele></trkpt>
    <trkpt lat="45.464861236406904" lon="-122.57841581522715"><ele>60.7</ele></trkpt>
    <trkpt lat="45.46480113873137" lon="-122.57851120836293"><ele>60.8</ele></trkpt>
    <trkpt lat="45.46472000000001" lon="-122.57864000000001"><ele>61.0</ele></trkpt>
    <trkpt lat="45.464673622362874" lon="-122.57868637763714"><ele>61.1</ele></trkpt>
    <trkpt lat="45.46464" lon="-122.57872"><ele>61.1</ele></trkpt>
    <trkpt lat="45.464560000000006" lon="-122.57877"><ele>61.1</ele></trkpt>
    <trkpt lat="45.46455718928258" lon="-122.57877361377953"><ele>61.1</ele></trkpt>
    <trkpt lat="45.464490000000005" lon="-122.57886"><ele>61.1</ele></trkpt>
    <trkpt lat="45.464488863123584" lon="-122.57889638004545"><ele>61.1</ele></trkpt>
    <trkpt lat="45.46448097697238" lon="-122.57914873688384"><ele>60.8</ele></trkpt>
    <trkpt lat="45.46448" lon="-122.57918000000001"><ele>60.8</ele></trkpt>
    <trkpt lat="45.46445340994839" lon="-122.57926641766775"><ele>60.8</ele></trkpt>
    <trkpt lat="45.46444" lon="-122.57931"><ele>60.7</ele></trkpt>
    <trkpt lat="45.464380000000006" lon="-122.57936000000001"><ele>60.7</ele></trkpt>
    <trkpt lat="45.464360000000006" lon="-122.57936000000001"><ele>60.7</ele></trkpt>
    <trkpt lat="45.464270000000006" lon="-122.57944"><ele>60.7</ele></trkpt>
    <trkpt lat="45.46424326479358" lon="-122.57947701797815"><ele>60.6</ele></trkpt>
    <trkpt lat="45.46414" lon="-122.57962"><ele>60.6</ele></trkpt>
    <trkpt lat="45.46391489555491" lon="-122.57998821208201"><ele>60.4</ele></trkpt>
    <trkpt lat="45.4637110295104" lon="-122.58032168368746"><ele>60.1</ele></trkpt>
    <trkpt lat="45.46353670926944" lon="-122.58060682607473"><ele>60.0</ele></trkpt>
    <trkpt lat="45.46336179811241" lon="-122.58089293504636"><ele>59.8</ele></trkpt>
    <trkpt lat="45.46321643275894" lon="-122.58113071479983"><ele>59.6</ele></trkpt>
    <trkpt lat="45.46292511113592" lon="-122.58160724089112"><ele>59.4</ele></trkpt>
    <trkpt lat="45.46269288111999" lon="-122.581987108546"><ele>59.4</ele></trkpt>
    <trkpt lat="45.462532151948665" lon="-122.58225001949292"><ele>59.3</ele></trkpt>
    <trkpt lat="45.462493151487976" lon="-122.58231381406091"><ele>59.2</ele></trkpt>
    <trkpt lat="45.46240865048982" lon="-122.5824520356249"><ele>59.0</ele></trkpt>
    <trkpt lat="45.462350740714854" lon="-122.58254676089254"><ele>58.7</ele></trkpt>
    <trkpt lat="45.462322376743444" lon="-122.58259315694201"><ele>58.6</ele></trkpt>
    <trkpt lat="45.46229342185596" lon="-122.58264051957582"><ele>58.5</ele></trkpt>
    <trkpt lat="45.462235512081" lon="-122.58273524484346"><ele>58.4</ele></trkpt>
    <trkpt lat="45.46217819322211" lon="-122.58282900352673"><ele>58.3</ele></trkpt>
    <trkpt lat="45.46200564572936" lon="-122.58311124616091"><ele>58.1</ele></trkpt>
    <trkpt lat="45.4617722338813" lon="-122.58349304698454"><ele>57.5</ele></trkpt>
    <trkpt lat="45.46153882203324" lon="-122.58387484780818"><ele>57.1</ele></trkpt>
    <trkpt lat="45.46124631857807" lon="-122.58435330706818"><ele>56.5</ele></trkpt>
    <trkpt lat="45.46123" lon="-122.58438000000001"><ele>56.5</ele></trkpt>
    <trkpt lat="45.46094769994294" lon="-122.5848222700894"><ele>56.0</ele></trkpt>
    <trkpt lat="45.46067894897271" lon="-122.5852433132761"><ele>55.4</ele></trkpt>
    <trkpt lat="45.46063" lon="-122.58532000000001"><ele>55.3</ele></trkpt>
    <trkpt lat="45.4605015269359" lon="-122.58551052924389"><ele>55.1</ele></trkpt>
    <trkpt lat="45.46041240130287" lon="-122.58564270511744"><ele>55.0</ele></trkpt>
    <trkpt lat="45.46026095005231" lon="-122.58586731167178"><ele>54.8</ele></trkpt>
    <trkpt lat="45.45998858710379" lon="-122.58627123374688"><ele>54.2</ele></trkpt>
    <trkpt lat="45.45989821495839" lon="-122.58640525823404"><ele>54.1</ele></trkpt>
    <trkpt lat="45.45980597304448" lon="-122.58654205564163"><ele>53.8</ele></trkpt>
    <trkpt lat="45.459744270683146" lon="-122.58663356201562"><ele>53.7</ele></trkpt>
    <trkpt lat="45.4593746797713" lon="-122.58718167595276"><ele>53.1</ele></trkpt>
    <trkpt lat="45.45915840987854" lon="-122.58750241041513"><ele>52.8</ele></trkpt>
    <trkpt lat="45.458788818966696" lon="-122.58805052435227"><ele>52.2</ele></trkpt>
    <trkpt lat="45.45860371188269" lon="-122.58832504347424"><ele>52.0</ele></trkpt>
    <trkpt lat="45.458357525693515" lon="-122.58869014466342"><ele>51.6</ele></trkpt>
    <trkpt lat="45.45801847433425" lon="-122.58919296756696"><ele>50.9</ele></trkpt>
    <trkpt lat="45.45777166488891" lon="-122.58955899306292"><ele>50.5</ele></trkpt>
    <trkpt lat="45.45774112533633" lon="-122.58960428409651"><ele>50.5</ele></trkpt>
    <trkpt lat="45.457679422975" lon="-122.5896957904705"><ele>50.4</ele></trkpt>
    <trkpt lat="45.45749431589099" lon="-122.58997030959249"><ele>50.3</ele></trkpt>
    <trkpt lat="45.45743261352965" lon="-122.59006181596648"><ele>50.4</ele></trkpt>
    <trkpt lat="45.457372157680666" lon="-122.59015147372685"><ele>50.5</ele></trkpt>
    <trkpt lat="45.45733351579781" lon="-122.59020878074895"><ele>50.4</ele></trkpt>
    <trkpt lat="45.45724501342094" lon="-122.59034003231568"><ele>50.4</ele></trkpt>
    <trkpt lat="45.457183934315786" lon="-122.59043061438287"><ele>50.5</ele></trkpt>
    <trkpt lat="45.45711599939269" lon="-122.59053136382494"><ele>50.3</ele></trkpt>
    <trkpt lat="45.45705242726283" lon="-122.59062564311937"><ele>50.1</ele></trkpt>
    <trkpt lat="45.45698449233974" lon="-122.59072639256144"><ele>50.0</ele></trkpt>
    <trkpt lat="45.45692839928399" lon="-122.59080958017415"><ele>49.8</ele></trkpt>
    <trkpt lat="45.45687230622823" lon="-122.59089276778687"><ele>49.7</ele></trkpt>
    <trkpt lat="45.45684425970035" lon="-122.59093436159323"><ele>49.6</ele></trkpt>
    <trkpt lat="45.4568" lon="-122.59100000000001"><ele>49.6</ele></trkpt>
    <trkpt lat="45.45678975224801" lon="-122.5910194707288"><ele>49.6</ele></trkpt>
    <trkpt lat="45.456709330491165" lon="-122.59117227206681"><ele>49.3</ele></trkpt>
    <trkpt lat="45.45662890873432" lon="-122.59132507340482"><ele>49.0</ele></trkpt>
    <trkpt lat="45.45654848697747" lon="-122.59147787474282"><ele>48.8</ele></trkpt>
    <trkpt lat="45.45646806522062" lon="-122.59163067608083"><ele>48.6</ele></trkpt>
    <trkpt lat="45.4564" lon="-122.59176000000001"><ele>48.5</ele></trkpt>
    <trkpt lat="45.45631" lon="-122.59201000000002"><ele>48.3</ele></trkpt>
    <trkpt lat="45.45619738079174" lon="-122.59236193502582"><ele>48.0</ele></trkpt>
    <trkpt lat="45.45615" lon="-122.59251"><ele>47.9</ele></trkpt>
    <trkpt lat="45.4561205955269" lon="-122.59259233252472"><ele>47.8</ele></trkpt>
    <trkpt lat="45.456100000000006" lon="-122.59265"><ele>47.8</ele></trkpt>
    <trkpt lat="45.456050000000005" lon="-122.59273"><ele>47.7</ele></trkpt>
    <trkpt lat="45.456050000000005" lon="-122.59287609493099"><ele>47.6</ele></trkpt>
    <trkpt lat="45.456050000000005" lon="-122.59299000000001"><ele>47.5</ele></trkpt>
    <trkpt lat="45.45590686752152" lon="-122.59299000000001"><ele>47.3</ele></trkpt>
    <trkpt lat="45.45586" lon="-122.59299000000001"><ele>47.3</ele></trkpt>
    <trkpt lat="45.45582" lon="-122.59309"><ele>47.2</ele></trkpt>
    <trkpt lat="45.4557985320431" lon="-122.59329036759773"><ele>47.1</ele></trkpt>
    <trkpt lat="45.45579" lon="-122.59337000000001"><ele>47.0</ele></trkpt>
    <trkpt lat="45.45574230812167" lon="-122.59359745357361"><ele>46.8</ele></trkpt>
    <trkpt lat="45.45567817546075" lon="-122.59390331703341"><ele>46.6</ele></trkpt>
    <trkpt lat="45.45566" lon="-122.59399"><ele>46.5</ele></trkpt>
    <trkpt lat="45.4556447019958" lon="-122.59408816219366"><ele>46.5</ele></trkpt>
    <trkpt lat="45.455596135276174" lon="-122.59439979864459"><ele>46.4</ele></trkpt>
    <trkpt lat="45.45554776360362" lon="-122.59471018354348"><ele>46.2</ele></trkpt>
    <trkpt lat="45.455540000000006" lon="-122.59476000000001"><ele>46.2</ele></trkpt>
    <trkpt lat="45.45552996056647" lon="-122.59490055206943"><ele>46.1</ele></trkpt>
    <trkpt lat="45.455484681364894" lon="-122.5955344608915"><ele>46.0</ele></trkpt>
    <trkpt lat="45.45548" lon="-122.5956"><ele>46.0</ele></trkpt>
    <trkpt lat="45.45548000000001" lon="-122.59572514975677"><ele>46.0</ele></trkpt>
    <trkpt lat="45.45548" lon="-122.59585207422776"><ele>46.1</ele></trkpt>
    <trkpt lat="45.45548000000001" lon="-122.59602387098647"><ele>46.0</ele></trkpt>
    <trkpt lat="45.45548" lon="-122.59618797535302"><ele>46.0</ele></trkpt>
    <trkpt lat="45.45548" lon="-122.59619"><ele>46.0</ele></trkpt>
    <trkpt lat="45.4554934868642" lon="-122.59647322414814"><ele>45.7</ele></trkpt>
    <trkpt lat="45.45550237980577" lon="-122.5966599759212"><ele>45.4</ele></trkpt>
    <trkpt lat="45.45550834904053" lon="-122.59678532985106"><ele>45.2</ele></trkpt>
    <trkpt lat="45.455510000000004" lon="-122.59682000000001"><ele>45.1</ele></trkpt>
    <trkpt lat="45.45552025254076" lon="-122.59690970973168"><ele>45.0</ele></trkpt>
    <trkpt lat="45.45553442482452" lon="-122.59703371721459"><ele>44.9</ele></trkpt>
    <trkpt lat="45.45556262477691" lon="-122.59728046679794"><ele>44.8</ele></trkpt>
    <trkpt lat="45.45559" lon="-122.59752"><ele>44.7</ele></trkpt>
    <trkpt lat="45.45562724908453" lon="-122.59770843654528"><ele>44.6</ele></trkpt>
    <trkpt lat="45.45565115439142" lon="-122.59782936927425"><ele>44.5</ele></trkpt>
    <trkpt lat="45.45568676842006" lon="-122.59800953436027"><ele>44.5</ele></trkpt>
    <trkpt lat="45.45569554996136" lon="-122.59805395862807"><ele>44.5</ele></trkpt>
    <trkpt lat="45.45571067372695" lon="-122.59813046708925"><ele>44.4</ele></trkpt>
    <trkpt lat="45.45572677321935" lon="-122.59821191158021"><ele>44.4</ele></trkpt>
    <trkpt lat="45.455733603307024" lon="-122.59824646378848"><ele>44.3</ele></trkpt>
    <trkpt lat="45.455760000000005" lon="-122.59838"><ele>44.2</ele></trkpt>
    <trkpt lat="45.455830000000006" lon="-122.59865"><ele>44.0</ele></trkpt>
    <trkpt lat="45.455960000000005" lon="-122.59883"><ele>43.8</ele></trkpt>
    <trkpt lat="45.45598061059526" lon="-122.59890213708341"><ele>43.8</ele></trkpt>
    <trkpt lat="45.45604" lon="-122.59911000000001"><ele>43.7</ele></trkpt>
    <trkpt lat="45.45603397345232" lon="-122.59913812388919"><ele>43.6</ele></trkpt>
    <trkpt lat="45.45601164017539" lon="-122.59924234584822"><ele>43.6</ele></trkpt>
    <trkpt lat="45.456010000000006" lon="-122.59925000000001"><ele>43.6</ele></trkpt>
    <trkpt lat="45.456036352339616" lon="-122.59933538158035"><ele>43.5</ele></trkpt>
    <trkpt lat="45.456089957052335" lon="-122.59950906084957"><ele>43.3</ele></trkpt>
    <trkpt lat="45.45612581425881" lon="-122.59962523819856"><ele>43.2</ele></trkpt>
    <trkpt lat="45.45632248560345" lon="-122.60026245335519"><ele>42.8</ele></trkpt>
    <trkpt lat="45.456393837822404" lon="-122.60049363454459"><ele>42.6</ele></trkpt>
    <trkpt lat="45.45650104724784" lon="-122.60084099308301"><ele>42.4</ele></trkpt>
    <trkpt lat="45.45651" lon="-122.60087000000001"><ele>42.3</ele></trkpt>
    <trkpt lat="45.45661160990077" lon="-122.6011862100112"><ele>42.1</ele></trkpt>
    <trkpt lat="45.45670412490692" lon="-122.60147411671035"><ele>42.0</ele></trkpt>
    <trkpt lat="45.45681461853775" lon="-122.60181797288948"><ele>41.9</ele></trkpt>
    <trkpt lat="45.45688466026305" lon="-122.60203594273861"><ele>41.8</ele></trkpt>
    <trkpt lat="45.45690001700496" lon="-122.60208373291945"><ele>41.7</ele></trkpt>
    <trkpt lat="45.456937472473044" lon="-122.60220029433611"><ele>41.6</ele></trkpt>
    <trkpt lat="45.45697492794112" lon="-122.60231685575276"><ele>41.4</ele></trkpt>
    <trkpt lat="45.45704983887727" lon="-122.60254997858607"><ele>41.2</ele></trkpt>
    <trkpt lat="45.45708729434535" lon="-122.60266654000273"><ele>41.1</ele></trkpt>
    <trkpt lat="45.457124749813424" lon="-122.60278310141939"><ele>41.0</ele></trkpt>
    <trkpt lat="45.45721801392894" lon="-122.60307333934685"><ele>40.9</ele></trkpt>
    <trkpt lat="45.45731165259913" lon="-122.6033647428885"><ele>40.6</ele></trkpt>
    <trkpt lat="45.45736746124656" lon="-122.60353841939931"><ele>40.6</ele></trkpt>
    <trkpt lat="45.45744873961229" lon="-122.60379135767346"><ele>40.4</ele></trkpt>
    <trkpt lat="45.457536385407586" lon="-122.60406411138842"><ele>40.2</ele></trkpt>
    <trkpt lat="45.45762440575757" lon="-122.60433803071757"><ele>40.0</ele></trkpt>
    <trkpt lat="45.45765961389756" lon="-122.60444759844923"><ele>40.0</ele></trkpt>
    <trkpt lat="45.45769444748288" lon="-122.60455600056672"><ele>39.9</ele></trkpt>
    <trkpt lat="45.45776" lon="-122.60476000000001"><ele>39.8</ele></trkpt>
    <trkpt lat="45.457769732927574" lon="-122.60479169440518"><ele>39.8</ele></trkpt>
    <trkpt lat="45.45789452581951" lon="-122.60519807125843"><ele>39.2</ele></trkpt>
    <trkpt lat="45.457930232456235" lon="-122.60531434671645"><ele>39.1</ele></trkpt>
    <trkpt lat="45.45800164572966" lon="-122.60554689763248"><ele>38.9</ele></trkpt>
    <trkpt lat="45.4583583514237" lon="-122.60670847771306"><ele>38.3</ele></trkpt>
    <trkpt lat="45.458463307295254" lon="-122.60705025708964"><ele>37.9</ele></trkpt>
    <trkpt lat="45.458540000000006" lon="-122.60730000000001"><ele>37.7</ele></trkpt>
    <trkpt lat="45.45858695873618" lon="-122.60744753817454"><ele>37.6</ele></trkpt>
    <trkpt lat="45.45871293787638" lon="-122.60784334806834"><ele>37.2</ele></trkpt>
    <trkpt lat="45.45898347715093" lon="-122.60869334689633"><ele>36.5</ele></trkpt>
    <trkpt lat="45.45907861184088" lon="-122.6089922475831"><ele>36.3</ele></trkpt>
    <trkpt lat="45.45926070558336" lon="-122.60956436217884"><ele>35.8</ele></trkpt>
    <trkpt lat="45.4593153337061" lon="-122.60973599655756"><ele>35.6</ele></trkpt>
    <trkpt lat="45.459369590208965" lon="-122.60990646335549"><ele>35.6</ele></trkpt>
    <trkpt lat="45.45947810321469" lon="-122.61024739695134"><ele>35.1</ele></trkpt>
    <trkpt lat="45.45953235971756" lon="-122.61041786374926"><ele>34.9</ele></trkpt>
    <trkpt lat="45.45956877846605" lon="-122.6105322866684"><ele>34.8</ele></trkpt>
    <trkpt lat="45.459623034968914" lon="-122.61070275346634"><ele>34.7</ele></trkpt>
    <trkpt lat="45.45973191959452" lon="-122.61104485464298"><ele>34.5</ele></trkpt>
    <trkpt lat="45.45987685134874" lon="-122.61150021115796"><ele>34.2</ele></trkpt>
    <trkpt lat="45.45996715498022" lon="-122.61178393329423"><ele>34.1</ele></trkpt>
    <trkpt lat="45.46005894509122" lon="-122.61207232575373"><ele>33.8</ele></trkpt>
    <trkpt lat="45.46015036358234" lon="-122.61235955063242"><ele>33.5</ele></trkpt>
    <trkpt lat="45.46033357218448" lon="-122.61293516797059"><ele>33.1</ele></trkpt>
    <trkpt lat="45.4604249906756" lon="-122.61322239284928"><ele>33.0</ele></trkpt>
    <trkpt lat="45.46051603754684" lon="-122.61350845014715"><ele>32.9</ele></trkpt>
    <trkpt lat="45.460570665669586" lon="-122.6136800845259"><ele>32.9</ele></trkpt>
    <trkpt lat="45.460644246406346" lon="-122.61391126552581"><ele>32.8</ele></trkpt>
    <trkpt lat="45.46070036100862" lon="-122.61408757022775"><ele>32.8</ele></trkpt>
    <trkpt lat="45.46075759047054" lon="-122.61426737767215"><ele>32.8</ele></trkpt>
    <trkpt lat="45.46078025928338" lon="-122.6143386001014"><ele>32.8</ele></trkpt>
    <trkpt lat="45.46084640762249" lon="-122.61454642948517"><ele>32.8</ele></trkpt>
    <trkpt lat="45.46090029250547" lon="-122.6147157287023"><ele>32.7</ele></trkpt>
    <trkpt lat="45.46098985289718" lon="-122.61499711567693"><ele>32.6</ele></trkpt>
    <trkpt lat="45.461040393201216" lon="-122.61515590666679"><ele>32.5</ele></trkpt>
    <trkpt lat="45.46114630486776" lon="-122.61548866719697"><ele>32.3</ele></trkpt>
    <trkpt lat="45.46118309523614" lon="-122.61560425769693"><ele>32.2</ele></trkpt>
    <trkpt lat="45.46121988560452" lon="-122.61571984819689"><ele>32.1</ele></trkpt>
    <trkpt lat="45.461312047335404" lon="-122.61600940823719"><ele>31.6</ele></trkpt>
    <trkpt lat="45.461330628329534" lon="-122.61606778727757"><ele>31.6</ele></trkpt>
    <trkpt lat="45.461404209066295" lon="-122.61629896827749"><ele>31.4</ele></trkpt>
    <trkpt lat="45.46143000000001" lon="-122.61638"><ele>31.4</ele></trkpt>
    <trkpt lat="45.461470000000006" lon="-122.61647"><ele>31.4</ele></trkpt>
    <trkpt lat="45.46155" lon="-122.61654000000001"><ele>31.3</ele></trkpt>
    <trkpt lat="45.461603715938296" lon="-122.61662824761294"><ele>31.3</ele></trkpt>
    <trkpt lat="45.461690000000004" lon="-122.61677000000002"><ele>31.3</ele></trkpt>
    <trkpt lat="45.461690489010394" lon="-122.61677195604155"><ele>31.3</ele></trkpt>
    <trkpt lat="45.46173" lon="-122.61693000000001"><ele>31.3</ele></trkpt>
    <trkpt lat="45.461735031466404" lon="-122.61694525163256"><ele>31.3</ele></trkpt>
  </trkseg></trk>
</gpx>
