<?xml version="1.0" encoding="UTF-8"?>
<gpx version="1.1" creator="h2c-tracker" xmlns="http://www.topografix.com/GPX/1/1">
  <metadata><name>Hood to Coast 2026 — Leg 24 (4.83 mi)</name><desc>Derived from the official Hood to Coast Strava route (simplified, 345 points, ~4.82 mi). Verify against the official leg map PDF.</desc></metadata>
  <wpt lat="45.974301958044435" lon="-123.19898490908449"><name>Exchange 23 — Natal Grange</name></wpt>
  <wpt lat="46.00285205573658" lon="-123.27836253347871"><name>Exchange 24 — Mist - HWY 202</name></wpt>
  <trk><name>HTC Leg 24</name><trkseg>
    <trkpt lat="45.974301958044435" lon="-123.19898490908449"><ele>168.6</ele></trkpt>
    <trkpt lat="45.974171754273335" lon="-123.19932343888937"><ele>168.5</ele></trkpt>
    <trkpt lat="45.97412820786159" lon="-123.19943665955988"><ele>168.5</ele></trkpt>
    <trkpt lat="45.97410000000001" lon="-123.19951"><ele>168.6</ele></trkpt>
    <trkpt lat="45.97399" lon="-123.19992"><ele>168.7</ele></trkpt>
    <trkpt lat="45.97397822823214" lon="-123.19997515914083"><ele>168.7</ele></trkpt>
    <trkpt lat="45.97393889325672" lon="-123.20015947159709"><ele>168.7</ele></trkpt>
    <trkpt lat="45.97391249394436" lon="-123.20028317123214"><ele>168.7</ele></trkpt>
    <trkpt lat="45.97385995931276" lon="-123.2005293335059"><ele>168.6</ele></trkpt>
    <trkpt lat="45.97383356000041" lon="-123.20065303314097"><ele>168.6</ele></trkpt>
    <trkpt lat="45.97374142640027" lon="-123.20108474486733"><ele>168.2</ele></trkpt>
    <trkpt lat="45.973715027087906" lon="-123.2012084445024"><ele>168.1</ele></trkpt>
    <trkpt lat="45.973688627775545" lon="-123.20133214413744"><ele>168.1</ele></trkpt>
    <trkpt lat="45.973543959543804" lon="-123.20201001813757"><ele>167.9</ele></trkpt>
    <trkpt lat="45.97349116091909" lon="-123.20225741740771"><ele>167.9</ele></trkpt>
    <trkpt lat="45.97342542663131" lon="-123.20256542949902"><ele>167.9</ele></trkpt>
    <trkpt lat="45.973372891999716" lon="-123.20281159177279"><ele>167.9</ele></trkpt>
    <trkpt lat="45.973306893718814" lon="-123.20312084086044"><ele>167.9</ele></trkpt>
    <trkpt lat="45.973227959774846" lon="-123.20349070276927"><ele>167.9</ele></trkpt>
    <trkpt lat="45.97314902583089" lon="-123.20386056467811"><ele>167.8</ele></trkpt>
    <trkpt lat="45.97308329154311" lon="-123.2041685767694"><ele>167.7</ele></trkpt>
    <trkpt lat="45.97296475863062" lon="-123.20472398813084"><ele>167.7</ele></trkpt>
    <trkpt lat="45.97294" lon="-123.20484"><ele>167.7</ele></trkpt>
    <trkpt lat="45.972840000000005" lon="-123.20546000000002"><ele>167.5</ele></trkpt>
    <trkpt lat="45.97283872049422" lon="-123.20547586587179"><ele>167.5</ele></trkpt>
    <trkpt lat="45.97280772662526" lon="-123.20586018984686"><ele>167.5</ele></trkpt>
    <trkpt lat="45.97279217786157" lon="-123.20605299451663"><ele>167.5</ele></trkpt>
    <trkpt lat="45.97279" lon="-123.20608000000001"><ele>167.5</ele></trkpt>
    <trkpt lat="45.972787392665765" lon="-123.20624686939095"><ele>167.4</ele></trkpt>
    <trkpt lat="45.97278438086063" lon="-123.20643962491968"><ele>167.2</ele></trkpt>
    <trkpt lat="45.97278134884205" lon="-123.20663367410965"><ele>167.0</ele></trkpt>
    <trkpt lat="45.97278000000001" lon="-123.20672"><ele>166.8</ele></trkpt>
    <trkpt lat="45.97280327607871" lon="-123.20695346612276"><ele>166.4</ele></trkpt>
    <trkpt lat="45.97281604618145" lon="-123.207081554123"><ele>166.3</ele></trkpt>
    <trkpt lat="45.97282881628419" lon="-123.20720964212322"><ele>166.1</ele></trkpt>
    <trkpt lat="45.972835073634535" lon="-123.20727240524332"><ele>166.1</ele></trkpt>
    <trkpt lat="45.97284784373728" lon="-123.20740049324354"><ele>166.0</ele></trkpt>
    <trkpt lat="45.97286061384002" lon="-123.20752858124378"><ele>166.1</ele></trkpt>
    <trkpt lat="45.972879641293105" lon="-123.20771943236414"><ele>166.2</ele></trkpt>
    <trkpt lat="45.97289241139585" lon="-123.20784752036434"><ele>166.3</ele></trkpt>
    <trkpt lat="45.972924208951675" lon="-123.20816645948493"><ele>166.8</ele></trkpt>
    <trkpt lat="45.97293697905442" lon="-123.20829454748517"><ele>166.9</ele></trkpt>
    <trkpt lat="45.97294974915716" lon="-123.20842263548539"><ele>167.0</ele></trkpt>
    <trkpt lat="45.97299329520751" lon="-123.20885941556618"><ele>167.0</ele></trkpt>
    <trkpt lat="45.973030711608544" lon="-123.20923471340686"><ele>167.2</ele></trkpt>
    <trkpt lat="45.97306812800958" lon="-123.20961001124755"><ele>167.2</ele></trkpt>
    <trkpt lat="45.973110000000005" lon="-123.21003"><ele>167.4</ele></trkpt>
    <trkpt lat="45.97311264493851" lon="-123.21004653086565"><ele>167.4</ele></trkpt>
    <trkpt lat="45.97319" lon="-123.21053"><ele>167.4</ele></trkpt>
    <trkpt lat="45.973198735657604" lon="-123.21056891338385"><ele>167.4</ele></trkpt>
    <trkpt lat="45.97322554905348" lon="-123.21068835487458"><ele>167.4</ele></trkpt>
    <trkpt lat="45.9733" lon="-123.21102"><ele>167.3</ele></trkpt>
    <trkpt lat="45.97336199022715" lon="-123.21121777834375"><ele>167.2</ele></trkpt>
    <trkpt lat="45.97346957963984" lon="-123.21156103980329"><ele>167.1</ele></trkpt>
    <trkpt lat="45.973510000000005" lon="-123.21169"><ele>167.1</ele></trkpt>
    <trkpt lat="45.97356346931217" lon="-123.2118449239045"><ele>167.1</ele></trkpt>
    <trkpt lat="45.97360226911593" lon="-123.2119573438487"><ele>167.1</ele></trkpt>
    <trkpt lat="45.97364106891968" lon="-123.21206976379293"><ele>167.1</ele></trkpt>
    <trkpt lat="45.97381826802342" lon="-123.2125831868371"><ele>167.2</ele></trkpt>
    <trkpt lat="45.973897467622834" lon="-123.21281266259949"><ele>167.2</ele></trkpt>
    <trkpt lat="45.9739" lon="-123.21282000000001"><ele>167.2</ele></trkpt>
    <trkpt lat="45.9740010867809" lon="-123.21309391256762"><ele>167.3</ele></trkpt>
    <trkpt lat="45.97420353953767" lon="-123.2136424942311"><ele>167.4</ele></trkpt>
    <trkpt lat="45.97421000000001" lon="-123.21366"><ele>167.4</ele></trkpt>
    <trkpt lat="45.97437" lon="-123.21402"><ele>167.5</ele></trkpt>
    <trkpt lat="45.97455368936067" lon="-123.21431390297705"><ele>167.5</ele></trkpt>
    <trkpt lat="45.97457000000001" lon="-123.21434"><ele>167.5</ele></trkpt>
    <trkpt lat="45.97471417944777" lon="-123.21453660833788"><ele>167.5</ele></trkpt>
    <trkpt lat="45.974790000000006" lon="-123.21464000000002"><ele>167.4</ele></trkpt>
    <trkpt lat="45.97488868673325" lon="-123.21473689242902"><ele>167.4</ele></trkpt>
    <trkpt lat="45.975110060694405" lon="-123.21495424140906"><ele>167.3</ele></trkpt>
    <trkpt lat="45.975294291373494" lon="-123.21513512243942"><ele>167.2</ele></trkpt>
    <trkpt lat="45.97534" lon="-123.21518"><ele>167.1</ele></trkpt>
    <trkpt lat="45.97550437423199" lon="-123.21537618859946"><ele>166.9</ele></trkpt>
    <trkpt lat="45.97565" lon="-123.21555000000001"><ele>166.8</ele></trkpt>
    <trkpt lat="45.97575782731234" lon="-123.215735054982"><ele>166.7</ele></trkpt>
    <trkpt lat="45.97584392004433" lon="-123.21588280872473"><ele>166.7</ele></trkpt>
    <trkpt lat="45.97595890295483" lon="-123.21608014426033"><ele>166.6</ele></trkpt>
    <trkpt lat="45.97604499568681" lon="-123.21622789800305"><ele>166.6</ele></trkpt>
    <trkpt lat="45.97630385168633" lon="-123.2166721508671"><ele>166.8</ele></trkpt>
    <trkpt lat="45.97639" lon="-123.21682000000001"><ele>166.9</ele></trkpt>
    <trkpt lat="45.976455771002826" lon="-123.21690616511223"><ele>166.9</ele></trkpt>
    <trkpt lat="45.97658810594719" lon="-123.21707953414787"><ele>166.8</ele></trkpt>
    <trkpt lat="45.976720440891555" lon="-123.21725290318352"><ele>166.7</ele></trkpt>
    <trkpt lat="45.97681886085018" lon="-123.21738184095878"><ele>166.6</ele></trkpt>
    <trkpt lat="45.97695119579454" lon="-123.2175552099944"><ele>166.6</ele></trkpt>
    <trkpt lat="45.97711611572521" lon="-123.21777126788807"><ele>166.6</ele></trkpt>
    <trkpt lat="45.97754570554461" lon="-123.218334063853"><ele>166.7</ele></trkpt>
    <trkpt lat="45.97768000000001" lon="-123.21851000000001"><ele>166.7</ele></trkpt>
    <trkpt lat="45.97776525046011" lon="-123.2186520841002"><ele>166.7</ele></trkpt>
    <trkpt lat="45.97790571503932" lon="-123.21888619173221"><ele>166.7</ele></trkpt>
    <trkpt lat="45.97798" lon="-123.21901000000001"><ele>166.7</ele></trkpt>
    <trkpt lat="45.97810481977902" lon="-123.21929084450281"><ele>166.7</ele></trkpt>
    <trkpt lat="45.97814" lon="-123.21937000000001"><ele>166.7</ele></trkpt>
    <trkpt lat="45.97818863251839" lon="-123.2195178428559"><ele>166.6</ele></trkpt>
    <trkpt lat="45.97822710923028" lon="-123.21963481206006"><ele>166.6</ele></trkpt>
    <trkpt lat="45.978390000000005" lon="-123.22013000000001"><ele>166.6</ele></trkpt>
    <trkpt lat="45.97839526979937" lon="-123.22016364564212"><ele>166.6</ele></trkpt>
    <trkpt lat="45.978484249893334" lon="-123.22073174931896"><ele>166.6</ele></trkpt>
    <trkpt lat="45.97852" lon="-123.22096"><ele>166.6</ele></trkpt>
    <trkpt lat="45.97852203423134" lon="-123.22104950617891"><ele>166.5</ele></trkpt>
    <trkpt lat="45.978530000000006" lon="-123.22140000000002"><ele>166.5</ele></trkpt>
    <trkpt lat="45.978522841919066" lon="-123.22163144461712"><ele>166.5</ele></trkpt>
    <trkpt lat="45.97851284571822" lon="-123.22195465511106"><ele>166.4</ele></trkpt>
    <trkpt lat="45.97850884723788" lon="-123.22208393930865"><ele>166.3</ele></trkpt>
    <trkpt lat="45.978502849517376" lon="-123.22227786560504"><ele>166.3</ele></trkpt>
    <trkpt lat="45.978492853316524" lon="-123.22260107609901"><ele>166.4</ele></trkpt>
    <trkpt lat="45.97847885863534" lon="-123.22305357079054"><ele>166.3</ele></trkpt>
    <trkpt lat="45.97847" lon="-123.22334000000001"><ele>166.3</ele></trkpt>
    <trkpt lat="45.978480000000005" lon="-123.22361000000001"><ele>166.3</ele></trkpt>
    <trkpt lat="45.97851994574065" lon="-123.22382171242545"><ele>166.3</ele></trkpt>
    <trkpt lat="45.97858" lon="-123.22414"><ele>166.2</ele></trkpt>
    <trkpt lat="45.97868783649973" lon="-123.22441671252761"><ele>166.2</ele></trkpt>
    <trkpt lat="45.97877581340603" lon="-123.22464246458907"><ele>166.2</ele></trkpt>
    <trkpt lat="45.97906173835152" lon="-123.2253761587888"><ele>166.3</ele></trkpt>
    <trkpt lat="45.97917170948439" lon="-123.22565834886561"><ele>166.3</ele></trkpt>
    <trkpt lat="45.97930367484385" lon="-123.22599697695779"><ele>166.4</ele></trkpt>
    <trkpt lat="45.97941364597673" lon="-123.22627916703462"><ele>166.4</ele></trkpt>
    <trkpt lat="45.97945763442988" lon="-123.22639204306535"><ele>166.3</ele></trkpt>
    <trkpt lat="45.97956760556276" lon="-123.22667423314216"><ele>166.2</ele></trkpt>
    <trkpt lat="45.97961159401591" lon="-123.22678710917289"><ele>166.1</ele></trkpt>
    <trkpt lat="45.97964" lon="-123.22686000000002"><ele>166.1</ele></trkpt>
    <trkpt lat="45.97971004722605" lon="-123.22707777058399"><ele>166.1</ele></trkpt>
    <trkpt lat="45.979804489189554" lon="-123.22737138223286"><ele>166.1</ele></trkpt>
    <trkpt lat="45.97984226597495" lon="-123.22748882689243"><ele>166.1</ele></trkpt>
    <trkpt lat="45.979955596331145" lon="-123.2278411608711"><ele>165.9</ele></trkpt>
    <trkpt lat="45.97999337311654" lon="-123.22795860553066"><ele>165.8</ele></trkpt>
    <trkpt lat="45.98003114990195" lon="-123.22807605019021"><ele>165.6</ele></trkpt>
    <trkpt lat="45.980144102490286" lon="-123.22842720972228"><ele>165.5</ele></trkpt>
    <trkpt lat="45.98025705507864" lon="-123.22877836925437"><ele>165.5</ele></trkpt>
    <trkpt lat="45.98040778445238" lon="-123.22924697344601"><ele>165.4</ele></trkpt>
    <trkpt lat="45.98050222641587" lon="-123.2295405850949"><ele>165.3</ele></trkpt>
    <trkpt lat="45.98061517900422" lon="-123.22989174462698"><ele>165.2</ele></trkpt>
    <trkpt lat="45.980650000000004" lon="-123.23"><ele>165.2</ele></trkpt>
    <trkpt lat="45.98066926231814" lon="-123.23006951184371"><ele>165.1</ele></trkpt>
    <trkpt lat="45.980768864521565" lon="-123.23042894588217"><ele>164.9</ele></trkpt>
    <trkpt lat="45.98088478949412" lon="-123.23084728382659"><ele>164.8</ele></trkpt>
    <trkpt lat="45.98098439169755" lon="-123.23120671786506"><ele>164.7</ele></trkpt>
    <trkpt lat="45.981034026240394" lon="-123.23138583382402"><ele>164.6</ele></trkpt>
    <trkpt lat="45.981083993900974" lon="-123.23156615190351"><ele>164.6</ele></trkpt>
    <trkpt lat="45.98111" lon="-123.23166"><ele>164.6</ele></trkpt>
    <trkpt lat="45.98112797514244" lon="-123.23174807819797"><ele>164.7</ele></trkpt>
    <trkpt lat="45.98117840503643" lon="-123.23199518467851"><ele>164.8</ele></trkpt>
    <trkpt lat="45.98131" lon="-123.23264"><ele>165.2</ele></trkpt>
    <trkpt lat="45.98133370636833" lon="-123.23280305355783"><ele>165.3</ele></trkpt>
    <trkpt lat="45.98136114839176" lon="-123.2329918011336"><ele>165.4</ele></trkpt>
    <trkpt lat="45.981379565857154" lon="-123.23311847735894"><ele>165.4</ele></trkpt>
    <trkpt lat="45.98140700788058" lon="-123.23330722493469"><ele>165.4</ele></trkpt>
    <trkpt lat="45.981462076102076" lon="-123.23368598684849"><ele>165.4</ele></trkpt>
    <trkpt lat="45.9815079355909" lon="-123.2340014106496"><ele>165.4</ele></trkpt>
    <trkpt lat="45.981562082939135" lon="-123.23437383875209"><ele>165.3</ele></trkpt>
    <trkpt lat="45.98164330396149" lon="-123.23493248090587"><ele>165.0</ele></trkpt>
    <trkpt lat="45.98168842675169" lon="-123.23524283765796"><ele>164.9</ele></trkpt>
    <trkpt lat="45.98172" lon="-123.23546"><ele>164.8</ele></trkpt>
    <trkpt lat="45.98174106073378" lon="-123.23555026028762"><ele>164.8</ele></trkpt>
    <trkpt lat="45.98179745630178" lon="-123.23579195557903"><ele>164.8</ele></trkpt>
    <trkpt lat="45.981867592921866" lon="-123.23609254109368"><ele>164.8</ele></trkpt>
    <trkpt lat="45.981930000000006" lon="-123.23636"><ele>164.7</ele></trkpt>
    <trkpt lat="45.98200000059795" lon="-123.23663045685569"><ele>164.6</ele></trkpt>
    <trkpt lat="45.982046144345205" lon="-123.23680873951554"><ele>164.6</ele></trkpt>
    <trkpt lat="45.98213780403362" lon="-123.2371628792208"><ele>164.5</ele></trkpt>
    <trkpt lat="45.982150000000004" lon="-123.23721"><ele>164.4</ele></trkpt>
    <trkpt lat="45.98217610018975" lon="-123.23727670048491"><ele>164.4</ele></trkpt>
    <trkpt lat="45.98221934504822" lon="-123.23738721512322"><ele>164.4</ele></trkpt>
    <trkpt lat="45.982330000000005" lon="-123.23767000000001"><ele>164.5</ele></trkpt>
    <trkpt lat="45.98247044575986" lon="-123.23798045904809"><ele>164.6</ele></trkpt>
    <trkpt lat="45.98268584615607" lon="-123.23845660729236"><ele>164.8</ele></trkpt>
    <trkpt lat="45.982710000000004" lon="-123.23851"><ele>164.8</ele></trkpt>
    <trkpt lat="45.982940908666656" lon="-123.23889297047153"><ele>164.8</ele></trkpt>
    <trkpt lat="45.98312000000001" lon="-123.23919000000001"><ele>164.8</ele></trkpt>
    <trkpt lat="45.98316779233308" lon="-123.2392874228328"><ele>164.9</ele></trkpt>
    <trkpt lat="45.983380000000004" lon="-123.23972"><ele>164.9</ele></trkpt>
    <trkpt lat="45.983479940962894" lon="-123.24004253674387"><ele>164.9</ele></trkpt>
    <trkpt lat="45.9836" lon="-123.24043"><ele>164.8</ele></trkpt>
    <trkpt lat="45.98363238960914" lon="-123.24055655939867"><ele>164.8</ele></trkpt>
    <trkpt lat="45.98370729670332" lon="-123.24084925193334"><ele>164.8</ele></trkpt>
    <trkpt lat="45.98376697372442" lon="-123.24108243436763"><ele>164.7</ele></trkpt>
    <trkpt lat="45.98382727238115" lon="-123.24131804578559"><ele>164.7</ele></trkpt>
    <trkpt lat="45.98390280111097" lon="-123.24161316730397"><ele>164.7</ele></trkpt>
    <trkpt lat="45.98394818051243" lon="-123.24179048311336"><ele>164.6</ele></trkpt>
    <trkpt lat="45.98409923797207" lon="-123.24238072615012"><ele>164.4</ele></trkpt>
    <trkpt lat="45.984140000000004" lon="-123.24254"><ele>164.3</ele></trkpt>
    <trkpt lat="45.984234762620076" lon="-123.24284459413596"><ele>164.3</ele></trkpt>
    <trkpt lat="45.984280000000005" lon="-123.24299"><ele>164.2</ele></trkpt>
    <trkpt lat="45.98428745076521" lon="-123.24302039912203"><ele>164.2</ele></trkpt>
    <trkpt lat="45.98444989217134" lon="-123.24368316005908"><ele>163.9</ele></trkpt>
    <trkpt lat="45.984479508560305" lon="-123.24380399492604"><ele>163.9</ele></trkpt>
    <trkpt lat="45.98453000000001" lon="-123.24401000000002"><ele>163.9</ele></trkpt>
    <trkpt lat="45.9845375404976" lon="-123.24404487480138"><ele>163.9</ele></trkpt>
    <trkpt lat="45.98461" lon="-123.24438"><ele>164.0</ele></trkpt>
    <trkpt lat="45.98461872929083" lon="-123.24447602219904"><ele>164.0</ele></trkpt>
    <trkpt lat="45.98465" lon="-123.24482"><ele>164.0</ele></trkpt>
    <trkpt lat="45.98464664298176" lon="-123.2451758439341"><ele>163.9</ele></trkpt>
    <trkpt lat="45.98464122221894" lon="-123.24575044479275"><ele>164.0</ele></trkpt>
    <trkpt lat="45.984640000000006" lon="-123.24588000000001"><ele>163.9</ele></trkpt>
    <trkpt lat="45.98465" lon="-123.24600000000001"><ele>163.9</ele></trkpt>
    <trkpt lat="45.984660544447514" lon="-123.24606624663762"><ele>163.9</ele></trkpt>
    <trkpt lat="45.98474950209941" lon="-123.24662513275499"><ele>164.0</ele></trkpt>
    <trkpt lat="45.98479910151255" lon="-123.24693674645926"><ele>163.9</ele></trkpt>
    <trkpt lat="45.98482862019162" lon="-123.24712220076908"><ele>164.0</ele></trkpt>
    <trkpt lat="45.98492721659587" lon="-123.24774164339578"><ele>163.8</ele></trkpt>
    <trkpt lat="45.98495673527495" lon="-123.24792709770561"><ele>163.8</ele></trkpt>
    <trkpt lat="45.98506537204622" lon="-123.24860962002953"><ele>163.8</ele></trkpt>
    <trkpt lat="45.985110000000006" lon="-123.24889000000002"><ele>163.9</ele></trkpt>
    <trkpt lat="45.985154078216084" lon="-123.2490342559799"><ele>164.0</ele></trkpt>
    <trkpt lat="45.98520729469379" lon="-123.24920841899782"><ele>164.0</ele></trkpt>
    <trkpt lat="45.985220000000005" lon="-123.24925"><ele>164.0</ele></trkpt>
    <trkpt lat="45.98534" lon="-123.24957"><ele>164.0</ele></trkpt>
    <trkpt lat="45.9855" lon="-123.24988"><ele>164.0</ele></trkpt>
    <trkpt lat="45.985670000000006" lon="-123.25016000000001"><ele>164.0</ele></trkpt>
    <trkpt lat="45.98582075021988" lon="-123.25036628977458"><ele>164.0</ele></trkpt>
    <trkpt lat="45.98586" lon="-123.25042"><ele>164.0</ele></trkpt>
    <trkpt lat="45.98591988059489" lon="-123.2504920278013"><ele>164.0</ele></trkpt>
    <trkpt lat="45.98605582113365" lon="-123.25065554484932"><ele>163.9</ele></trkpt>
    <trkpt lat="45.986452601893966" lon="-123.25113281542104"><ele>163.9</ele></trkpt>
    <trkpt lat="45.98665064724738" lon="-123.25137103568899"><ele>163.9</ele></trkpt>
    <trkpt lat="45.98685490308226" lon="-123.25161672627894"><ele>163.9</ele></trkpt>
    <trkpt lat="45.986991533674505" lon="-123.25178107336276"><ele>163.8</ele></trkpt>
    <trkpt lat="45.98740142545126" lon="-123.25227411461424"><ele>163.9</ele></trkpt>
    <trkpt lat="45.98757186866482" lon="-123.25247913345112"><ele>163.8</ele></trkpt>
    <trkpt lat="45.9877768145532" lon="-123.25272565407685"><ele>163.9</ele></trkpt>
    <trkpt lat="45.98801557306289" lon="-123.25301284645565"><ele>163.8</ele></trkpt>
    <trkpt lat="45.988117700980325" lon="-123.25313569175061"><ele>163.8</ele></trkpt>
    <trkpt lat="45.9883226468687" lon="-123.25338221237635"><ele>163.9</ele></trkpt>
    <trkpt lat="45.98839096216482" lon="-123.25346438591826"><ele>163.9</ele></trkpt>
    <trkpt lat="45.98862972067452" lon="-123.25375157829706"><ele>163.8</ele></trkpt>
    <trkpt lat="45.988698035970636" lon="-123.25383375183898"><ele>163.8</ele></trkpt>
    <trkpt lat="45.98876635126676" lon="-123.25391592538088"><ele>163.6</ele></trkpt>
    <trkpt lat="45.98900579982995" lon="-123.25420394779545"><ele>163.2</ele></trkpt>
    <trkpt lat="45.98931080347528" lon="-123.25457082360883"><ele>162.8</ele></trkpt>
    <trkpt lat="45.989360000000005" lon="-123.25463"><ele>162.7</ele></trkpt>
    <trkpt lat="45.98937877535379" lon="-123.25465155688768"><ele>162.7</ele></trkpt>
    <trkpt lat="45.98944837562988" lon="-123.25473146831578"><ele>162.7</ele></trkpt>
    <trkpt lat="45.98955172149437" lon="-123.25485012467871"><ele>162.7</ele></trkpt>
    <trkpt lat="45.98962061873737" lon="-123.25492922892067"><ele>162.7</ele></trkpt>
    <trkpt lat="45.989630000000005" lon="-123.25494"><ele>162.7</ele></trkpt>
    <trkpt lat="45.989893857579226" lon="-123.25514016781872"><ele>162.7</ele></trkpt>
    <trkpt lat="45.989920000000005" lon="-123.25516"><ele>162.7</ele></trkpt>
    <trkpt lat="45.99024000000001" lon="-123.25529000000002"><ele>162.7</ele></trkpt>
    <trkpt lat="45.990362373870674" lon="-123.25531478956223"><ele>162.7</ele></trkpt>
    <trkpt lat="45.99057432377515" lon="-123.25535772475189"><ele>162.7</ele></trkpt>
    <trkpt lat="45.99087176607808" lon="-123.25541797833736"><ele>162.6</ele></trkpt>
    <trkpt lat="45.99121106403442" lon="-123.25548671072082"><ele>162.6</ele></trkpt>
    <trkpt lat="45.99147110341302" lon="-123.25553938750812"><ele>162.6</ele></trkpt>
    <trkpt lat="45.99186027193512" lon="-123.25561822228912"><ele>162.5</ele></trkpt>
    <trkpt lat="45.99203749055273" lon="-123.25565412188047"><ele>162.5</ele></trkpt>
    <trkpt lat="45.992790892314034" lon="-123.25580674024368"><ele>162.7</ele></trkpt>
    <trkpt lat="45.99287994689575" lon="-123.25582478023932"><ele>162.7</ele></trkpt>
    <trkpt lat="45.993189856840125" lon="-123.2558875594242"><ele>162.6</ele></trkpt>
    <trkpt lat="45.99335000000001" lon="-123.25592"><ele>162.6</ele></trkpt>
    <trkpt lat="45.99361019410907" lon="-123.25598887491122"><ele>162.6</ele></trkpt>
    <trkpt lat="45.99369" lon="-123.25601"><ele>162.6</ele></trkpt>
    <trkpt lat="45.99401" lon="-123.25619"><ele>162.6</ele></trkpt>
    <trkpt lat="45.99440717955703" lon="-123.25650633770029"><ele>162.5</ele></trkpt>
    <trkpt lat="45.99475341294372" lon="-123.25678209880473"><ele>162.6</ele></trkpt>
    <trkpt lat="45.99490764417961" lon="-123.25690493784217"><ele>162.6</ele></trkpt>
    <trkpt lat="45.99513899103345" lon="-123.25708919639833"><ele>162.6</ele></trkpt>
    <trkpt lat="45.995140000000006" lon="-123.25709"><ele>162.6</ele></trkpt>
    <trkpt lat="45.99533" lon="-123.25722"><ele>162.6</ele></trkpt>
    <trkpt lat="45.99537981492264" lon="-123.25724134925255"><ele>162.7</ele></trkpt>
    <trkpt lat="45.995540000000005" lon="-123.25731"><ele>162.6</ele></trkpt>
    <trkpt lat="45.99555072238842" lon="-123.25731306353956"><ele>162.6</ele></trkpt>
    <trkpt lat="45.99575" lon="-123.25737000000001"><ele>162.6</ele></trkpt>
    <trkpt lat="45.996214652396645" lon="-123.25739701467424"><ele>162.5</ele></trkpt>
    <trkpt lat="45.99648243212982" lon="-123.25741258326337"><ele>162.5</ele></trkpt>
    <trkpt lat="45.996610000000004" lon="-123.25742000000001"><ele>162.5</ele></trkpt>
    <trkpt lat="45.996748276715806" lon="-123.25744572590061"><ele>162.5</ele></trkpt>
    <trkpt lat="45.997040000000005" lon="-123.25750000000001"><ele>162.6</ele></trkpt>
    <trkpt lat="45.997240000000005" lon="-123.25761000000001"><ele>162.6</ele></trkpt>
    <trkpt lat="45.99756000000001" lon="-123.2578"><ele>162.7</ele></trkpt>
    <trkpt lat="45.997591465389945" lon="-123.25782495530927"><ele>162.7</ele></trkpt>
    <trkpt lat="45.99785000000001" lon="-123.25803"><ele>162.8</ele></trkpt>
    <trkpt lat="45.99812000000001" lon="-123.25831000000001"><ele>162.8</ele></trkpt>
    <trkpt lat="45.99816553648592" lon="-123.258368286702"><ele>162.8</ele></trkpt>
    <trkpt lat="45.99834699293104" lon="-123.25860055095174"><ele>162.8</ele></trkpt>
    <trkpt lat="45.99837" lon="-123.25863000000001"><ele>162.8</ele></trkpt>
    <trkpt lat="45.998541754965714" lon="-123.25886926558807"><ele>162.7</ele></trkpt>
    <trkpt lat="45.9989934927481" lon="-123.25949856504215"><ele>162.5</ele></trkpt>
    <trkpt lat="45.999155058478564" lon="-123.25972363637766"><ele>162.4</ele></trkpt>
    <trkpt lat="45.99925199791684" lon="-123.25985867917896"><ele>162.4</ele></trkpt>
    <trkpt lat="45.99938125050122" lon="-123.26003873624737"><ele>162.4</ele></trkpt>
    <trkpt lat="45.99976900825434" lon="-123.26057890745258"><ele>162.5</ele></trkpt>
    <trkpt lat="46.0001" lon="-123.26104000000001"><ele>162.5</ele></trkpt>
    <trkpt lat="46.00017482045131" lon="-123.26114248134544"><ele>162.5</ele></trkpt>
    <trkpt lat="46.00030382423233" lon="-123.26131917743338"><ele>162.7</ele></trkpt>
    <trkpt lat="46.00043282801336" lon="-123.26149587352133"><ele>162.8</ele></trkpt>
    <trkpt lat="46.00075598900017" lon="-123.2619385061457"><ele>162.9</ele></trkpt>
    <trkpt lat="46.00140100790529" lon="-123.26282198658544"><ele>162.8</ele></trkpt>
    <trkpt lat="46.00169159217971" lon="-123.26321999898556"><ele>162.7</ele></trkpt>
    <trkpt lat="46.00175" lon="-123.26330000000002"><ele>162.7</ele></trkpt>
    <trkpt lat="46.001817225340176" lon="-123.26340155317347"><ele>162.7</ele></trkpt>
    <trkpt lat="46.001907807622814" lon="-123.26353839023874"><ele>162.7</ele></trkpt>
    <trkpt lat="46.00221119622701" lon="-123.26399670068338"><ele>162.5</ele></trkpt>
    <trkpt lat="46.00222" lon="-123.26401000000001"><ele>162.5</ele></trkpt>
    <trkpt lat="46.00236" lon="-123.2643"><ele>162.4</ele></trkpt>
    <trkpt lat="46.00238226930758" lon="-123.26436217767068"><ele>162.3</ele></trkpt>
    <trkpt lat="46.00264397920994" lon="-123.26509289244756"><ele>162.0</ele></trkpt>
    <trkpt lat="46.002725583242494" lon="-123.26532073737013"><ele>162.0</ele></trkpt>
    <trkpt lat="46.00284798929131" lon="-123.26566250475395"><ele>162.1</ele></trkpt>
    <trkpt lat="46.00297039534013" lon="-123.26600427213778"><ele>162.0</ele></trkpt>
    <trkpt lat="46.003112996326294" lon="-123.26640242538629"><ele>162.0</ele></trkpt>
    <trkpt lat="46.0031744054215" lon="-123.26657388444417"><ele>162.0</ele></trkpt>
    <trkpt lat="46.00329639932873" lon="-123.26691450109608"><ele>161.9</ele></trkpt>
    <trkpt lat="46.00333678920343" lon="-123.26702727282542"><ele>161.9</ele></trkpt>
    <trkpt lat="46.003370000000004" lon="-123.26712"><ele>161.8</ele></trkpt>
    <trkpt lat="46.00337677748756" lon="-123.26714033246269"><ele>161.8</ele></trkpt>
    <trkpt lat="46.00347249283647" lon="-123.26742747850942"><ele>161.9</ele></trkpt>
    <trkpt lat="46.00352" lon="-123.26757"><ele>161.9</ele></trkpt>
    <trkpt lat="46.00366" lon="-123.26807000000001"><ele>161.8</ele></trkpt>
    <trkpt lat="46.00369891185653" lon="-123.26825394695813"><ele>161.8</ele></trkpt>
    <trkpt lat="46.00377" lon="-123.26859"><ele>161.9</ele></trkpt>
    <trkpt lat="46.00377496712117" lon="-123.26861980272703"><ele>161.9</ele></trkpt>
    <trkpt lat="46.00386" lon="-123.26913"><ele>161.9</ele></trkpt>
    <trkpt lat="46.00386424856976" lon="-123.26917588455343"><ele>161.9</ele></trkpt>
    <trkpt lat="46.003910000000005" lon="-123.26967"><ele>161.9</ele></trkpt>
    <trkpt lat="46.003912680761374" lon="-123.26974238055698"><ele>161.9</ele></trkpt>
    <trkpt lat="46.00392675878402" lon="-123.27012248716844"><ele>161.8</ele></trkpt>
    <trkpt lat="46.003930000000004" lon="-123.27021"><ele>161.8</ele></trkpt>
    <trkpt lat="46.00392455185876" lon="-123.27050419962697"><ele>161.8</ele></trkpt>
    <trkpt lat="46.00392076496025" lon="-123.2707086921463"><ele>161.8</ele></trkpt>
    <trkpt lat="46.00392" lon="-123.27075"><ele>161.8</ele></trkpt>
    <trkpt lat="46.00389993699556" lon="-123.27107769573925"><ele>161.7</ele></trkpt>
    <trkpt lat="46.003890000000006" lon="-123.27124"><ele>161.7</ele></trkpt>
    <trkpt lat="46.00383" lon="-123.27168"><ele>161.6</ele></trkpt>
    <trkpt lat="46.00367287785693" lon="-123.27251050275629"><ele>161.4</ele></trkpt>
    <trkpt lat="46.003620000000005" lon="-123.27279000000001"><ele>161.4</ele></trkpt>
    <trkpt lat="46.00360218966108" lon="-123.27287997291906"><ele>161.3</ele></trkpt>
    <trkpt lat="46.003541310103145" lon="-123.27318751965137"><ele>161.3</ele></trkpt>
    <trkpt lat="46.00346810674806" lon="-123.27355732280724"><ele>161.2</ele></trkpt>
    <trkpt lat="46.00343162830849" lon="-123.27374160182092"><ele>161.2</ele></trkpt>
    <trkpt lat="46.003370748750555" lon="-123.27404914855325"><ele>161.2</ele></trkpt>
    <trkpt lat="46.0033337773591" lon="-123.27423591782389"><ele>161.2</ele></trkpt>
    <trkpt lat="46.003198708542314" lon="-123.27491824822596"><ele>161.2</ele></trkpt>
    <trkpt lat="46.003040000000006" lon="-123.27572"><ele>161.1</ele></trkpt>
    <trkpt lat="46.0030088916929" lon="-123.27590509442729"><ele>161.0</ele></trkpt>
    <trkpt lat="46.00297759074033" lon="-123.27609133509503"><ele>160.9</ele></trkpt>
    <trkpt lat="46.00295665294098" lon="-123.27621591500117"><ele>160.8</ele></trkpt>
    <trkpt lat="46.002925351988424" lon="-123.27640215566895"><ele>160.8</ele></trkpt>
    <trkpt lat="46.00286275008329" lon="-123.27677463700448"><ele>160.8</ele></trkpt>
    <trkpt lat="46.002840000000006" lon="-123.27691000000002"><ele>160.8</ele></trkpt>
    <trkpt lat="46.00283351625161" lon="-123.27702670747101"><ele>160.8</ele></trkpt>
    <trkpt lat="46.0028" lon="-123.27763000000002"><ele>161.0</ele></trkpt>
    <trkpt lat="46.00280872253268" lon="-123.27791784357824"><ele>161.1</ele></trkpt>
    <trkpt lat="46.002810000000004" lon="-123.27796000000001"><ele>161.1</ele></trkpt>
    <trkpt lat="46.00285205573658" lon="-123.27836253347871"><ele>161.4</ele></trkpt>
  </trkseg></trk>
</gpx>
