<?xml version="1.0" encoding="UTF-8"?>
<gpx version="1.1" creator="h2c-tracker" xmlns="http://www.topografix.com/GPX/1/1">
  <metadata><name>Hood to Coast 2026 — Leg 15 (6 mi)</name><desc>Derived from the official Hood to Coast Strava route (simplified, 473 points, ~6.05 mi). Verify against the official leg map PDF.</desc></metadata>
  <wpt lat="45.62984" lon="-122.81587"><name>Exchange 14 — Gillihan Layover Terrace</name></wpt>
  <wpt lat="45.695002795872256" lon="-122.87133999453194"><name>Exchange 15 — Rocky Point Weigh Station</name></wpt>
  <trk><name>HTC Leg 15</name><trkseg>
    <trkpt lat="45.62984" lon="-122.81587"><ele>21.6</ele></trkpt>
    <trkpt lat="45.62995015203689" lon="-122.81590671734564"><ele>22.3</ele></trkpt>
    <trkpt lat="45.629960000000004" lon="-122.81591000000002"><ele>22.3</ele></trkpt>
    <trkpt lat="45.63002" lon="-122.81583"><ele>22.9</ele></trkpt>
    <trkpt lat="45.630030000000005" lon="-122.81577000000001"><ele>23.1</ele></trkpt>
    <trkpt lat="45.63002040488885" lon="-122.81564526355506"><ele>23.7</ele></trkpt>
    <trkpt lat="45.63002" lon="-122.81564000000002"><ele>23.7</ele></trkpt>
    <trkpt lat="45.62999000000001" lon="-122.81555000000002"><ele>24.2</ele></trkpt>
    <trkpt lat="45.62994820156347" lon="-122.8154873023452"><ele>24.5</ele></trkpt>
    <trkpt lat="45.62988676696702" lon="-122.81539515045054"><ele>25.0</ele></trkpt>
    <trkpt lat="45.6298247118191" lon="-122.81530206772865"><ele>25.4</ele></trkpt>
    <trkpt lat="45.629732249648676" lon="-122.81516337447302"><ele>26.0</ele></trkpt>
    <trkpt lat="45.62967081505223" lon="-122.81507122257834"><ele>26.3</ele></trkpt>
    <trkpt lat="45.629670000000004" lon="-122.81507"><ele>26.3</ele></trkpt>
    <trkpt lat="45.62963826709819" lon="-122.81502874722764"><ele>26.5</ele></trkpt>
    <trkpt lat="45.62960499472906" lon="-122.81498549314779"><ele>26.6</ele></trkpt>
    <trkpt lat="45.62957172235992" lon="-122.8149422390679"><ele>26.7</ele></trkpt>
    <trkpt lat="45.62957" lon="-122.81494"><ele>26.7</ele></trkpt>
    <trkpt lat="45.62948917964832" lon="-122.81489509980463"><ele>26.8</ele></trkpt>
    <trkpt lat="45.62948" lon="-122.81489"><ele>26.8</ele></trkpt>
    <trkpt lat="45.62940777741657" lon="-122.81484357119638"><ele>26.8</ele></trkpt>
    <trkpt lat="45.629340000000006" lon="-122.8148"><ele>26.8</ele></trkpt>
    <trkpt lat="45.629324398389336" lon="-122.81479888559923"><ele>26.8</ele></trkpt>
    <trkpt lat="45.62923547633601" lon="-122.81479253402401"><ele>26.7</ele></trkpt>
    <trkpt lat="45.629200000000004" lon="-122.81479000000002"><ele>26.7</ele></trkpt>
    <trkpt lat="45.62906" lon="-122.8148"><ele>26.5</ele></trkpt>
    <trkpt lat="45.629013531743276" lon="-122.8148129078491"><ele>26.4</ele></trkpt>
    <trkpt lat="45.62888" lon="-122.81485"><ele>26.4</ele></trkpt>
    <trkpt lat="45.62877" lon="-122.81492000000001"><ele>26.3</ele></trkpt>
    <trkpt lat="45.628640000000004" lon="-122.81507"><ele>26.2</ele></trkpt>
    <trkpt lat="45.62862528795417" lon="-122.81509452007639"><ele>26.2</ele></trkpt>
    <trkpt lat="45.62856672755959" lon="-122.81519212073405"><ele>26.2</ele></trkpt>
    <trkpt lat="45.6284507779783" lon="-122.81538537003618"><ele>25.9</ele></trkpt>
    <trkpt lat="45.628421497781005" lon="-122.815434170365"><ele>25.9</ele></trkpt>
    <trkpt lat="45.62839280318765" lon="-122.81548199468725"><ele>25.9</ele></trkpt>
    <trkpt lat="45.628334242793066" lon="-122.8155795953449"><ele>26.0</ele></trkpt>
    <trkpt lat="45.62827626800242" lon="-122.81567621999599"><ele>26.2</ele></trkpt>
    <trkpt lat="45.62824698780513" lon="-122.8157250203248"><ele>26.4</ele></trkpt>
    <trkpt lat="45.62821829321177" lon="-122.81577284464704"><ele>26.6</ele></trkpt>
    <trkpt lat="45.62815973281719" lon="-122.8158704453047"><ele>27.1</ele></trkpt>
    <trkpt lat="45.6281" lon="-122.81597000000001"><ele>28.1</ele></trkpt>
    <trkpt lat="45.62808637741186" lon="-122.81602449035253"><ele>28.5</ele></trkpt>
    <trkpt lat="45.62807" lon="-122.81609000000002"><ele>28.8</ele></trkpt>
    <trkpt lat="45.62781896625097" lon="-122.81650367533291"><ele>31.3</ele></trkpt>
    <trkpt lat="45.62773467973935" lon="-122.81664257000702"><ele>32.1</ele></trkpt>
    <trkpt lat="45.627590862195035" lon="-122.81687956511524"><ele>32.7</ele></trkpt>
    <trkpt lat="45.62753250999467" lon="-122.81697572296653"><ele>32.9</ele></trkpt>
    <trkpt lat="45.627446455234555" lon="-122.8171175315149"><ele>33.1</ele></trkpt>
    <trkpt lat="45.6273881030342" lon="-122.81721368936618"><ele>33.2</ele></trkpt>
    <trkpt lat="45.62736" lon="-122.81726"><ele>33.2</ele></trkpt>
    <trkpt lat="45.62731" lon="-122.8173"><ele>33.3</ele></trkpt>
    <trkpt lat="45.62728914469044" lon="-122.81733475884928"><ele>33.4</ele></trkpt>
    <trkpt lat="45.62722" lon="-122.81745000000001"><ele>33.6</ele></trkpt>
    <trkpt lat="45.627206298675866" lon="-122.8174816184403"><ele>33.6</ele></trkpt>
    <trkpt lat="45.62713666586384" lon="-122.81764230954501"><ele>33.8</ele></trkpt>
    <trkpt lat="45.62709" lon="-122.81775"><ele>33.8</ele></trkpt>
    <trkpt lat="45.627032913284495" lon="-122.81784514452586"><ele>33.9</ele></trkpt>
    <trkpt lat="45.62691872219301" lon="-122.81803546301165"><ele>33.9</ele></trkpt>
    <trkpt lat="45.62683205408255" lon="-122.81817990986244"><ele>33.9</ele></trkpt>
    <trkpt lat="45.62679000000001" lon="-122.81825"><ele>33.8</ele></trkpt>
    <trkpt lat="45.626739680508486" lon="-122.81839257189263"><ele>33.7</ele></trkpt>
    <trkpt lat="45.62673" lon="-122.81842"><ele>33.7</ele></trkpt>
    <trkpt lat="45.62673" lon="-122.81856"><ele>33.6</ele></trkpt>
    <trkpt lat="45.62672307357887" lon="-122.81857385284228"><ele>33.5</ele></trkpt>
    <trkpt lat="45.62667129148054" lon="-122.81867741703894"><ele>33.4</ele></trkpt>
    <trkpt lat="45.626650000000005" lon="-122.81872000000001"><ele>33.3</ele></trkpt>
    <trkpt lat="45.62671396932393" lon="-122.81882157553254"><ele>33.1</ele></trkpt>
    <trkpt lat="45.62680303817865" lon="-122.81896300607762"><ele>32.6</ele></trkpt>
    <trkpt lat="45.62686201620407" lon="-122.81905665603314"><ele>32.3</ele></trkpt>
    <trkpt lat="45.62692099422949" lon="-122.81915030598867"><ele>32.0</ele></trkpt>
    <trkpt lat="45.626979972254915" lon="-122.81924395594417"><ele>31.6</ele></trkpt>
    <trkpt lat="45.62718579352732" lon="-122.81957077517671"><ele>30.2</ele></trkpt>
    <trkpt lat="45.62736332942016" lon="-122.81985268065506"><ele>29.1</ele></trkpt>
    <trkpt lat="45.6274818872876" lon="-122.82004093617789"><ele>28.2</ele></trkpt>
    <trkpt lat="45.62757095614232" lon="-122.82018236672296"><ele>27.7</ele></trkpt>
    <trkpt lat="45.62762933235116" lon="-122.8202750610667"><ele>27.4</ele></trkpt>
    <trkpt lat="45.62771960483905" lon="-122.82041840283534"><ele>27.0</ele></trkpt>
    <trkpt lat="45.6278074700606" lon="-122.82055792215684"><ele>26.6</ele></trkpt>
    <trkpt lat="45.6278676517192" lon="-122.82065348333593"><ele>26.5</ele></trkpt>
    <trkpt lat="45.627926629744614" lon="-122.82074713329146"><ele>26.3</ele></trkpt>
    <trkpt lat="45.62798620958662" lon="-122.82084173885877"><ele>26.2</ele></trkpt>
    <trkpt lat="45.628045187612045" lon="-122.82093538881429"><ele>26.2</ele></trkpt>
    <trkpt lat="45.628133654650185" lon="-122.82107586374757"><ele>26.2</ele></trkpt>
    <trkpt lat="45.628252212517616" lon="-122.8212641192704"><ele>26.2</ele></trkpt>
    <trkpt lat="45.6283" lon="-122.82134"><ele>26.2</ele></trkpt>
    <trkpt lat="45.62846543349773" lon="-122.8215881502466"><ele>26.4</ele></trkpt>
    <trkpt lat="45.62854" lon="-122.8217"><ele>26.3</ele></trkpt>
    <trkpt lat="45.62865504410999" lon="-122.82185137382893"><ele>26.3</ele></trkpt>
    <trkpt lat="45.62881718363214" lon="-122.82206471530544"><ele>26.3</ele></trkpt>
    <trkpt lat="45.62897932315428" lon="-122.82227805678194"><ele>26.3</ele></trkpt>
    <trkpt lat="45.629110000000004" lon="-122.82245"><ele>26.2</ele></trkpt>
    <trkpt lat="45.62918111419006" lon="-122.82251895921459"><ele>26.2</ele></trkpt>
    <trkpt lat="45.629327746760985" lon="-122.8226611483743"><ele>26.1</ele></trkpt>
    <trkpt lat="45.62943865159889" lon="-122.82276869245953"><ele>26.0</ele></trkpt>
    <trkpt lat="45.62944" lon="-122.82277"><ele>26.0</ele></trkpt>
    <trkpt lat="45.62966685577521" lon="-122.82296963308218"><ele>25.7</ele></trkpt>
    <trkpt lat="45.629690000000004" lon="-122.82299"><ele>25.7</ele></trkpt>
    <trkpt lat="45.62978489723344" lon="-122.82306014143343"><ele>25.5</ele></trkpt>
    <trkpt lat="45.62990393587401" lon="-122.82314812651558"><ele>25.3</ele></trkpt>
    <trkpt lat="45.62998382757911" lon="-122.8232071769063"><ele>25.1</ele></trkpt>
    <trkpt lat="45.63006292036713" lon="-122.8232656367931"><ele>24.9</ele></trkpt>
    <trkpt lat="45.630301796565334" lon="-122.82344219746133"><ele>24.2</ele></trkpt>
    <trkpt lat="45.63065891248706" lon="-122.82370615270781"><ele>23.0</ele></trkpt>
    <trkpt lat="45.630778750044676" lon="-122.8237947282939"><ele>22.5</ele></trkpt>
    <trkpt lat="45.630840000000006" lon="-122.82384"><ele>22.2</ele></trkpt>
    <trkpt lat="45.63089646327371" lon="-122.82388619722394"><ele>22.0</ele></trkpt>
    <trkpt lat="45.631245388568445" lon="-122.824171681556"><ele>20.3</ele></trkpt>
    <trkpt lat="45.631439756350076" lon="-122.82433070974098"><ele>19.4</ele></trkpt>
    <trkpt lat="45.631556064781655" lon="-122.82442587118499"><ele>19.0</ele></trkpt>
    <trkpt lat="45.631672373213235" lon="-122.82452103262901"><ele>18.5</ele></trkpt>
    <trkpt lat="45.63172" lon="-122.82456"><ele>18.4</ele></trkpt>
    <trkpt lat="45.63186057732686" lon="-122.82469430155335"><ele>17.9</ele></trkpt>
    <trkpt lat="45.63193535789365" lon="-122.82476574370196"><ele>17.6</ele></trkpt>
    <trkpt lat="45.63208342341589" lon="-122.82490719915626"><ele>17.3</ele></trkpt>
    <trkpt lat="45.63219559426608" lon="-122.82501436237919"><ele>17.1</ele></trkpt>
    <trkpt lat="45.63238105007171" lon="-122.82519153890779"><ele>16.8</ele></trkpt>
    <trkpt lat="45.63260464396641" lon="-122.8254051509322"><ele>16.4</ele></trkpt>
    <trkpt lat="45.63284" lon="-122.82563"><ele>15.8</ele></trkpt>
    <trkpt lat="45.632899408177536" lon="-122.82569520409731"><ele>15.7</ele></trkpt>
    <trkpt lat="45.63304066745067" lon="-122.82585024476293"><ele>15.4</ele></trkpt>
    <trkpt lat="45.63318264015447" lon="-122.82600606846222"><ele>15.1</ele></trkpt>
    <trkpt lat="45.633250000000004" lon="-122.82608"><ele>15.0</ele></trkpt>
    <trkpt lat="45.6332885778484" lon="-122.82612546103296"><ele>14.9</ele></trkpt>
    <trkpt lat="45.633357289391036" lon="-122.82620643231142"><ele>14.9</ele></trkpt>
    <trkpt lat="45.633426694989666" lon="-122.8262882214816"><ele>14.9</ele></trkpt>
    <trkpt lat="45.633495406532305" lon="-122.82636919276005"><ele>14.9</ele></trkpt>
    <trkpt lat="45.63359882087427" lon="-122.82649105862362"><ele>15.1</ele></trkpt>
    <trkpt lat="45.63366822647289" lon="-122.82657284779377"><ele>15.2</ele></trkpt>
    <trkpt lat="45.63373693801553" lon="-122.82665381907225"><ele>15.4</ele></trkpt>
    <trkpt lat="45.63380634361416" lon="-122.82673560824242"><ele>15.6</ele></trkpt>
    <trkpt lat="45.63390975795612" lon="-122.82685747410596"><ele>16.2</ele></trkpt>
    <trkpt lat="45.63397916355475" lon="-122.82693926327613"><ele>16.6</ele></trkpt>
    <trkpt lat="45.63404856915337" lon="-122.8270210524463"><ele>17.0</ele></trkpt>
    <trkpt lat="45.63422208314995" lon="-122.82722552537172"><ele>18.2</ele></trkpt>
    <trkpt lat="45.63446430868916" lon="-122.8275109695756"><ele>19.7</ele></trkpt>
    <trkpt lat="45.634603119886414" lon="-122.82767454791593"><ele>20.8</ele></trkpt>
    <trkpt lat="45.63481133668229" lon="-122.82791991542643"><ele>22.2</ele></trkpt>
    <trkpt lat="45.63512366187612" lon="-122.82828796669219"><ele>24.6</ele></trkpt>
    <trkpt lat="45.635435293013956" lon="-122.82865520006625"><ele>27.0</ele></trkpt>
    <trkpt lat="45.635574104211216" lon="-122.8288187784066"><ele>28.2</ele></trkpt>
    <trkpt lat="45.63566" lon="-122.82892000000001"><ele>28.9</ele></trkpt>
    <trkpt lat="45.63577812774994" lon="-122.82907113403303"><ele>29.9</ele></trkpt>
    <trkpt lat="45.635845154071845" lon="-122.82915688829783"><ele>30.5</ele></trkpt>
    <trkpt lat="45.63594569355472" lon="-122.82928551969502"><ele>31.3</ele></trkpt>
    <trkpt lat="45.63614610225724" lon="-122.82954192494677"><ele>32.7</ele></trkpt>
    <trkpt lat="45.63621312857916" lon="-122.82962767921157"><ele>33.1</ele></trkpt>
    <trkpt lat="45.636340000000004" lon="-122.82979000000002"><ele>33.7</ele></trkpt>
    <trkpt lat="45.63634707152927" lon="-122.82979936038176"><ele>33.8</ele></trkpt>
    <trkpt lat="45.63647907650905" lon="-122.82997409161104"><ele>34.5</ele></trkpt>
    <trkpt lat="45.63654507899895" lon="-122.83006145722567"><ele>34.8</ele></trkpt>
    <trkpt lat="45.636578080243886" lon="-122.83010514003297"><ele>35.0</ele></trkpt>
    <trkpt lat="45.636644082733774" lon="-122.83019250564762"><ele>35.2</ele></trkpt>
    <trkpt lat="45.63671008522367" lon="-122.83027987126225"><ele>35.3</ele></trkpt>
    <trkpt lat="45.6368084289336" lon="-122.83041004602805"><ele>35.4</ele></trkpt>
    <trkpt lat="45.63694043391338" lon="-122.83058477725734"><ele>35.4</ele></trkpt>
    <trkpt lat="45.63703943764821" lon="-122.83071582567929"><ele>35.4</ele></trkpt>
    <trkpt lat="45.6371054401381" lon="-122.83080319129391"><ele>35.4</ele></trkpt>
    <trkpt lat="45.63717144262799" lon="-122.83089055690854"><ele>35.3</ele></trkpt>
    <trkpt lat="45.63723744511788" lon="-122.83097792252319"><ele>35.1</ele></trkpt>
    <trkpt lat="45.63736945009766" lon="-122.83115265375247"><ele>34.9</ele></trkpt>
    <trkpt lat="45.6374671337827" lon="-122.83128195486213"><ele>34.6</ele></trkpt>
    <trkpt lat="45.63753313627259" lon="-122.83136932047677"><ele>34.4</ele></trkpt>
    <trkpt lat="45.637632140007426" lon="-122.83150036889873"><ele>33.9</ele></trkpt>
    <trkpt lat="45.63783014747709" lon="-122.83176246574263"><ele>32.9</ele></trkpt>
    <trkpt lat="45.637962152456865" lon="-122.8319371969719"><ele>32.1</ele></trkpt>
    <trkpt lat="45.63802815494675" lon="-122.83202456258653"><ele>31.7</ele></trkpt>
    <trkpt lat="45.63812715868159" lon="-122.83215561100849"><ele>31.1</ele></trkpt>
    <trkpt lat="45.63822616241643" lon="-122.83228665943045"><ele>30.4</ele></trkpt>
    <trkpt lat="45.63841" lon="-122.83253"><ele>29.0</ele></trkpt>
    <trkpt lat="45.63849185027068" lon="-122.8326334710969"><ele>28.5</ele></trkpt>
    <trkpt lat="45.63866030984283" lon="-122.83284642942394"><ele>27.3</ele></trkpt>
    <trkpt lat="45.638861787491116" lon="-122.83310112758312"><ele>25.9</ele></trkpt>
    <trkpt lat="45.638940000000005" lon="-122.8332"><ele>25.3</ele></trkpt>
    <trkpt lat="45.638999555780345" lon="-122.83326632348266"><ele>24.9</ele></trkpt>
    <trkpt lat="45.639354350754175" lon="-122.83366143606715"><ele>22.7</ele></trkpt>
    <trkpt lat="45.63938" lon="-122.83369"><ele>22.6</ele></trkpt>
    <trkpt lat="45.63946406718343" lon="-122.83377360272385"><ele>22.1</ele></trkpt>
    <trkpt lat="45.63953790526338" lon="-122.83384703285861"><ele>21.7</ele></trkpt>
    <trkpt lat="45.639980195362284" lon="-122.8342868793658"><ele>19.6</ele></trkpt>
    <trkpt lat="45.640090952482204" lon="-122.83439702456793"><ele>19.0</ele></trkpt>
    <trkpt lat="45.64023862864211" lon="-122.83454388483744"><ele>18.2</ele></trkpt>
    <trkpt lat="45.640349385762036" lon="-122.8346540300396"><ele>17.6</ele></trkpt>
    <trkpt lat="45.64045940450116" lon="-122.83476344094038"><ele>17.2</ele></trkpt>
    <trkpt lat="45.640570161621085" lon="-122.83487358614252"><ele>16.8</ele></trkpt>
    <trkpt lat="45.640680180360214" lon="-122.83498299704331"><ele>16.4</ele></trkpt>
    <trkpt lat="45.64079093748014" lon="-122.83509314224544"><ele>16.1</ele></trkpt>
    <trkpt lat="45.64086477556009" lon="-122.8351665723802"><ele>15.9</ele></trkpt>
    <trkpt lat="45.64090095621926" lon="-122.83520255314625"><ele>15.9</ele></trkpt>
    <trkpt lat="45.64101171333919" lon="-122.83531269834837"><ele>15.7</ele></trkpt>
    <trkpt lat="45.64108555141914" lon="-122.83538612848312"><ele>15.7</ele></trkpt>
    <trkpt lat="45.64115938949909" lon="-122.83545955861788"><ele>15.7</ele></trkpt>
    <trkpt lat="45.64119" lon="-122.83549000000001"><ele>15.7</ele></trkpt>
    <trkpt lat="45.64130036168326" lon="-122.83561708315042"><ele>15.7</ele></trkpt>
    <trkpt lat="45.64140543886187" lon="-122.83573808111367"><ele>15.8</ele></trkpt>
    <trkpt lat="45.64171996988318" lon="-122.83610026835034"><ele>16.2</ele></trkpt>
    <trkpt lat="45.641850000000005" lon="-122.83625"><ele>16.4</ele></trkpt>
    <trkpt lat="45.64192641031155" lon="-122.83634656962779"><ele>16.5</ele></trkpt>
    <trkpt lat="45.64209489438995" lon="-122.83655950482475"><ele>16.7</ele></trkpt>
    <trkpt lat="45.642161614085" lon="-122.83664382716273"><ele>16.8</ele></trkpt>
    <trkpt lat="45.64226270453204" lon="-122.83677158828093"><ele>16.9</ele></trkpt>
    <trkpt lat="45.64239749179476" lon="-122.83694193643849"><ele>16.9</ele></trkpt>
    <trkpt lat="45.642530931184844" lon="-122.83711058111447"><ele>16.9</ele></trkpt>
    <trkpt lat="45.64286655146902" lon="-122.8375347480268"><ele>17.0</ele></trkpt>
    <trkpt lat="45.6430336876748" lon="-122.83774597974218"><ele>16.9</ele></trkpt>
    <trkpt lat="45.64346905053338" lon="-122.83829620429114"><ele>17.0</ele></trkpt>
    <trkpt lat="45.64357014098042" lon="-122.8384239654093"><ele>17.1</ele></trkpt>
    <trkpt lat="45.643770974001875" lon="-122.83867778416408"><ele>17.3</ele></trkpt>
    <trkpt lat="45.6438713905126" lon="-122.83880469354146"><ele>17.5</ele></trkpt>
    <trkpt lat="45.644005503839004" lon="-122.83897418995824"><ele>17.8</ele></trkpt>
    <trkpt lat="45.644200000000005" lon="-122.83922000000001"><ele>18.3</ele></trkpt>
    <trkpt lat="45.644239873179394" lon="-122.83927085621086"><ele>18.4</ele></trkpt>
    <trkpt lat="45.64433720217809" lon="-122.83939499439482"><ele>18.6</ele></trkpt>
    <trkpt lat="45.644565421899166" lon="-122.83968607703308"><ele>19.2</ele></trkpt>
    <trkpt lat="45.64472786064181" lon="-122.83989325938145"><ele>19.5</ele></trkpt>
    <trkpt lat="45.644923189873666" lon="-122.8401423918748"><ele>19.7</ele></trkpt>
    <trkpt lat="45.64528699895843" lon="-122.84060641184519"><ele>19.9</ele></trkpt>
    <trkpt lat="45.64562932854004" lon="-122.84104303580257"><ele>20.0</ele></trkpt>
    <trkpt lat="45.645757534324524" lon="-122.84120655575524"><ele>20.0</ele></trkpt>
    <trkpt lat="45.64585352085427" lon="-122.84132898168838"><ele>20.0</ele></trkpt>
    <trkpt lat="45.64587" lon="-122.84135"><ele>20.0</ele></trkpt>
    <trkpt lat="45.64606616562777" lon="-122.84163957783147"><ele>19.9</ele></trkpt>
    <trkpt lat="45.64619007967134" lon="-122.84182249856246"><ele>19.8</ele></trkpt>
    <trkpt lat="45.64628207646126" lon="-122.84195830334758"><ele>19.6</ele></trkpt>
    <trkpt lat="45.64629" lon="-122.84197"><ele>19.6</ele></trkpt>
    <trkpt lat="45.64636572494338" lon="-122.8421063048981"><ele>19.4</ele></trkpt>
    <trkpt lat="45.64658673533816" lon="-122.84250412360868"><ele>18.7</ele></trkpt>
    <trkpt lat="45.64664156829687" lon="-122.84260282293435"><ele>18.5</ele></trkpt>
    <trkpt lat="45.64669000000001" lon="-122.84269"><ele>18.3</ele></trkpt>
    <trkpt lat="45.646696211707166" lon="-122.84270331080106"><ele>18.3</ele></trkpt>
    <trkpt lat="45.64681904159502" lon="-122.84296651770362"><ele>17.7</ele></trkpt>
    <trkpt lat="45.6469" lon="-122.84314"><ele>17.3</ele></trkpt>
    <trkpt lat="45.646961126349574" lon="-122.84328835158998"><ele>17.0</ele></trkpt>
    <trkpt lat="45.64702871017633" lon="-122.84345237525939"><ele>16.6</ele></trkpt>
    <trkpt lat="45.64723191830406" lon="-122.84394555453571"><ele>15.7</ele></trkpt>
    <trkpt lat="45.647299502130814" lon="-122.84410957820512"><ele>15.4</ele></trkpt>
    <trkpt lat="45.647457502158225" lon="-122.84449303894581"><ele>14.9</ele></trkpt>
    <trkpt lat="45.647570294085305" lon="-122.84476678115087"><ele>14.5</ele></trkpt>
    <trkpt lat="45.64766071028596" lon="-122.84498621822212"><ele>14.3</ele></trkpt>
    <trkpt lat="45.64770591838629" lon="-122.84509593675774"><ele>14.2</ele></trkpt>
    <trkpt lat="45.64779" lon="-122.84530000000001"><ele>14.1</ele></trkpt>
    <trkpt lat="45.64786955082564" lon="-122.845474399887"><ele>14.0</ele></trkpt>
    <trkpt lat="45.648050000000005" lon="-122.84587"><ele>13.9</ele></trkpt>
    <trkpt lat="45.64825597303967" lon="-122.84625817995936"><ele>13.8</ele></trkpt>
    <trkpt lat="45.64831" lon="-122.84636"><ele>13.8</ele></trkpt>
    <trkpt lat="45.64840919675882" lon="-122.84652580029689"><ele>13.7</ele></trkpt>
    <trkpt lat="45.64855070951567" lon="-122.8467623287619"><ele>13.7</ele></trkpt>
    <trkpt lat="45.64874894432796" lon="-122.847093664091"><ele>13.6</ele></trkpt>
    <trkpt lat="45.64886121891191" lon="-122.84728132303849"><ele>13.5</ele></trkpt>
    <trkpt lat="45.649010000000004" lon="-122.84753"><ele>13.5</ele></trkpt>
    <trkpt lat="45.64903339279467" lon="-122.84756487653024"><ele>13.5</ele></trkpt>
    <trkpt lat="45.64924944807369" lon="-122.84788699530986"><ele>13.5</ele></trkpt>
    <trkpt lat="45.64949414468653" lon="-122.84825181571448"><ele>13.8</ele></trkpt>
    <trkpt lat="45.64956" lon="-122.84835000000001"><ele>13.8</ele></trkpt>
    <trkpt lat="45.649585465291494" lon="-122.84838855829514"><ele>13.8</ele></trkpt>
    <trkpt lat="45.64973863356208" lon="-122.84862047817654"><ele>14.0</ele></trkpt>
    <trkpt lat="45.65002520645544" lon="-122.84905439279339"><ele>14.6</ele></trkpt>
    <trkpt lat="45.650066586593056" lon="-122.84911704856779"><ele>14.6</ele></trkpt>
    <trkpt lat="45.65018455086598" lon="-122.84929566428292"><ele>14.6</ele></trkpt>
    <trkpt lat="45.65030313275288" lon="-122.84947521515885"><ele>14.6</ele></trkpt>
    <trkpt lat="45.65039083394008" lon="-122.84960800799419"><ele>14.6</ele></trkpt>
    <trkpt lat="45.65051003344098" lon="-122.84978849403092"><ele>14.5</ele></trkpt>
    <trkpt lat="45.65073360970692" lon="-122.85012702224492"><ele>14.5</ele></trkpt>
    <trkpt lat="45.65110170764753" lon="-122.85068437808896"><ele>14.4</ele></trkpt>
    <trkpt lat="45.651316019703565" lon="-122.85100887889078"><ele>14.3</ele></trkpt>
    <trkpt lat="45.65146115899222" lon="-122.85122864168163"><ele>14.3</ele></trkpt>
    <trkpt lat="45.651680000000006" lon="-122.85156"><ele>14.2</ele></trkpt>
    <trkpt lat="45.65176023099445" lon="-122.85167018389903"><ele>14.2</ele></trkpt>
    <trkpt lat="45.651950968287025" lon="-122.85193212978086"><ele>14.0</ele></trkpt>
    <trkpt lat="45.65214040804702" lon="-122.8521922937179"><ele>13.9</ele></trkpt>
    <trkpt lat="45.65223707422591" lon="-122.85232504860359"><ele>13.9</ele></trkpt>
    <trkpt lat="45.65242716275219" lon="-122.852586103513"><ele>13.7</ele></trkpt>
    <trkpt lat="45.65243" lon="-122.85259"><ele>13.7</ele></trkpt>
    <trkpt lat="45.652659099859534" lon="-122.85288092045656"><ele>13.6</ele></trkpt>
    <trkpt lat="45.652953018797106" lon="-122.85325415085346"><ele>13.5</ele></trkpt>
    <trkpt lat="45.65306" lon="-122.85339"><ele>13.4</ele></trkpt>
    <trkpt lat="45.65308252317839" lon="-122.85341752832915"><ele>13.4</ele></trkpt>
    <trkpt lat="45.65336081616448" lon="-122.85375766420103"><ele>13.5</ele></trkpt>
    <trkpt lat="45.65349620194151" lon="-122.85392313570628"><ele>13.6</ele></trkpt>
    <trkpt lat="45.65359808315755" lon="-122.85404765719255"><ele>13.7</ele></trkpt>
    <trkpt lat="45.6538353501506" lon="-122.85433765018408"><ele>14.1</ele></trkpt>
    <trkpt lat="45.654050000000005" lon="-122.8546"><ele>14.5</ele></trkpt>
    <trkpt lat="45.65407340671971" lon="-122.85462830166111"><ele>14.5</ele></trkpt>
    <trkpt lat="45.654141407001816" lon="-122.85471052253452"><ele>14.6</ele></trkpt>
    <trkpt lat="45.65444843857861" lon="-122.85508176223574"><ele>15.0</ele></trkpt>
    <trkpt lat="45.65461878271965" lon="-122.85528772967623"><ele>15.2</ele></trkpt>
    <trkpt lat="45.654721126578586" lon="-122.8554114762433"><ele>15.2</ele></trkpt>
    <trkpt lat="45.65478912686069" lon="-122.85549369711673"><ele>15.3</ele></trkpt>
    <trkpt lat="45.65502747128384" lon="-122.85578188543064"><ele>15.3</ele></trkpt>
    <trkpt lat="45.655164158719586" lon="-122.85594715769136"><ele>15.3</ele></trkpt>
    <trkpt lat="45.655332442246014" lon="-122.85615063359023"><ele>15.3</ele></trkpt>
    <trkpt lat="45.6554677559387" lon="-122.85631424482322"><ele>15.2</ele></trkpt>
    <trkpt lat="45.65573769645252" lon="-122.8566406367753"><ele>15.0</ele></trkpt>
    <trkpt lat="45.655940323555775" lon="-122.85688563836783"><ele>14.7</ele></trkpt>
    <trkpt lat="45.65607495037691" lon="-122.85704841908691"><ele>14.6</ele></trkpt>
    <trkpt lat="45.65627757748017" lon="-122.85729342067945"><ele>14.3</ele></trkpt>
    <trkpt lat="45.65658117469928" lon="-122.8576605078113"><ele>14.1</ele></trkpt>
    <trkpt lat="45.65668" lon="-122.85778"><ele>14.1</ele></trkpt>
    <trkpt lat="45.65668301032495" lon="-122.85778309633423"><ele>14.1</ele></trkpt>
    <trkpt lat="45.65679035018763" lon="-122.85789350305014"><ele>14.1</ele></trkpt>
    <trkpt lat="45.656933470004546" lon="-122.85804071200468"><ele>14.2</ele></trkpt>
    <trkpt lat="45.657030000000006" lon="-122.85814"><ele>14.3</ele></trkpt>
    <trkpt lat="45.65704148499246" lon="-122.85815197897064"><ele>14.3</ele></trkpt>
    <trkpt lat="45.65714831254843" lon="-122.85826340126019"><ele>14.3</ele></trkpt>
    <trkpt lat="45.65732781191117" lon="-122.85845062102563"><ele>14.3</ele></trkpt>
    <trkpt lat="45.65761486554794" lon="-122.85875002105539"><ele>14.4</ele></trkpt>
    <trkpt lat="45.657865583281335" lon="-122.8590115223472"><ele>14.5</ele></trkpt>
    <trkpt lat="45.65822748887909" lon="-122.85938899377712"><ele>14.7</ele></trkpt>
    <trkpt lat="45.658335043153116" lon="-122.85950117404143"><ele>14.7</ele></trkpt>
    <trkpt lat="45.65848038676667" lon="-122.8596527689932"><ele>14.8</ele></trkpt>
    <trkpt lat="45.65858939447685" lon="-122.85976646520703"><ele>14.8</ele></trkpt>
    <trkpt lat="45.6588430190825" lon="-122.86003099839789"><ele>14.7</ele></trkpt>
    <trkpt lat="45.65902324516331" lon="-122.86021897613807"><ele>14.6</ele></trkpt>
    <trkpt lat="45.65924126058364" lon="-122.86044636856573"><ele>14.3</ele></trkpt>
    <trkpt lat="45.65942294010059" lon="-122.86063586225545"><ele>14.2</ele></trkpt>
    <trkpt lat="45.65963950208479" lon="-122.86086173873359"><ele>14.0</ele></trkpt>
    <trkpt lat="45.65974850979495" lon="-122.86097543494742"><ele>13.8</ele></trkpt>
    <trkpt lat="45.65982" lon="-122.86105"><ele>13.6</ele></trkpt>
    <trkpt lat="45.65982118649416" lon="-122.86105122281542"><ele>13.6</ele></trkpt>
    <trkpt lat="45.65992407800855" lon="-122.86115726407004"><ele>13.5</ele></trkpt>
    <trkpt lat="45.66016561766288" lon="-122.86140619779542"><ele>13.1</ele></trkpt>
    <trkpt lat="45.6602692389043" lon="-122.86151299111566"><ele>13.0</ele></trkpt>
    <trkpt lat="45.66037286014574" lon="-122.8616197844359"><ele>12.9</ele></trkpt>
    <trkpt lat="45.66047867056833" lon="-122.86172883395308"><ele>12.7</ele></trkpt>
    <trkpt lat="45.660619507889436" lon="-122.86187398262075"><ele>12.5</ele></trkpt>
    <trkpt lat="45.66076107493759" lon="-122.86201988335405"><ele>12.3</ele></trkpt>
    <trkpt lat="45.660831128734614" lon="-122.86209208165506"><ele>12.2</ele></trkpt>
    <trkpt lat="45.66090191225869" lon="-122.86216503202172"><ele>12.2</ele></trkpt>
    <trkpt lat="45.661007722681276" lon="-122.86227408153887"><ele>12.2</ele></trkpt>
    <trkpt lat="45.66107850620536" lon="-122.86234703190553"><ele>12.2</ele></trkpt>
    <trkpt lat="45.661184316627946" lon="-122.86245608142268"><ele>12.3</ele></trkpt>
    <trkpt lat="45.66136382948282" lon="-122.86264108956902"><ele>12.1</ele></trkpt>
    <trkpt lat="45.661471829086565" lon="-122.8627523952831"><ele>11.9</ele></trkpt>
    <trkpt lat="45.661579828690314" lon="-122.86286370099717"><ele>11.9</ele></trkpt>
    <trkpt lat="45.66165134194144" lon="-122.86293740342946"><ele>11.8</ele></trkpt>
    <trkpt lat="45.66178" lon="-122.86307000000001"><ele>11.9</ele></trkpt>
    <trkpt lat="45.66187278709762" lon="-122.8631480691442"><ele>11.9</ele></trkpt>
    <trkpt lat="45.662025506903184" lon="-122.8632765644289"><ele>12.0</ele></trkpt>
    <trkpt lat="45.66221698808071" lon="-122.86343767272999"><ele>12.2</ele></trkpt>
    <trkpt lat="45.66236970788626" lon="-122.86356616801466"><ele>12.5</ele></trkpt>
    <trkpt lat="45.66248521677474" lon="-122.86366335480358"><ele>12.7</ele></trkpt>
    <trkpt lat="45.66267824840713" lon="-122.86382576762531"><ele>13.0</ele></trkpt>
    <trkpt lat="45.662910041411514" lon="-122.86402079346348"><ele>13.4</ele></trkpt>
    <trkpt lat="45.663219357159825" lon="-122.86428104533448"><ele>14.1</ele></trkpt>
    <trkpt lat="45.663230000000006" lon="-122.86429000000001"><ele>14.1</ele></trkpt>
    <trkpt lat="45.66337491266283" lon="-122.86440766999796"><ele>14.4</ele></trkpt>
    <trkpt lat="45.66345312911505" lon="-122.8644711822514"><ele>14.6</ele></trkpt>
    <trkpt lat="45.664388597883594" lon="-122.86523078880279"><ele>16.3</ele></trkpt>
    <trkpt lat="45.66462246507572" lon="-122.86542069044064"><ele>16.6</ele></trkpt>
    <trkpt lat="45.66524585019991" lon="-122.86592688310071"><ele>17.6</ele></trkpt>
    <trkpt lat="45.66559704207038" lon="-122.86621205311877"><ele>17.9</ele></trkpt>
    <trkpt lat="45.66602566822854" lon="-122.86656010026772"><ele>18.4</ele></trkpt>
    <trkpt lat="45.66653251083892" lon="-122.86697165967016"><ele>19.0</ele></trkpt>
    <trkpt lat="45.66672726980495" lon="-122.86712980518126"><ele>19.2</ele></trkpt>
    <trkpt lat="45.66680548625717" lon="-122.86719331743474"><ele>19.3</ele></trkpt>
    <trkpt lat="45.666922028770976" lon="-122.8672879506924"><ele>19.6</ele></trkpt>
    <trkpt lat="45.66700024522319" lon="-122.86735146294586"><ele>19.7</ele></trkpt>
    <trkpt lat="45.667195786353744" lon="-122.8675102435795"><ele>19.9</ele></trkpt>
    <trkpt lat="45.66731232886755" lon="-122.86760487683716"><ele>20.0</ele></trkpt>
    <trkpt lat="45.66754697822421" lon="-122.86779541359755"><ele>20.2</ele></trkpt>
    <trkpt lat="45.667780845416345" lon="-122.86798531523539"><ele>20.3</ele></trkpt>
    <trkpt lat="45.667898170094674" lon="-122.86808058361558"><ele>20.4</ele></trkpt>
    <trkpt lat="45.668210253739026" lon="-122.8683339975069"><ele>20.4</ele></trkpt>
    <trkpt lat="45.66832679625283" lon="-122.86842863076456"><ele>20.3</ele></trkpt>
    <trkpt lat="45.66856144560949" lon="-122.86861916752493"><ele>20.2</ele></trkpt>
    <trkpt lat="45.668756204575516" lon="-122.86877731303605"><ele>20.0</ele></trkpt>
    <trkpt lat="45.66910739644598" lon="-122.86906248305408"><ele>19.6</ele></trkpt>
    <trkpt lat="45.66941948009033" lon="-122.8693158969454"><ele>19.4</ele></trkpt>
    <trkpt lat="45.669560000000004" lon="-122.86943000000001"><ele>19.3</ele></trkpt>
    <trkpt lat="45.669698209929024" lon="-122.86952456468829"><ele>19.3</ele></trkpt>
    <trkpt lat="45.669900237045255" lon="-122.86966279376782"><ele>19.1</ele></trkpt>
    <trkpt lat="45.669981372433305" lon="-122.86971830745438"><ele>19.1</ele></trkpt>
    <trkpt lat="45.67018339954954" lon="-122.86985653653392"><ele>19.0</ele></trkpt>
    <trkpt lat="45.670305102631616" lon="-122.86993980706374"><ele>19.0</ele></trkpt>
    <trkpt lat="45.670320000000004" lon="-122.86995000000002"><ele>19.0</ele></trkpt>
    <trkpt lat="45.67093542140064" lon="-122.87027581132976"><ele>18.6</ele></trkpt>
    <trkpt lat="45.67123063249345" lon="-122.87043209955537"><ele>18.5</ele></trkpt>
    <trkpt lat="45.6713984810862" lon="-122.87052096057506"><ele>18.5</ele></trkpt>
    <trkpt lat="45.67156717313922" lon="-122.87061026813254"><ele>18.4</ele></trkpt>
    <trkpt lat="45.671777194745246" lon="-122.87072145604161"><ele>18.3</ele></trkpt>
    <trkpt lat="45.67194588679827" lon="-122.8708107635991"><ele>18.2</ele></trkpt>
    <trkpt lat="45.67236677347057" lon="-122.87103358595502"><ele>17.9</ele></trkpt>
    <trkpt lat="45.672829833156115" lon="-122.8712787352003"><ele>17.7</ele></trkpt>
    <trkpt lat="45.67312504424892" lon="-122.8714350234259"><ele>17.6</ele></trkpt>
    <trkpt lat="45.6734615848947" lon="-122.8716131920031"><ele>17.6</ele></trkpt>
    <trkpt lat="45.673882471567" lon="-122.871836014359"><ele>17.5</ele></trkpt>
    <trkpt lat="45.67421985567306" lon="-122.87201462947397"><ele>17.4</ele></trkpt>
    <trkpt lat="45.674556396318835" lon="-122.87219279805115"><ele>17.2</ele></trkpt>
    <trkpt lat="45.67476726138512" lon="-122.87230443249801"><ele>17.0</ele></trkpt>
    <trkpt lat="45.67506247247792" lon="-122.87246072072361"><ele>16.9</ele></trkpt>
    <trkpt lat="45.67544118613696" lon="-122.87266121619017"><ele>16.7</ele></trkpt>
    <trkpt lat="45.67560987818998" lon="-122.87275052374764"><ele>16.5</ele></trkpt>
    <trkpt lat="45.67573471030922" lon="-122.87281661134018"><ele>16.4</ele></trkpt>
    <trkpt lat="45.67602654756096" lon="-122.87297111341462"><ele>16.1</ele></trkpt>
    <trkpt lat="45.676100000000005" lon="-122.87301000000001"><ele>16.1</ele></trkpt>
    <trkpt lat="45.67658" lon="-122.87326000000002"><ele>15.7</ele></trkpt>
    <trkpt lat="45.676696347870944" lon="-122.87330935970283"><ele>15.7</ele></trkpt>
    <trkpt lat="45.676780847346215" lon="-122.87334520796506"><ele>15.6</ele></trkpt>
    <trkpt lat="45.676909321038195" lon="-122.87339971195561"><ele>15.6</ele></trkpt>
    <trkpt lat="45.677165406182624" lon="-122.8735083541381"><ele>15.6</ele></trkpt>
    <trkpt lat="45.677240000000005" lon="-122.87354"><ele>15.6</ele></trkpt>
    <trkpt lat="45.67742247350311" lon="-122.87360708584673"><ele>15.6</ele></trkpt>
    <trkpt lat="45.677561840531695" lon="-122.8736583237249"><ele>15.5</ele></trkpt>
    <trkpt lat="45.677735178273515" lon="-122.87372205083585"><ele>15.6</ele></trkpt>
    <trkpt lat="45.67792" lon="-122.87379000000001"><ele>15.6</ele></trkpt>
    <trkpt lat="45.67803916659908" lon="-122.87382835246868"><ele>15.6</ele></trkpt>
    <trkpt lat="45.678302390538" lon="-122.87391306821914"><ele>15.5</ele></trkpt>
    <trkpt lat="45.67860860772027" lon="-122.87401162087549"><ele>15.5</ele></trkpt>
    <trkpt lat="45.678741097102865" lon="-122.87405426113655"><ele>15.5</ele></trkpt>
    <trkpt lat="45.678790000000006" lon="-122.87407"><ele>15.6</ele></trkpt>
    <trkpt lat="45.678829470972616" lon="-122.87407740080735"><ele>15.6</ele></trkpt>
    <trkpt lat="45.67927353929362" lon="-122.87416066361756"><ele>15.9</ele></trkpt>
    <trkpt lat="45.67940729481199" lon="-122.87418574277726"><ele>16.1</ele></trkpt>
    <trkpt lat="45.679590000000005" lon="-122.87422000000001"><ele>16.3</ele></trkpt>
    <trkpt lat="45.67980000000001" lon="-122.87425"><ele>16.6</ele></trkpt>
    <trkpt lat="45.6798084860613" lon="-122.87425000000002"><ele>16.6</ele></trkpt>
    <trkpt lat="45.679942485093754" lon="-122.87425"><ele>16.8</ele></trkpt>
    <trkpt lat="45.68016551704041" lon="-122.87425"><ele>17.2</ele></trkpt>
    <trkpt lat="45.680435313750074" lon="-122.87424999999999"><ele>17.6</ele></trkpt>
    <trkpt lat="45.68066" lon="-122.87425"><ele>18.0</ele></trkpt>
    <trkpt lat="45.68083816544561" lon="-122.87422371329492"><ele>18.3</ele></trkpt>
    <trkpt lat="45.68106091642235" lon="-122.87419084839671"><ele>18.7</ele></trkpt>
    <trkpt lat="45.681270000000005" lon="-122.87416"><ele>19.1</ele></trkpt>
    <trkpt lat="45.68128354738892" lon="-122.87415672010584"><ele>19.1</ele></trkpt>
    <trkpt lat="45.6816373515111" lon="-122.87407106226574"><ele>19.9</ele></trkpt>
    <trkpt lat="45.681813810208624" lon="-122.87402834068635"><ele>20.2</ele></trkpt>
    <trkpt lat="45.682167614330815" lon="-122.87394268284625"><ele>20.8</ele></trkpt>
    <trkpt lat="45.68222" lon="-122.87393000000002"><ele>20.9</ele></trkpt>
    <trkpt lat="45.682476817173" lon="-122.87386555524124"><ele>21.2</ele></trkpt>
    <trkpt lat="45.68256539850785" lon="-122.87384332696622"><ele>21.4</ele></trkpt>
    <trkpt lat="45.68265309402934" lon="-122.87382132097393"><ele>21.4</ele></trkpt>
    <trkpt lat="45.68296224288795" lon="-122.87374374429405"><ele>21.7</ele></trkpt>
    <trkpt lat="45.68309422907687" lon="-122.87371062416425"><ele>21.7</ele></trkpt>
    <trkpt lat="45.68344855441625" lon="-122.87362171106409"><ele>21.8</ele></trkpt>
    <trkpt lat="45.683757703274864" lon="-122.87354413438422"><ele>21.8</ele></trkpt>
    <trkpt lat="45.68441940584616" lon="-122.87337808916972"><ele>21.4</ele></trkpt>
    <trkpt lat="45.68450710136765" lon="-122.87335608317741"><ele>21.4</ele></trkpt>
    <trkpt lat="45.68463997336992" lon="-122.87332274076488"><ele>21.2</ele></trkpt>
    <trkpt lat="45.68489" lon="-122.87326000000002"><ele>20.9</ele></trkpt>
    <trkpt lat="45.68508219778217" lon="-122.8732135106014"><ele>20.6</ele></trkpt>
    <trkpt lat="45.685744601887414" lon="-122.8730532862318"><ele>20.0</ele></trkpt>
    <trkpt lat="45.685965403255835" lon="-122.87299987810859"><ele>19.7</ele></trkpt>
    <trkpt lat="45.686231429000905" lon="-122.8729355309722"><ele>19.4</ele></trkpt>
    <trkpt lat="45.68667303173773" lon="-122.87282871472578"><ele>18.9</ele></trkpt>
    <trkpt lat="45.687026845978686" lon="-122.87274313303439"><ele>18.5</ele></trkpt>
    <trkpt lat="45.68724764734709" lon="-122.8726897249112"><ele>18.3</ele></trkpt>
    <trkpt lat="45.687601461588045" lon="-122.87260414321977"><ele>18.0</ele></trkpt>
    <trkpt lat="45.688176077197426" lon="-122.87246515340519"><ele>17.7</ele></trkpt>
    <trkpt lat="45.68848555381419" lon="-122.87239029623652"><ele>17.5</ele></trkpt>
    <trkpt lat="45.68857245555758" lon="-122.87236927617195"><ele>17.5</ele></trkpt>
    <trkpt lat="45.68866113080594" lon="-122.8723478271265"><ele>17.5</ele></trkpt>
    <trkpt lat="45.68941398366451" lon="-122.87216572473051"><ele>17.2</ele></trkpt>
    <trkpt lat="45.689680009409585" lon="-122.87210137759413"><ele>17.2</ele></trkpt>
    <trkpt lat="45.68999125953133" lon="-122.87202609144454"><ele>17.0</ele></trkpt>
    <trkpt lat="45.69021117414726" lon="-122.8719728978118"><ele>17.0</ele></trkpt>
    <trkpt lat="45.69043286226815" lon="-122.87191927519814"><ele>16.9</ele></trkpt>
    <trkpt lat="45.6905658751407" lon="-122.87188710162995"><ele>16.9</ele></trkpt>
    <trkpt lat="45.69074322563741" lon="-122.87184420353901"><ele>17.0</ele></trkpt>
    <trkpt lat="45.69083190088577" lon="-122.87182275449355"><ele>17.0</ele></trkpt>
    <trkpt lat="45.690964913758314" lon="-122.87179058092536"><ele>17.2</ele></trkpt>
    <trkpt lat="45.691050000000004" lon="-122.87177000000001"><ele>17.2</ele></trkpt>
    <trkpt lat="45.691181391295544" lon="-122.8717485483599"><ele>17.2</ele></trkpt>
    <trkpt lat="45.69131095321244" lon="-122.87172739539389"><ele>17.3</ele></trkpt>
    <trkpt lat="45.691655855970495" lon="-122.87167108473952"><ele>17.8</ele></trkpt>
    <trkpt lat="45.69182920087998" lon="-122.87164278352981"><ele>18.1</ele></trkpt>
    <trkpt lat="45.69203" lon="-122.87161"><ele>23.9</ele></trkpt>
    <trkpt lat="45.69222497462676" lon="-122.87159155645423"><ele>24.2</ele></trkpt>
    <trkpt lat="45.692713141526234" lon="-122.8715453785043"><ele>24.7</ele></trkpt>
    <trkpt lat="45.69325156090065" lon="-122.87149444694185"><ele>25.4</ele></trkpt>
    <trkpt lat="45.693431931391075" lon="-122.87147738486841"><ele>25.6</ele></trkpt>
    <trkpt lat="45.6939703507655" lon="-122.87142645330599"><ele>26.2</ele></trkpt>
    <trkpt lat="45.694250000000004" lon="-122.87140000000001"><ele>26.5</ele></trkpt>
    <trkpt lat="45.69437424363214" lon="-122.87139009652208"><ele>26.6</ele></trkpt>
    <trkpt lat="45.695002795872256" lon="-122.87133999453194"><ele>27.5</ele></trkpt>
  </trkseg></trk>
</gpx>
