<?xml version="1.0" encoding="UTF-8"?>
<gpx version="1.1" creator="h2c-tracker" xmlns="http://www.topografix.com/GPX/1/1">
  <metadata><name>Hood to Coast 2026 — Leg 10 (6.15 mi)</name><desc>Derived from the official Hood to Coast Strava route (simplified, 303 points, ~6.08 mi). Verify against the official leg map PDF.</desc></metadata>
  <wpt lat="45.495360906078936" lon="-122.43157253370785"><name>Exchange 9 — Main City Park/ Springwater Trail</name></wpt>
  <wpt lat="45.47805468401784" lon="-122.54863860529261"><name>Exchange 10 — Springwater Trail near Shaw's Automotive / SE 111th Ave</name></wpt>
  <trk><name>HTC Leg 10</name><trkseg>
    <trkpt lat="45.495360906078936" lon="-122.43157253370785"><ele>93.4</ele></trkpt>
    <trkpt lat="45.495450000000005" lon="-122.43192"><ele>93.3</ele></trkpt>
    <trkpt lat="45.49548937622143" lon="-122.43222094683513"><ele>93.3</ele></trkpt>
    <trkpt lat="45.49550686791967" lon="-122.43235463338607"><ele>93.2</ele></trkpt>
    <trkpt lat="45.49555554764594" lon="-122.43272668557962"><ele>92.5</ele></trkpt>
    <trkpt lat="45.49557221426409" lon="-122.43285406616116"><ele>92.3</ele></trkpt>
    <trkpt lat="45.49559000000001" lon="-122.43299"><ele>92.2</ele></trkpt>
    <trkpt lat="45.495594748375055" lon="-122.43303985793801"><ele>92.1</ele></trkpt>
    <trkpt lat="45.495618721428926" lon="-122.43329157500366"><ele>91.8</ele></trkpt>
    <trkpt lat="45.495630000000006" lon="-122.43341000000001"><ele>91.7</ele></trkpt>
    <trkpt lat="45.49564558440065" lon="-122.43405090847642"><ele>91.2</ele></trkpt>
    <trkpt lat="45.49565793101906" lon="-122.43455866315878"><ele>90.8</ele></trkpt>
    <trkpt lat="45.49566715980455" lon="-122.43493819696172"><ele>90.5</ele></trkpt>
    <trkpt lat="45.49567641976836" lon="-122.43531901297348"><ele>90.1</ele></trkpt>
    <trkpt lat="45.495684120815696" lon="-122.43563571854554"><ele>89.8</ele></trkpt>
    <trkpt lat="45.49568876638676" lon="-122.43582676765581"><ele>89.7</ele></trkpt>
    <trkpt lat="45.495705696219595" lon="-122.43652300703086"><ele>89.3</ele></trkpt>
    <trkpt lat="45.49571" lon="-122.43670000000002"><ele>89.1</ele></trkpt>
    <trkpt lat="45.4957082743821" lon="-122.43683977504982"><ele>89.0</ele></trkpt>
    <trkpt lat="45.49570317492814" lon="-122.43725283082114"><ele>88.7</ele></trkpt>
    <trkpt lat="45.49570046683302" lon="-122.43747218652577"><ele>88.7</ele></trkpt>
    <trkpt lat="45.49570000000001" lon="-122.43751"><ele>88.7</ele></trkpt>
    <trkpt lat="45.495677542609116" lon="-122.43781691767542"><ele>88.8</ele></trkpt>
    <trkpt lat="45.4956543870298" lon="-122.4381333772595"><ele>88.6</ele></trkpt>
    <trkpt lat="45.49564" lon="-122.43833000000001"><ele>88.6</ele></trkpt>
    <trkpt lat="45.49563167064533" lon="-122.43838638332393"><ele>88.6</ele></trkpt>
    <trkpt lat="45.49556731705383" lon="-122.4388220076356"><ele>88.6</ele></trkpt>
    <trkpt lat="45.49551" lon="-122.43921000000002"><ele>88.6</ele></trkpt>
    <trkpt lat="45.495380000000004" lon="-122.43939"><ele>88.5</ele></trkpt>
    <trkpt lat="45.49536629010416" lon="-122.43943112968755"><ele>88.5</ele></trkpt>
    <trkpt lat="45.49533" lon="-122.43954000000001"><ele>88.6</ele></trkpt>
    <trkpt lat="45.495290000000004" lon="-122.43975"><ele>88.6</ele></trkpt>
    <trkpt lat="45.49529000000001" lon="-122.43985702327006"><ele>88.6</ele></trkpt>
    <trkpt lat="45.495290000000004" lon="-122.4400469030353"><ele>88.5</ele></trkpt>
    <trkpt lat="45.495290000000004" lon="-122.44010000000002"><ele>88.5</ele></trkpt>
    <trkpt lat="45.495268134915364" lon="-122.44016559525392"><ele>88.5</ele></trkpt>
    <trkpt lat="45.49522989983705" lon="-122.44028030048885"><ele>88.4</ele></trkpt>
    <trkpt lat="45.49515" lon="-122.44052"><ele>88.4</ele></trkpt>
    <trkpt lat="45.49492" lon="-122.44111000000001"><ele>88.5</ele></trkpt>
    <trkpt lat="45.49484229503793" lon="-122.441276510633"><ele>88.5</ele></trkpt>
    <trkpt lat="45.494780000000006" lon="-122.44141"><ele>88.5</ele></trkpt>
    <trkpt lat="45.494490000000006" lon="-122.44193000000001"><ele>88.4</ele></trkpt>
    <trkpt lat="45.49440239171001" lon="-122.44206962571221"><ele>88.4</ele></trkpt>
    <trkpt lat="45.49422485075473" lon="-122.44235258160965"><ele>88.5</ele></trkpt>
    <trkpt lat="45.494170000000004" lon="-122.44244"><ele>88.4</ele></trkpt>
    <trkpt lat="45.493950000000005" lon="-122.44275"><ele>88.4</ele></trkpt>
    <trkpt lat="45.49387477776696" lon="-122.44283907896019"><ele>88.4</ele></trkpt>
    <trkpt lat="45.49360214079796" lon="-122.44316193852875"><ele>88.4</ele></trkpt>
    <trkpt lat="45.493570000000005" lon="-122.4432"><ele>88.3</ele></trkpt>
    <trkpt lat="45.493141992071145" lon="-122.44366144604831"><ele>88.3</ele></trkpt>
    <trkpt lat="45.492964777042914" lon="-122.44385250600062"><ele>88.2</ele></trkpt>
    <trkpt lat="45.49293" lon="-122.44389000000001"><ele>88.2</ele></trkpt>
    <trkpt lat="45.492509955797175" lon="-122.44436605009656"><ele>88.0</ele></trkpt>
    <trkpt lat="45.49222900070727" lon="-122.44468446586511"><ele>88.0</ele></trkpt>
    <trkpt lat="45.49203000000001" lon="-122.44491000000001"><ele>88.0</ele></trkpt>
    <trkpt lat="45.49201979331387" lon="-122.4449233311819"><ele>88.0</ele></trkpt>
    <trkpt lat="45.491869889992415" lon="-122.44511912327522"><ele>88.0</ele></trkpt>
    <trkpt lat="45.491805550956215" lon="-122.44520315793474"><ele>87.9</ele></trkpt>
    <trkpt lat="45.491741211920015" lon="-122.44528719259428"><ele>87.8</ele></trkpt>
    <trkpt lat="45.4916443717212" lon="-122.4454136777519"><ele>87.7</ele></trkpt>
    <trkpt lat="45.49158069597404" lon="-122.44549684607475"><ele>87.7</ele></trkpt>
    <trkpt lat="45.49154" lon="-122.44555000000001"><ele>87.8</ele></trkpt>
    <trkpt lat="45.49148942363533" lon="-122.4456311574224"><ele>87.8</ele></trkpt>
    <trkpt lat="45.49143146514413" lon="-122.4457241605827"><ele>87.9</ele></trkpt>
    <trkpt lat="45.49137410416315" lon="-122.4458162049475"><ele>88.0</ele></trkpt>
    <trkpt lat="45.4912886602019" lon="-122.44595331269929"><ele>88.1</ele></trkpt>
    <trkpt lat="45.49116437807644" lon="-122.44615274215641"><ele>88.0</ele></trkpt>
    <trkpt lat="45.491110000000006" lon="-122.44624"><ele>87.8</ele></trkpt>
    <trkpt lat="45.490995423149066" lon="-122.44644438032871"><ele>87.6</ele></trkpt>
    <trkpt lat="45.49091229559817" lon="-122.44659266190598"><ele>87.5</ele></trkpt>
    <trkpt lat="45.490856690006694" lon="-122.44669185025835"><ele>87.4</ele></trkpt>
    <trkpt lat="45.49074" lon="-122.44690000000001"><ele>87.4</ele></trkpt>
    <trkpt lat="45.49069828874284" lon="-122.44699479831175"><ele>87.3</ele></trkpt>
    <trkpt lat="45.49055725203792" lon="-122.44731533627747"><ele>87.2</ele></trkpt>
    <trkpt lat="45.490439641768724" lon="-122.44758263234382"><ele>87.0</ele></trkpt>
    <trkpt lat="45.49032203149953" lon="-122.44784992841016"><ele>87.0</ele></trkpt>
    <trkpt lat="45.490300000000005" lon="-122.4479"><ele>87.0</ele></trkpt>
    <trkpt lat="45.490075253107946" lon="-122.44851975658115"><ele>87.1</ele></trkpt>
    <trkpt lat="45.48997000000001" lon="-122.44881000000001"><ele>87.1</ele></trkpt>
    <trkpt lat="45.489955682008805" lon="-122.44885884961704"><ele>87.0</ele></trkpt>
    <trkpt lat="45.489870342949246" lon="-122.44915000640849"><ele>87.1</ele></trkpt>
    <trkpt lat="45.489802349226984" lon="-122.44938198499028"><ele>87.1</ele></trkpt>
    <trkpt lat="45.4898" lon="-122.44939000000001"><ele>87.1</ele></trkpt>
    <trkpt lat="45.48972845425738" lon="-122.44968214511573"><ele>87.1</ele></trkpt>
    <trkpt lat="45.489698795295396" lon="-122.44980325254383"><ele>87.1</ele></trkpt>
    <trkpt lat="45.48968000000001" lon="-122.44988000000001"><ele>87.1</ele></trkpt>
    <trkpt lat="45.48952714350211" lon="-122.45067902260263"><ele>86.8</ele></trkpt>
    <trkpt lat="45.48946" lon="-122.45103"><ele>86.4</ele></trkpt>
    <trkpt lat="45.48937" lon="-122.45170000000002"><ele>86.2</ele></trkpt>
    <trkpt lat="45.48928" lon="-122.45305"><ele>85.9</ele></trkpt>
    <trkpt lat="45.488778386145334" lon="-122.46416773658225"><ele>83.2</ele></trkpt>
    <trkpt lat="45.488768278223" lon="-122.46439176791003"><ele>82.9</ele></trkpt>
    <trkpt lat="45.48875967204913" lon="-122.4645825145834"><ele>83.0</ele></trkpt>
    <trkpt lat="45.488751065875256" lon="-122.46477326125677"><ele>83.1</ele></trkpt>
    <trkpt lat="45.48873962948313" lon="-122.4650267367019"><ele>83.3</ele></trkpt>
    <trkpt lat="45.48873079227103" lon="-122.46522260409134"><ele>83.3</ele></trkpt>
    <trkpt lat="45.48872559391097" lon="-122.46533782020275"><ele>83.3</ele></trkpt>
    <trkpt lat="45.488723572326506" lon="-122.46538262646831"><ele>83.2</ele></trkpt>
    <trkpt lat="45.48871207817483" lon="-122.46563738209247"><ele>82.9</ele></trkpt>
    <trkpt lat="45.488706359978764" lon="-122.46576411981505"><ele>82.8</ele></trkpt>
    <trkpt lat="45.48870058402314" lon="-122.46589213771662"><ele>82.7</ele></trkpt>
    <trkpt lat="45.488689089871464" lon="-122.46614689334079"><ele>82.7</ele></trkpt>
    <trkpt lat="45.488680425938036" lon="-122.46633892019317"><ele>82.6</ele></trkpt>
    <trkpt lat="45.488670000000006" lon="-122.46657"><ele>82.6</ele></trkpt>
    <trkpt lat="45.48866548303568" lon="-122.46665762910791"><ele>82.6</ele></trkpt>
    <trkpt lat="45.48865565697424" lon="-122.46684825469984"><ele>82.6</ele></trkpt>
    <trkpt lat="45.488621232785846" lon="-122.46751608395475"><ele>82.3</ele></trkpt>
    <trkpt lat="45.488620000000004" lon="-122.46754000000001"><ele>82.3</ele></trkpt>
    <trkpt lat="45.48858556466242" lon="-122.46782872706132"><ele>82.2</ele></trkpt>
    <trkpt lat="45.488533377644714" lon="-122.46826629513282"><ele>82.1</ele></trkpt>
    <trkpt lat="45.488490000000006" lon="-122.46863"><ele>82.0</ele></trkpt>
    <trkpt lat="45.488488317887104" lon="-122.46864051320564"><ele>82.0</ele></trkpt>
    <trkpt lat="45.48843889197523" lon="-122.46894942515486"><ele>81.9</ele></trkpt>
    <trkpt lat="45.48838946606335" lon="-122.46925833710411"><ele>81.8</ele></trkpt>
    <trkpt lat="45.488294816442625" lon="-122.4698498972336"><ele>81.7</ele></trkpt>
    <trkpt lat="45.488290000000006" lon="-122.46988"><ele>81.7</ele></trkpt>
    <trkpt lat="45.48825498093161" lon="-122.47008295141913"><ele>81.6</ele></trkpt>
    <trkpt lat="45.488159550826424" lon="-122.47063601225602"><ele>81.5</ele></trkpt>
    <trkpt lat="45.488095715823626" lon="-122.47100596511312"><ele>81.4</ele></trkpt>
    <trkpt lat="45.48801081741924" lon="-122.47149798995673"><ele>81.3</ele></trkpt>
    <trkpt lat="45.487968260750705" lon="-122.47174462519482"><ele>81.3</ele></trkpt>
    <trkpt lat="45.48790464068058" lon="-122.4721133324194"><ele>81.4</ele></trkpt>
    <trkpt lat="45.48785" lon="-122.47243000000002"><ele>81.3</ele></trkpt>
    <trkpt lat="45.48782989265192" lon="-122.47253357181184"><ele>81.3</ele></trkpt>
    <trkpt lat="45.48777157061147" lon="-122.47283398534094"><ele>81.1</ele></trkpt>
    <trkpt lat="45.487320000000004" lon="-122.47516000000002"><ele>80.9</ele></trkpt>
    <trkpt lat="45.48632155104422" lon="-122.48058513873178"><ele>80.4</ele></trkpt>
    <trkpt lat="45.48627862194739" lon="-122.48081839683132"><ele>80.5</ele></trkpt>
    <trkpt lat="45.48620007083406" lon="-122.48124520952406"><ele>80.1</ele></trkpt>
    <trkpt lat="45.48614412600043" lon="-122.48154918949419"><ele>80.0</ele></trkpt>
    <trkpt lat="45.486110330753995" lon="-122.48173281821084"><ele>79.9</ele></trkpt>
    <trkpt lat="45.48608795282054" lon="-122.48185441019889"><ele>79.9</ele></trkpt>
    <trkpt lat="45.486032007986914" lon="-122.48215839016902"><ele>79.9</ele></trkpt>
    <trkpt lat="45.48599821274048" lon="-122.48234201888567"><ele>80.0</ele></trkpt>
    <trkpt lat="45.48596464584031" lon="-122.48252440686774"><ele>80.1</ele></trkpt>
    <trkpt lat="45.48595345687358" lon="-122.48258520286176"><ele>80.2</ele></trkpt>
    <trkpt lat="45.485931078940126" lon="-122.48270679484982"><ele>80.4</ele></trkpt>
    <trkpt lat="45.48590938604546" lon="-122.48282466463415"><ele>80.4</ele></trkpt>
    <trkpt lat="45.485890000000005" lon="-122.48293000000001"><ele>80.3</ele></trkpt>
    <trkpt lat="45.48588479555067" lon="-122.4829573627867"><ele>80.3</ele></trkpt>
    <trkpt lat="45.485849475097304" lon="-122.48314306274601"><ele>80.0</ele></trkpt>
    <trkpt lat="45.4858259281284" lon="-122.48326686271889"><ele>79.9</ele></trkpt>
    <trkpt lat="45.48579060767505" lon="-122.4834525626782"><ele>79.7</ele></trkpt>
    <trkpt lat="45.48575528722169" lon="-122.48363826263751"><ele>79.7</ele></trkpt>
    <trkpt lat="45.48573174025279" lon="-122.48376206261038"><ele>79.6</ele></trkpt>
    <trkpt lat="45.48567287283053" lon="-122.48407156254255"><ele>79.7</ele></trkpt>
    <trkpt lat="45.485625778892725" lon="-122.48431916248829"><ele>79.7</ele></trkpt>
    <trkpt lat="45.485578684954916" lon="-122.48456676243404"><ele>79.8</ele></trkpt>
    <trkpt lat="45.485555373455696" lon="-122.48468932440719"><ele>79.8</ele></trkpt>
    <trkpt lat="45.48552005300235" lon="-122.48487502436649"><ele>79.8</ele></trkpt>
    <trkpt lat="45.485461185580085" lon="-122.48518452429869"><ele>79.7</ele></trkpt>
    <trkpt lat="45.48527304529854" lon="-122.48617368608193"><ele>79.4</ele></trkpt>
    <trkpt lat="45.48524973379933" lon="-122.48629624805508"><ele>79.4</ele></trkpt>
    <trkpt lat="45.48523" lon="-122.4864"><ele>79.4</ele></trkpt>
    <trkpt lat="45.48518417968048" lon="-122.4866029185579"><ele>79.4</ele></trkpt>
    <trkpt lat="45.48509000000001" lon="-122.48702000000002"><ele>79.3</ele></trkpt>
    <trkpt lat="45.48508755671398" lon="-122.48702883341873"><ele>79.3</ele></trkpt>
    <trkpt lat="45.48496" lon="-122.48749000000001"><ele>79.2</ele></trkpt>
    <trkpt lat="45.48491294457391" lon="-122.48763351904958"><ele>79.2</ele></trkpt>
    <trkpt lat="45.48476" lon="-122.48810000000002"><ele>79.2</ele></trkpt>
    <trkpt lat="45.484370000000006" lon="-122.48896"><ele>79.0</ele></trkpt>
    <trkpt lat="45.48398" lon="-122.48964000000001"><ele>78.8</ele></trkpt>
    <trkpt lat="45.48250745835454" lon="-122.49198139763551"><ele>78.2</ele></trkpt>
    <trkpt lat="45.4823759471477" lon="-122.49219050549314"><ele>78.4</ele></trkpt>
    <trkpt lat="45.48211352524181" lon="-122.49260776637799"><ele>78.3</ele></trkpt>
    <trkpt lat="45.48196399880115" lon="-122.49284551914761"><ele>78.1</ele></trkpt>
    <trkpt lat="45.4817556225967" lon="-122.49317684529645"><ele>78.0</ele></trkpt>
    <trkpt lat="45.48160669666384" lon="-122.49341364323567"><ele>77.9</ele></trkpt>
    <trkpt lat="45.48148719561288" lon="-122.49360365448528"><ele>77.8</ele></trkpt>
    <trkpt lat="45.481370000000005" lon="-122.49379"><ele>77.8</ele></trkpt>
    <trkpt lat="45.481307376342734" lon="-122.49388706666878"><ele>77.8</ele></trkpt>
    <trkpt lat="45.481247090525414" lon="-122.49398050968563"><ele>77.7</ele></trkpt>
    <trkpt lat="45.481065624125804" lon="-122.49426178260504"><ele>77.6</ele></trkpt>
    <trkpt lat="45.480974890925985" lon="-122.49440241906474"><ele>77.5</ele></trkpt>
    <trkpt lat="45.480970000000006" lon="-122.49441000000002"><ele>77.5</ele></trkpt>
    <trkpt lat="45.480767381626684" lon="-122.49473654999973"><ele>77.5</ele></trkpt>
    <trkpt lat="45.48059037197951" lon="-122.49502182768353"><ele>77.4</ele></trkpt>
    <trkpt lat="45.48035316713245" lon="-122.49540411899045"><ele>77.4</ele></trkpt>
    <trkpt lat="45.48014635788137" lon="-122.49573742322035"><ele>77.5</ele></trkpt>
    <trkpt lat="45.479940000000006" lon="-122.49607"><ele>77.5</ele></trkpt>
    <trkpt lat="45.47993903603539" lon="-122.49607178616974"><ele>77.5</ele></trkpt>
    <trkpt lat="45.47985730422545" lon="-122.4962232304058"><ele>77.6</ele></trkpt>
    <trkpt lat="45.47977612095114" lon="-122.49637365823762"><ele>77.7</ele></trkpt>
    <trkpt lat="45.479725107136886" lon="-122.49646818383461"><ele>77.7</ele></trkpt>
    <trkpt lat="45.47967080210881" lon="-122.49656880785723"><ele>77.5</ele></trkpt>
    <trkpt lat="45.47964392386258" lon="-122.4966186116664"><ele>77.4</ele></trkpt>
    <trkpt lat="45.47961704561636" lon="-122.4966684154756"><ele>77.4</ele></trkpt>
    <trkpt lat="45.479600000000005" lon="-122.4967"><ele>77.4</ele></trkpt>
    <trkpt lat="45.47956677081853" lon="-122.49677310419925"><ele>77.4</ele></trkpt>
    <trkpt lat="45.4793495649935" lon="-122.4972509570143"><ele>77.4</ele></trkpt>
    <trkpt lat="45.4792531921387" lon="-122.49746297729486"><ele>77.4</ele></trkpt>
    <trkpt lat="45.479180790197034" lon="-122.49762226156655"><ele>77.4</ele></trkpt>
    <trkpt lat="45.479150000000004" lon="-122.49769"><ele>77.4</ele></trkpt>
    <trkpt lat="45.47897610649172" lon="-122.49818269827347"><ele>77.4</ele></trkpt>
    <trkpt lat="45.47885" lon="-122.49854"><ele>77.3</ele></trkpt>
    <trkpt lat="45.4788401550417" lon="-122.498581452456"><ele>77.3</ele></trkpt>
    <trkpt lat="45.478797454827394" lon="-122.49876124283202"><ele>77.3</ele></trkpt>
    <trkpt lat="45.478755043128054" lon="-122.49893981840822"><ele>77.4</ele></trkpt>
    <trkpt lat="45.47867079675929" lon="-122.49929453996093"><ele>77.2</ele></trkpt>
    <trkpt lat="45.478660000000005" lon="-122.49934"><ele>77.2</ele></trkpt>
    <trkpt lat="45.47863640505328" lon="-122.49947513469492"><ele>77.2</ele></trkpt>
    <trkpt lat="45.47856230289071" lon="-122.49989953798963"><ele>77.1</ele></trkpt>
    <trkpt lat="45.478550000000006" lon="-122.49997"><ele>77.1</ele></trkpt>
    <trkpt lat="45.478531890329776" lon="-122.50014430557594"><ele>77.1</ele></trkpt>
    <trkpt lat="45.47851633594345" lon="-122.50029401654425"><ele>77.1</ele></trkpt>
    <trkpt lat="45.47847" lon="-122.50074000000001"><ele>76.8</ele></trkpt>
    <trkpt lat="45.47845" lon="-122.50180000000002"><ele>76.7</ele></trkpt>
    <trkpt lat="45.47852" lon="-122.50271000000001"><ele>76.7</ele></trkpt>
    <trkpt lat="45.48088408824192" lon="-122.52118884704448"><ele>75.5</ele></trkpt>
    <trkpt lat="45.481190000000005" lon="-122.52358000000001"><ele>73.5</ele></trkpt>
    <trkpt lat="45.48135936885822" lon="-122.52497913404613"><ele>72.3</ele></trkpt>
    <trkpt lat="45.48142286599766" lon="-122.52550367563276"><ele>72.6</ele></trkpt>
    <trkpt lat="45.481453314023554" lon="-122.52575520280321"><ele>72.4</ele></trkpt>
    <trkpt lat="45.481506712822735" lon="-122.52619632331826"><ele>72.0</ele></trkpt>
    <trkpt lat="45.48155246136416" lon="-122.52657424605175"><ele>71.7</ele></trkpt>
    <trkpt lat="45.48156760887453" lon="-122.52669937765916"><ele>71.5</ele></trkpt>
    <trkpt lat="45.481582909390056" lon="-122.5268257732222"><ele>71.4</ele></trkpt>
    <trkpt lat="45.48165" lon="-122.52738000000001"><ele>71.0</ele></trkpt>
    <trkpt lat="45.48165077788153" lon="-122.52738957392648"><ele>71.0</ele></trkpt>
    <trkpt lat="45.48170740524702" lon="-122.52808652611719"><ele>70.3</ele></trkpt>
    <trkpt lat="45.481743327908504" lon="-122.5285286511815"><ele>69.9</ele></trkpt>
    <trkpt lat="45.481763929089" lon="-122.52878220417227"><ele>69.7</ele></trkpt>
    <trkpt lat="45.48178" lon="-122.52898"><ele>69.6</ele></trkpt>
    <trkpt lat="45.48177816157856" lon="-122.5290347849589"><ele>69.6</ele></trkpt>
    <trkpt lat="45.481773862261186" lon="-122.52916290461658"><ele>69.6</ele></trkpt>
    <trkpt lat="45.48177175559568" lon="-122.52922568324887"><ele>69.6</ele></trkpt>
    <trkpt lat="45.481767456278305" lon="-122.52935380290656"><ele>69.6</ele></trkpt>
    <trkpt lat="45.4817610932886" lon="-122.52954341999995"><ele>69.9</ele></trkpt>
    <trkpt lat="45.48175567614871" lon="-122.52970485076865"><ele>69.8</ele></trkpt>
    <trkpt lat="45.481746561595884" lon="-122.52997646444297"><ele>69.6</ele></trkpt>
    <trkpt lat="45.481740155613" lon="-122.53016736273294"><ele>69.3</ele></trkpt>
    <trkpt lat="45.48173374963011" lon="-122.53035826102291"><ele>69.0</ele></trkpt>
    <trkpt lat="45.481730000000006" lon="-122.53047000000001"><ele>68.9</ele></trkpt>
    <trkpt lat="45.48170932120941" lon="-122.5306754093199"><ele>68.7</ele></trkpt>
    <trkpt lat="45.48167762280932" lon="-122.5309902800941"><ele>68.4</ele></trkpt>
    <trkpt lat="45.48162662417369" lon="-122.53149686654135"><ele>68.0</ele></trkpt>
    <trkpt lat="45.48158" lon="-122.53196000000001"><ele>67.6</ele></trkpt>
    <trkpt lat="45.48157126679252" lon="-122.53200075496824"><ele>67.6</ele></trkpt>
    <trkpt lat="45.48152" lon="-122.53224000000002"><ele>67.5</ele></trkpt>
    <trkpt lat="45.481401350847115" lon="-122.5327944566183"><ele>67.2</ele></trkpt>
    <trkpt lat="45.48132311955563" lon="-122.5331600374612"><ele>66.9</ele></trkpt>
    <trkpt lat="45.481194221689464" lon="-122.53376238710504"><ele>66.4</ele></trkpt>
    <trkpt lat="45.4810910508923" lon="-122.53424451217639"><ele>66.0</ele></trkpt>
    <trkpt lat="45.481065323823294" lon="-122.5343647367489"><ele>66.0</ele></trkpt>
    <trkpt lat="45.48103959675428" lon="-122.53448496132138"><ele>66.0</ele></trkpt>
    <trkpt lat="45.48101386968527" lon="-122.53460518589388"><ele>66.0</ele></trkpt>
    <trkpt lat="45.480988142616255" lon="-122.53472541046638"><ele>66.1</ele></trkpt>
    <trkpt lat="45.48097921689843" lon="-122.53476712103235"><ele>66.1</ele></trkpt>
    <trkpt lat="45.4809529647872" lon="-122.53488979916756"><ele>65.9</ele></trkpt>
    <trkpt lat="45.48093826360491" lon="-122.53495849892326"><ele>65.8</ele></trkpt>
    <trkpt lat="45.480910173845885" lon="-122.53508976452792"><ele>65.8</ele></trkpt>
    <trkpt lat="45.480894947621366" lon="-122.53516091784635"><ele>65.8</ele></trkpt>
    <trkpt lat="45.480875258537935" lon="-122.53525292644775"><ele>65.9</ele></trkpt>
    <trkpt lat="45.480859244750086" lon="-122.53532776011022"><ele>65.8</ele></trkpt>
    <trkpt lat="45.480807003048724" lon="-122.53557188959925"><ele>65.3</ele></trkpt>
    <trkpt lat="45.48078075093749" lon="-122.53569456773445"><ele>65.1</ele></trkpt>
    <trkpt lat="45.48075449882625" lon="-122.53581724586967"><ele>64.9</ele></trkpt>
    <trkpt lat="45.48072850923613" lon="-122.53593869722351"><ele>64.8</ele></trkpt>
    <trkpt lat="45.480676267534776" lon="-122.53618282671256"><ele>64.5</ele></trkpt>
    <trkpt lat="45.480636889367915" lon="-122.53636684391536"><ele>64.4</ele></trkpt>
    <trkpt lat="45.48048000000001" lon="-122.53710000000001"><ele>64.0</ele></trkpt>
    <trkpt lat="45.4804" lon="-122.53741000000001"><ele>63.8</ele></trkpt>
    <trkpt lat="45.480393923285035" lon="-122.53746165207725"><ele>63.8</ele></trkpt>
    <trkpt lat="45.480380000000004" lon="-122.53758"><ele>63.7</ele></trkpt>
    <trkpt lat="45.480378316109714" lon="-122.53758790397485"><ele>63.7</ele></trkpt>
    <trkpt lat="45.480352432506436" lon="-122.53770939843919"><ele>63.7</ele></trkpt>
    <trkpt lat="45.480222230138466" lon="-122.53832055241134"><ele>63.7</ele></trkpt>
    <trkpt lat="45.48016994003085" lon="-122.53856599577362"><ele>63.6</ele></trkpt>
    <trkpt lat="45.480078955243584" lon="-122.538993067224"><ele>63.6</ele></trkpt>
    <trkpt lat="45.4800007815327" lon="-122.53936000505065"><ele>63.5</ele></trkpt>
    <trkpt lat="45.47993568034871" lon="-122.5396655820367"><ele>63.5</ele></trkpt>
    <trkpt lat="45.47985750663781" lon="-122.54003251986333"><ele>63.5</ele></trkpt>
    <trkpt lat="45.47974037679675" lon="-122.54058231299487"><ele>63.5</ele></trkpt>
    <trkpt lat="45.47962324695568" lon="-122.54113210612643"><ele>63.4</ele></trkpt>
    <trkpt lat="45.479518928190984" lon="-122.5416217656342"><ele>63.3</ele></trkpt>
    <trkpt lat="45.4794799720608" lon="-122.54180462093913"><ele>63.3</ele></trkpt>
    <trkpt lat="45.479441015930625" lon="-122.54198747624403"><ele>63.4</ele></trkpt>
    <trkpt lat="45.479310813562655" lon="-122.54259863021616"><ele>63.7</ele></trkpt>
    <trkpt lat="45.479284668508846" lon="-122.5427213518973"><ele>63.7</ele></trkpt>
    <trkpt lat="45.47925852345504" lon="-122.54284407357845"><ele>63.7</ele></trkpt>
    <trkpt lat="45.47918061119468" lon="-122.54320978418826"><ele>63.7</ele></trkpt>
    <trkpt lat="45.47910243748379" lon="-122.5435767220149"><ele>63.7</ele></trkpt>
    <trkpt lat="45.47906321990307" lon="-122.54376080453663"><ele>63.7</ele></trkpt>
    <trkpt lat="45.478985307642716" lon="-122.54412651514646"><ele>63.6</ele></trkpt>
    <trkpt lat="45.47895916258891" lon="-122.54424923682761"><ele>63.6</ele></trkpt>
    <trkpt lat="45.478910000000006" lon="-122.54448000000001"><ele>63.6</ele></trkpt>
    <trkpt lat="45.478806226359794" lon="-122.54498455459552"><ele>63.6</ele></trkpt>
    <trkpt lat="45.47873079368283" lon="-122.54535131347316"><ele>63.7</ele></trkpt>
    <trkpt lat="45.4786677643655" lon="-122.54565776636085"><ele>63.7</ele></trkpt>
    <trkpt lat="45.47864245138666" lon="-122.54578083980974"><ele>63.8</ele></trkpt>
    <trkpt lat="45.47861713840781" lon="-122.54590391325861"><ele>63.8</ele></trkpt>
    <trkpt lat="45.478592078558755" lon="-122.546025755973"><ele>63.9</ele></trkpt>
    <trkpt lat="45.47855410909048" lon="-122.5462103661463"><ele>64.1</ele></trkpt>
    <trkpt lat="45.47852904924143" lon="-122.5463322088607"><ele>64.3</ele></trkpt>
    <trkpt lat="45.47852044282862" lon="-122.54637405383332"><ele>64.4</ele></trkpt>
    <trkpt lat="45.478482979619926" lon="-122.54655620253766"><ele>64.4</ele></trkpt>
    <trkpt lat="45.47845791977086" lon="-122.54667804525204"><ele>64.2</ele></trkpt>
    <trkpt lat="45.47843260679202" lon="-122.54680111870091"><ele>64.1</ele></trkpt>
    <trkpt lat="45.47840754694296" lon="-122.5469229614153"><ele>64.0</ele></trkpt>
    <trkpt lat="45.47833186113621" lon="-122.54729095102743"><ele>63.8</ele></trkpt>
    <trkpt lat="45.478218712120764" lon="-122.5478410893439"><ele>63.7</ele></trkpt>
    <trkpt lat="45.4781303698246" lon="-122.54827061568048"><ele>63.6</ele></trkpt>
    <trkpt lat="45.47805468401784" lon="-122.54863860529261"><ele>63.6</ele></trkpt>
  </trkseg></trk>
</gpx>
